{"type": "FeatureCollection", "features": [{"type": "Feature", "geometry": {"geodesic": false, "type": "Polygon", "coordinates": [[[119.53090968328448, 37.74900486927053], [119.53090968328448, 37.74864554315688], [119.53073002022765, 37.74864554315688], [119.53073002022765, 37.74846588010006], [119.53055035717082, 37.74846588010006], [119.53055035717082, 37.74828621704324], [119.530370694114, 37.74828621704324], [119.530370694114, 37.74810655398641], [119.53001136800036, 37.74810655398641], [119.53001136800036, 37.74756756481594], [119.530370694114, 37.74756756481594], [119.530370694114, 37.74738790175912], [119.53055035717082, 37.74738790175912], [119.53055035717082, 37.74756756481594], [119.53073002022765, 37.74756756481594], [119.53073002022765, 37.74738790175912], [119.53162833551177, 37.74738790175912], [119.53162833551177, 37.74720823870229], [119.53216732468223, 37.74720823870229], [119.53216732468223, 37.74792689092959], [119.53234698773906, 37.74792689092959], [119.53234698773906, 37.74846588010006], [119.53216732468223, 37.74846588010006], [119.53216732468223, 37.74864554315688], [119.53162833551177, 37.74864554315688], [119.53162833551177, 37.74882520621371], [119.53144867245494, 37.74882520621371], [119.53144867245494, 37.74900486927053], [119.53090968328448, 37.74900486927053]]]}, "properties": {"name": "cand01", "ptype": "hall", "confidence": "low", "rank": 1, "area_ha": 3.4, "rise_db": 18.8, "digitised_from": "Sentinel-1 VV rise 2022->2026, orbit 171"}}]}