{"type": "FeatureCollection", "features": [{"type": "Feature", "geometry": {"geodesic": false, "type": "Polygon", "coordinates": [[[118.20409800863995, 24.570899314293975], [118.20409800863995, 24.57071965123715], [118.20373868252629, 24.57071965123715], [118.20373868252629, 24.57053998818033], [118.20355901946947, 24.57053998818033], [118.20355901946947, 24.570360325123502], [118.20337935641264, 24.570360325123502], [118.20337935641264, 24.57018066206668], [118.20319969335581, 24.57018066206668], [118.20319969335581, 24.570000999009856], [118.20284036724217, 24.570000999009856], [118.20284036724217, 24.569821335953034], [118.20266070418535, 24.569821335953034], [118.20266070418535, 24.569641672896207], [118.20248104112852, 24.569641672896207], [118.20248104112852, 24.56928234678256], [118.20266070418535, 24.56928234678256], [118.20266070418535, 24.56874335761209], [118.20284036724217, 24.56874335761209], [118.20284036724217, 24.568563694555266], [118.20355901946947, 24.568563694555266], [118.20355901946947, 24.56838403149844], [118.20373868252629, 24.56838403149844], [118.20373868252629, 24.568024705384794], [118.20391834558312, 24.568024705384794], [118.20391834558312, 24.56784504232797], [118.20409800863995, 24.56784504232797], [118.20409800863995, 24.567665379271144], [118.20463699781041, 24.567665379271144], [118.20463699781041, 24.56784504232797], [118.20517598698088, 24.56784504232797], [118.20517598698088, 24.568024705384794], [118.20571497615136, 24.568024705384794], [118.20571497615136, 24.568204368441616], [118.20589463920818, 24.568204368441616], [118.20589463920818, 24.56892302066891], [118.20571497615136, 24.56892302066891], [118.20571497615136, 24.569102683725735], [118.20553531309453, 24.569102683725735], [118.20553531309453, 24.569462009839384], [118.2053556500377, 24.569462009839384], [118.2053556500377, 24.569641672896207], [118.20517598698088, 24.569641672896207], [118.20517598698088, 24.569821335953034], [118.20499632392406, 24.569821335953034], [118.20499632392406, 24.570000999009856], [118.20481666086724, 24.570000999009856], [118.20481666086724, 24.570360325123502], [118.20463699781041, 24.570360325123502], [118.20463699781041, 24.57053998818033], [118.20445733475358, 24.57053998818033], [118.20445733475358, 24.570899314293975], [118.20409800863995, 24.570899314293975]]]}, "properties": {"name": "cand01", "ptype": "hall", "confidence": "low", "rank": 1, "area_ha": 8.1, "rise_db": 9.7, "digitised_from": "Sentinel-1 VV rise 2022->2026, orbit 40"}}, {"type": "Feature", "geometry": {"geodesic": false, "type": "Polygon", "coordinates": [[[118.21020655257195, 24.571258640407624], [118.21020655257195, 24.5710789773508], [118.20984722645831, 24.5710789773508], [118.20984722645831, 24.570899314293975], [118.20948790034466, 24.570899314293975], [118.20948790034466, 24.57071965123715], [118.20930823728783, 24.57071965123715], [118.20930823728783, 24.57053998818033], [118.20948790034466, 24.57053998818033], [118.20948790034466, 24.570360325123502], [118.20894891117419, 24.570360325123502], [118.20894891117419, 24.57018066206668], [118.20858958506054, 24.57018066206668], [118.20858958506054, 24.570000999009856], [118.20787093283325, 24.570000999009856], [118.20787093283325, 24.569462009839384], [118.209128574231, 24.569462009839384], [118.209128574231, 24.56928234678256], [118.20930823728783, 24.56928234678256], [118.20930823728783, 24.569462009839384], [118.20948790034466, 24.569462009839384], [118.20948790034466, 24.569821335953034], [118.21002688951513, 24.569821335953034], [118.21002688951513, 24.569462009839384], [118.21020655257195, 24.569462009839384], [118.21020655257195, 24.56928234678256], [118.21074554174243, 24.56928234678256], [118.21074554174243, 24.569102683725735], [118.21092520479925, 24.569102683725735], [118.21092520479925, 24.56892302066891], [118.21110486785606, 24.56892302066891], [118.21110486785606, 24.56874335761209], [118.21128453091289, 24.56874335761209], [118.21128453091289, 24.56892302066891], [118.21146419396972, 24.56892302066891], [118.21146419396972, 24.569102683725735], [118.21128453091289, 24.569102683725735], [118.21128453091289, 24.56928234678256], [118.21092520479925, 24.56928234678256], [118.21092520479925, 24.569641672896207], [118.21164385702654, 24.569641672896207], [118.21164385702654, 24.569821335953034], [118.21182352008337, 24.569821335953034], [118.21182352008337, 24.570000999009856], [118.2120031831402, 24.570000999009856], [118.2120031831402, 24.57018066206668], [118.21218284619701, 24.57018066206668], [118.21218284619701, 24.57053998818033], [118.2120031831402, 24.57053998818033], [118.2120031831402, 24.57071965123715], [118.21182352008337, 24.57071965123715], [118.21182352008337, 24.570899314293975], [118.21110486785606, 24.570899314293975], [118.21110486785606, 24.571258640407624], [118.21020655257195, 24.571258640407624]]]}, "properties": {"name": "cand02", "ptype": "hall", "confidence": "low", "rank": 2, "area_ha": 6.3, "rise_db": 8.7, "digitised_from": "Sentinel-1 VV rise 2022->2026, orbit 40"}}, {"type": "Feature", "geometry": {"geodesic": false, "type": "Polygon", "coordinates": [[[118.20140306278758, 24.57251628180539], [118.20140306278758, 24.572336618748565], [118.20104373667394, 24.572336618748565], [118.20104373667394, 24.572156955691742], [118.20086407361711, 24.572156955691742], [118.20086407361711, 24.571797629578096], [118.20068441056029, 24.571797629578096], [118.20068441056029, 24.57053998818033], [118.20122339973075, 24.57053998818033], [118.20122339973075, 24.570360325123502], [118.20140306278758, 24.570360325123502], [118.20140306278758, 24.57018066206668], [118.2015827258444, 24.57018066206668], [118.2015827258444, 24.570360325123502], [118.20248104112852, 24.570360325123502], [118.20248104112852, 24.57053998818033], [118.20266070418535, 24.57053998818033], [118.20266070418535, 24.57071965123715], [118.20284036724217, 24.57071965123715], [118.20284036724217, 24.570899314293975], [118.203020030299, 24.570899314293975], [118.203020030299, 24.5710789773508], [118.20337935641264, 24.5710789773508], [118.20337935641264, 24.57161796652127], [118.20319969335581, 24.57161796652127], [118.20319969335581, 24.571797629578096], [118.20284036724217, 24.571797629578096], [118.20284036724217, 24.57197729263492], [118.2023013780717, 24.57197729263492], [118.2023013780717, 24.572156955691742], [118.20212171501488, 24.572156955691742], [118.20212171501488, 24.57251628180539], [118.20140306278758, 24.57251628180539]], [[118.20284036724217, 24.57161796652127], [118.20266070418535, 24.57161796652127], [118.20266070418535, 24.571438303464447], [118.20284036724217, 24.571438303464447], [118.20284036724217, 24.57161796652127]]]}, "properties": {"name": "cand03", "ptype": "hall", "confidence": "low", "rank": 3, "area_ha": 5.2, "rise_db": 7.7, "digitised_from": "Sentinel-1 VV rise 2022->2026, orbit 40"}}, {"type": "Feature", "geometry": {"geodesic": false, "type": "Polygon", "coordinates": [[[118.21559644427667, 24.56425178119149], [118.21559644427667, 24.564072118134668], [118.21541678121984, 24.564072118134668], [118.21541678121984, 24.563892455077845], [118.21505745510619, 24.563892455077845], [118.21505745510619, 24.563533128964195], [118.21487779204938, 24.563533128964195], [118.21487779204938, 24.563353465907372], [118.21469812899255, 24.563353465907372], [118.21469812899255, 24.562994139793723], [118.21487779204938, 24.562994139793723], [118.21487779204938, 24.562275487566428], [118.21469812899255, 24.562275487566428], [118.21469812899255, 24.562095824509605], [118.21487779204938, 24.562095824509605], [118.21487779204938, 24.561736498395955], [118.21505745510619, 24.561736498395955], [118.21505745510619, 24.561556835339132], [118.21559644427667, 24.561556835339132], [118.21559644427667, 24.56137717228231], [118.21595577039032, 24.56137717228231], [118.21595577039032, 24.561197509225483], [118.21631509650396, 24.561197509225483], [118.21631509650396, 24.56137717228231], [118.21649475956079, 24.56137717228231], [118.21649475956079, 24.561916161452782], [118.21631509650396, 24.561916161452782], [118.21631509650396, 24.562994139793723], [118.21649475956079, 24.562994139793723], [118.21649475956079, 24.563173802850546], [118.21667442261761, 24.563173802850546], [118.21667442261761, 24.563892455077845], [118.21649475956079, 24.563892455077845], [118.21649475956079, 24.56371279202102], [118.21631509650396, 24.56371279202102], [118.21631509650396, 24.563892455077845], [118.21613543344714, 24.563892455077845], [118.21613543344714, 24.564072118134668], [118.21595577039032, 24.564072118134668], [118.21595577039032, 24.56425178119149], [118.21559644427667, 24.56425178119149]]]}, "properties": {"name": "cand04", "ptype": "hall", "confidence": "low", "rank": 4, "area_ha": 5.1, "rise_db": 7.9, "digitised_from": "Sentinel-1 VV rise 2022->2026, orbit 40"}}, {"type": "Feature", "geometry": {"geodesic": false, "type": "Polygon", "coordinates": [[[118.20499632392406, 24.55634660669124], [118.20499632392406, 24.556166943634416], [118.20463699781041, 24.556166943634416], [118.20463699781041, 24.555987280577593], [118.20445733475358, 24.555987280577593], [118.20445733475358, 24.555807617520767], [118.20427767169676, 24.555807617520767], [118.20427767169676, 24.555627954463944], [118.20409800863995, 24.555627954463944], [118.20409800863995, 24.55544829140712], [118.20391834558312, 24.55544829140712], [118.20391834558312, 24.555268628350294], [118.20373868252629, 24.555268628350294], [118.20373868252629, 24.55508896529347], [118.20355901946947, 24.55508896529347], [118.20355901946947, 24.55490930223665], [118.20337935641264, 24.55490930223665], [118.20337935641264, 24.554729639179826], [118.20355901946947, 24.554729639179826], [118.20355901946947, 24.554549976123], [118.20373868252629, 24.554549976123], [118.20373868252629, 24.554370313066176], [118.20391834558312, 24.554370313066176], [118.20391834558312, 24.554190650009353], [118.20409800863995, 24.554190650009353], [118.20409800863995, 24.55401098695253], [118.20427767169676, 24.55401098695253], [118.20427767169676, 24.554190650009353], [118.20445733475358, 24.554190650009353], [118.20445733475358, 24.554370313066176], [118.20463699781041, 24.554370313066176], [118.20463699781041, 24.554190650009353], [118.20481666086724, 24.554190650009353], [118.20481666086724, 24.55401098695253], [118.20499632392406, 24.55401098695253], [118.20499632392406, 24.553831323895704], [118.20517598698088, 24.553831323895704], [118.20517598698088, 24.55401098695253], [118.2053556500377, 24.55401098695253], [118.2053556500377, 24.554370313066176], [118.20517598698088, 24.554370313066176], [118.20517598698088, 24.554549976123], [118.2053556500377, 24.554549976123], [118.2053556500377, 24.554729639179826], [118.20553531309453, 24.554729639179826], [118.20553531309453, 24.55490930223665], [118.20571497615136, 24.55490930223665], [118.20571497615136, 24.555268628350294], [118.20589463920818, 24.555268628350294], [118.20589463920818, 24.55544829140712], [118.20607430226501, 24.55544829140712], [118.20607430226501, 24.555807617520767], [118.20589463920818, 24.555807617520767], [118.20589463920818, 24.555987280577593], [118.20571497615136, 24.555987280577593], [118.20571497615136, 24.556166943634416], [118.20553531309453, 24.556166943634416], [118.20553531309453, 24.55634660669124], [118.20499632392406, 24.55634660669124]]]}, "properties": {"name": "cand05", "ptype": "hall", "confidence": "low", "rank": 5, "area_ha": 4.6, "rise_db": 9.4, "digitised_from": "Sentinel-1 VV rise 2022->2026, orbit 40"}}, {"type": "Feature", "geometry": {"geodesic": false, "type": "Polygon", "coordinates": [[[118.20625396532182, 24.560658520055014], [118.20625396532182, 24.560478856998188], [118.20607430226501, 24.560478856998188], [118.20607430226501, 24.560299193941365], [118.20571497615136, 24.560299193941365], [118.20571497615136, 24.560119530884542], [118.20553531309453, 24.560119530884542], [118.20553531309453, 24.55993986782772], [118.2053556500377, 24.55993986782772], [118.2053556500377, 24.559760204770892], [118.20499632392406, 24.559760204770892], [118.20499632392406, 24.560478856998188], [118.20517598698088, 24.560478856998188], [118.20517598698088, 24.560658520055014], [118.20499632392406, 24.560658520055014], [118.20499632392406, 24.560478856998188], [118.20463699781041, 24.560478856998188], [118.20463699781041, 24.560299193941365], [118.20445733475358, 24.560299193941365], [118.20445733475358, 24.560119530884542], [118.20427767169676, 24.560119530884542], [118.20427767169676, 24.55993986782772], [118.20445733475358, 24.55993986782772], [118.20445733475358, 24.559760204770892], [118.20409800863995, 24.559760204770892], [118.20409800863995, 24.55993986782772], [118.20391834558312, 24.55993986782772], [118.20391834558312, 24.559760204770892], [118.20373868252629, 24.559760204770892], [118.20373868252629, 24.559400878657247], [118.20391834558312, 24.559400878657247], [118.20391834558312, 24.55922121560042], [118.20427767169676, 24.55922121560042], [118.20427767169676, 24.559041552543597], [118.20445733475358, 24.559041552543597], [118.20445733475358, 24.558861889486774], [118.20517598698088, 24.558861889486774], [118.20517598698088, 24.559041552543597], [118.2053556500377, 24.559041552543597], [118.2053556500377, 24.55922121560042], [118.20553531309453, 24.55922121560042], [118.20553531309453, 24.559400878657247], [118.20571497615136, 24.559400878657247], [118.20571497615136, 24.55958054171407], [118.20589463920818, 24.55958054171407], [118.20589463920818, 24.559760204770892], [118.20607430226501, 24.559760204770892], [118.20607430226501, 24.55993986782772], [118.20625396532182, 24.55993986782772], [118.20625396532182, 24.560119530884542], [118.20661329143547, 24.560119530884542], [118.20661329143547, 24.560299193941365], [118.2067929544923, 24.560299193941365], [118.2067929544923, 24.560658520055014], [118.20625396532182, 24.560658520055014]]]}, "properties": {"name": "cand06", "ptype": "hall", "confidence": "low", "rank": 6, "area_ha": 3.0, "rise_db": 6.6, "digitised_from": "Sentinel-1 VV rise 2022->2026, orbit 40"}}, {"type": "Feature", "geometry": {"geodesic": false, "type": "Polygon", "coordinates": [[[118.2157761073335, 24.551675367213818], [118.2157761073335, 24.551495704156995], [118.21559644427667, 24.551495704156995], [118.21559644427667, 24.55131604110017], [118.21541678121984, 24.55131604110017], [118.21541678121984, 24.551136378043346], [118.21523711816302, 24.551136378043346], [118.21523711816302, 24.550956714986523], [118.21505745510619, 24.550956714986523], [118.21505745510619, 24.5507770519297], [118.21487779204938, 24.5507770519297], [118.21487779204938, 24.550956714986523], [118.21469812899255, 24.550956714986523], [118.21469812899255, 24.55131604110017], [118.2143388028789, 24.55131604110017], [118.2143388028789, 24.551136378043346], [118.21415913982207, 24.551136378043346], [118.21415913982207, 24.5507770519297], [118.2143388028789, 24.5507770519297], [118.2143388028789, 24.550597388872873], [118.21505745510619, 24.550597388872873], [118.21505745510619, 24.55041772581605], [118.21559644427667, 24.55041772581605], [118.21559644427667, 24.550597388872873], [118.21631509650396, 24.550597388872873], [118.21631509650396, 24.55041772581605], [118.21649475956079, 24.55041772581605], [118.21649475956079, 24.550238062759227], [118.21667442261761, 24.550238062759227], [118.21667442261761, 24.5500583997024], [118.2173930748449, 24.5500583997024], [118.2173930748449, 24.55041772581605], [118.21721341178808, 24.55041772581605], [118.21721341178808, 24.550597388872873], [118.21703374873125, 24.550597388872873], [118.21703374873125, 24.5507770519297], [118.21685408567444, 24.5507770519297], [118.21685408567444, 24.551136378043346], [118.21649475956079, 24.551136378043346], [118.21649475956079, 24.55131604110017], [118.21631509650396, 24.55131604110017], [118.21631509650396, 24.551495704156995], [118.21613543344714, 24.551495704156995], [118.21613543344714, 24.551675367213818], [118.2157761073335, 24.551675367213818]]]}, "properties": {"name": "cand07", "ptype": "hall", "confidence": "low", "rank": 7, "area_ha": 2.9, "rise_db": 9.1, "digitised_from": "Sentinel-1 VV rise 2022->2026, orbit 40"}}, {"type": "Feature", "geometry": {"geodesic": false, "type": "Polygon", "coordinates": [[[118.20284036724217, 24.58221808687388], [118.20284036724217, 24.582038423817057], [118.20248104112852, 24.582038423817057], [118.20248104112852, 24.58167909770341], [118.20212171501488, 24.58167909770341], [118.20212171501488, 24.580960445476116], [118.20248104112852, 24.580960445476116], [118.20248104112852, 24.58114010853294], [118.20284036724217, 24.58114010853294], [118.20284036724217, 24.580960445476116], [118.20319969335581, 24.580960445476116], [118.20319969335581, 24.58221808687388], [118.20284036724217, 24.58221808687388]], [[118.20284036724217, 24.58167909770341], [118.20266070418535, 24.58167909770341], [118.20266070418535, 24.581499434646584], [118.20284036724217, 24.581499434646584], [118.20284036724217, 24.58167909770341]]]}, "properties": {"name": "cand08", "ptype": "hall", "confidence": "low", "rank": 8, "area_ha": 1.2, "rise_db": 6.5, "digitised_from": "Sentinel-1 VV rise 2022->2026, orbit 40"}}, {"type": "Feature", "geometry": {"geodesic": false, "type": "Polygon", "coordinates": [[[118.19529451885556, 24.573055270975864], [118.19529451885556, 24.572875607919038], [118.19493519274192, 24.572875607919038], [118.19493519274192, 24.572695944862215], [118.1947555296851, 24.572695944862215], [118.1947555296851, 24.57251628180539], [118.19457586662827, 24.57251628180539], [118.19457586662827, 24.572336618748565], [118.19439620357144, 24.572336618748565], [118.19439620357144, 24.57197729263492], [118.1947555296851, 24.57197729263492], [118.1947555296851, 24.572156955691742], [118.19547418191239, 24.572156955691742], [118.19547418191239, 24.572336618748565], [118.19565384496921, 24.572336618748565], [118.19565384496921, 24.57251628180539], [118.19583350802604, 24.57251628180539], [118.19583350802604, 24.572875607919038], [118.19565384496921, 24.572875607919038], [118.19565384496921, 24.573055270975864], [118.19529451885556, 24.573055270975864]]]}, "properties": {"name": "cand09", "ptype": "hall", "confidence": "low", "rank": 9, "area_ha": 1.1, "rise_db": 7.1, "digitised_from": "Sentinel-1 VV rise 2022->2026, orbit 40"}}, {"type": "Feature", "geometry": {"geodesic": false, "type": "Polygon", "coordinates": [[[118.1909826054918, 24.57952314102152], [118.1909826054918, 24.579163814907876], [118.19080294243497, 24.579163814907876], [118.19080294243497, 24.578984151851053], [118.19062327937814, 24.578984151851053], [118.19062327937814, 24.578804488794226], [118.19044361632132, 24.578804488794226], [118.19044361632132, 24.578624825737403], [118.19062327937814, 24.578624825737403], [118.19062327937814, 24.578265499623754], [118.19080294243497, 24.578265499623754], [118.19080294243497, 24.57808583656693], [118.19116226854862, 24.57808583656693], [118.19116226854862, 24.578265499623754], [118.19134193160544, 24.578265499623754], [118.19134193160544, 24.57952314102152], [118.1909826054918, 24.57952314102152]]]}, "properties": {"name": "cand10", "ptype": "hall", "confidence": "low", "rank": 10, "area_ha": 1.0, "rise_db": 7.1, "digitised_from": "Sentinel-1 VV rise 2022->2026, orbit 40"}}]}