{"type": "FeatureCollection", "features": [{"type": "Feature", "geometry": {"geodesic": false, "type": "Polygon", "coordinates": [[[105.57881567951054, 28.86574468766941], [105.57881567951054, 28.865565024612582], [105.57845635339689, 28.865565024612582], [105.57845635339689, 28.865205698498936], [105.57827669034006, 28.865205698498936], [105.57827669034006, 28.864666709328464], [105.57809702728323, 28.864666709328464], [105.57809702728323, 28.86448704627164], [105.57791736422642, 28.86448704627164], [105.57791736422642, 28.864307383214815], [105.57755803811277, 28.864307383214815], [105.57755803811277, 28.86394805710117], [105.5777377011696, 28.86394805710117], [105.5777377011696, 28.86358873098752], [105.57791736422642, 28.86358873098752], [105.57791736422642, 28.863409067930696], [105.5777377011696, 28.863409067930696], [105.5777377011696, 28.862870078760224], [105.57755803811277, 28.862870078760224], [105.57755803811277, 28.8626904157034], [105.57737837505594, 28.8626904157034], [105.57737837505594, 28.86251075264658], [105.57701904894229, 28.86251075264658], [105.57701904894229, 28.862331089589752], [105.57665972282865, 28.862331089589752], [105.57665972282865, 28.86215142653293], [105.576300396715, 28.86215142653293], [105.576300396715, 28.861971763476106], [105.57612073365817, 28.861971763476106], [105.57612073365817, 28.861612437362457], [105.57594107060136, 28.861612437362457], [105.57594107060136, 28.861432774305634], [105.576300396715, 28.861432774305634], [105.576300396715, 28.86125311124881], [105.57648005977182, 28.86125311124881], [105.57648005977182, 28.861432774305634], [105.57665972282865, 28.861432774305634], [105.57665972282865, 28.861612437362457], [105.57683938588548, 28.861612437362457], [105.57683938588548, 28.861792100419283], [105.57719871199912, 28.861792100419283], [105.57719871199912, 28.861971763476106], [105.57737837505594, 28.861971763476106], [105.57737837505594, 28.86215142653293], [105.5777377011696, 28.86215142653293], [105.5777377011696, 28.862331089589752], [105.57809702728323, 28.862331089589752], [105.57809702728323, 28.86251075264658], [105.57827669034006, 28.86251075264658], [105.57827669034006, 28.8626904157034], [105.57845635339689, 28.8626904157034], [105.57845635339689, 28.862870078760224], [105.57881567951054, 28.862870078760224], [105.57881567951054, 28.86304974181705], [105.579354668681, 28.86304974181705], [105.579354668681, 28.863229404873874], [105.57989365785149, 28.863229404873874], [105.57989365785149, 28.86304974181705], [105.5800733209083, 28.86304974181705], [105.5800733209083, 28.862331089589752], [105.57953433173783, 28.862331089589752], [105.57953433173783, 28.86215142653293], [105.579354668681, 28.86215142653293], [105.579354668681, 28.861792100419283], [105.57917500562418, 28.861792100419283], [105.57917500562418, 28.861612437362457], [105.57899534256735, 28.861612437362457], [105.57899534256735, 28.861432774305634], [105.57881567951054, 28.861432774305634], [105.57881567951054, 28.86125311124881], [105.57845635339689, 28.86125311124881], [105.57845635339689, 28.861073448191988], [105.57827669034006, 28.861073448191988], [105.57827669034006, 28.86089378513516], [105.57791736422642, 28.86089378513516], [105.57791736422642, 28.86071412207834], [105.57755803811277, 28.86071412207834], [105.57755803811277, 28.860534459021515], [105.57737837505594, 28.860534459021515], [105.57737837505594, 28.86035479596469], [105.57719871199912, 28.86035479596469], [105.57719871199912, 28.860175132907866], [105.57701904894229, 28.860175132907866], [105.57701904894229, 28.859995469851043], [105.57665972282865, 28.859995469851043], [105.57665972282865, 28.85981580679422], [105.576300396715, 28.85981580679422], [105.576300396715, 28.859636143737394], [105.57612073365817, 28.859636143737394], [105.57612073365817, 28.859276817623748], [105.57576140754453, 28.859276817623748], [105.57576140754453, 28.85945648068057], [105.5755817444877, 28.85945648068057], [105.5755817444877, 28.859276817623748], [105.57522241837405, 28.859276817623748], [105.57522241837405, 28.859097154566925], [105.57504275531723, 28.859097154566925], [105.57504275531723, 28.8589174915101], [105.57468342920359, 28.8589174915101], [105.57468342920359, 28.858737828453275], [105.57450376614676, 28.858737828453275], [105.57450376614676, 28.858558165396452], [105.57522241837405, 28.858558165396452], [105.57522241837405, 28.858737828453275], [105.57540208143088, 28.858737828453275], [105.57540208143088, 28.8589174915101], [105.57576140754453, 28.8589174915101], [105.57576140754453, 28.858737828453275], [105.57594107060136, 28.858737828453275], [105.57594107060136, 28.858378502339626], [105.57612073365817, 28.858378502339626], [105.57612073365817, 28.858198839282803], [105.57648005977182, 28.858198839282803], [105.57648005977182, 28.858378502339626], [105.57719871199912, 28.858378502339626], [105.57719871199912, 28.858198839282803], [105.57737837505594, 28.858198839282803], [105.57737837505594, 28.857839513169157], [105.5777377011696, 28.857839513169157], [105.5777377011696, 28.858558165396452], [105.57719871199912, 28.858558165396452], [105.57719871199912, 28.8589174915101], [105.57737837505594, 28.8589174915101], [105.57737837505594, 28.859097154566925], [105.57755803811277, 28.859097154566925], [105.57755803811277, 28.859276817623748], [105.57791736422642, 28.859276817623748], [105.57791736422642, 28.85945648068057], [105.57827669034006, 28.85945648068057], [105.57827669034006, 28.859636143737394], [105.57845635339689, 28.859636143737394], [105.57845635339689, 28.85981580679422], [105.57881567951054, 28.85981580679422], [105.57881567951054, 28.859995469851043], [105.57899534256735, 28.859995469851043], [105.57899534256735, 28.860175132907866], [105.57917500562418, 28.860175132907866], [105.57917500562418, 28.860534459021515], [105.57953433173783, 28.860534459021515], [105.57953433173783, 28.86071412207834], [105.57989365785149, 28.86071412207834], [105.57989365785149, 28.861432774305634], [105.5800733209083, 28.861432774305634], [105.5800733209083, 28.862331089589752], [105.58043264702195, 28.862331089589752], [105.58043264702195, 28.86304974181705], [105.58061231007878, 28.86304974181705], [105.58061231007878, 28.86358873098752], [105.5807919731356, 28.86358873098752], [105.5807919731356, 28.864307383214815], [105.58061231007878, 28.864307383214815], [105.58061231007878, 28.86448704627164], [105.58043264702195, 28.86448704627164], [105.58043264702195, 28.864307383214815], [105.5800733209083, 28.864307383214815], [105.5800733209083, 28.86448704627164], [105.58025298396512, 28.86448704627164], [105.58025298396512, 28.864846372385287], [105.5800733209083, 28.864846372385287], [105.5800733209083, 28.865026035442114], [105.57989365785149, 28.865026035442114], [105.57989365785149, 28.865205698498936], [105.57953433173783, 28.865205698498936], [105.57953433173783, 28.86538536155576], [105.579354668681, 28.86538536155576], [105.579354668681, 28.865565024612582], [105.57917500562418, 28.865565024612582], [105.57917500562418, 28.86574468766941], [105.57881567951054, 28.86574468766941]], [[105.57863601645371, 28.86412772015799], [105.57845635339689, 28.86412772015799], [105.57845635339689, 28.86394805710117], [105.57863601645371, 28.86394805710117], [105.57863601645371, 28.86412772015799]]]}, "properties": {"name": "cand01", "ptype": "hall", "confidence": "low", "rank": 1, "area_ha": 18.1, "rise_db": 7.7, "digitised_from": "Sentinel-1 VV rise 2022->2026, orbit 55"}}, {"type": "Feature", "geometry": {"geodesic": false, "type": "Polygon", "coordinates": [[[105.58097163619242, 28.873470199112834], [105.58097163619242, 28.87329053605601], [105.58061231007878, 28.87329053605601], [105.58061231007878, 28.873110872999188], [105.58025298396512, 28.873110872999188], [105.58025298396512, 28.872931209942365], [105.5800733209083, 28.872931209942365], [105.5800733209083, 28.87275154688554], [105.57989365785149, 28.87275154688554], [105.57989365785149, 28.872571883828716], [105.57971399479466, 28.872571883828716], [105.57971399479466, 28.872392220771893], [105.57953433173783, 28.872392220771893], [105.57953433173783, 28.87221255771507], [105.579354668681, 28.87221255771507], [105.579354668681, 28.872032894658243], [105.57917500562418, 28.872032894658243], [105.57917500562418, 28.87185323160142], [105.57899534256735, 28.87185323160142], [105.57899534256735, 28.871673568544598], [105.57881567951054, 28.871673568544598], [105.57881567951054, 28.871314242430948], [105.57863601645371, 28.871314242430948], [105.57863601645371, 28.871134579374125], [105.57845635339689, 28.871134579374125], [105.57845635339689, 28.870775253260476], [105.57863601645371, 28.870775253260476], [105.57863601645371, 28.870595590203653], [105.57917500562418, 28.870595590203653], [105.57917500562418, 28.870775253260476], [105.579354668681, 28.870775253260476], [105.579354668681, 28.870954916317302], [105.58043264702195, 28.870954916317302], [105.58043264702195, 28.870775253260476], [105.5807919731356, 28.870775253260476], [105.5807919731356, 28.870595590203653], [105.58097163619242, 28.870595590203653], [105.58097163619242, 28.87041592714683], [105.5807919731356, 28.87041592714683], [105.5807919731356, 28.869876937976358], [105.58115129924924, 28.869876937976358], [105.58115129924924, 28.869697274919535], [105.58186995147655, 28.869697274919535], [105.58186995147655, 28.869876937976358], [105.58204961453336, 28.869876937976358], [105.58204961453336, 28.87005660103318], [105.5831275928743, 28.87005660103318], [105.5831275928743, 28.870595590203653], [105.58330725593113, 28.870595590203653], [105.58330725593113, 28.871134579374125], [105.5831275928743, 28.871134579374125], [105.5831275928743, 28.871314242430948], [105.58294792981748, 28.871314242430948], [105.58294792981748, 28.87149390548777], [105.58276826676067, 28.87149390548777], [105.58276826676067, 28.871673568544598], [105.58258860370384, 28.871673568544598], [105.58258860370384, 28.872032894658243], [105.58240894064701, 28.872032894658243], [105.58240894064701, 28.872392220771893], [105.58222927759019, 28.872392220771893], [105.58222927759019, 28.872571883828716], [105.58169028841972, 28.872571883828716], [105.58169028841972, 28.87275154688554], [105.5815106253629, 28.87275154688554], [105.5815106253629, 28.872931209942365], [105.58133096230607, 28.872931209942365], [105.58133096230607, 28.87329053605601], [105.58115129924924, 28.87329053605601], [105.58115129924924, 28.873470199112834], [105.58097163619242, 28.873470199112834]]]}, "properties": {"name": "cand02", "ptype": "hall", "confidence": "low", "rank": 2, "area_ha": 12.0, "rise_db": 9.4, "digitised_from": "Sentinel-1 VV rise 2022->2026, orbit 55"}}, {"type": "Feature", "geometry": {"geodesic": false, "type": "Polygon", "coordinates": [[[105.56965286361252, 28.86448704627164], [105.56965286361252, 28.86412772015799], [105.56983252666934, 28.86412772015799], [105.56983252666934, 28.86394805710117], [105.57001218972617, 28.86394805710117], [105.57001218972617, 28.863768394044346], [105.57019185278298, 28.863768394044346], [105.57019185278298, 28.86358873098752], [105.57055117889664, 28.86358873098752], [105.57055117889664, 28.863229404873874], [105.5710901680671, 28.863229404873874], [105.5710901680671, 28.86304974181705], [105.57126983112393, 28.86304974181705], [105.57126983112393, 28.862870078760224], [105.57144949418075, 28.862870078760224], [105.57144949418075, 28.8626904157034], [105.57162915723758, 28.8626904157034], [105.57162915723758, 28.86251075264658], [105.57180882029441, 28.86251075264658], [105.57180882029441, 28.862331089589752], [105.57198848335123, 28.862331089589752], [105.57198848335123, 28.86215142653293], [105.57091050501029, 28.86215142653293], [105.57091050501029, 28.862331089589752], [105.57073084195346, 28.862331089589752], [105.57073084195346, 28.86251075264658], [105.57055117889664, 28.86251075264658], [105.57055117889664, 28.8626904157034], [105.57037151583981, 28.8626904157034], [105.57037151583981, 28.863409067930696], [105.57019185278298, 28.863409067930696], [105.57019185278298, 28.863229404873874], [105.57001218972617, 28.863229404873874], [105.57001218972617, 28.86304974181705], [105.57019185278298, 28.86304974181705], [105.57019185278298, 28.86251075264658], [105.57001218972617, 28.86251075264658], [105.57001218972617, 28.862331089589752], [105.57019185278298, 28.862331089589752], [105.57019185278298, 28.86215142653293], [105.57055117889664, 28.86215142653293], [105.57055117889664, 28.861971763476106], [105.57073084195346, 28.861971763476106], [105.57073084195346, 28.861612437362457], [105.57055117889664, 28.861612437362457], [105.57055117889664, 28.861432774305634], [105.57073084195346, 28.861432774305634], [105.57073084195346, 28.86125311124881], [105.57091050501029, 28.86125311124881], [105.57091050501029, 28.861073448191988], [105.57126983112393, 28.861073448191988], [105.57126983112393, 28.86125311124881], [105.57144949418075, 28.86125311124881], [105.57144949418075, 28.861073448191988], [105.57180882029441, 28.861073448191988], [105.57180882029441, 28.86125311124881], [105.57162915723758, 28.86125311124881], [105.57162915723758, 28.861612437362457], [105.57198848335123, 28.861612437362457], [105.57198848335123, 28.861792100419283], [105.57234780946487, 28.861792100419283], [105.57234780946487, 28.861612437362457], [105.5725274725217, 28.861612437362457], [105.5725274725217, 28.861073448191988], [105.57288679863535, 28.861073448191988], [105.57288679863535, 28.86125311124881], [105.57306646169216, 28.86125311124881], [105.57306646169216, 28.861612437362457], [105.57288679863535, 28.861612437362457], [105.57288679863535, 28.861971763476106], [105.57270713557853, 28.861971763476106], [105.57270713557853, 28.86215142653293], [105.5725274725217, 28.86215142653293], [105.5725274725217, 28.86251075264658], [105.57234780946487, 28.86251075264658], [105.57234780946487, 28.8626904157034], [105.57216814640805, 28.8626904157034], [105.57216814640805, 28.862870078760224], [105.57180882029441, 28.862870078760224], [105.57180882029441, 28.86304974181705], [105.57162915723758, 28.86304974181705], [105.57162915723758, 28.863229404873874], [105.57144949418075, 28.863229404873874], [105.57144949418075, 28.863409067930696], [105.5710901680671, 28.863409067930696], [105.5710901680671, 28.86358873098752], [105.57091050501029, 28.86358873098752], [105.57091050501029, 28.863768394044346], [105.57073084195346, 28.863768394044346], [105.57073084195346, 28.86394805710117], [105.57055117889664, 28.86394805710117], [105.57055117889664, 28.86412772015799], [105.57037151583981, 28.86412772015799], [105.57037151583981, 28.864307383214815], [105.57001218972617, 28.864307383214815], [105.57001218972617, 28.86448704627164], [105.56965286361252, 28.86448704627164]]]}, "properties": {"name": "cand03", "ptype": "hall", "confidence": "low", "rank": 3, "area_ha": 4.8, "rise_db": 7.0, "digitised_from": "Sentinel-1 VV rise 2022->2026, orbit 55"}}, {"type": "Feature", "geometry": {"geodesic": false, "type": "Polygon", "coordinates": [[[105.56893421138523, 28.867181992124], [105.56893421138523, 28.867002329067176], [105.56857488527157, 28.867002329067176], [105.56857488527157, 28.866643002953527], [105.56911387444204, 28.866643002953527], [105.56911387444204, 28.86682266601035], [105.56929353749887, 28.86682266601035], [105.56929353749887, 28.866463339896704], [105.56911387444204, 28.866463339896704], [105.56911387444204, 28.866104013783055], [105.56893421138523, 28.866104013783055], [105.56893421138523, 28.86592435072623], [105.5687545483284, 28.86592435072623], [105.5687545483284, 28.865565024612582], [105.56929353749887, 28.865565024612582], [105.56929353749887, 28.86538536155576], [105.56947320055569, 28.86538536155576], [105.56947320055569, 28.865205698498936], [105.56965286361252, 28.865205698498936], [105.56965286361252, 28.86538536155576], [105.57001218972617, 28.86538536155576], [105.57001218972617, 28.865205698498936], [105.57019185278298, 28.865205698498936], [105.57019185278298, 28.865026035442114], [105.57037151583981, 28.865026035442114], [105.57037151583981, 28.864846372385287], [105.57073084195346, 28.864846372385287], [105.57073084195346, 28.865026035442114], [105.57091050501029, 28.865026035442114], [105.57091050501029, 28.865205698498936], [105.5710901680671, 28.865205698498936], [105.5710901680671, 28.86592435072623], [105.57091050501029, 28.86592435072623], [105.57091050501029, 28.866104013783055], [105.57073084195346, 28.866104013783055], [105.57073084195346, 28.86628367683988], [105.57037151583981, 28.86628367683988], [105.57037151583981, 28.866463339896704], [105.57019185278298, 28.866463339896704], [105.57019185278298, 28.866643002953527], [105.57001218972617, 28.866643002953527], [105.57001218972617, 28.86682266601035], [105.56983252666934, 28.86682266601035], [105.56983252666934, 28.867002329067176], [105.56929353749887, 28.867002329067176], [105.56929353749887, 28.867181992124], [105.56893421138523, 28.867181992124]]]}, "properties": {"name": "cand04", "ptype": "hall", "confidence": "low", "rank": 4, "area_ha": 3.9, "rise_db": 6.5, "digitised_from": "Sentinel-1 VV rise 2022->2026, orbit 55"}}, {"type": "Feature", "geometry": {"geodesic": false, "type": "Polygon", "coordinates": [[[105.58402590815842, 28.87329053605601], [105.58402590815842, 28.873110872999188], [105.58384624510161, 28.873110872999188], [105.58384624510161, 28.872931209942365], [105.58366658204478, 28.872931209942365], [105.58366658204478, 28.87275154688554], [105.58384624510161, 28.87275154688554], [105.58384624510161, 28.872571883828716], [105.58402590815842, 28.872571883828716], [105.58402590815842, 28.871314242430948], [105.58384624510161, 28.871314242430948], [105.58384624510161, 28.871134579374125], [105.58438523427208, 28.871134579374125], [105.58438523427208, 28.87149390548777], [105.58492422344254, 28.87149390548777], [105.58492422344254, 28.87221255771507], [105.58510388649937, 28.87221255771507], [105.58510388649937, 28.87275154688554], [105.58492422344254, 28.87275154688554], [105.58492422344254, 28.872931209942365], [105.58474456038573, 28.872931209942365], [105.58474456038573, 28.873110872999188], [105.5845648973289, 28.873110872999188], [105.5845648973289, 28.87329053605601], [105.58402590815842, 28.87329053605601]]]}, "properties": {"name": "cand05", "ptype": "hall", "confidence": "low", "rank": 5, "area_ha": 2.4, "rise_db": 6.7, "digitised_from": "Sentinel-1 VV rise 2022->2026, orbit 55"}}, {"type": "Feature", "geometry": {"geodesic": false, "type": "Polygon", "coordinates": [[[105.55042891653235, 28.879758406101672], [105.55042891653235, 28.87957874304485], [105.55024925347554, 28.87957874304485], [105.55024925347554, 28.879039753874377], [105.55006959041872, 28.879039753874377], [105.55006959041872, 28.878860090817554], [105.54988992736189, 28.878860090817554], [105.54988992736189, 28.878680427760727], [105.55006959041872, 28.878680427760727], [105.55006959041872, 28.87814143859026], [105.55024925347554, 28.87814143859026], [105.55024925347554, 28.877961775533432], [105.55042891653235, 28.877961775533432], [105.55042891653235, 28.87778211247661], [105.55060857958918, 28.87778211247661], [105.55060857958918, 28.877602449419786], [105.55114756875966, 28.877602449419786], [105.55114756875966, 28.87778211247661], [105.55132723181647, 28.87778211247661], [105.55132723181647, 28.877961775533432], [105.55114756875966, 28.877961775533432], [105.55114756875966, 28.87814143859026], [105.55096790570283, 28.87814143859026], [105.55096790570283, 28.879039753874377], [105.55078824264601, 28.879039753874377], [105.55078824264601, 28.879399079988023], [105.55096790570283, 28.879399079988023], [105.55096790570283, 28.87957874304485], [105.55078824264601, 28.87957874304485], [105.55078824264601, 28.879758406101672], [105.55042891653235, 28.879758406101672]]]}, "properties": {"name": "cand06", "ptype": "hall", "confidence": "low", "rank": 6, "area_ha": 2.0, "rise_db": 6.5, "digitised_from": "Sentinel-1 VV rise 2022->2026, orbit 55"}}, {"type": "Feature", "geometry": {"geodesic": false, "type": "Polygon", "coordinates": [[[105.58420557121525, 28.869697274919535], [105.58420557121525, 28.869517611862708], [105.58402590815842, 28.869517611862708], [105.58402590815842, 28.869337948805885], [105.58366658204478, 28.869337948805885], [105.58366658204478, 28.869158285749062], [105.58348691898796, 28.869158285749062], [105.58348691898796, 28.86897862269224], [105.5831275928743, 28.86897862269224], [105.5831275928743, 28.86861929657859], [105.58294792981748, 28.86861929657859], [105.58294792981748, 28.868439633521767], [105.58258860370384, 28.868439633521767], [105.58258860370384, 28.868259970464944], [105.58240894064701, 28.868259970464944], [105.58240894064701, 28.868080307408118], [105.58258860370384, 28.868080307408118], [105.58258860370384, 28.867900644351295], [105.58276826676067, 28.867900644351295], [105.58276826676067, 28.86772098129447], [105.58294792981748, 28.86772098129447], [105.58294792981748, 28.868080307408118], [105.5831275928743, 28.868080307408118], [105.5831275928743, 28.868259970464944], [105.58348691898796, 28.868259970464944], [105.58348691898796, 28.868439633521767], [105.58384624510161, 28.868439633521767], [105.58384624510161, 28.868259970464944], [105.58402590815842, 28.868259970464944], [105.58402590815842, 28.868439633521767], [105.58420557121525, 28.868439633521767], [105.58420557121525, 28.869158285749062], [105.58438523427208, 28.869158285749062], [105.58438523427208, 28.86897862269224], [105.58474456038573, 28.86897862269224], [105.58474456038573, 28.869337948805885], [105.5845648973289, 28.869337948805885], [105.5845648973289, 28.869517611862708], [105.58438523427208, 28.869517611862708], [105.58438523427208, 28.869697274919535], [105.58420557121525, 28.869697274919535]]]}, "properties": {"name": "cand07", "ptype": "hall", "confidence": "low", "rank": 7, "area_ha": 1.9, "rise_db": 7.4, "digitised_from": "Sentinel-1 VV rise 2022->2026, orbit 55"}}, {"type": "Feature", "geometry": {"geodesic": false, "type": "Polygon", "coordinates": [[[105.57809702728323, 28.87454817745378], [105.57809702728323, 28.873470199112834], [105.57827669034006, 28.873470199112834], [105.57827669034006, 28.872931209942365], [105.57809702728323, 28.872931209942365], [105.57809702728323, 28.872571883828716], [105.57845635339689, 28.872571883828716], [105.57845635339689, 28.872931209942365], [105.57881567951054, 28.872931209942365], [105.57881567951054, 28.873110872999188], [105.57899534256735, 28.873110872999188], [105.57899534256735, 28.87329053605601], [105.57881567951054, 28.87329053605601], [105.57881567951054, 28.873470199112834], [105.57863601645371, 28.873470199112834], [105.57863601645371, 28.873829525226483], [105.57917500562418, 28.873829525226483], [105.57917500562418, 28.87329053605601], [105.579354668681, 28.87329053605601], [105.579354668681, 28.873110872999188], [105.57971399479466, 28.873110872999188], [105.57971399479466, 28.87364986216966], [105.57953433173783, 28.87364986216966], [105.57953433173783, 28.873829525226483], [105.579354668681, 28.873829525226483], [105.579354668681, 28.874009188283306], [105.57917500562418, 28.874009188283306], [105.57917500562418, 28.874188851340133], [105.57863601645371, 28.874188851340133], [105.57863601645371, 28.873829525226483], [105.57827669034006, 28.873829525226483], [105.57827669034006, 28.874188851340133], [105.57845635339689, 28.874188851340133], [105.57845635339689, 28.87454817745378], [105.57809702728323, 28.87454817745378]]]}, "properties": {"name": "cand08", "ptype": "hall", "confidence": "low", "rank": 8, "area_ha": 1.7, "rise_db": 5.1, "digitised_from": "Sentinel-1 VV rise 2022->2026, orbit 55"}}, {"type": "Feature", "geometry": {"geodesic": false, "type": "Polygon", "coordinates": [[[105.58294792981748, 28.859636143737394], [105.58294792981748, 28.85945648068057], [105.58222927759019, 28.85945648068057], [105.58222927759019, 28.859276817623748], [105.58204961453336, 28.859276817623748], [105.58204961453336, 28.859097154566925], [105.58186995147655, 28.859097154566925], [105.58186995147655, 28.8589174915101], [105.58169028841972, 28.8589174915101], [105.58169028841972, 28.858737828453275], [105.58115129924924, 28.858737828453275], [105.58115129924924, 28.858558165396452], [105.58097163619242, 28.858558165396452], [105.58097163619242, 28.858378502339626], [105.5807919731356, 28.858378502339626], [105.5807919731356, 28.858198839282803], [105.58061231007878, 28.858198839282803], [105.58061231007878, 28.85765985011233], [105.58097163619242, 28.85765985011233], [105.58097163619242, 28.857839513169157], [105.58115129924924, 28.857839513169157], [105.58115129924924, 28.85801917622598], [105.58133096230607, 28.85801917622598], [105.58133096230607, 28.858378502339626], [105.58169028841972, 28.858378502339626], [105.58169028841972, 28.858558165396452], [105.58204961453336, 28.858558165396452], [105.58204961453336, 28.858737828453275], [105.58222927759019, 28.858737828453275], [105.58222927759019, 28.8589174915101], [105.58240894064701, 28.8589174915101], [105.58240894064701, 28.859097154566925], [105.58258860370384, 28.859097154566925], [105.58258860370384, 28.859276817623748], [105.5831275928743, 28.859276817623748], [105.5831275928743, 28.859636143737394], [105.58294792981748, 28.859636143737394]]]}, "properties": {"name": "cand09", "ptype": "hall", "confidence": "low", "rank": 9, "area_ha": 1.4, "rise_db": 5.2, "digitised_from": "Sentinel-1 VV rise 2022->2026, orbit 55"}}, {"type": "Feature", "geometry": {"geodesic": false, "type": "Polygon", "coordinates": [[[105.5928293979428, 28.874009188283306], [105.5928293979428, 28.873829525226483], [105.59247007182915, 28.873829525226483], [105.59247007182915, 28.87364986216966], [105.59229040877233, 28.87364986216966], [105.59229040877233, 28.873110872999188], [105.59247007182915, 28.873110872999188], [105.59247007182915, 28.872931209942365], [105.5928293979428, 28.872931209942365], [105.5928293979428, 28.87329053605601], [105.59318872405645, 28.87329053605601], [105.59318872405645, 28.873110872999188], [105.5935480501701, 28.873110872999188], [105.5935480501701, 28.87329053605601], [105.59372771322693, 28.87329053605601], [105.59372771322693, 28.87364986216966], [105.5935480501701, 28.87364986216966], [105.5935480501701, 28.873829525226483], [105.59336838711327, 28.873829525226483], [105.59336838711327, 28.874009188283306], [105.5928293979428, 28.874009188283306]]]}, "properties": {"name": "cand10", "ptype": "hall", "confidence": "low", "rank": 10, "area_ha": 1.3, "rise_db": 5.2, "digitised_from": "Sentinel-1 VV rise 2022->2026, orbit 55"}}, {"type": "Feature", "geometry": {"geodesic": false, "type": "Polygon", "coordinates": [[[105.57180882029441, 28.86089378513516], [105.57180882029441, 28.86071412207834], [105.57162915723758, 28.86071412207834], [105.57162915723758, 28.860534459021515], [105.57144949418075, 28.860534459021515], [105.57144949418075, 28.86035479596469], [105.57162915723758, 28.86035479596469], [105.57162915723758, 28.860175132907866], [105.57180882029441, 28.860175132907866], [105.57180882029441, 28.859995469851043], [105.57198848335123, 28.859995469851043], [105.57198848335123, 28.85981580679422], [105.57216814640805, 28.85981580679422], [105.57216814640805, 28.859636143737394], [105.57234780946487, 28.859636143737394], [105.57234780946487, 28.859097154566925], [105.57270713557853, 28.859097154566925], [105.57270713557853, 28.859276817623748], [105.57288679863535, 28.859276817623748], [105.57288679863535, 28.859636143737394], [105.57270713557853, 28.859636143737394], [105.57270713557853, 28.85981580679422], [105.5725274725217, 28.85981580679422], [105.5725274725217, 28.859995469851043], [105.57234780946487, 28.859995469851043], [105.57234780946487, 28.86035479596469], [105.57216814640805, 28.86035479596469], [105.57216814640805, 28.86089378513516], [105.57180882029441, 28.86089378513516]]]}, "properties": {"name": "cand11", "ptype": "hall", "confidence": "low", "rank": 11, "area_ha": 1.2, "rise_db": 6.7, "digitised_from": "Sentinel-1 VV rise 2022->2026, orbit 55"}}, {"type": "Feature", "geometry": {"geodesic": false, "type": "Polygon", "coordinates": [[[105.57665972282865, 28.87364986216966], [105.57665972282865, 28.873470199112834], [105.57648005977182, 28.873470199112834], [105.57648005977182, 28.87329053605601], [105.576300396715, 28.87329053605601], [105.576300396715, 28.87275154688554], [105.57665972282865, 28.87275154688554], [105.57665972282865, 28.872571883828716], [105.57683938588548, 28.872571883828716], [105.57683938588548, 28.872392220771893], [105.57719871199912, 28.872392220771893], [105.57719871199912, 28.872571883828716], [105.57737837505594, 28.872571883828716], [105.57737837505594, 28.87275154688554], [105.57719871199912, 28.87275154688554], [105.57719871199912, 28.872931209942365], [105.57737837505594, 28.872931209942365], [105.57737837505594, 28.87329053605601], [105.57701904894229, 28.87329053605601], [105.57701904894229, 28.87364986216966], [105.57665972282865, 28.87364986216966]]]}, "properties": {"name": "cand12", "ptype": "hall", "confidence": "low", "rank": 12, "area_ha": 1.1, "rise_db": 5.2, "digitised_from": "Sentinel-1 VV rise 2022->2026, orbit 55"}}]}