{"type": "FeatureCollection", "features": [{"type": "Feature", "geometry": {"geodesic": false, "type": "Polygon", "coordinates": [[[111.27287693943053, 40.08696022772], [111.27287693943053, 40.08678056466317], [111.27143963497595, 40.08678056466317], [111.27143963497595, 40.08660090160635], [111.2710803088623, 40.08660090160635], [111.2710803088623, 40.086421238549526], [111.27090064580547, 40.086421238549526], [111.27090064580547, 40.085882249379054], [111.2710803088623, 40.085882249379054], [111.2710803088623, 40.08570258632223], [111.27233795026007, 40.08570258632223], [111.27233795026007, 40.08552292326541], [111.2725176133169, 40.08552292326541], [111.2725176133169, 40.08534326020858], [111.2726972763737, 40.08534326020858], [111.2726972763737, 40.08516359715176], [111.27305660248736, 40.08516359715176], [111.27305660248736, 40.08534326020858], [111.27341592860101, 40.08534326020858], [111.27341592860101, 40.08552292326541], [111.27359559165782, 40.08552292326541], [111.27359559165782, 40.08516359715176], [111.27395491777148, 40.08516359715176], [111.27395491777148, 40.08570258632223], [111.2741345808283, 40.08570258632223], [111.2741345808283, 40.085882249379054], [111.27395491777148, 40.085882249379054], [111.27395491777148, 40.086421238549526], [111.27323626554418, 40.086421238549526], [111.27323626554418, 40.08660090160635], [111.27305660248736, 40.08660090160635], [111.27305660248736, 40.08678056466317], [111.27323626554418, 40.08678056466317], [111.27323626554418, 40.08696022772], [111.27287693943053, 40.08696022772]]]}, "properties": {"name": "cand01", "ptype": "hall", "confidence": "low", "rank": 1, "area_ha": 4.4, "rise_db": 10.4, "digitised_from": "Sentinel-1 VV rise 2022->2026, orbit 113"}}, {"type": "Feature", "geometry": {"geodesic": false, "type": "Polygon", "coordinates": [[[111.25113770955484, 40.082109325185755], [111.25113770955484, 40.08192966212893], [111.25095804649801, 40.08192966212893], [111.25095804649801, 40.08157033601528], [111.25059872038437, 40.08157033601528], [111.25059872038437, 40.08121100990164], [111.25041905732755, 40.08121100990164], [111.25041905732755, 40.08103134684481], [111.25023939427072, 40.08103134684481], [111.25023939427072, 40.080851683787984], [111.25041905732755, 40.080851683787984], [111.25041905732755, 40.080672020731164], [111.2500597312139, 40.080672020731164], [111.2500597312139, 40.08049235767434], [111.24988006815707, 40.08049235767434], [111.24988006815707, 40.08031269461751], [111.24970040510026, 40.08031269461751], [111.24970040510026, 40.08013303156069], [111.24952074204343, 40.08013303156069], [111.24952074204343, 40.07977370544704], [111.25023939427072, 40.07977370544704], [111.25023939427072, 40.079953368503865], [111.2500597312139, 40.079953368503865], [111.2500597312139, 40.08013303156069], [111.24988006815707, 40.08013303156069], [111.24988006815707, 40.08031269461751], [111.25041905732755, 40.08031269461751], [111.25041905732755, 40.08013303156069], [111.2507783834412, 40.08013303156069], [111.2507783834412, 40.08049235767434], [111.25041905732755, 40.08049235767434], [111.25041905732755, 40.080672020731164], [111.25167669872532, 40.080672020731164], [111.25167669872532, 40.080851683787984], [111.25185636178213, 40.080851683787984], [111.25185636178213, 40.080672020731164], [111.25203602483896, 40.080672020731164], [111.25203602483896, 40.08049235767434], [111.25239535095261, 40.08049235767434], [111.25239535095261, 40.08031269461751], [111.25257501400944, 40.08031269461751], [111.25257501400944, 40.08049235767434], [111.25275467706626, 40.08049235767434], [111.25275467706626, 40.08103134684481], [111.25257501400944, 40.08103134684481], [111.25257501400944, 40.081390672958456], [111.25221568789578, 40.081390672958456], [111.25221568789578, 40.08157033601528], [111.25185636178213, 40.08157033601528], [111.25185636178213, 40.081390672958456], [111.25167669872532, 40.081390672958456], [111.25167669872532, 40.08157033601528], [111.25131737261167, 40.08157033601528], [111.25131737261167, 40.0817499990721], [111.25149703566849, 40.0817499990721], [111.25149703566849, 40.08192966212893], [111.25131737261167, 40.08192966212893], [111.25131737261167, 40.082109325185755], [111.25113770955484, 40.082109325185755]]]}, "properties": {"name": "cand02", "ptype": "hall", "confidence": "low", "rank": 2, "area_ha": 3.4, "rise_db": 8.4, "digitised_from": "Sentinel-1 VV rise 2022->2026, orbit 113"}}, {"type": "Feature", "geometry": {"geodesic": false, "type": "Polygon", "coordinates": [[[111.27557188528289, 40.085882249379054], [111.27557188528289, 40.08570258632223], [111.27539222222607, 40.08570258632223], [111.27539222222607, 40.08516359715176], [111.27521255916925, 40.08516359715176], [111.27521255916925, 40.084983934094936], [111.27503289611242, 40.084983934094936], [111.27503289611242, 40.08444494492446], [111.27557188528289, 40.08444494492446], [111.27557188528289, 40.08426528186764], [111.27593121139654, 40.08426528186764], [111.27593121139654, 40.08408561881082], [111.27718885279431, 40.08408561881082], [111.27718885279431, 40.08426528186764], [111.27736851585114, 40.08426528186764], [111.27736851585114, 40.08444494492446], [111.27754817890796, 40.08444494492446], [111.27754817890796, 40.08480427103811], [111.27736851585114, 40.08480427103811], [111.27736851585114, 40.084983934094936], [111.27718885279431, 40.084983934094936], [111.27718885279431, 40.08480427103811], [111.27629053751019, 40.08480427103811], [111.27629053751019, 40.084983934094936], [111.27647020056702, 40.084983934094936], [111.27647020056702, 40.08552292326541], [111.27611087445337, 40.08552292326541], [111.27611087445337, 40.08570258632223], [111.27593121139654, 40.08570258632223], [111.27593121139654, 40.085882249379054], [111.27557188528289, 40.085882249379054]]]}, "properties": {"name": "cand03", "ptype": "hall", "confidence": "low", "rank": 3, "area_ha": 3.1, "rise_db": 10.0, "digitised_from": "Sentinel-1 VV rise 2022->2026, orbit 113"}}, {"type": "Feature", "geometry": {"geodesic": false, "type": "Polygon", "coordinates": [[[111.27736851585114, 40.085882249379054], [111.27736851585114, 40.08570258632223], [111.27772784196478, 40.08570258632223], [111.27772784196478, 40.08552292326541], [111.27718885279431, 40.08552292326541], [111.27718885279431, 40.08516359715176], [111.27736851585114, 40.08516359715176], [111.27736851585114, 40.08534326020858], [111.27754817890796, 40.08534326020858], [111.27754817890796, 40.084983934094936], [111.27826683113526, 40.084983934094936], [111.27826683113526, 40.08480427103811], [111.27844649419208, 40.08480427103811], [111.27844649419208, 40.08462460798129], [111.2786261572489, 40.08462460798129], [111.2786261572489, 40.08480427103811], [111.27880582030572, 40.08480427103811], [111.27880582030572, 40.084983934094936], [111.27826683113526, 40.084983934094936], [111.27826683113526, 40.08534326020858], [111.27844649419208, 40.08534326020858], [111.27844649419208, 40.08570258632223], [111.27826683113526, 40.08570258632223], [111.27826683113526, 40.085882249379054], [111.27736851585114, 40.085882249379054]], [[111.2779075050216, 40.08534326020858], [111.27772784196478, 40.08534326020858], [111.27772784196478, 40.08516359715176], [111.2779075050216, 40.08516359715176], [111.2779075050216, 40.08534326020858]]]}, "properties": {"name": "cand04", "ptype": "hall", "confidence": "low", "rank": 4, "area_ha": 1.1, "rise_db": 6.8, "digitised_from": "Sentinel-1 VV rise 2022->2026, orbit 113"}}]}