{"type": "FeatureCollection", "features": [{"type": "Feature", "geometry": {"geodesic": false, "type": "Polygon", "coordinates": [[[117.88304012609562, 24.07143601632352], [117.88304012609562, 24.071256353266698], [117.8828604630388, 24.071256353266698], [117.8828604630388, 24.07089702715305], [117.88268079998197, 24.07089702715305], [117.88268079998197, 24.070537701039402], [117.88250113692516, 24.070537701039402], [117.88250113692516, 24.07035803798258], [117.88232147386833, 24.07035803798258], [117.88232147386833, 24.070178374925753], [117.8821418108115, 24.070178374925753], [117.8821418108115, 24.069819048812107], [117.88196214775468, 24.069819048812107], [117.88196214775468, 24.069639385755284], [117.88178248469785, 24.069639385755284], [117.88178248469785, 24.069459722698458], [117.88160282164102, 24.069459722698458], [117.88160282164102, 24.069100396584812], [117.88142315858421, 24.069100396584812], [117.88142315858421, 24.068741070471162], [117.88124349552739, 24.068741070471162], [117.88124349552739, 24.06856140741434], [117.88106383247056, 24.06856140741434], [117.88106383247056, 24.068381744357517], [117.88088416941373, 24.068381744357517], [117.88088416941373, 24.067842755187044], [117.88106383247056, 24.067842755187044], [117.88106383247056, 24.06766309213022], [117.88142315858421, 24.06766309213022], [117.88142315858421, 24.067842755187044], [117.88178248469785, 24.067842755187044], [117.88178248469785, 24.06766309213022], [117.88196214775468, 24.06766309213022], [117.88196214775468, 24.067483429073395], [117.8821418108115, 24.067483429073395], [117.8821418108115, 24.06712410295975], [117.88232147386833, 24.06712410295975], [117.88232147386833, 24.066944439902922], [117.8821418108115, 24.066944439902922], [117.8821418108115, 24.066225787675627], [117.88196214775468, 24.066225787675627], [117.88196214775468, 24.066046124618804], [117.88160282164102, 24.066046124618804], [117.88160282164102, 24.06586646156198], [117.88142315858421, 24.06586646156198], [117.88142315858421, 24.066046124618804], [117.88124349552739, 24.066046124618804], [117.88124349552739, 24.066405450732454], [117.88088416941373, 24.066405450732454], [117.88088416941373, 24.06532747239151], [117.88106383247056, 24.06532747239151], [117.88106383247056, 24.065147809334686], [117.8807045063569, 24.065147809334686], [117.8807045063569, 24.064608820164214], [117.8805248433001, 24.064608820164214], [117.8805248433001, 24.064249494050564], [117.8807045063569, 24.064249494050564], [117.8807045063569, 24.06389016793692], [117.8805248433001, 24.06389016793692], [117.8805248433001, 24.063351178766446], [117.8807045063569, 24.063351178766446], [117.8807045063569, 24.063171515709623], [117.88178248469785, 24.063171515709623], [117.88178248469785, 24.062991852652797], [117.88268079998197, 24.062991852652797], [117.88268079998197, 24.063171515709623], [117.8828604630388, 24.063171515709623], [117.8828604630388, 24.062991852652797], [117.88321978915245, 24.062991852652797], [117.88321978915245, 24.06263252653915], [117.88339945220928, 24.06263252653915], [117.88339945220928, 24.062991852652797], [117.88483675666386, 24.062991852652797], [117.88483675666386, 24.06209353736868], [117.88501641972069, 24.06209353736868], [117.88501641972069, 24.06173421125503], [117.88483675666386, 24.06173421125503], [117.88483675666386, 24.061554548198206], [117.88501641972069, 24.061554548198206], [117.88501641972069, 24.061374885141383], [117.8828604630388, 24.061374885141383], [117.8828604630388, 24.06173421125503], [117.88268079998197, 24.06173421125503], [117.88268079998197, 24.061913874311855], [117.88232147386833, 24.061913874311855], [117.88232147386833, 24.06173421125503], [117.8821418108115, 24.06173421125503], [117.8821418108115, 24.061554548198206], [117.88196214775468, 24.061554548198206], [117.88196214775468, 24.061374885141383], [117.88178248469785, 24.061374885141383], [117.88178248469785, 24.06119522208456], [117.88160282164102, 24.06119522208456], [117.88160282164102, 24.061015559027734], [117.88142315858421, 24.061015559027734], [117.88142315858421, 24.060476569857265], [117.88160282164102, 24.060476569857265], [117.88160282164102, 24.06029690680044], [117.88196214775468, 24.06029690680044], [117.88196214775468, 24.060476569857265], [117.8821418108115, 24.060476569857265], [117.8821418108115, 24.060656232914088], [117.88232147386833, 24.060656232914088], [117.88232147386833, 24.06083589597091], [117.88250113692516, 24.06083589597091], [117.88250113692516, 24.061015559027734], [117.8828604630388, 24.061015559027734], [117.8828604630388, 24.06083589597091], [117.88304012609562, 24.06083589597091], [117.88304012609562, 24.060656232914088], [117.88357911526609, 24.060656232914088], [117.88357911526609, 24.06083589597091], [117.88393844137974, 24.06083589597091], [117.88393844137974, 24.060656232914088], [117.88483675666386, 24.060656232914088], [117.88483675666386, 24.060476569857265], [117.88447743055022, 24.060476569857265], [117.88447743055022, 24.06029690680044], [117.8842977674934, 24.06029690680044], [117.8842977674934, 24.059937580686793], [117.88411810443657, 24.059937580686793], [117.88411810443657, 24.059757917629966], [117.88375877832291, 24.059757917629966], [117.88375877832291, 24.060117243743615], [117.88357911526609, 24.060117243743615], [117.88357911526609, 24.06029690680044], [117.88304012609562, 24.06029690680044], [117.88304012609562, 24.060476569857265], [117.8828604630388, 24.060476569857265], [117.8828604630388, 24.06029690680044], [117.88268079998197, 24.06029690680044], [117.88268079998197, 24.059757917629966], [117.88232147386833, 24.059757917629966], [117.88232147386833, 24.059578254573143], [117.8821418108115, 24.059578254573143], [117.8821418108115, 24.05939859151632], [117.88268079998197, 24.05939859151632], [117.88268079998197, 24.059757917629966], [117.8828604630388, 24.059757917629966], [117.8828604630388, 24.059578254573143], [117.88304012609562, 24.059578254573143], [117.88304012609562, 24.05939859151632], [117.88321978915245, 24.05939859151632], [117.88321978915245, 24.05903926540267], [117.88304012609562, 24.05903926540267], [117.88304012609562, 24.058679939289025], [117.8828604630388, 24.058679939289025], [117.8828604630388, 24.058140950118553], [117.88232147386833, 24.058140950118553], [117.88232147386833, 24.058320613175376], [117.88250113692516, 24.058320613175376], [117.88250113692516, 24.058500276232202], [117.88268079998197, 24.058500276232202], [117.88268079998197, 24.058859602345848], [117.88250113692516, 24.058859602345848], [117.88250113692516, 24.05903926540267], [117.88196214775468, 24.05903926540267], [117.88196214775468, 24.059218928459497], [117.88142315858421, 24.059218928459497], [117.88142315858421, 24.05939859151632], [117.88124349552739, 24.05939859151632], [117.88124349552739, 24.059578254573143], [117.88106383247056, 24.059578254573143], [117.88106383247056, 24.05939859151632], [117.88088416941373, 24.05939859151632], [117.88088416941373, 24.059218928459497], [117.88106383247056, 24.059218928459497], [117.88106383247056, 24.05903926540267], [117.88124349552739, 24.05903926540267], [117.88124349552739, 24.059218928459497], [117.88142315858421, 24.059218928459497], [117.88142315858421, 24.05903926540267], [117.88160282164102, 24.05903926540267], [117.88160282164102, 24.058859602345848], [117.88142315858421, 24.058859602345848], [117.88142315858421, 24.058679939289025], [117.88106383247056, 24.058679939289025], [117.88106383247056, 24.058500276232202], [117.8807045063569, 24.058500276232202], [117.8807045063569, 24.058320613175376], [117.88016551718644, 24.058320613175376], [117.88016551718644, 24.057781624004903], [117.88034518024327, 24.057781624004903], [117.88034518024327, 24.05760196094808], [117.8805248433001, 24.05760196094808], [117.8805248433001, 24.057422297891257], [117.8807045063569, 24.057422297891257], [117.8807045063569, 24.057242634834434], [117.88088416941373, 24.057242634834434], [117.88088416941373, 24.057422297891257], [117.88106383247056, 24.057422297891257], [117.88106383247056, 24.057242634834434], [117.88124349552739, 24.057242634834434], [117.88124349552739, 24.057062971777608], [117.88160282164102, 24.057062971777608], [117.88160282164102, 24.056883308720785], [117.88196214775468, 24.056883308720785], [117.88196214775468, 24.056703645663962], [117.8821418108115, 24.056703645663962], [117.8821418108115, 24.05652398260714], [117.88232147386833, 24.05652398260714], [117.88232147386833, 24.056344319550313], [117.88250113692516, 24.056344319550313], [117.88250113692516, 24.05616465649349], [117.88268079998197, 24.05616465649349], [117.88268079998197, 24.055984993436667], [117.8828604630388, 24.055984993436667], [117.8828604630388, 24.05616465649349], [117.88304012609562, 24.05616465649349], [117.88304012609562, 24.056344319550313], [117.8828604630388, 24.056344319550313], [117.8828604630388, 24.056703645663962], [117.88304012609562, 24.056703645663962], [117.88304012609562, 24.05652398260714], [117.88321978915245, 24.05652398260714], [117.88321978915245, 24.056703645663962], [117.88339945220928, 24.056703645663962], [117.88339945220928, 24.056883308720785], [117.88357911526609, 24.056883308720785], [117.88357911526609, 24.057422297891257], [117.88375877832291, 24.057422297891257], [117.88375877832291, 24.05760196094808], [117.88393844137974, 24.05760196094808], [117.88393844137974, 24.05796128706173], [117.88375877832291, 24.05796128706173], [117.88375877832291, 24.057781624004903], [117.88357911526609, 24.057781624004903], [117.88357911526609, 24.058140950118553], [117.88393844137974, 24.058140950118553], [117.88393844137974, 24.058320613175376], [117.88411810443657, 24.058320613175376], [117.88411810443657, 24.058500276232202], [117.88447743055022, 24.058500276232202], [117.88447743055022, 24.058320613175376], [117.88501641972069, 24.058320613175376], [117.88501641972069, 24.058140950118553], [117.88537574583434, 24.058140950118553], [117.88537574583434, 24.057781624004903], [117.88519608277751, 24.057781624004903], [117.88519608277751, 24.05760196094808], [117.88501641972069, 24.05760196094808], [117.88501641972069, 24.057422297891257], [117.88483675666386, 24.057422297891257], [117.88483675666386, 24.057242634834434], [117.88447743055022, 24.057242634834434], [117.88447743055022, 24.057062971777608], [117.8842977674934, 24.057062971777608], [117.8842977674934, 24.05652398260714], [117.88411810443657, 24.05652398260714], [117.88411810443657, 24.056344319550313], [117.88375877832291, 24.056344319550313], [117.88375877832291, 24.05616465649349], [117.88393844137974, 24.05616465649349], [117.88393844137974, 24.055984993436667], [117.8842977674934, 24.055984993436667], [117.8842977674934, 24.05616465649349], [117.88447743055022, 24.05616465649349], [117.88447743055022, 24.056344319550313], [117.88465709360703, 24.056344319550313], [117.88465709360703, 24.05652398260714], [117.88483675666386, 24.05652398260714], [117.88483675666386, 24.056703645663962], [117.88519608277751, 24.056703645663962], [117.88519608277751, 24.057062971777608], [117.88537574583434, 24.057062971777608], [117.88537574583434, 24.057422297891257], [117.88555540889115, 24.057422297891257], [117.88555540889115, 24.057781624004903], [117.88573507194798, 24.057781624004903], [117.88573507194798, 24.05796128706173], [117.8859147350048, 24.05796128706173], [117.8859147350048, 24.058140950118553], [117.88609439806163, 24.058140950118553], [117.88609439806163, 24.058320613175376], [117.88627406111846, 24.058320613175376], [117.88627406111846, 24.058500276232202], [117.88699271334575, 24.058500276232202], [117.88699271334575, 24.058679939289025], [117.88717237640257, 24.058679939289025], [117.88717237640257, 24.058859602345848], [117.88950799614128, 24.058859602345848], [117.88950799614128, 24.05903926540267], [117.88986732225493, 24.05903926540267], [117.88986732225493, 24.058859602345848], [117.89022664836858, 24.058859602345848], [117.89022664836858, 24.05903926540267], [117.89040631142541, 24.05903926540267], [117.89040631142541, 24.059218928459497], [117.89058597448222, 24.059218928459497], [117.89058597448222, 24.05939859151632], [117.89076563753905, 24.05939859151632], [117.89076563753905, 24.059578254573143], [117.89058597448222, 24.059578254573143], [117.89058597448222, 24.059757917629966], [117.89040631142541, 24.059757917629966], [117.89040631142541, 24.060117243743615], [117.89058597448222, 24.060117243743615], [117.89058597448222, 24.060656232914088], [117.89040631142541, 24.060656232914088], [117.89040631142541, 24.06083589597091], [117.89058597448222, 24.06083589597091], [117.89058597448222, 24.061374885141383], [117.89076563753905, 24.061374885141383], [117.89076563753905, 24.061554548198206], [117.89058597448222, 24.061554548198206], [117.89058597448222, 24.061913874311855], [117.89040631142541, 24.061913874311855], [117.89040631142541, 24.062812189595974], [117.89022664836858, 24.062812189595974], [117.89022664836858, 24.062991852652797], [117.88950799614128, 24.062991852652797], [117.88950799614128, 24.062812189595974], [117.88896900697081, 24.062812189595974], [117.88896900697081, 24.062991852652797], [117.88860968085716, 24.062991852652797], [117.88860968085716, 24.063351178766446], [117.88843001780035, 24.063351178766446], [117.88843001780035, 24.063710504880095], [117.88860968085716, 24.063710504880095], [117.88860968085716, 24.06389016793692], [117.88878934391398, 24.06389016793692], [117.88878934391398, 24.064249494050564], [117.88896900697081, 24.064249494050564], [117.88896900697081, 24.06442915710739], [117.88914867002764, 24.06442915710739], [117.88914867002764, 24.064249494050564], [117.89022664836858, 24.064249494050564], [117.89022664836858, 24.06496814627786], [117.89004698531176, 24.06496814627786], [117.89004698531176, 24.065147809334686], [117.88950799614128, 24.065147809334686], [117.88950799614128, 24.06496814627786], [117.88896900697081, 24.06496814627786], [117.88896900697081, 24.06532747239151], [117.88914867002764, 24.06532747239151], [117.88914867002764, 24.06568679850516], [117.88896900697081, 24.06568679850516], [117.88896900697081, 24.066046124618804], [117.88914867002764, 24.066046124618804], [117.88914867002764, 24.066405450732454], [117.88896900697081, 24.066405450732454], [117.88896900697081, 24.066585113789277], [117.88843001780035, 24.066585113789277], [117.88843001780035, 24.066405450732454], [117.88825035474352, 24.066405450732454], [117.88825035474352, 24.066225787675627], [117.88807069168669, 24.066225787675627], [117.88807069168669, 24.066046124618804], [117.88699271334575, 24.066046124618804], [117.88699271334575, 24.066225787675627], [117.88681305028892, 24.066225787675627], [117.88681305028892, 24.066585113789277], [117.88699271334575, 24.066585113789277], [117.88699271334575, 24.066944439902922], [117.88681305028892, 24.066944439902922], [117.88681305028892, 24.06712410295975], [117.8866333872321, 24.06712410295975], [117.8866333872321, 24.066944439902922], [117.88609439806163, 24.066944439902922], [117.88609439806163, 24.067303766016572], [117.88537574583434, 24.067303766016572], [117.88537574583434, 24.06712410295975], [117.88447743055022, 24.06712410295975], [117.88447743055022, 24.067842755187044], [117.88411810443657, 24.067842755187044], [117.88411810443657, 24.06820208130069], [117.8842977674934, 24.06820208130069], [117.8842977674934, 24.068381744357517], [117.88465709360703, 24.068381744357517], [117.88465709360703, 24.06856140741434], [117.88555540889115, 24.06856140741434], [117.88555540889115, 24.068741070471162], [117.8859147350048, 24.068741070471162], [117.8859147350048, 24.06856140741434], [117.88609439806163, 24.06856140741434], [117.88609439806163, 24.068381744357517], [117.88627406111846, 24.068381744357517], [117.88627406111846, 24.067842755187044], [117.88645372417528, 24.067842755187044], [117.88645372417528, 24.067483429073395], [117.8866333872321, 24.067483429073395], [117.8866333872321, 24.067303766016572], [117.88699271334575, 24.067303766016572], [117.88699271334575, 24.067483429073395], [117.88717237640257, 24.067483429073395], [117.88717237640257, 24.06766309213022], [117.8873520394594, 24.06766309213022], [117.8873520394594, 24.067842755187044], [117.88753170251621, 24.067842755187044], [117.88753170251621, 24.06820208130069], [117.88771136557304, 24.06820208130069], [117.88771136557304, 24.06856140741434], [117.88753170251621, 24.06856140741434], [117.88753170251621, 24.068741070471162], [117.8873520394594, 24.068741070471162], [117.8873520394594, 24.068920733527985], [117.88681305028892, 24.068920733527985], [117.88681305028892, 24.069100396584812], [117.8866333872321, 24.069100396584812], [117.8866333872321, 24.069459722698458], [117.88681305028892, 24.069459722698458], [117.88681305028892, 24.070178374925753], [117.88645372417528, 24.070178374925753], [117.88645372417528, 24.069639385755284], [117.88627406111846, 24.069639385755284], [117.88627406111846, 24.069459722698458], [117.88645372417528, 24.069459722698458], [117.88645372417528, 24.069280059641635], [117.88627406111846, 24.069280059641635], [117.88627406111846, 24.069100396584812], [117.88555540889115, 24.069100396584812], [117.88555540889115, 24.069280059641635], [117.88501641972069, 24.069280059641635], [117.88501641972069, 24.069100396584812], [117.88304012609562, 24.069100396584812], [117.88304012609562, 24.069280059641635], [117.8828604630388, 24.069280059641635], [117.8828604630388, 24.069459722698458], [117.88321978915245, 24.069459722698458], [117.88321978915245, 24.069639385755284], [117.88339945220928, 24.069639385755284], [117.88339945220928, 24.06999871186893], [117.88321978915245, 24.06999871186893], [117.88321978915245, 24.07035803798258], [117.88304012609562, 24.07035803798258], [117.88304012609562, 24.070537701039402], [117.88375877832291, 24.070537701039402], [117.88375877832291, 24.070717364096225], [117.88393844137974, 24.070717364096225], [117.88393844137974, 24.07089702715305], [117.88375877832291, 24.07089702715305], [117.88375877832291, 24.071076690209875], [117.88357911526609, 24.071076690209875], [117.88357911526609, 24.071256353266698], [117.88321978915245, 24.071256353266698], [117.88321978915245, 24.07143601632352], [117.88304012609562, 24.07143601632352]], [[117.88321978915245, 24.057242634834434], [117.88304012609562, 24.057242634834434], [117.88304012609562, 24.057062971777608], [117.88321978915245, 24.057062971777608], [117.88321978915245, 24.057242634834434]], [[117.88304012609562, 24.057422297891257], [117.8828604630388, 24.057422297891257], [117.8828604630388, 24.057242634834434], [117.88304012609562, 24.057242634834434], [117.88304012609562, 24.057422297891257]], [[117.88142315858421, 24.057781624004903], [117.88106383247056, 24.057781624004903], [117.88106383247056, 24.05760196094808], [117.88142315858421, 24.05760196094808], [117.88142315858421, 24.057781624004903]], [[117.8805248433001, 24.05796128706173], [117.88034518024327, 24.05796128706173], [117.88034518024327, 24.057781624004903], [117.8805248433001, 24.057781624004903], [117.8805248433001, 24.05796128706173]], [[117.88160282164102, 24.05796128706173], [117.88142315858421, 24.05796128706173], [117.88142315858421, 24.057781624004903], [117.88160282164102, 24.057781624004903], [117.88160282164102, 24.05796128706173]], [[117.88232147386833, 24.058140950118553], [117.88196214775468, 24.058140950118553], [117.88196214775468, 24.05796128706173], [117.8821418108115, 24.05796128706173], [117.8821418108115, 24.05760196094808], [117.88250113692516, 24.05760196094808], [117.88250113692516, 24.05796128706173], [117.88232147386833, 24.05796128706173], [117.88232147386833, 24.058140950118553]], [[117.88645372417528, 24.059578254573143], [117.88627406111846, 24.059578254573143], [117.88627406111846, 24.05939859151632], [117.88645372417528, 24.05939859151632], [117.88645372417528, 24.059578254573143]], [[117.88555540889115, 24.059757917629966], [117.88501641972069, 24.059757917629966], [117.88501641972069, 24.059578254573143], [117.88483675666386, 24.059578254573143], [117.88483675666386, 24.059218928459497], [117.88501641972069, 24.059218928459497], [117.88501641972069, 24.05903926540267], [117.88519608277751, 24.05903926540267], [117.88519608277751, 24.058859602345848], [117.88465709360703, 24.058859602345848], [117.88465709360703, 24.058679939289025], [117.88483675666386, 24.058679939289025], [117.88483675666386, 24.058500276232202], [117.88537574583434, 24.058500276232202], [117.88537574583434, 24.058320613175376], [117.88555540889115, 24.058320613175376], [117.88555540889115, 24.058500276232202], [117.88573507194798, 24.058500276232202], [117.88573507194798, 24.058859602345848], [117.8859147350048, 24.058859602345848], [117.8859147350048, 24.05903926540267], [117.88609439806163, 24.05903926540267], [117.88609439806163, 24.05939859151632], [117.8859147350048, 24.05939859151632], [117.8859147350048, 24.059578254573143], [117.88555540889115, 24.059578254573143], [117.88555540889115, 24.059757917629966]], [[117.88681305028892, 24.060656232914088], [117.8866333872321, 24.060656232914088], [117.8866333872321, 24.060476569857265], [117.88681305028892, 24.060476569857265], [117.88681305028892, 24.060656232914088]], [[117.88627406111846, 24.06083589597091], [117.88609439806163, 24.06083589597091], [117.88609439806163, 24.060656232914088], [117.8859147350048, 24.060656232914088], [117.8859147350048, 24.059937580686793], [117.88609439806163, 24.059937580686793], [117.88609439806163, 24.060117243743615], [117.88627406111846, 24.060117243743615], [117.88627406111846, 24.06083589597091]], [[117.8873520394594, 24.06083589597091], [117.88681305028892, 24.06083589597091], [117.88681305028892, 24.060656232914088], [117.88699271334575, 24.060656232914088], [117.88699271334575, 24.060476569857265], [117.88717237640257, 24.060476569857265], [117.88717237640257, 24.06029690680044], [117.8873520394594, 24.06029690680044], [117.8873520394594, 24.060117243743615], [117.88717237640257, 24.060117243743615], [117.88717237640257, 24.059937580686793], [117.88699271334575, 24.059937580686793], [117.88699271334575, 24.059757917629966], [117.88681305028892, 24.059757917629966], [117.88681305028892, 24.05939859151632], [117.88753170251621, 24.05939859151632], [117.88753170251621, 24.059578254573143], [117.88807069168669, 24.059578254573143], [117.88807069168669, 24.05939859151632], [117.88825035474352, 24.05939859151632], [117.88825035474352, 24.059578254573143], [117.88843001780035, 24.059578254573143], [117.88843001780035, 24.059757917629966], [117.88789102862987, 24.059757917629966], [117.88789102862987, 24.059937580686793], [117.88771136557304, 24.059937580686793], [117.88771136557304, 24.06029690680044], [117.88753170251621, 24.06029690680044], [117.88753170251621, 24.060476569857265], [117.88771136557304, 24.060476569857265], [117.88771136557304, 24.060656232914088], [117.8873520394594, 24.060656232914088], [117.8873520394594, 24.06083589597091]], [[117.88807069168669, 24.06263252653915], [117.88753170251621, 24.06263252653915], [117.88753170251621, 24.062452863482328], [117.88699271334575, 24.062452863482328], [117.88699271334575, 24.0622732004255], [117.88717237640257, 24.0622732004255], [117.88717237640257, 24.061913874311855], [117.8873520394594, 24.061913874311855], [117.8873520394594, 24.061374885141383], [117.88771136557304, 24.061374885141383], [117.88771136557304, 24.061554548198206], [117.88807069168669, 24.061554548198206], [117.88807069168669, 24.06173421125503], [117.88825035474352, 24.06173421125503], [117.88825035474352, 24.061913874311855], [117.88843001780035, 24.061913874311855], [117.88843001780035, 24.06173421125503], [117.88860968085716, 24.06173421125503], [117.88860968085716, 24.061913874311855], [117.88896900697081, 24.061913874311855], [117.88896900697081, 24.06173421125503], [117.88878934391398, 24.06173421125503], [117.88878934391398, 24.061554548198206], [117.88860968085716, 24.061554548198206], [117.88860968085716, 24.061374885141383], [117.88896900697081, 24.061374885141383], [117.88896900697081, 24.06119522208456], [117.88914867002764, 24.06119522208456], [117.88914867002764, 24.061015559027734], [117.88896900697081, 24.061015559027734], [117.88896900697081, 24.06083589597091], [117.88860968085716, 24.06083589597091], [117.88860968085716, 24.060476569857265], [117.88878934391398, 24.060476569857265], [117.88878934391398, 24.06029690680044], [117.88896900697081, 24.06029690680044], [117.88896900697081, 24.059937580686793], [117.88860968085716, 24.059937580686793], [117.88860968085716, 24.059757917629966], [117.88896900697081, 24.059757917629966], [117.88896900697081, 24.059578254573143], [117.88950799614128, 24.059578254573143], [117.88950799614128, 24.059937580686793], [117.8896876591981, 24.059937580686793], [117.8896876591981, 24.060117243743615], [117.88986732225493, 24.060117243743615], [117.88986732225493, 24.060656232914088], [117.8896876591981, 24.060656232914088], [117.8896876591981, 24.06083589597091], [117.88986732225493, 24.06083589597091], [117.88986732225493, 24.061554548198206], [117.8896876591981, 24.061554548198206], [117.8896876591981, 24.06209353736868], [117.88986732225493, 24.06209353736868], [117.88986732225493, 24.062452863482328], [117.88860968085716, 24.062452863482328], [117.88860968085716, 24.0622732004255], [117.88825035474352, 24.0622732004255], [117.88825035474352, 24.062452863482328], [117.88807069168669, 24.062452863482328], [117.88807069168669, 24.06263252653915]], [[117.88681305028892, 24.06353084182327], [117.8866333872321, 24.06353084182327], [117.8866333872321, 24.063351178766446], [117.88681305028892, 24.063351178766446], [117.88681305028892, 24.06353084182327]], [[117.88483675666386, 24.063710504880095], [117.88465709360703, 24.063710504880095], [117.88465709360703, 24.06353084182327], [117.88483675666386, 24.06353084182327], [117.88483675666386, 24.063710504880095]], [[117.88519608277751, 24.063710504880095], [117.88501641972069, 24.063710504880095], [117.88501641972069, 24.06353084182327], [117.88483675666386, 24.06353084182327], [117.88483675666386, 24.063171515709623], [117.88501641972069, 24.063171515709623], [117.88501641972069, 24.062991852652797], [117.88537574583434, 24.062991852652797], [117.88537574583434, 24.06353084182327], [117.88519608277751, 24.06353084182327], [117.88519608277751, 24.063710504880095]], [[117.88771136557304, 24.065147809334686], [117.88753170251621, 24.065147809334686], [117.88753170251621, 24.06496814627786], [117.8873520394594, 24.06496814627786], [117.8873520394594, 24.064608820164214], [117.88717237640257, 24.064608820164214], [117.88717237640257, 24.06406983099374], [117.8873520394594, 24.06406983099374], [117.8873520394594, 24.06389016793692], [117.88771136557304, 24.06389016793692], [117.88771136557304, 24.064249494050564], [117.88789102862987, 24.064249494050564], [117.88789102862987, 24.06442915710739], [117.88807069168669, 24.06442915710739], [117.88807069168669, 24.064788483221037], [117.88789102862987, 24.064788483221037], [117.88789102862987, 24.06496814627786], [117.88771136557304, 24.06496814627786], [117.88771136557304, 24.065147809334686]], [[117.88321978915245, 24.065507135448332], [117.8821418108115, 24.065507135448332], [117.8821418108115, 24.06532747239151], [117.88196214775468, 24.06532747239151], [117.88196214775468, 24.065147809334686], [117.88178248469785, 24.065147809334686], [117.88178248469785, 24.06496814627786], [117.88268079998197, 24.06496814627786], [117.88268079998197, 24.064788483221037], [117.88321978915245, 24.064788483221037], [117.88321978915245, 24.06496814627786], [117.88304012609562, 24.06496814627786], [117.88304012609562, 24.06532747239151], [117.88321978915245, 24.06532747239151], [117.88321978915245, 24.065507135448332]], [[117.8828604630388, 24.066405450732454], [117.88268079998197, 24.066405450732454], [117.88268079998197, 24.066225787675627], [117.88250113692516, 24.066225787675627], [117.88250113692516, 24.066046124618804], [117.88304012609562, 24.066046124618804], [117.88304012609562, 24.066225787675627], [117.8828604630388, 24.066225787675627], [117.8828604630388, 24.066405450732454]], [[117.88178248469785, 24.068920733527985], [117.88160282164102, 24.068920733527985], [117.88160282164102, 24.068741070471162], [117.88142315858421, 24.068741070471162], [117.88142315858421, 24.06856140741434], [117.88160282164102, 24.06856140741434], [117.88160282164102, 24.068381744357517], [117.88178248469785, 24.068381744357517], [117.88178248469785, 24.06820208130069], [117.88196214775468, 24.06820208130069], [117.88196214775468, 24.06856140741434], [117.88178248469785, 24.06856140741434], [117.88178248469785, 24.068920733527985]]]}, "properties": {"name": "cand01", "ptype": "hall", "confidence": "low", "rank": 1, "area_ha": 89.4, "rise_db": 9.1, "digitised_from": "Sentinel-1 VV rise 2022->2026, orbit 142"}}, {"type": "Feature", "geometry": {"geodesic": false, "type": "Polygon", "coordinates": [[[117.88896900697081, 24.08095815833519], [117.88896900697081, 24.08059883222154], [117.88878934391398, 24.08059883222154], [117.88878934391398, 24.080778495278366], [117.88825035474352, 24.080778495278366], [117.88825035474352, 24.08095815833519], [117.88789102862987, 24.08095815833519], [117.88789102862987, 24.080239506107894], [117.88807069168669, 24.080239506107894], [117.88807069168669, 24.079880179994245], [117.88825035474352, 24.079880179994245], [117.88825035474352, 24.080059843051068], [117.88878934391398, 24.080059843051068], [117.88878934391398, 24.079880179994245], [117.88932833308446, 24.079880179994245], [117.88932833308446, 24.0795208538806], [117.88950799614128, 24.0795208538806], [117.88950799614128, 24.07916152776695], [117.88932833308446, 24.07916152776695], [117.88932833308446, 24.078981864710126], [117.88896900697081, 24.078981864710126], [117.88896900697081, 24.0788022016533], [117.88843001780035, 24.0788022016533], [117.88843001780035, 24.078442875539654], [117.88860968085716, 24.078442875539654], [117.88860968085716, 24.078083549426005], [117.88825035474352, 24.078083549426005], [117.88825035474352, 24.07826321248283], [117.88789102862987, 24.07826321248283], [117.88789102862987, 24.077544560255536], [117.88807069168669, 24.077544560255536], [117.88807069168669, 24.076646244971414], [117.88825035474352, 24.076646244971414], [117.88825035474352, 24.07646658191459], [117.88807069168669, 24.07646658191459], [117.88807069168669, 24.07502927746], [117.88789102862987, 24.07502927746], [117.88789102862987, 24.07466995134635], [117.88825035474352, 24.07466995134635], [117.88825035474352, 24.075208940516823], [117.88896900697081, 24.075208940516823], [117.88896900697081, 24.075388603573646], [117.88914867002764, 24.075388603573646], [117.88914867002764, 24.07610725580094], [117.88950799614128, 24.07610725580094], [117.88950799614128, 24.075208940516823], [117.89004698531176, 24.075208940516823], [117.89004698531176, 24.07610725580094], [117.89040631142541, 24.07610725580094], [117.89040631142541, 24.075568266630473], [117.89058597448222, 24.075568266630473], [117.89058597448222, 24.075388603573646], [117.89076563753905, 24.075388603573646], [117.89076563753905, 24.075568266630473], [117.89094530059587, 24.075568266630473], [117.89094530059587, 24.075747929687296], [117.8911249636527, 24.075747929687296], [117.8911249636527, 24.07610725580094], [117.89094530059587, 24.07610725580094], [117.89094530059587, 24.076646244971414], [117.8911249636527, 24.076646244971414], [117.8911249636527, 24.078442875539654], [117.89130462670953, 24.078442875539654], [117.89130462670953, 24.0795208538806], [117.8911249636527, 24.0795208538806], [117.8911249636527, 24.080778495278366], [117.89094530059587, 24.080778495278366], [117.89094530059587, 24.08059883222154], [117.89076563753905, 24.08059883222154], [117.89076563753905, 24.07970051693742], [117.89022664836858, 24.07970051693742], [117.89022664836858, 24.079880179994245], [117.89004698531176, 24.079880179994245], [117.89004698531176, 24.080059843051068], [117.88950799614128, 24.080059843051068], [117.88950799614128, 24.080419169164717], [117.88986732225493, 24.080419169164717], [117.88986732225493, 24.080239506107894], [117.89022664836858, 24.080239506107894], [117.89022664836858, 24.080059843051068], [117.89040631142541, 24.080059843051068], [117.89040631142541, 24.080239506107894], [117.89022664836858, 24.080239506107894], [117.89022664836858, 24.080419169164717], [117.89040631142541, 24.080419169164717], [117.89040631142541, 24.08059883222154], [117.89022664836858, 24.08059883222154], [117.89022664836858, 24.080778495278366], [117.89004698531176, 24.080778495278366], [117.89004698531176, 24.08095815833519], [117.88896900697081, 24.08095815833519]], [[117.8896876591981, 24.076825908028237], [117.88950799614128, 24.076825908028237], [117.88950799614128, 24.076646244971414], [117.8896876591981, 24.076646244971414], [117.8896876591981, 24.076825908028237]], [[117.89058597448222, 24.077185234141886], [117.89040631142541, 24.077185234141886], [117.89040631142541, 24.077005571085063], [117.89058597448222, 24.077005571085063], [117.89058597448222, 24.077185234141886]], [[117.88878934391398, 24.07772422331236], [117.88843001780035, 24.07772422331236], [117.88843001780035, 24.07736489719871], [117.88825035474352, 24.07736489719871], [117.88825035474352, 24.076825908028237], [117.88843001780035, 24.076825908028237], [117.88843001780035, 24.077005571085063], [117.88860968085716, 24.077005571085063], [117.88860968085716, 24.077544560255536], [117.88878934391398, 24.077544560255536], [117.88878934391398, 24.07772422331236]], [[117.89040631142541, 24.078442875539654], [117.89004698531176, 24.078442875539654], [117.89004698531176, 24.07826321248283], [117.88986732225493, 24.07826321248283], [117.88986732225493, 24.078083549426005], [117.88950799614128, 24.078083549426005], [117.88950799614128, 24.07790388636918], [117.88932833308446, 24.07790388636918], [117.88932833308446, 24.07772422331236], [117.88914867002764, 24.07772422331236], [117.88914867002764, 24.07790388636918], [117.88878934391398, 24.07790388636918], [117.88878934391398, 24.07772422331236], [117.88896900697081, 24.07772422331236], [117.88896900697081, 24.077544560255536], [117.8896876591981, 24.077544560255536], [117.8896876591981, 24.07736489719871], [117.88986732225493, 24.07736489719871], [117.88986732225493, 24.077544560255536], [117.89004698531176, 24.077544560255536], [117.89004698531176, 24.07736489719871], [117.88986732225493, 24.07736489719871], [117.88986732225493, 24.077185234141886], [117.89004698531176, 24.077185234141886], [117.89004698531176, 24.077005571085063], [117.8896876591981, 24.077005571085063], [117.8896876591981, 24.076825908028237], [117.89004698531176, 24.076825908028237], [117.89004698531176, 24.076646244971414], [117.89022664836858, 24.076646244971414], [117.89022664836858, 24.077544560255536], [117.89040631142541, 24.077544560255536], [117.89040631142541, 24.07772422331236], [117.89022664836858, 24.07772422331236], [117.89022664836858, 24.078083549426005], [117.89040631142541, 24.078083549426005], [117.89040631142541, 24.07790388636918], [117.89058597448222, 24.07790388636918], [117.89058597448222, 24.07772422331236], [117.89076563753905, 24.07772422331236], [117.89076563753905, 24.07826321248283], [117.89040631142541, 24.07826321248283], [117.89040631142541, 24.078442875539654]], [[117.88986732225493, 24.0788022016533], [117.8896876591981, 24.0788022016533], [117.8896876591981, 24.078622538596477], [117.88986732225493, 24.078622538596477], [117.88986732225493, 24.0788022016533]], [[117.89058597448222, 24.079341190823772], [117.89022664836858, 24.079341190823772], [117.89022664836858, 24.0788022016533], [117.89040631142541, 24.0788022016533], [117.89040631142541, 24.078981864710126], [117.89058597448222, 24.078981864710126], [117.89058597448222, 24.079341190823772]], [[117.88986732225493, 24.07970051693742], [117.8896876591981, 24.07970051693742], [117.8896876591981, 24.079341190823772], [117.88986732225493, 24.079341190823772], [117.88986732225493, 24.07970051693742]]]}, "properties": {"name": "cand02", "ptype": "hall", "confidence": "low", "rank": 2, "area_ha": 15.4, "rise_db": 6.9, "digitised_from": "Sentinel-1 VV rise 2022->2026, orbit 142"}}, {"type": "Feature", "geometry": {"geodesic": false, "type": "Polygon", "coordinates": [[[117.88106383247056, 24.081137821392012], [117.88106383247056, 24.080778495278366], [117.88088416941373, 24.080778495278366], [117.88088416941373, 24.080059843051068], [117.88106383247056, 24.080059843051068], [117.88106383247056, 24.079880179994245], [117.88124349552739, 24.079880179994245], [117.88124349552739, 24.0795208538806], [117.88160282164102, 24.0795208538806], [117.88160282164102, 24.07970051693742], [117.88196214775468, 24.07970051693742], [117.88196214775468, 24.079341190823772], [117.88178248469785, 24.079341190823772], [117.88178248469785, 24.07916152776695], [117.88142315858421, 24.07916152776695], [117.88142315858421, 24.078981864710126], [117.88124349552739, 24.078981864710126], [117.88124349552739, 24.0788022016533], [117.88142315858421, 24.0788022016533], [117.88142315858421, 24.078622538596477], [117.88196214775468, 24.078622538596477], [117.88196214775468, 24.078442875539654], [117.8821418108115, 24.078442875539654], [117.8821418108115, 24.07826321248283], [117.88196214775468, 24.07826321248283], [117.88196214775468, 24.07790388636918], [117.8821418108115, 24.07790388636918], [117.8821418108115, 24.075388603573646], [117.88232147386833, 24.075388603573646], [117.88232147386833, 24.075208940516823], [117.88250113692516, 24.075208940516823], [117.88250113692516, 24.07502927746], [117.88268079998197, 24.07502927746], [117.88268079998197, 24.074849614403174], [117.8828604630388, 24.074849614403174], [117.8828604630388, 24.07502927746], [117.88339945220928, 24.07502927746], [117.88339945220928, 24.075208940516823], [117.88375877832291, 24.075208940516823], [117.88375877832291, 24.075568266630473], [117.88339945220928, 24.075568266630473], [117.88339945220928, 24.07592759274412], [117.88357911526609, 24.07592759274412], [117.88357911526609, 24.07610725580094], [117.88375877832291, 24.07610725580094], [117.88375877832291, 24.077005571085063], [117.88357911526609, 24.077005571085063], [117.88357911526609, 24.07736489719871], [117.88375877832291, 24.07736489719871], [117.88375877832291, 24.07790388636918], [117.88357911526609, 24.07790388636918], [117.88357911526609, 24.078083549426005], [117.88339945220928, 24.078083549426005], [117.88339945220928, 24.07790388636918], [117.88321978915245, 24.07790388636918], [117.88321978915245, 24.078083549426005], [117.88304012609562, 24.078083549426005], [117.88304012609562, 24.07826321248283], [117.8828604630388, 24.07826321248283], [117.8828604630388, 24.078083549426005], [117.88250113692516, 24.078083549426005], [117.88250113692516, 24.078442875539654], [117.88268079998197, 24.078442875539654], [117.88268079998197, 24.078622538596477], [117.8828604630388, 24.078622538596477], [117.8828604630388, 24.078442875539654], [117.88321978915245, 24.078442875539654], [117.88321978915245, 24.07916152776695], [117.8828604630388, 24.07916152776695], [117.8828604630388, 24.0788022016533], [117.88268079998197, 24.0788022016533], [117.88268079998197, 24.079880179994245], [117.88250113692516, 24.079880179994245], [117.88250113692516, 24.080059843051068], [117.88232147386833, 24.080059843051068], [117.88232147386833, 24.080239506107894], [117.88196214775468, 24.080239506107894], [117.88196214775468, 24.080059843051068], [117.88178248469785, 24.080059843051068], [117.88178248469785, 24.080239506107894], [117.88160282164102, 24.080239506107894], [117.88160282164102, 24.080419169164717], [117.88142315858421, 24.080419169164717], [117.88142315858421, 24.08059883222154], [117.88124349552739, 24.08059883222154], [117.88124349552739, 24.080778495278366], [117.88142315858421, 24.080778495278366], [117.88142315858421, 24.081137821392012], [117.88106383247056, 24.081137821392012]], [[117.88339945220928, 24.07772422331236], [117.88321978915245, 24.07772422331236], [117.88321978915245, 24.077544560255536], [117.88339945220928, 24.077544560255536], [117.88339945220928, 24.07772422331236]]]}, "properties": {"name": "cand03", "ptype": "hall", "confidence": "low", "rank": 3, "area_ha": 9.3, "rise_db": 6.5, "digitised_from": "Sentinel-1 VV rise 2022->2026, orbit 142"}}, {"type": "Feature", "geometry": {"geodesic": false, "type": "Polygon", "coordinates": [[[117.89166395282317, 24.064249494050564], [117.89166395282317, 24.063710504880095], [117.89202327893682, 24.063710504880095], [117.89202327893682, 24.06353084182327], [117.89220294199365, 24.06353084182327], [117.89220294199365, 24.063351178766446], [117.89202327893682, 24.063351178766446], [117.89202327893682, 24.062812189595974], [117.89220294199365, 24.062812189595974], [117.89220294199365, 24.06263252653915], [117.89238260505047, 24.06263252653915], [117.89238260505047, 24.0622732004255], [117.89202327893682, 24.0622732004255], [117.89202327893682, 24.062452863482328], [117.89148428976634, 24.062452863482328], [117.89148428976634, 24.06209353736868], [117.89130462670953, 24.06209353736868], [117.89130462670953, 24.06119522208456], [117.8911249636527, 24.06119522208456], [117.8911249636527, 24.061015559027734], [117.89094530059587, 24.061015559027734], [117.89094530059587, 24.060476569857265], [117.8911249636527, 24.060476569857265], [117.8911249636527, 24.06029690680044], [117.89130462670953, 24.06029690680044], [117.89130462670953, 24.060117243743615], [117.8911249636527, 24.060117243743615], [117.8911249636527, 24.059937580686793], [117.89130462670953, 24.059937580686793], [117.89130462670953, 24.059757917629966], [117.89184361587999, 24.059757917629966], [117.89184361587999, 24.059578254573143], [117.89256226810728, 24.059578254573143], [117.89256226810728, 24.05939859151632], [117.89274193116411, 24.05939859151632], [117.89274193116411, 24.059578254573143], [117.89292159422094, 24.059578254573143], [117.89292159422094, 24.059757917629966], [117.89274193116411, 24.059757917629966], [117.89274193116411, 24.059937580686793], [117.89292159422094, 24.059937580686793], [117.89292159422094, 24.060117243743615], [117.89310125727776, 24.060117243743615], [117.89310125727776, 24.061015559027734], [117.89328092033459, 24.061015559027734], [117.89328092033459, 24.061374885141383], [117.8934605833914, 24.061374885141383], [117.8934605833914, 24.061554548198206], [117.89381990950505, 24.061554548198206], [117.89381990950505, 24.06173421125503], [117.89399957256188, 24.06173421125503], [117.89399957256188, 24.06209353736868], [117.89381990950505, 24.06209353736868], [117.89381990950505, 24.062452863482328], [117.89364024644823, 24.062452863482328], [117.89364024644823, 24.06263252653915], [117.8934605833914, 24.06263252653915], [117.8934605833914, 24.062452863482328], [117.89328092033459, 24.062452863482328], [117.89328092033459, 24.06263252653915], [117.89310125727776, 24.06263252653915], [117.89310125727776, 24.062991852652797], [117.89292159422094, 24.062991852652797], [117.89292159422094, 24.063171515709623], [117.89256226810728, 24.063171515709623], [117.89256226810728, 24.063351178766446], [117.89238260505047, 24.063351178766446], [117.89238260505047, 24.06353084182327], [117.89220294199365, 24.06353084182327], [117.89220294199365, 24.064249494050564], [117.89166395282317, 24.064249494050564]], [[117.89256226810728, 24.060476569857265], [117.89238260505047, 24.060476569857265], [117.89238260505047, 24.06029690680044], [117.89256226810728, 24.06029690680044], [117.89256226810728, 24.060476569857265]], [[117.89238260505047, 24.06119522208456], [117.89184361587999, 24.06119522208456], [117.89184361587999, 24.061015559027734], [117.89202327893682, 24.061015559027734], [117.89202327893682, 24.06083589597091], [117.89220294199365, 24.06083589597091], [117.89220294199365, 24.060656232914088], [117.89256226810728, 24.060656232914088], [117.89256226810728, 24.061015559027734], [117.89238260505047, 24.061015559027734], [117.89238260505047, 24.06119522208456]]]}, "properties": {"name": "cand04", "ptype": "hall", "confidence": "low", "rank": 4, "area_ha": 8.5, "rise_db": 5.9, "digitised_from": "Sentinel-1 VV rise 2022->2026, orbit 142"}}, {"type": "Feature", "geometry": {"geodesic": false, "type": "Polygon", "coordinates": [[[117.88807069168669, 24.044486557799935], [117.88807069168669, 24.044306894743112], [117.88771136557304, 24.044306894743112], [117.88771136557304, 24.044486557799935], [117.88699271334575, 24.044486557799935], [117.88699271334575, 24.044306894743112], [117.8866333872321, 24.044306894743112], [117.8866333872321, 24.04376790557264], [117.88681305028892, 24.04376790557264], [117.88681305028892, 24.043408579458994], [117.88825035474352, 24.043408579458994], [117.88825035474352, 24.043588242515817], [117.88860968085716, 24.043588242515817], [117.88860968085716, 24.043049253345345], [117.88843001780035, 24.043049253345345], [117.88843001780035, 24.04286959028852], [117.88878934391398, 24.04286959028852], [117.88878934391398, 24.043049253345345], [117.88896900697081, 24.043049253345345], [117.88896900697081, 24.043228916402168], [117.88950799614128, 24.043228916402168], [117.88950799614128, 24.043049253345345], [117.88914867002764, 24.043049253345345], [117.88914867002764, 24.042689927231695], [117.88932833308446, 24.042689927231695], [117.88932833308446, 24.042510264174872], [117.89058597448222, 24.042510264174872], [117.89058597448222, 24.04286959028852], [117.89040631142541, 24.04286959028852], [117.89040631142541, 24.043049253345345], [117.88986732225493, 24.043049253345345], [117.88986732225493, 24.043408579458994], [117.88950799614128, 24.043408579458994], [117.88950799614128, 24.043588242515817], [117.88932833308446, 24.043588242515817], [117.88932833308446, 24.04376790557264], [117.88914867002764, 24.04376790557264], [117.88914867002764, 24.043947568629463], [117.88878934391398, 24.043947568629463], [117.88878934391398, 24.04412723168629], [117.88843001780035, 24.04412723168629], [117.88843001780035, 24.044306894743112], [117.88825035474352, 24.044306894743112], [117.88825035474352, 24.044486557799935], [117.88807069168669, 24.044486557799935]], [[117.88753170251621, 24.04412723168629], [117.8873520394594, 24.04412723168629], [117.8873520394594, 24.043947568629463], [117.88753170251621, 24.043947568629463], [117.88753170251621, 24.04412723168629]]]}, "properties": {"name": "cand05", "ptype": "hall", "confidence": "low", "rank": 5, "area_ha": 4.1, "rise_db": 6.2, "digitised_from": "Sentinel-1 VV rise 2022->2026, orbit 142"}}, {"type": "Feature", "geometry": {"geodesic": false, "type": "Polygon", "coordinates": [[[117.8821418108115, 24.073951299119056], [117.8821418108115, 24.07287332077811], [117.88232147386833, 24.07287332077811], [117.88232147386833, 24.072513994664465], [117.8821418108115, 24.072513994664465], [117.8821418108115, 24.071975005493993], [117.88250113692516, 24.071975005493993], [117.88250113692516, 24.07179534243717], [117.88304012609562, 24.07179534243717], [117.88304012609562, 24.071615679380347], [117.88357911526609, 24.071615679380347], [117.88357911526609, 24.07179534243717], [117.88375877832291, 24.07179534243717], [117.88375877832291, 24.072154668550816], [117.88357911526609, 24.072154668550816], [117.88357911526609, 24.072334331607642], [117.88339945220928, 24.072334331607642], [117.88339945220928, 24.07359197300541], [117.88357911526609, 24.07359197300541], [117.88357911526609, 24.073771636062233], [117.88339945220928, 24.073771636062233], [117.88339945220928, 24.073951299119056], [117.8821418108115, 24.073951299119056]]]}, "properties": {"name": "cand06", "ptype": "hall", "confidence": "low", "rank": 6, "area_ha": 3.6, "rise_db": 6.5, "digitised_from": "Sentinel-1 VV rise 2022->2026, orbit 142"}}, {"type": "Feature", "geometry": {"geodesic": false, "type": "Polygon", "coordinates": [[[117.88932833308446, 24.058679939289025], [117.88932833308446, 24.058500276232202], [117.88914867002764, 24.058500276232202], [117.88914867002764, 24.058320613175376], [117.88896900697081, 24.058320613175376], [117.88896900697081, 24.05796128706173], [117.88914867002764, 24.05796128706173], [117.88914867002764, 24.057781624004903], [117.88896900697081, 24.057781624004903], [117.88896900697081, 24.05760196094808], [117.88860968085716, 24.05760196094808], [117.88860968085716, 24.057781624004903], [117.88789102862987, 24.057781624004903], [117.88789102862987, 24.05796128706173], [117.88753170251621, 24.05796128706173], [117.88753170251621, 24.057781624004903], [117.88717237640257, 24.057781624004903], [117.88717237640257, 24.057422297891257], [117.8873520394594, 24.057422297891257], [117.8873520394594, 24.05760196094808], [117.88771136557304, 24.05760196094808], [117.88771136557304, 24.057422297891257], [117.88789102862987, 24.057422297891257], [117.88789102862987, 24.057242634834434], [117.88878934391398, 24.057242634834434], [117.88878934391398, 24.057062971777608], [117.89004698531176, 24.057062971777608], [117.89004698531176, 24.057242634834434], [117.89022664836858, 24.057242634834434], [117.89022664836858, 24.057422297891257], [117.89058597448222, 24.057422297891257], [117.89058597448222, 24.057242634834434], [117.8911249636527, 24.057242634834434], [117.8911249636527, 24.057781624004903], [117.89094530059587, 24.057781624004903], [117.89094530059587, 24.058320613175376], [117.89058597448222, 24.058320613175376], [117.89058597448222, 24.05796128706173], [117.89040631142541, 24.05796128706173], [117.89040631142541, 24.057781624004903], [117.88950799614128, 24.057781624004903], [117.88950799614128, 24.058140950118553], [117.88932833308446, 24.058140950118553], [117.88932833308446, 24.058320613175376], [117.89004698531176, 24.058320613175376], [117.89004698531176, 24.058679939289025], [117.88932833308446, 24.058679939289025]]]}, "properties": {"name": "cand07", "ptype": "hall", "confidence": "low", "rank": 7, "area_ha": 3.5, "rise_db": 6.3, "digitised_from": "Sentinel-1 VV rise 2022->2026, orbit 142"}}, {"type": "Feature", "geometry": {"geodesic": false, "type": "Polygon", "coordinates": [[[117.89076563753905, 24.067842755187044], [117.89076563753905, 24.066944439902922], [117.89094530059587, 24.066944439902922], [117.89094530059587, 24.066585113789277], [117.89076563753905, 24.066585113789277], [117.89076563753905, 24.066225787675627], [117.89058597448222, 24.066225787675627], [117.89058597448222, 24.066405450732454], [117.89040631142541, 24.066405450732454], [117.89040631142541, 24.066046124618804], [117.89076563753905, 24.066046124618804], [117.89076563753905, 24.06586646156198], [117.89094530059587, 24.06586646156198], [117.89094530059587, 24.06568679850516], [117.89130462670953, 24.06568679850516], [117.89130462670953, 24.065507135448332], [117.89148428976634, 24.065507135448332], [117.89148428976634, 24.065147809334686], [117.89184361587999, 24.065147809334686], [117.89184361587999, 24.065507135448332], [117.89166395282317, 24.065507135448332], [117.89166395282317, 24.06568679850516], [117.89256226810728, 24.06568679850516], [117.89256226810728, 24.066046124618804], [117.89202327893682, 24.066046124618804], [117.89202327893682, 24.06586646156198], [117.89184361587999, 24.06586646156198], [117.89184361587999, 24.066405450732454], [117.89238260505047, 24.066405450732454], [117.89238260505047, 24.066944439902922], [117.89220294199365, 24.066944439902922], [117.89220294199365, 24.06712410295975], [117.89184361587999, 24.06712410295975], [117.89184361587999, 24.067303766016572], [117.89130462670953, 24.067303766016572], [117.89130462670953, 24.067483429073395], [117.8911249636527, 24.067483429073395], [117.8911249636527, 24.067842755187044], [117.89076563753905, 24.067842755187044]], [[117.8911249636527, 24.066405450732454], [117.89094530059587, 24.066405450732454], [117.89094530059587, 24.066225787675627], [117.8911249636527, 24.066225787675627], [117.8911249636527, 24.066405450732454]]]}, "properties": {"name": "cand08", "ptype": "hall", "confidence": "low", "rank": 8, "area_ha": 3.4, "rise_db": 5.0, "digitised_from": "Sentinel-1 VV rise 2022->2026, orbit 142"}}, {"type": "Feature", "geometry": {"geodesic": false, "type": "Polygon", "coordinates": [[[117.84710751473084, 24.094253224540157], [117.84710751473084, 24.09335490925604], [117.84692785167401, 24.09335490925604], [117.84692785167401, 24.093175246199213], [117.84656852556037, 24.093175246199213], [117.84656852556037, 24.092815920085567], [117.8467481886172, 24.092815920085567], [117.8467481886172, 24.092636257028744], [117.84692785167401, 24.092636257028744], [117.84692785167401, 24.092456593971917], [117.84728717778766, 24.092456593971917], [117.84728717778766, 24.092815920085567], [117.84764650390132, 24.092815920085567], [117.84764650390132, 24.09299558314239], [117.84800583001496, 24.09299558314239], [117.84800583001496, 24.09335490925604], [117.84818549307178, 24.09335490925604], [117.84818549307178, 24.093534572312862], [117.84836515612861, 24.093534572312862], [117.84836515612861, 24.093714235369685], [117.84854481918543, 24.093714235369685], [117.84854481918543, 24.093893898426508], [117.84872448224226, 24.093893898426508], [117.84872448224226, 24.094073561483334], [117.84890414529907, 24.094073561483334], [117.84890414529907, 24.094253224540157], [117.84710751473084, 24.094253224540157]]]}, "properties": {"name": "cand09", "ptype": "hall", "confidence": "low", "rank": 9, "area_ha": 2.6, "rise_db": 7.6, "digitised_from": "Sentinel-1 VV rise 2022->2026, orbit 142"}}, {"type": "Feature", "geometry": {"geodesic": false, "type": "Polygon", "coordinates": [[[117.88717237640257, 24.055625667323017], [117.88717237640257, 24.055446004266194], [117.88699271334575, 24.055446004266194], [117.88699271334575, 24.0547273520389], [117.88681305028892, 24.0547273520389], [117.88681305028892, 24.054008699811604], [117.8873520394594, 24.054008699811604], [117.8873520394594, 24.054188362868427], [117.88825035474352, 24.054188362868427], [117.88825035474352, 24.05436802592525], [117.88843001780035, 24.05436802592525], [117.88843001780035, 24.054547688982076], [117.88789102862987, 24.054547688982076], [117.88789102862987, 24.0547273520389], [117.88825035474352, 24.0547273520389], [117.88825035474352, 24.054907015095722], [117.88843001780035, 24.054907015095722], [117.88843001780035, 24.055086678152545], [117.88860968085716, 24.055086678152545], [117.88860968085716, 24.05526634120937], [117.88825035474352, 24.05526634120937], [117.88825035474352, 24.055086678152545], [117.88753170251621, 24.055086678152545], [117.88753170251621, 24.055446004266194], [117.8873520394594, 24.055446004266194], [117.8873520394594, 24.055625667323017], [117.88717237640257, 24.055625667323017]]]}, "properties": {"name": "cand10", "ptype": "hall", "confidence": "low", "rank": 10, "area_ha": 2.0, "rise_db": 6.5, "digitised_from": "Sentinel-1 VV rise 2022->2026, orbit 142"}}, {"type": "Feature", "geometry": {"geodesic": false, "type": "Polygon", "coordinates": [[[117.89651485535741, 24.03280845910638], [117.89651485535741, 24.032269469935912], [117.89669451841424, 24.032269469935912], [117.89669451841424, 24.031910143822262], [117.89651485535741, 24.031910143822262], [117.89651485535741, 24.03137115465179], [117.89669451841424, 24.03137115465179], [117.89669451841424, 24.031011828538144], [117.89651485535741, 24.031011828538144], [117.89651485535741, 24.03029317631085], [117.89687418147106, 24.03029317631085], [117.89687418147106, 24.0299338501972], [117.89705384452789, 24.0299338501972], [117.89705384452789, 24.030652502424495], [117.89723350758472, 24.030652502424495], [117.89723350758472, 24.030832165481318], [117.89741317064153, 24.030832165481318], [117.89741317064153, 24.03137115465179], [117.89723350758472, 24.03137115465179], [117.89723350758472, 24.032089806879085], [117.89705384452789, 24.032089806879085], [117.89705384452789, 24.032449132992735], [117.89687418147106, 24.032449132992735], [117.89687418147106, 24.03280845910638], [117.89651485535741, 24.03280845910638]]]}, "properties": {"name": "cand11", "ptype": "hall", "confidence": "low", "rank": 11, "area_ha": 2.0, "rise_db": 6.2, "digitised_from": "Sentinel-1 VV rise 2022->2026, orbit 142"}}, {"type": "Feature", "geometry": {"geodesic": false, "type": "Polygon", "coordinates": [[[117.8896876591981, 24.046462851424998], [117.8896876591981, 24.046283188368175], [117.88950799614128, 24.046283188368175], [117.88950799614128, 24.045384873084057], [117.8896876591981, 24.045384873084057], [117.8896876591981, 24.045025546970408], [117.88986732225493, 24.045025546970408], [117.88986732225493, 24.044845883913585], [117.89040631142541, 24.044845883913585], [117.89040631142541, 24.045025546970408], [117.89058597448222, 24.045025546970408], [117.89058597448222, 24.045384873084057], [117.89076563753905, 24.045384873084057], [117.89076563753905, 24.046283188368175], [117.89022664836858, 24.046283188368175], [117.89022664836858, 24.046462851424998], [117.8896876591981, 24.046462851424998]], [[117.89022664836858, 24.045923862254526], [117.88986732225493, 24.045923862254526], [117.88986732225493, 24.045744199197703], [117.8896876591981, 24.045744199197703], [117.8896876591981, 24.04556453614088], [117.89004698531176, 24.04556453614088], [117.89004698531176, 24.045744199197703], [117.89022664836858, 24.045744199197703], [117.89022664836858, 24.045923862254526]]]}, "properties": {"name": "cand12", "ptype": "hall", "confidence": "low", "rank": 12, "area_ha": 1.9, "rise_db": 8.8, "digitised_from": "Sentinel-1 VV rise 2022->2026, orbit 142"}}, {"type": "Feature", "geometry": {"geodesic": false, "type": "Polygon", "coordinates": [[[117.88950799614128, 24.071256353266698], [117.88950799614128, 24.07089702715305], [117.88932833308446, 24.07089702715305], [117.88932833308446, 24.069819048812107], [117.88914867002764, 24.069819048812107], [117.88914867002764, 24.069459722698458], [117.88950799614128, 24.069459722698458], [117.88950799614128, 24.069280059641635], [117.8896876591981, 24.069280059641635], [117.8896876591981, 24.068920733527985], [117.89004698531176, 24.068920733527985], [117.89004698531176, 24.069100396584812], [117.89022664836858, 24.069100396584812], [117.89022664836858, 24.069280059641635], [117.89004698531176, 24.069280059641635], [117.89004698531176, 24.06999871186893], [117.88986732225493, 24.06999871186893], [117.88986732225493, 24.071256353266698], [117.88950799614128, 24.071256353266698]]]}, "properties": {"name": "cand13", "ptype": "hall", "confidence": "low", "rank": 13, "area_ha": 1.6, "rise_db": 5.7, "digitised_from": "Sentinel-1 VV rise 2022->2026, orbit 142"}}, {"type": "Feature", "geometry": {"geodesic": false, "type": "Polygon", "coordinates": [[[117.88393844137974, 24.0870667022672], [117.88393844137974, 24.08652771309673], [117.88357911526609, 24.08652771309673], [117.88357911526609, 24.086348050039906], [117.88339945220928, 24.086348050039906], [117.88339945220928, 24.086168386983083], [117.88304012609562, 24.086168386983083], [117.88304012609562, 24.086348050039906], [117.88268079998197, 24.086348050039906], [117.88268079998197, 24.085988723926256], [117.88339945220928, 24.085988723926256], [117.88339945220928, 24.085809060869433], [117.88375877832291, 24.085809060869433], [117.88375877832291, 24.08562939781261], [117.8842977674934, 24.08562939781261], [117.8842977674934, 24.085449734755787], [117.88465709360703, 24.085449734755787], [117.88465709360703, 24.085988723926256], [117.88447743055022, 24.085988723926256], [117.88447743055022, 24.085809060869433], [117.88411810443657, 24.085809060869433], [117.88411810443657, 24.085988723926256], [117.8842977674934, 24.085988723926256], [117.8842977674934, 24.086348050039906], [117.88447743055022, 24.086348050039906], [117.88447743055022, 24.086887039210378], [117.8842977674934, 24.086887039210378], [117.8842977674934, 24.0870667022672], [117.88393844137974, 24.0870667022672]]]}, "properties": {"name": "cand14", "ptype": "hall", "confidence": "low", "rank": 14, "area_ha": 1.6, "rise_db": 5.3, "digitised_from": "Sentinel-1 VV rise 2022->2026, orbit 142"}}, {"type": "Feature", "geometry": {"geodesic": false, "type": "Polygon", "coordinates": [[[117.88573507194798, 24.075747929687296], [117.88573507194798, 24.075568266630473], [117.88555540889115, 24.075568266630473], [117.88555540889115, 24.075208940516823], [117.88573507194798, 24.075208940516823], [117.88573507194798, 24.07502927746], [117.8859147350048, 24.07502927746], [117.8859147350048, 24.074849614403174], [117.88609439806163, 24.074849614403174], [117.88609439806163, 24.074490288289528], [117.88627406111846, 24.074490288289528], [117.88627406111846, 24.07413096217588], [117.8866333872321, 24.07413096217588], [117.8866333872321, 24.074310625232705], [117.88681305028892, 24.074310625232705], [117.88681305028892, 24.075388603573646], [117.88645372417528, 24.075388603573646], [117.88645372417528, 24.075568266630473], [117.88627406111846, 24.075568266630473], [117.88627406111846, 24.075747929687296], [117.88573507194798, 24.075747929687296]]]}, "properties": {"name": "cand15", "ptype": "hall", "confidence": "low", "rank": 15, "area_ha": 1.6, "rise_db": 7.9, "digitised_from": "Sentinel-1 VV rise 2022->2026, orbit 142"}}, {"type": "Feature", "geometry": {"geodesic": false, "type": "Polygon", "coordinates": [[[117.88106383247056, 24.085988723926256], [117.88106383247056, 24.085449734755787], [117.88088416941373, 24.085449734755787], [117.88088416941373, 24.084910745585315], [117.8807045063569, 24.084910745585315], [117.8807045063569, 24.084551419471666], [117.88106383247056, 24.084551419471666], [117.88106383247056, 24.084731082528492], [117.88124349552739, 24.084731082528492], [117.88124349552739, 24.08527007169896], [117.88160282164102, 24.08527007169896], [117.88160282164102, 24.085449734755787], [117.88178248469785, 24.085449734755787], [117.88178248469785, 24.08527007169896], [117.88196214775468, 24.08527007169896], [117.88196214775468, 24.084910745585315], [117.88232147386833, 24.084910745585315], [117.88232147386833, 24.085809060869433], [117.8821418108115, 24.085809060869433], [117.8821418108115, 24.085988723926256], [117.88106383247056, 24.085988723926256]], [[117.88196214775468, 24.08562939781261], [117.88178248469785, 24.08562939781261], [117.88178248469785, 24.085449734755787], [117.88196214775468, 24.085449734755787], [117.88196214775468, 24.08562939781261]]]}, "properties": {"name": "cand16", "ptype": "hall", "confidence": "low", "rank": 16, "area_ha": 1.6, "rise_db": 6.2, "digitised_from": "Sentinel-1 VV rise 2022->2026, orbit 142"}}, {"type": "Feature", "geometry": {"geodesic": false, "type": "Polygon", "coordinates": [[[117.88537574583434, 24.04987644950465], [117.88537574583434, 24.04969678644783], [117.88519608277751, 24.04969678644783], [117.88519608277751, 24.049337460334183], [117.88537574583434, 24.049337460334183], [117.88537574583434, 24.049157797277356], [117.88555540889115, 24.049157797277356], [117.88555540889115, 24.04843914505006], [117.8859147350048, 24.04843914505006], [117.8859147350048, 24.048618808106887], [117.88645372417528, 24.048618808106887], [117.88645372417528, 24.04879847116371], [117.8866333872321, 24.04879847116371], [117.8866333872321, 24.048978134220533], [117.88645372417528, 24.048978134220533], [117.88645372417528, 24.049157797277356], [117.88627406111846, 24.049157797277356], [117.88627406111846, 24.049337460334183], [117.88609439806163, 24.049337460334183], [117.88609439806163, 24.049517123391006], [117.88627406111846, 24.049517123391006], [117.88627406111846, 24.04969678644783], [117.88609439806163, 24.04969678644783], [117.88609439806163, 24.04987644950465], [117.88537574583434, 24.04987644950465]]]}, "properties": {"name": "cand17", "ptype": "hall", "confidence": "low", "rank": 17, "area_ha": 1.5, "rise_db": 6.2, "digitised_from": "Sentinel-1 VV rise 2022->2026, orbit 142"}}, {"type": "Feature", "geometry": {"geodesic": false, "type": "Polygon", "coordinates": [[[117.89328092033459, 24.04286959028852], [117.89328092033459, 24.042689927231695], [117.89310125727776, 24.042689927231695], [117.89310125727776, 24.0419712750044], [117.89328092033459, 24.0419712750044], [117.89328092033459, 24.041791611947577], [117.8934605833914, 24.041791611947577], [117.8934605833914, 24.0419712750044], [117.89381990950505, 24.0419712750044], [117.89381990950505, 24.04143228583393], [117.89417923561871, 24.04143228583393], [117.89417923561871, 24.041611948890754], [117.89399957256188, 24.041611948890754], [117.89399957256188, 24.0419712750044], [117.89435889867553, 24.0419712750044], [117.89435889867553, 24.042510264174872], [117.89399957256188, 24.042510264174872], [117.89399957256188, 24.042689927231695], [117.8934605833914, 24.042689927231695], [117.8934605833914, 24.04286959028852], [117.89328092033459, 24.04286959028852]]]}, "properties": {"name": "cand18", "ptype": "hall", "confidence": "low", "rank": 18, "area_ha": 1.3, "rise_db": 6.7, "digitised_from": "Sentinel-1 VV rise 2022->2026, orbit 142"}}, {"type": "Feature", "geometry": {"geodesic": false, "type": "Polygon", "coordinates": [[[117.88537574583434, 24.052391732300187], [117.88537574583434, 24.051852743129714], [117.88519608277751, 24.051852743129714], [117.88519608277751, 24.05167308007289], [117.88537574583434, 24.05167308007289], [117.88537574583434, 24.05149341701607], [117.88573507194798, 24.05149341701607], [117.88573507194798, 24.05167308007289], [117.8859147350048, 24.05167308007289], [117.8859147350048, 24.05113409090242], [117.88573507194798, 24.05113409090242], [117.88573507194798, 24.050774764788773], [117.8859147350048, 24.050774764788773], [117.8859147350048, 24.05059510173195], [117.88609439806163, 24.05059510173195], [117.88609439806163, 24.050774764788773], [117.88627406111846, 24.050774764788773], [117.88627406111846, 24.05113409090242], [117.88609439806163, 24.05113409090242], [117.88609439806163, 24.051852743129714], [117.88573507194798, 24.051852743129714], [117.88573507194798, 24.05203240618654], [117.88645372417528, 24.05203240618654], [117.88645372417528, 24.052212069243364], [117.88627406111846, 24.052212069243364], [117.88627406111846, 24.052391732300187], [117.88537574583434, 24.052391732300187]]]}, "properties": {"name": "cand19", "ptype": "hall", "confidence": "low", "rank": 19, "area_ha": 1.2, "rise_db": 6.3, "digitised_from": "Sentinel-1 VV rise 2022->2026, orbit 142"}}, {"type": "Feature", "geometry": {"geodesic": false, "type": "Polygon", "coordinates": [[[117.88483675666386, 24.04107295972028], [117.88483675666386, 24.04089329666346], [117.88465709360703, 24.04089329666346], [117.88465709360703, 24.040174644436163], [117.88483675666386, 24.040174644436163], [117.88483675666386, 24.039994981379337], [117.88537574583434, 24.039994981379337], [117.88537574583434, 24.040174644436163], [117.88609439806163, 24.040174644436163], [117.88609439806163, 24.04053397054981], [117.88537574583434, 24.04053397054981], [117.88537574583434, 24.04089329666346], [117.88519608277751, 24.04089329666346], [117.88519608277751, 24.04107295972028], [117.88483675666386, 24.04107295972028]]]}, "properties": {"name": "cand20", "ptype": "hall", "confidence": "low", "rank": 20, "area_ha": 1.2, "rise_db": 6.8, "digitised_from": "Sentinel-1 VV rise 2022->2026, orbit 142"}}]}