{"type": "FeatureCollection", "features": [{"type": "Feature", "geometry": {"geodesic": false, "type": "Polygon", "coordinates": [[[115.35033001404905, 35.75348729712743], [115.35033001404905, 35.75312797101378], [115.35015035099222, 35.75312797101378], [115.35015035099222, 35.752948307956956], [115.3499706879354, 35.752948307956956], [115.3499706879354, 35.75276864490013], [115.34961136182174, 35.75276864490013], [115.34961136182174, 35.75258898184331], [115.3492520357081, 35.75258898184331], [115.3492520357081, 35.75240931878648], [115.34907237265128, 35.75240931878648], [115.34907237265128, 35.75222965572966], [115.34871304653763, 35.75222965572966], [115.34871304653763, 35.75240931878648], [115.3485333834808, 35.75240931878648], [115.3485333834808, 35.75258898184331], [115.34835372042399, 35.75258898184331], [115.34835372042399, 35.75276864490013], [115.3485333834808, 35.75276864490013], [115.3485333834808, 35.752948307956956], [115.34871304653763, 35.752948307956956], [115.34871304653763, 35.75312797101378], [115.3485333834808, 35.75312797101378], [115.3485333834808, 35.7533076340706], [115.34763506819668, 35.7533076340706], [115.34763506819668, 35.75312797101378], [115.34727574208304, 35.75312797101378], [115.34727574208304, 35.7533076340706], [115.34709607902622, 35.7533076340706], [115.34709607902622, 35.75348729712743], [115.34547911151479, 35.75348729712743], [115.34547911151479, 35.7533076340706], [115.34511978540115, 35.7533076340706], [115.34511978540115, 35.75312797101378], [115.34494012234433, 35.75312797101378], [115.34494012234433, 35.75276864490013], [115.34511978540115, 35.75276864490013], [115.34511978540115, 35.75258898184331], [115.34494012234433, 35.75258898184331], [115.34494012234433, 35.75240931878648], [115.3447604592875, 35.75240931878648], [115.3447604592875, 35.75222965572966], [115.34494012234433, 35.75222965572966], [115.34494012234433, 35.75204999267284], [115.34529944845798, 35.75204999267284], [115.34529944845798, 35.75187032961601], [115.34511978540115, 35.75187032961601], [115.34511978540115, 35.751690666559185], [115.3447604592875, 35.751690666559185], [115.3447604592875, 35.751511003502365], [115.34458079623067, 35.751511003502365], [115.34458079623067, 35.75115167738872], [115.3447604592875, 35.75115167738872], [115.3447604592875, 35.75097201433189], [115.34511978540115, 35.75097201433189], [115.34511978540115, 35.75079235127507], [115.34494012234433, 35.75079235127507], [115.34494012234433, 35.75061268821825], [115.3447604592875, 35.75061268821825], [115.3447604592875, 35.75043302516142], [115.34458079623067, 35.75043302516142], [115.34458079623067, 35.750253362104594], [115.34440113317386, 35.750253362104594], [115.34440113317386, 35.7495347098773], [115.34458079623067, 35.7495347098773], [115.34458079623067, 35.749355046820476], [115.3447604592875, 35.749355046820476], [115.3447604592875, 35.74917538376366], [115.34709607902622, 35.74917538376366], [115.34709607902622, 35.749355046820476], [115.34745540513985, 35.749355046820476], [115.34745540513985, 35.74917538376366], [115.34835372042399, 35.74917538376366], [115.34835372042399, 35.74899572070683], [115.34907237265128, 35.74899572070683], [115.34907237265128, 35.748636394593184], [115.3492520357081, 35.748636394593184], [115.3492520357081, 35.748816057650004], [115.34961136182174, 35.748816057650004], [115.34961136182174, 35.748636394593184], [115.3499706879354, 35.748636394593184], [115.3499706879354, 35.74845673153636], [115.3492520357081, 35.74845673153636], [115.3492520357081, 35.74827706847953], [115.34943169876492, 35.74827706847953], [115.34943169876492, 35.74737875319541], [115.34961136182174, 35.74737875319541], [115.34961136182174, 35.74719909013859], [115.34889270959445, 35.74719909013859], [115.34889270959445, 35.74683976402494], [115.34907237265128, 35.74683976402494], [115.34907237265128, 35.74666010096812], [115.3492520357081, 35.74666010096812], [115.3492520357081, 35.74630077485447], [115.34907237265128, 35.74630077485447], [115.34907237265128, 35.74612111179765], [115.34889270959445, 35.74612111179765], [115.34889270959445, 35.74594144874082], [115.34907237265128, 35.74594144874082], [115.34907237265128, 35.745761785683996], [115.3485333834808, 35.745761785683996], [115.3485333834808, 35.74594144874082], [115.34835372042399, 35.74594144874082], [115.34835372042399, 35.74612111179765], [115.34745540513985, 35.74612111179765], [115.34745540513985, 35.74594144874082], [115.34727574208304, 35.74594144874082], [115.34727574208304, 35.74558212262718], [115.34745540513985, 35.74558212262718], [115.34745540513985, 35.74540245957035], [115.34871304653763, 35.74540245957035], [115.34871304653763, 35.74486347039988], [115.3485333834808, 35.74486347039988], [115.3485333834808, 35.74468380734306], [115.34835372042399, 35.74468380734306], [115.34835372042399, 35.74450414428623], [115.34871304653763, 35.74450414428623], [115.34871304653763, 35.74486347039988], [115.34907237265128, 35.74486347039988], [115.34907237265128, 35.74468380734306], [115.34943169876492, 35.74468380734306], [115.34943169876492, 35.74486347039988], [115.34961136182174, 35.74486347039988], [115.34961136182174, 35.745043133456704], [115.3499706879354, 35.745043133456704], [115.3499706879354, 35.74486347039988], [115.35086900321951, 35.74486347039988], [115.35086900321951, 35.74468380734306], [115.35176731850363, 35.74468380734306], [115.35176731850363, 35.74450414428623], [115.34961136182174, 35.74450414428623], [115.34961136182174, 35.744324481229405], [115.34979102487857, 35.744324481229405], [115.34979102487857, 35.744144818172586], [115.35104866627634, 35.744144818172586], [115.35104866627634, 35.74396515511576], [115.35140799238998, 35.74396515511576], [115.35140799238998, 35.744144818172586], [115.35248597073092, 35.744144818172586], [115.35248597073092, 35.74396515511576], [115.35230630767411, 35.74396515511576], [115.35230630767411, 35.743605829002114], [115.35248597073092, 35.743605829002114], [115.35248597073092, 35.74378549205893], [115.35266563378775, 35.74378549205893], [115.35266563378775, 35.744144818172586], [115.35284529684458, 35.744144818172586], [115.35284529684458, 35.74396515511576], [115.35482159046964, 35.74396515511576], [115.35482159046964, 35.744324481229405], [115.35428260129918, 35.744324481229405], [115.35428260129918, 35.74450414428623], [115.35446226435599, 35.74450414428623], [115.35446226435599, 35.74468380734306], [115.35571990575376, 35.74468380734306], [115.35571990575376, 35.74450414428623], [115.35625889492424, 35.74450414428623], [115.35625889492424, 35.74468380734306], [115.35643855798105, 35.74468380734306], [115.35643855798105, 35.74450414428623], [115.3567978840947, 35.74450414428623], [115.3567978840947, 35.744324481229405], [115.35733687326517, 35.744324481229405], [115.35733687326517, 35.74468380734306], [115.35715721020836, 35.74468380734306], [115.35715721020836, 35.74486347039988], [115.35733687326517, 35.74486347039988], [115.35733687326517, 35.745043133456704], [115.357516536322, 35.745043133456704], [115.357516536322, 35.74486347039988], [115.35805552549247, 35.74486347039988], [115.35805552549247, 35.745043133456704], [115.3582351885493, 35.745043133456704], [115.3582351885493, 35.74540245957035], [115.35841485160611, 35.74540245957035], [115.35841485160611, 35.74594144874082], [115.35787586243565, 35.74594144874082], [115.35787586243565, 35.74612111179765], [115.3582351885493, 35.74612111179765], [115.3582351885493, 35.74630077485447], [115.35805552549247, 35.74630077485447], [115.35805552549247, 35.746480437911295], [115.35841485160611, 35.746480437911295], [115.35841485160611, 35.74701942708177], [115.35787586243565, 35.74701942708177], [115.35787586243565, 35.74773807930906], [115.357516536322, 35.74773807930906], [115.357516536322, 35.74737875319541], [115.35733687326517, 35.74737875319541], [115.35733687326517, 35.74719909013859], [115.3567978840947, 35.74719909013859], [115.3567978840947, 35.74737875319541], [115.35661822103788, 35.74737875319541], [115.35661822103788, 35.74719909013859], [115.35607923186741, 35.74719909013859], [115.35607923186741, 35.74737875319541], [115.35589956881059, 35.74737875319541], [115.35589956881059, 35.74755841625224], [115.35500125352647, 35.74755841625224], [115.35500125352647, 35.74737875319541], [115.35482159046964, 35.74737875319541], [115.35482159046964, 35.74773807930906], [115.35428260129918, 35.74773807930906], [115.35428260129918, 35.747917742365885], [115.35320462295823, 35.747917742365885], [115.35320462295823, 35.74809740542271], [115.35248597073092, 35.74809740542271], [115.35248597073092, 35.747917742365885], [115.35230630767411, 35.747917742365885], [115.35230630767411, 35.74737875319541], [115.35266563378775, 35.74737875319541], [115.35266563378775, 35.74719909013859], [115.35212664461729, 35.74719909013859], [115.35212664461729, 35.74755841625224], [115.35194698156046, 35.74755841625224], [115.35194698156046, 35.74773807930906], [115.35212664461729, 35.74773807930906], [115.35212664461729, 35.747917742365885], [115.35194698156046, 35.747917742365885], [115.35194698156046, 35.74827706847953], [115.35176731850363, 35.74827706847953], [115.35176731850363, 35.748636394593184], [115.35212664461729, 35.748636394593184], [115.35212664461729, 35.748816057650004], [115.35230630767411, 35.748816057650004], [115.35230630767411, 35.74917538376366], [115.35266563378775, 35.74917538376366], [115.35266563378775, 35.7495347098773], [115.35248597073092, 35.7495347098773], [115.35248597073092, 35.74971437293412], [115.35212664461729, 35.74971437293412], [115.35212664461729, 35.74989403599095], [115.35194698156046, 35.74989403599095], [115.35194698156046, 35.750073699047775], [115.35212664461729, 35.750073699047775], [115.35212664461729, 35.75133134044554], [115.35230630767411, 35.75133134044554], [115.35230630767411, 35.75187032961601], [115.35212664461729, 35.75187032961601], [115.35212664461729, 35.75222965572966], [115.35230630767411, 35.75222965572966], [115.35230630767411, 35.75240931878648], [115.35248597073092, 35.75240931878648], [115.35248597073092, 35.7533076340706], [115.35230630767411, 35.7533076340706], [115.35230630767411, 35.75348729712743], [115.35033001404905, 35.75348729712743]], [[115.35284529684458, 35.745043133456704], [115.35266563378775, 35.745043133456704], [115.35266563378775, 35.74486347039988], [115.35248597073092, 35.74486347039988], [115.35248597073092, 35.74468380734306], [115.35230630767411, 35.74468380734306], [115.35230630767411, 35.74486347039988], [115.35212664461729, 35.74486347039988], [115.35212664461729, 35.74450414428623], [115.35248597073092, 35.74450414428623], [115.35248597073092, 35.744324481229405], [115.3530249599014, 35.744324481229405], [115.3530249599014, 35.74450414428623], [115.35338428601504, 35.74450414428623], [115.35338428601504, 35.744324481229405], [115.35356394907187, 35.744324481229405], [115.35356394907187, 35.74450414428623], [115.3537436121287, 35.74450414428623], [115.3537436121287, 35.744324481229405], [115.35392327518552, 35.744324481229405], [115.35392327518552, 35.74468380734306], [115.35284529684458, 35.74468380734306], [115.35284529684458, 35.745043133456704]], [[115.35787586243565, 35.74540245957035], [115.35733687326517, 35.74540245957035], [115.35733687326517, 35.745222796513524], [115.35787586243565, 35.745222796513524], [115.35787586243565, 35.74540245957035]], [[115.35033001404905, 35.745761785683996], [115.3499706879354, 35.745761785683996], [115.3499706879354, 35.74558212262718], [115.34979102487857, 35.74558212262718], [115.34979102487857, 35.745222796513524], [115.3499706879354, 35.745222796513524], [115.3499706879354, 35.74540245957035], [115.35015035099222, 35.74540245957035], [115.35015035099222, 35.74558212262718], [115.35033001404905, 35.74558212262718], [115.35033001404905, 35.745761785683996]], [[115.3582351885493, 35.745761785683996], [115.35787586243565, 35.745761785683996], [115.35787586243565, 35.74558212262718], [115.3582351885493, 35.74558212262718], [115.3582351885493, 35.745761785683996]], [[115.34979102487857, 35.74612111179765], [115.34943169876492, 35.74612111179765], [115.34943169876492, 35.74594144874082], [115.34979102487857, 35.74594144874082], [115.34979102487857, 35.74612111179765]], [[115.35266563378775, 35.74612111179765], [115.35248597073092, 35.74612111179765], [115.35248597073092, 35.74594144874082], [115.35230630767411, 35.74594144874082], [115.35230630767411, 35.745761785683996], [115.35212664461729, 35.745761785683996], [115.35212664461729, 35.74558212262718], [115.35266563378775, 35.74558212262718], [115.35266563378775, 35.74612111179765]], [[115.35554024269693, 35.74630077485447], [115.3551809165833, 35.74630077485447], [115.3551809165833, 35.74612111179765], [115.35554024269693, 35.74612111179765], [115.35554024269693, 35.74630077485447]], [[115.35697754715153, 35.74630077485447], [115.35643855798105, 35.74630077485447], [115.35643855798105, 35.74612111179765], [115.35625889492424, 35.74612111179765], [115.35625889492424, 35.74594144874082], [115.35697754715153, 35.74594144874082], [115.35697754715153, 35.74630077485447]], [[115.35068934016269, 35.746480437911295], [115.35033001404905, 35.746480437911295], [115.35033001404905, 35.74630077485447], [115.35068934016269, 35.74630077485447], [115.35068934016269, 35.746480437911295]], [[115.35392327518552, 35.74666010096812], [115.3537436121287, 35.74666010096812], [115.3537436121287, 35.746480437911295], [115.35392327518552, 35.746480437911295], [115.35392327518552, 35.74666010096812]], [[115.35428260129918, 35.74666010096812], [115.35410293824235, 35.74666010096812], [115.35410293824235, 35.746480437911295], [115.35428260129918, 35.746480437911295], [115.35428260129918, 35.74666010096812]], [[115.35266563378775, 35.74683976402494], [115.35212664461729, 35.74683976402494], [115.35212664461729, 35.74666010096812], [115.35266563378775, 35.74666010096812], [115.35266563378775, 35.74683976402494]], [[115.3537436121287, 35.74683976402494], [115.35320462295823, 35.74683976402494], [115.35320462295823, 35.74666010096812], [115.3530249599014, 35.74666010096812], [115.3530249599014, 35.746480437911295], [115.35356394907187, 35.746480437911295], [115.35356394907187, 35.74666010096812], [115.3537436121287, 35.74666010096812], [115.3537436121287, 35.74683976402494]], [[115.35068934016269, 35.74755841625224], [115.35050967710586, 35.74755841625224], [115.35050967710586, 35.74737875319541], [115.35033001404905, 35.74737875319541], [115.35033001404905, 35.74719909013859], [115.35015035099222, 35.74719909013859], [115.35015035099222, 35.74701942708177], [115.35086900321951, 35.74701942708177], [115.35086900321951, 35.74737875319541], [115.35068934016269, 35.74737875319541], [115.35068934016269, 35.74755841625224]], [[115.35104866627634, 35.747917742365885], [115.35086900321951, 35.747917742365885], [115.35086900321951, 35.74773807930906], [115.35104866627634, 35.74773807930906], [115.35104866627634, 35.747917742365885]], [[115.34727574208304, 35.750253362104594], [115.34709607902622, 35.750253362104594], [115.34709607902622, 35.750073699047775], [115.34727574208304, 35.750073699047775], [115.34727574208304, 35.750253362104594]], [[115.35068934016269, 35.75079235127507], [115.3492520357081, 35.75079235127507], [115.3492520357081, 35.75043302516142], [115.34943169876492, 35.75043302516142], [115.34943169876492, 35.750073699047775], [115.34907237265128, 35.750073699047775], [115.34907237265128, 35.7495347098773], [115.3492520357081, 35.7495347098773], [115.3492520357081, 35.749355046820476], [115.3499706879354, 35.749355046820476], [115.3499706879354, 35.74917538376366], [115.35015035099222, 35.74917538376366], [115.35015035099222, 35.74899572070683], [115.35068934016269, 35.74899572070683], [115.35068934016269, 35.748816057650004], [115.35086900321951, 35.748816057650004], [115.35086900321951, 35.74845673153636], [115.35068934016269, 35.74845673153636], [115.35068934016269, 35.74827706847953], [115.35104866627634, 35.74827706847953], [115.35104866627634, 35.748636394593184], [115.35140799238998, 35.748636394593184], [115.35140799238998, 35.749355046820476], [115.3515876554468, 35.749355046820476], [115.3515876554468, 35.74971437293412], [115.35104866627634, 35.74971437293412], [115.35104866627634, 35.74989403599095], [115.35086900321951, 35.74989403599095], [115.35086900321951, 35.750073699047775], [115.35104866627634, 35.750073699047775], [115.35104866627634, 35.750253362104594], [115.35140799238998, 35.750253362104594], [115.35140799238998, 35.75043302516142], [115.35176731850363, 35.75043302516142], [115.35176731850363, 35.75061268821825], [115.35068934016269, 35.75061268821825], [115.35068934016269, 35.75079235127507]], [[115.34835372042399, 35.75097201433189], [115.34817405736716, 35.75097201433189], [115.34817405736716, 35.75079235127507], [115.34835372042399, 35.75079235127507], [115.34835372042399, 35.75097201433189]], [[115.34943169876492, 35.751690666559185], [115.34907237265128, 35.751690666559185], [115.34907237265128, 35.751511003502365], [115.34835372042399, 35.751511003502365], [115.34835372042399, 35.75097201433189], [115.3485333834808, 35.75097201433189], [115.3485333834808, 35.75115167738872], [115.34943169876492, 35.75115167738872], [115.34943169876492, 35.751690666559185]], [[115.35176731850363, 35.75258898184331], [115.35140799238998, 35.75258898184331], [115.35140799238998, 35.75240931878648], [115.35176731850363, 35.75240931878648], [115.35176731850363, 35.75258898184331]]]}, "properties": {"name": "cand01", "ptype": "hall", "confidence": "low", "rank": 1, "area_ha": 72.4, "rise_db": 10.8, "digitised_from": "Sentinel-1 VV rise 2022->2026, orbit 142"}}, {"type": "Feature", "geometry": {"geodesic": false, "type": "Polygon", "coordinates": [[[115.35464192741281, 35.757978873548026], [115.35464192741281, 35.7577992104912], [115.35446226435599, 35.7577992104912], [115.35446226435599, 35.75726022132073], [115.35464192741281, 35.75726022132073], [115.35464192741281, 35.75708055826391], [115.35482159046964, 35.75708055826391], [115.35482159046964, 35.756721232150255], [115.3553605796401, 35.756721232150255], [115.3553605796401, 35.75690089520708], [115.35589956881059, 35.75690089520708], [115.35589956881059, 35.756721232150255], [115.35625889492424, 35.756721232150255], [115.35625889492424, 35.756541569093436], [115.35643855798105, 35.756541569093436], [115.35643855798105, 35.75618224297978], [115.35607923186741, 35.75618224297978], [115.35607923186741, 35.75582291686614], [115.35625889492424, 35.75582291686614], [115.35625889492424, 35.75564325380931], [115.35607923186741, 35.75564325380931], [115.35607923186741, 35.75546359075249], [115.35589956881059, 35.75546359075249], [115.35589956881059, 35.75564325380931], [115.35571990575376, 35.75564325380931], [115.35571990575376, 35.75582291686614], [115.35554024269693, 35.75582291686614], [115.35554024269693, 35.75600257992296], [115.3553605796401, 35.75600257992296], [115.3553605796401, 35.75582291686614], [115.3551809165833, 35.75582291686614], [115.3551809165833, 35.75564325380931], [115.3553605796401, 35.75564325380931], [115.3553605796401, 35.75582291686614], [115.35554024269693, 35.75582291686614], [115.35554024269693, 35.75564325380931], [115.35571990575376, 35.75564325380931], [115.35571990575376, 35.75546359075249], [115.3553605796401, 35.75546359075249], [115.3553605796401, 35.755104264638845], [115.3551809165833, 35.755104264638845], [115.3551809165833, 35.75492460158202], [115.3553605796401, 35.75492460158202], [115.3553605796401, 35.75474493852519], [115.3551809165833, 35.75474493852519], [115.3551809165833, 35.75456527546837], [115.35482159046964, 35.75456527546837], [115.35482159046964, 35.75546359075249], [115.35500125352647, 35.75546359075249], [115.35500125352647, 35.75564325380931], [115.35446226435599, 35.75564325380931], [115.35446226435599, 35.75582291686614], [115.35356394907187, 35.75582291686614], [115.35356394907187, 35.75600257992296], [115.35320462295823, 35.75600257992296], [115.35320462295823, 35.755283927695665], [115.3530249599014, 35.755283927695665], [115.3530249599014, 35.75474493852519], [115.35284529684458, 35.75474493852519], [115.35284529684458, 35.75456527546837], [115.35248597073092, 35.75456527546837], [115.35248597073092, 35.7540262862979], [115.35266563378775, 35.7540262862979], [115.35266563378775, 35.753846623241074], [115.35320462295823, 35.753846623241074], [115.35320462295823, 35.75366696018425], [115.3537436121287, 35.75366696018425], [115.3537436121287, 35.753846623241074], [115.35392327518552, 35.753846623241074], [115.35392327518552, 35.7540262862979], [115.35410293824235, 35.7540262862979], [115.35410293824235, 35.75420594935472], [115.35428260129918, 35.75420594935472], [115.35428260129918, 35.7540262862979], [115.35446226435599, 35.7540262862979], [115.35446226435599, 35.753846623241074], [115.35428260129918, 35.753846623241074], [115.35428260129918, 35.75366696018425], [115.35410293824235, 35.75366696018425], [115.35410293824235, 35.75348729712743], [115.35428260129918, 35.75348729712743], [115.35428260129918, 35.7533076340706], [115.35446226435599, 35.7533076340706], [115.35446226435599, 35.75348729712743], [115.35464192741281, 35.75348729712743], [115.35464192741281, 35.753846623241074], [115.35482159046964, 35.753846623241074], [115.35482159046964, 35.75420594935472], [115.35500125352647, 35.75420594935472], [115.35500125352647, 35.7540262862979], [115.3551809165833, 35.7540262862979], [115.3551809165833, 35.753846623241074], [115.3553605796401, 35.753846623241074], [115.3553605796401, 35.75348729712743], [115.3551809165833, 35.75348729712743], [115.3551809165833, 35.7533076340706], [115.3553605796401, 35.7533076340706], [115.3553605796401, 35.75312797101378], [115.35661822103788, 35.75312797101378], [115.35661822103788, 35.7533076340706], [115.35697754715153, 35.7533076340706], [115.35697754715153, 35.75348729712743], [115.3567978840947, 35.75348729712743], [115.3567978840947, 35.75366696018425], [115.35643855798105, 35.75366696018425], [115.35643855798105, 35.75420594935472], [115.35661822103788, 35.75420594935472], [115.35661822103788, 35.754385612411546], [115.3567978840947, 35.754385612411546], [115.3567978840947, 35.75456527546837], [115.35697754715153, 35.75456527546837], [115.35697754715153, 35.75492460158202], [115.35715721020836, 35.75492460158202], [115.35715721020836, 35.755104264638845], [115.35769619937882, 35.755104264638845], [115.35769619937882, 35.75492460158202], [115.35787586243565, 35.75492460158202], [115.35787586243565, 35.75474493852519], [115.3582351885493, 35.75474493852519], [115.3582351885493, 35.75456527546837], [115.35949282994706, 35.75456527546837], [115.35949282994706, 35.754385612411546], [115.35967249300388, 35.754385612411546], [115.35967249300388, 35.75420594935472], [115.35985215606071, 35.75420594935472], [115.35985215606071, 35.753846623241074], [115.35967249300388, 35.753846623241074], [115.35967249300388, 35.75348729712743], [115.35985215606071, 35.75348729712743], [115.35985215606071, 35.7533076340706], [115.36003181911754, 35.7533076340706], [115.36003181911754, 35.75348729712743], [115.36021148217436, 35.75348729712743], [115.36021148217436, 35.753846623241074], [115.36039114523118, 35.753846623241074], [115.36039114523118, 35.7540262862979], [115.360570808288, 35.7540262862979], [115.360570808288, 35.754385612411546], [115.36075047134483, 35.754385612411546], [115.36075047134483, 35.75456527546837], [115.3612894605153, 35.75456527546837], [115.3612894605153, 35.75474493852519], [115.36146912357212, 35.75474493852519], [115.36146912357212, 35.75492460158202], [115.36164878662895, 35.75492460158202], [115.36164878662895, 35.75474493852519], [115.36182844968577, 35.75474493852519], [115.36182844968577, 35.75456527546837], [115.3620081127426, 35.75456527546837], [115.3620081127426, 35.755104264638845], [115.36218777579943, 35.755104264638845], [115.36218777579943, 35.75564325380931], [115.3620081127426, 35.75564325380931], [115.3620081127426, 35.75582291686614], [115.36164878662895, 35.75582291686614], [115.36164878662895, 35.75618224297978], [115.36146912357212, 35.75618224297978], [115.36146912357212, 35.75636190603661], [115.36110979745848, 35.75636190603661], [115.36110979745848, 35.75618224297978], [115.360570808288, 35.75618224297978], [115.360570808288, 35.75636190603661], [115.36039114523118, 35.75636190603661], [115.36039114523118, 35.75618224297978], [115.36021148217436, 35.75618224297978], [115.36021148217436, 35.75600257992296], [115.3582351885493, 35.75600257992296], [115.3582351885493, 35.75582291686614], [115.35805552549247, 35.75582291686614], [115.35805552549247, 35.75564325380931], [115.35787586243565, 35.75564325380931], [115.35787586243565, 35.75546359075249], [115.35697754715153, 35.75546359075249], [115.35697754715153, 35.755283927695665], [115.35661822103788, 35.755283927695665], [115.35661822103788, 35.75546359075249], [115.35643855798105, 35.75546359075249], [115.35643855798105, 35.75564325380931], [115.35661822103788, 35.75564325380931], [115.35661822103788, 35.75600257992296], [115.3567978840947, 35.75600257992296], [115.3567978840947, 35.75618224297978], [115.35733687326517, 35.75618224297978], [115.35733687326517, 35.75600257992296], [115.357516536322, 35.75600257992296], [115.357516536322, 35.756541569093436], [115.35769619937882, 35.756541569093436], [115.35769619937882, 35.757439884377554], [115.35787586243565, 35.757439884377554], [115.35787586243565, 35.75761954743437], [115.35643855798105, 35.75761954743437], [115.35643855798105, 35.757439884377554], [115.35607923186741, 35.757439884377554], [115.35607923186741, 35.75761954743437], [115.35554024269693, 35.75761954743437], [115.35554024269693, 35.757439884377554], [115.3553605796401, 35.757439884377554], [115.3553605796401, 35.75761954743437], [115.3551809165833, 35.75761954743437], [115.3551809165833, 35.757978873548026], [115.35464192741281, 35.757978873548026]], [[115.35338428601504, 35.7540262862979], [115.35320462295823, 35.7540262862979], [115.35320462295823, 35.753846623241074], [115.35338428601504, 35.753846623241074], [115.35338428601504, 35.7540262862979]]]}, "properties": {"name": "cand02", "ptype": "hall", "confidence": "low", "rank": 2, "area_ha": 23.4, "rise_db": 9.7, "digitised_from": "Sentinel-1 VV rise 2022->2026, orbit 142"}}, {"type": "Feature", "geometry": {"geodesic": false, "type": "Polygon", "coordinates": [[[115.37296755920886, 35.77540619005994], [115.37296755920886, 35.77522652700312], [115.3726082330952, 35.77522652700312], [115.3726082330952, 35.775046863946294], [115.37242857003838, 35.775046863946294], [115.37242857003838, 35.77522652700312], [115.37206924392474, 35.77522652700312], [115.37206924392474, 35.77540619005994], [115.37170991781109, 35.77540619005994], [115.37170991781109, 35.77522652700312], [115.37081160252697, 35.77522652700312], [115.37081160252697, 35.775046863946294], [115.37063193947014, 35.775046863946294], [115.37063193947014, 35.774867200889474], [115.37081160252697, 35.774867200889474], [115.37081160252697, 35.77468753783265], [115.3709912655838, 35.77468753783265], [115.3709912655838, 35.77450787477582], [115.37009295029968, 35.77450787477582], [115.37009295029968, 35.774328211719], [115.36991328724285, 35.774328211719], [115.36991328724285, 35.774148548662176], [115.37009295029968, 35.774148548662176], [115.37009295029968, 35.77378922254853], [115.3695539611292, 35.77378922254853], [115.3695539611292, 35.77325023337806], [115.36973362418603, 35.77325023337806], [115.36973362418603, 35.77307057032123], [115.3695539611292, 35.77307057032123], [115.3695539611292, 35.77289090726441], [115.36937429807237, 35.77289090726441], [115.36937429807237, 35.772711244207585], [115.36883530890191, 35.772711244207585], [115.36883530890191, 35.77307057032123], [115.36847598278825, 35.77307057032123], [115.36847598278825, 35.77289090726441], [115.36865564584508, 35.77289090726441], [115.36865564584508, 35.772711244207585], [115.36883530890191, 35.772711244207585], [115.36883530890191, 35.77253158115076], [115.36901497195873, 35.77253158115076], [115.36901497195873, 35.77217225503711], [115.36883530890191, 35.77217225503711], [115.36883530890191, 35.77163326586664], [115.36901497195873, 35.77163326586664], [115.36901497195873, 35.771273939752994], [115.36883530890191, 35.771273939752994], [115.36883530890191, 35.770555287525696], [115.36901497195873, 35.770555287525696], [115.36901497195873, 35.770375624468876], [115.36919463501555, 35.770375624468876], [115.36919463501555, 35.77019596141205], [115.36937429807237, 35.77019596141205], [115.36937429807237, 35.77001629835522], [115.36973362418603, 35.77001629835522], [115.36973362418603, 35.76965697224158], [115.36937429807237, 35.76965697224158], [115.36937429807237, 35.76947730918475], [115.36919463501555, 35.76947730918475], [115.36919463501555, 35.76929764612793], [115.36937429807237, 35.76929764612793], [115.36937429807237, 35.769117983071105], [115.37045227641332, 35.769117983071105], [115.37045227641332, 35.768938320014286], [115.37117092864061, 35.768938320014286], [115.37117092864061, 35.76875865695746], [115.37135059169744, 35.76875865695746], [115.37135059169744, 35.76857899390063], [115.37153025475426, 35.76857899390063], [115.37153025475426, 35.76839933084381], [115.37278789615203, 35.76839933084381], [115.37278789615203, 35.76857899390063], [115.37350654837932, 35.76857899390063], [115.37350654837932, 35.768938320014286], [115.3740455375498, 35.768938320014286], [115.3740455375498, 35.76875865695746], [115.37422520060662, 35.76875865695746], [115.37422520060662, 35.76839933084381], [115.3740455375498, 35.76839933084381], [115.3740455375498, 35.76821966778699], [115.37386587449298, 35.76821966778699], [115.37386587449298, 35.76786034167334], [115.37368621143615, 35.76786034167334], [115.37368621143615, 35.76714168944604], [115.37386587449298, 35.76714168944604], [115.37386587449298, 35.76696202638922], [115.3740455375498, 35.76696202638922], [115.3740455375498, 35.766782363332396], [115.37530317894756, 35.766782363332396], [115.37530317894756, 35.76696202638922], [115.37548284200439, 35.76696202638922], [115.37548284200439, 35.76732135250287], [115.37530317894756, 35.76732135250287], [115.37530317894756, 35.76750101555969], [115.37548284200439, 35.76750101555969], [115.37548284200439, 35.767680678616514], [115.37566250506121, 35.767680678616514], [115.37566250506121, 35.76786034167334], [115.37548284200439, 35.76786034167334], [115.37548284200439, 35.76804000473016], [115.37458452672027, 35.76804000473016], [115.37458452672027, 35.76821966778699], [115.37512351589073, 35.76821966778699], [115.37512351589073, 35.76839933084381], [115.37530317894756, 35.76839933084381], [115.37530317894756, 35.768938320014286], [115.37440486366344, 35.768938320014286], [115.37440486366344, 35.769117983071105], [115.37422520060662, 35.769117983071105], [115.37422520060662, 35.76929764612793], [115.37314722226567, 35.76929764612793], [115.37314722226567, 35.769117983071105], [115.37296755920886, 35.769117983071105], [115.37296755920886, 35.76947730918475], [115.37278789615203, 35.76947730918475], [115.37278789615203, 35.77001629835522], [115.3726082330952, 35.77001629835522], [115.3726082330952, 35.77019596141205], [115.37224890698155, 35.77019596141205], [115.37224890698155, 35.770375624468876], [115.37170991781109, 35.770375624468876], [115.37170991781109, 35.770555287525696], [115.37135059169744, 35.770555287525696], [115.37135059169744, 35.77073495058252], [115.37009295029968, 35.77073495058252], [115.37009295029968, 35.77091461363935], [115.37045227641332, 35.77091461363935], [115.37045227641332, 35.77109427669617], [115.37063193947014, 35.77109427669617], [115.37063193947014, 35.771273939752994], [115.37081160252697, 35.771273939752994], [115.37081160252697, 35.77181292892347], [115.37063193947014, 35.77181292892347], [115.37063193947014, 35.771992591980286], [115.36991328724285, 35.771992591980286], [115.36991328724285, 35.77235191809394], [115.37009295029968, 35.77235191809394], [115.37009295029968, 35.77289090726441], [115.37045227641332, 35.77289090726441], [115.37045227641332, 35.77307057032123], [115.37063193947014, 35.77307057032123], [115.37063193947014, 35.7736095594917], [115.37081160252697, 35.7736095594917], [115.37081160252697, 35.77378922254853], [115.3709912655838, 35.77378922254853], [115.3709912655838, 35.774148548662176], [115.37224890698155, 35.774148548662176], [115.37224890698155, 35.77396888560535], [115.37314722226567, 35.77396888560535], [115.37314722226567, 35.774148548662176], [115.3733268853225, 35.774148548662176], [115.3733268853225, 35.774328211719], [115.37350654837932, 35.774328211719], [115.37350654837932, 35.77450787477582], [115.3733268853225, 35.77450787477582], [115.3733268853225, 35.77468753783265], [115.37314722226567, 35.77468753783265], [115.37314722226567, 35.774867200889474], [115.3733268853225, 35.774867200889474], [115.3733268853225, 35.77522652700312], [115.37314722226567, 35.77522652700312], [115.37314722226567, 35.77540619005994], [115.37296755920886, 35.77540619005994]], [[115.37009295029968, 35.771453602809814], [115.36937429807237, 35.771453602809814], [115.36937429807237, 35.770555287525696], [115.36973362418603, 35.770555287525696], [115.36973362418603, 35.77073495058252], [115.36991328724285, 35.77073495058252], [115.36991328724285, 35.77091461363935], [115.37009295029968, 35.77091461363935], [115.37009295029968, 35.771453602809814]], [[115.3726082330952, 35.77450787477582], [115.37242857003838, 35.77450787477582], [115.37242857003838, 35.774328211719], [115.3726082330952, 35.774328211719], [115.3726082330952, 35.77450787477582]], [[115.37188958086792, 35.77468753783265], [115.37170991781109, 35.77468753783265], [115.37170991781109, 35.77450787477582], [115.37188958086792, 35.77450787477582], [115.37188958086792, 35.77468753783265]]]}, "properties": {"name": "cand03", "ptype": "hall", "confidence": "low", "rank": 3, "area_ha": 21.2, "rise_db": 8.5, "digitised_from": "Sentinel-1 VV rise 2022->2026, orbit 142"}}, {"type": "Feature", "geometry": {"geodesic": false, "type": "Polygon", "coordinates": [[[115.36703867833367, 35.77019596141205], [115.36703867833367, 35.769836635298404], [115.36721834139048, 35.769836635298404], [115.36721834139048, 35.76965697224158], [115.36739800444731, 35.76965697224158], [115.36739800444731, 35.76947730918475], [115.36721834139048, 35.76947730918475], [115.36721834139048, 35.76929764612793], [115.36632002610637, 35.76929764612793], [115.36632002610637, 35.769117983071105], [115.36614036304955, 35.769117983071105], [115.36614036304955, 35.768938320014286], [115.36596069999273, 35.768938320014286], [115.36596069999273, 35.76839933084381], [115.36614036304955, 35.76839933084381], [115.36614036304955, 35.76786034167334], [115.36596069999273, 35.76786034167334], [115.36596069999273, 35.76750101555969], [115.36614036304955, 35.76750101555969], [115.36614036304955, 35.76732135250287], [115.36632002610637, 35.76732135250287], [115.36632002610637, 35.76714168944604], [115.36614036304955, 35.76714168944604], [115.36614036304955, 35.76696202638922], [115.36632002610637, 35.76696202638922], [115.36632002610637, 35.766782363332396], [115.36703867833367, 35.766782363332396], [115.36703867833367, 35.76660270027557], [115.36721834139048, 35.76660270027557], [115.36721834139048, 35.76642303721875], [115.36739800444731, 35.76642303721875], [115.36739800444731, 35.76570438499145], [115.36847598278825, 35.76570438499145], [115.36847598278825, 35.76588404804828], [115.36883530890191, 35.76588404804828], [115.36883530890191, 35.76570438499145], [115.36937429807237, 35.76570438499145], [115.36937429807237, 35.76588404804828], [115.3695539611292, 35.76588404804828], [115.3695539611292, 35.7660637111051], [115.36973362418603, 35.7660637111051], [115.36973362418603, 35.76642303721875], [115.37027261335649, 35.76642303721875], [115.37027261335649, 35.76696202638922], [115.36937429807237, 35.76696202638922], [115.36937429807237, 35.766782363332396], [115.36901497195873, 35.766782363332396], [115.36901497195873, 35.76696202638922], [115.36865564584508, 35.76696202638922], [115.36865564584508, 35.76714168944604], [115.36847598278825, 35.76714168944604], [115.36847598278825, 35.76732135250287], [115.36865564584508, 35.76732135250287], [115.36865564584508, 35.767680678616514], [115.36883530890191, 35.767680678616514], [115.36883530890191, 35.76804000473016], [115.36865564584508, 35.76804000473016], [115.36865564584508, 35.76821966778699], [115.36829631973143, 35.76821966778699], [115.36829631973143, 35.76839933084381], [115.36811665667462, 35.76839933084381], [115.36811665667462, 35.76875865695746], [115.36829631973143, 35.76875865695746], [115.36829631973143, 35.768938320014286], [115.36847598278825, 35.768938320014286], [115.36847598278825, 35.769117983071105], [115.36829631973143, 35.769117983071105], [115.36829631973143, 35.76965697224158], [115.36847598278825, 35.76965697224158], [115.36847598278825, 35.77001629835522], [115.36829631973143, 35.77001629835522], [115.36829631973143, 35.77019596141205], [115.36703867833367, 35.77019596141205]], [[115.36721834139048, 35.76804000473016], [115.36703867833367, 35.76804000473016], [115.36703867833367, 35.76786034167334], [115.36721834139048, 35.76786034167334], [115.36721834139048, 35.76804000473016]], [[115.36739800444731, 35.76857899390063], [115.36632002610637, 35.76857899390063], [115.36632002610637, 35.76821966778699], [115.36721834139048, 35.76821966778699], [115.36721834139048, 35.76839933084381], [115.36739800444731, 35.76839933084381], [115.36739800444731, 35.76857899390063]]]}, "properties": {"name": "cand04", "ptype": "hall", "confidence": "low", "rank": 4, "area_ha": 11.8, "rise_db": 9.6, "digitised_from": "Sentinel-1 VV rise 2022->2026, orbit 142"}}, {"type": "Feature", "geometry": {"geodesic": false, "type": "Polygon", "coordinates": [[[115.32122459884357, 35.745222796513524], [115.32122459884357, 35.74468380734306], [115.3214042619004, 35.74468380734306], [115.3214042619004, 35.744324481229405], [115.32176358801404, 35.744324481229405], [115.32176358801404, 35.744144818172586], [115.32194325107086, 35.744144818172586], [115.32194325107086, 35.743605829002114], [115.3214042619004, 35.743605829002114], [115.3214042619004, 35.74306683983164], [115.32176358801404, 35.74306683983164], [115.32176358801404, 35.74216852454752], [115.32158392495722, 35.74216852454752], [115.32158392495722, 35.7419888614907], [115.32176358801404, 35.7419888614907], [115.32176358801404, 35.74162953537705], [115.32212291412769, 35.74162953537705], [115.32212291412769, 35.741449872320224], [115.32266190329815, 35.741449872320224], [115.32266190329815, 35.7419888614907], [115.32320089246863, 35.7419888614907], [115.32320089246863, 35.74180919843387], [115.32427887080958, 35.74180919843387], [115.32427887080958, 35.74162953537705], [115.3244585338664, 35.74162953537705], [115.3244585338664, 35.741449872320224], [115.32499752303687, 35.741449872320224], [115.32499752303687, 35.74162953537705], [115.3251771860937, 35.74162953537705], [115.3251771860937, 35.74180919843387], [115.32535684915052, 35.74180919843387], [115.32535684915052, 35.74216852454752], [115.32589583832099, 35.74216852454752], [115.32589583832099, 35.742707513717995], [115.32571617526416, 35.742707513717995], [115.32571617526416, 35.742887176774815], [115.3251771860937, 35.742887176774815], [115.3251771860937, 35.74306683983164], [115.32499752303687, 35.74306683983164], [115.32499752303687, 35.74342616594529], [115.32481785998004, 35.74342616594529], [115.32481785998004, 35.743605829002114], [115.3244585338664, 35.743605829002114], [115.3244585338664, 35.74342616594529], [115.32427887080958, 35.74342616594529], [115.32427887080958, 35.74324650288846], [115.32391954469593, 35.74324650288846], [115.32391954469593, 35.74342616594529], [115.3237398816391, 35.74342616594529], [115.3237398816391, 35.743605829002114], [115.32391954469593, 35.743605829002114], [115.32391954469593, 35.74378549205893], [115.32463819692322, 35.74378549205893], [115.32463819692322, 35.74396515511576], [115.32481785998004, 35.74396515511576], [115.32481785998004, 35.744144818172586], [115.32499752303687, 35.744144818172586], [115.32499752303687, 35.744324481229405], [115.32481785998004, 35.744324481229405], [115.32481785998004, 35.74450414428623], [115.32409920775275, 35.74450414428623], [115.32409920775275, 35.744324481229405], [115.32338055552546, 35.744324481229405], [115.32338055552546, 35.74396515511576], [115.32302122941181, 35.74396515511576], [115.32302122941181, 35.744144818172586], [115.32284156635498, 35.744144818172586], [115.32284156635498, 35.744324481229405], [115.32266190329815, 35.744324481229405], [115.32266190329815, 35.74450414428623], [115.32194325107086, 35.74450414428623], [115.32194325107086, 35.744324481229405], [115.32176358801404, 35.744324481229405], [115.32176358801404, 35.74468380734306], [115.32158392495722, 35.74468380734306], [115.32158392495722, 35.745222796513524], [115.32122459884357, 35.745222796513524]], [[115.3244585338664, 35.74234818760434], [115.32427887080958, 35.74234818760434], [115.32427887080958, 35.74216852454752], [115.3244585338664, 35.74216852454752], [115.3244585338664, 35.74234818760434]], [[115.32427887080958, 35.74252785066117], [115.32409920775275, 35.74252785066117], [115.32409920775275, 35.74234818760434], [115.32427887080958, 35.74234818760434], [115.32427887080958, 35.74252785066117]]]}, "properties": {"name": "cand05", "ptype": "hall", "confidence": "low", "rank": 5, "area_ha": 11.5, "rise_db": 8.0, "digitised_from": "Sentinel-1 VV rise 2022->2026, orbit 142"}}, {"type": "Feature", "geometry": {"geodesic": false, "type": "Polygon", "coordinates": [[[115.33847225229867, 35.75366696018425], [115.33847225229867, 35.75348729712743], [115.33829258924185, 35.75348729712743], [115.33829258924185, 35.75366696018425], [115.33793326312819, 35.75366696018425], [115.33793326312819, 35.7533076340706], [115.33739427395773, 35.7533076340706], [115.33739427395773, 35.75366696018425], [115.33505865421901, 35.75366696018425], [115.33505865421901, 35.75312797101378], [115.33523831727584, 35.75312797101378], [115.33523831727584, 35.752948307956956], [115.33667562173042, 35.752948307956956], [115.33667562173042, 35.75276864490013], [115.33685528478725, 35.75276864490013], [115.33685528478725, 35.75258898184331], [115.33667562173042, 35.75258898184331], [115.33667562173042, 35.75240931878648], [115.33649595867361, 35.75240931878648], [115.33649595867361, 35.75258898184331], [115.33559764338948, 35.75258898184331], [115.33559764338948, 35.75240931878648], [115.33451966504855, 35.75240931878648], [115.33451966504855, 35.75187032961601], [115.33487899116219, 35.75187032961601], [115.33487899116219, 35.75204999267284], [115.33505865421901, 35.75204999267284], [115.33505865421901, 35.751690666559185], [115.33398067587807, 35.751690666559185], [115.33398067587807, 35.75187032961601], [115.33326202365078, 35.75187032961601], [115.33326202365078, 35.751511003502365], [115.3334416867076, 35.751511003502365], [115.3334416867076, 35.75115167738872], [115.33362134976441, 35.75115167738872], [115.33362134976441, 35.75097201433189], [115.3341603389349, 35.75097201433189], [115.3341603389349, 35.75115167738872], [115.33649595867361, 35.75115167738872], [115.33649595867361, 35.75079235127507], [115.33631629561678, 35.75079235127507], [115.33631629561678, 35.75043302516142], [115.33775360007137, 35.75043302516142], [115.33775360007137, 35.75240931878648], [115.33793326312819, 35.75240931878648], [115.33793326312819, 35.7533076340706], [115.33901124146914, 35.7533076340706], [115.33901124146914, 35.75366696018425], [115.33847225229867, 35.75366696018425]]]}, "properties": {"name": "cand06", "ptype": "hall", "confidence": "low", "rank": 6, "area_ha": 10.8, "rise_db": 8.7, "digitised_from": "Sentinel-1 VV rise 2022->2026, orbit 142"}}, {"type": "Feature", "geometry": {"geodesic": false, "type": "Polygon", "coordinates": [[[115.32391954469593, 35.749355046820476], [115.32391954469593, 35.74917538376366], [115.3237398816391, 35.74917538376366], [115.3237398816391, 35.749355046820476], [115.32302122941181, 35.749355046820476], [115.32302122941181, 35.74917538376366], [115.32284156635498, 35.74917538376366], [115.32284156635498, 35.74899572070683], [115.32266190329815, 35.74899572070683], [115.32266190329815, 35.748816057650004], [115.32248224024134, 35.748816057650004], [115.32248224024134, 35.748636394593184], [115.32230257718452, 35.748636394593184], [115.32230257718452, 35.747917742365885], [115.32212291412769, 35.747917742365885], [115.32212291412769, 35.74773807930906], [115.32194325107086, 35.74773807930906], [115.32194325107086, 35.74755841625224], [115.32176358801404, 35.74755841625224], [115.32176358801404, 35.74683976402494], [115.32194325107086, 35.74683976402494], [115.32194325107086, 35.746480437911295], [115.32212291412769, 35.746480437911295], [115.32212291412769, 35.74630077485447], [115.32194325107086, 35.74630077485447], [115.32194325107086, 35.74594144874082], [115.32176358801404, 35.74594144874082], [115.32176358801404, 35.745761785683996], [115.32158392495722, 35.745761785683996], [115.32158392495722, 35.74540245957035], [115.32194325107086, 35.74540245957035], [115.32194325107086, 35.74558212262718], [115.32212291412769, 35.74558212262718], [115.32212291412769, 35.74540245957035], [115.32230257718452, 35.74540245957035], [115.32230257718452, 35.745222796513524], [115.32284156635498, 35.745222796513524], [115.32284156635498, 35.74540245957035], [115.32302122941181, 35.74540245957035], [115.32302122941181, 35.745761785683996], [115.32320089246863, 35.745761785683996], [115.32320089246863, 35.74594144874082], [115.32338055552546, 35.74594144874082], [115.32338055552546, 35.74683976402494], [115.32320089246863, 35.74683976402494], [115.32320089246863, 35.74719909013859], [115.32338055552546, 35.74719909013859], [115.32338055552546, 35.74773807930906], [115.32499752303687, 35.74773807930906], [115.32499752303687, 35.747917742365885], [115.3251771860937, 35.747917742365885], [115.3251771860937, 35.74827706847953], [115.32481785998004, 35.74827706847953], [115.32481785998004, 35.74809740542271], [115.32499752303687, 35.74809740542271], [115.32499752303687, 35.747917742365885], [115.32463819692322, 35.747917742365885], [115.32463819692322, 35.74809740542271], [115.3244585338664, 35.74809740542271], [115.3244585338664, 35.74845673153636], [115.32499752303687, 35.74845673153636], [115.32499752303687, 35.748636394593184], [115.32553651220735, 35.748636394593184], [115.32553651220735, 35.748816057650004], [115.32571617526416, 35.748816057650004], [115.32571617526416, 35.74899572070683], [115.32535684915052, 35.74899572070683], [115.32535684915052, 35.74917538376366], [115.32499752303687, 35.74917538376366], [115.32499752303687, 35.749355046820476], [115.32391954469593, 35.749355046820476]]]}, "properties": {"name": "cand07", "ptype": "hall", "confidence": "low", "rank": 7, "area_ha": 9.4, "rise_db": 9.8, "digitised_from": "Sentinel-1 VV rise 2022->2026, orbit 142"}}, {"type": "Feature", "geometry": {"geodesic": false, "type": "Polygon", "coordinates": [[[115.36110979745848, 35.75222965572966], [115.36110979745848, 35.75204999267284], [115.36075047134483, 35.75204999267284], [115.36075047134483, 35.75222965572966], [115.36021148217436, 35.75222965572966], [115.36021148217436, 35.75204999267284], [115.36003181911754, 35.75204999267284], [115.36003181911754, 35.75187032961601], [115.35985215606071, 35.75187032961601], [115.35985215606071, 35.751690666559185], [115.35967249300388, 35.751690666559185], [115.35967249300388, 35.751511003502365], [115.35949282994706, 35.751511003502365], [115.35949282994706, 35.75133134044554], [115.35967249300388, 35.75133134044554], [115.35967249300388, 35.74989403599095], [115.35949282994706, 35.74989403599095], [115.35949282994706, 35.74971437293412], [115.35931316689023, 35.74971437293412], [115.35931316689023, 35.749355046820476], [115.35949282994706, 35.749355046820476], [115.35949282994706, 35.74917538376366], [115.36003181911754, 35.74917538376366], [115.36003181911754, 35.74899572070683], [115.36021148217436, 35.74899572070683], [115.36021148217436, 35.74827706847953], [115.36039114523118, 35.74827706847953], [115.36039114523118, 35.74809740542271], [115.360570808288, 35.74809740542271], [115.360570808288, 35.748636394593184], [115.36075047134483, 35.748636394593184], [115.36075047134483, 35.749355046820476], [115.36093013440166, 35.749355046820476], [115.36093013440166, 35.74971437293412], [115.36110979745848, 35.74971437293412], [115.36110979745848, 35.75133134044554], [115.3612894605153, 35.75133134044554], [115.3612894605153, 35.751511003502365], [115.36146912357212, 35.751511003502365], [115.36146912357212, 35.751690666559185], [115.36164878662895, 35.751690666559185], [115.36164878662895, 35.75187032961601], [115.36182844968577, 35.75187032961601], [115.36182844968577, 35.751690666559185], [115.3620081127426, 35.751690666559185], [115.3620081127426, 35.75187032961601], [115.36182844968577, 35.75187032961601], [115.36182844968577, 35.75222965572966], [115.36110979745848, 35.75222965572966]]]}, "properties": {"name": "cand08", "ptype": "hall", "confidence": "low", "rank": 8, "area_ha": 6.4, "rise_db": 7.3, "digitised_from": "Sentinel-1 VV rise 2022->2026, orbit 142"}}, {"type": "Feature", "geometry": {"geodesic": false, "type": "Polygon", "coordinates": [[[115.32230257718452, 35.73067008891079], [115.32230257718452, 35.730310762797146], [115.32302122941181, 35.730310762797146], [115.32302122941181, 35.73013109974032], [115.32320089246863, 35.73013109974032], [115.32320089246863, 35.72977177362667], [115.32302122941181, 35.72977177362667], [115.32302122941181, 35.72959211056985], [115.32248224024134, 35.72959211056985], [115.32248224024134, 35.72977177362667], [115.32230257718452, 35.72977177362667], [115.32230257718452, 35.72995143668349], [115.32194325107086, 35.72995143668349], [115.32194325107086, 35.72959211056985], [115.32230257718452, 35.72959211056985], [115.32230257718452, 35.7292327844562], [115.32248224024134, 35.7292327844562], [115.32248224024134, 35.729053121399375], [115.32320089246863, 35.729053121399375], [115.32320089246863, 35.72779548000161], [115.32338055552546, 35.72779548000161], [115.32338055552546, 35.727615816944784], [115.3237398816391, 35.727615816944784], [115.3237398816391, 35.72779548000161], [115.32409920775275, 35.72779548000161], [115.32409920775275, 35.72797514305843], [115.32427887080958, 35.72797514305843], [115.32427887080958, 35.72833446917208], [115.32409920775275, 35.72833446917208], [115.32409920775275, 35.7285141322289], [115.32391954469593, 35.7285141322289], [115.32391954469593, 35.728873458342555], [115.32409920775275, 35.728873458342555], [115.32409920775275, 35.729053121399375], [115.3244585338664, 35.729053121399375], [115.3244585338664, 35.72959211056985], [115.32427887080958, 35.72959211056985], [115.32427887080958, 35.730490425853965], [115.32302122941181, 35.730490425853965], [115.32302122941181, 35.73067008891079], [115.32230257718452, 35.73067008891079]]]}, "properties": {"name": "cand09", "ptype": "hall", "confidence": "low", "rank": 9, "area_ha": 4.7, "rise_db": 8.2, "digitised_from": "Sentinel-1 VV rise 2022->2026, orbit 142"}}, {"type": "Feature", "geometry": {"geodesic": false, "type": "Polygon", "coordinates": [[[115.32733314277559, 35.72581918637655], [115.32733314277559, 35.72492087109243], [115.32751280583241, 35.72492087109243], [115.32751280583241, 35.7247412080356], [115.32715347971876, 35.7247412080356], [115.32715347971876, 35.724561544978776], [115.3267941536051, 35.724561544978776], [115.3267941536051, 35.72438188192196], [115.32661449054828, 35.72438188192196], [115.32661449054828, 35.72420221886513], [115.32643482749147, 35.72420221886513], [115.32643482749147, 35.724022555808304], [115.32625516443464, 35.724022555808304], [115.32625516443464, 35.72348356663783], [115.32769246888923, 35.72348356663783], [115.32769246888923, 35.72366322969466], [115.32805179500288, 35.72366322969466], [115.32805179500288, 35.723842892751485], [115.32841112111653, 35.723842892751485], [115.32841112111653, 35.72366322969466], [115.32877044723017, 35.72366322969466], [115.32877044723017, 35.724022555808304], [115.32859078417336, 35.724022555808304], [115.32859078417336, 35.72420221886513], [115.32841112111653, 35.72420221886513], [115.32841112111653, 35.72438188192196], [115.3282314580597, 35.72438188192196], [115.3282314580597, 35.7247412080356], [115.32841112111653, 35.7247412080356], [115.32841112111653, 35.72510053414925], [115.32859078417336, 35.72510053414925], [115.32859078417336, 35.725280197206075], [115.328950110287, 35.725280197206075], [115.328950110287, 35.72563952331972], [115.32805179500288, 35.72563952331972], [115.32805179500288, 35.72581918637655], [115.32733314277559, 35.72581918637655]]]}, "properties": {"name": "cand10", "ptype": "hall", "confidence": "low", "rank": 10, "area_ha": 4.4, "rise_db": 8.5, "digitised_from": "Sentinel-1 VV rise 2022->2026, orbit 142"}}, {"type": "Feature", "geometry": {"geodesic": false, "type": "Polygon", "coordinates": [[[115.31799066382074, 35.72995143668349], [115.31799066382074, 35.72977177362667], [115.31745167465027, 35.72977177362667], [115.31745167465027, 35.72941244751302], [115.31727201159345, 35.72941244751302], [115.31727201159345, 35.72959211056985], [115.31709234853662, 35.72959211056985], [115.31709234853662, 35.72977177362667], [115.31691268547979, 35.72977177362667], [115.31691268547979, 35.72959211056985], [115.31673302242297, 35.72959211056985], [115.31673302242297, 35.72833446917208], [115.31691268547979, 35.72833446917208], [115.31691268547979, 35.72779548000161], [115.31745167465027, 35.72779548000161], [115.31745167465027, 35.72797514305843], [115.3176313377071, 35.72797514305843], [115.3176313377071, 35.728154806115256], [115.31817032687756, 35.728154806115256], [115.31817032687756, 35.72779548000161], [115.31799066382074, 35.72779548000161], [115.31799066382074, 35.72743615388796], [115.31781100076391, 35.72743615388796], [115.31781100076391, 35.72707682777431], [115.31799066382074, 35.72707682777431], [115.31799066382074, 35.72689716471749], [115.31852965299122, 35.72689716471749], [115.31852965299122, 35.72707682777431], [115.31870931604803, 35.72707682777431], [115.31870931604803, 35.72725649083114], [115.31942796827533, 35.72725649083114], [115.31942796827533, 35.727615816944784], [115.31924830521851, 35.727615816944784], [115.31924830521851, 35.72779548000161], [115.31888897910486, 35.72779548000161], [115.31888897910486, 35.72797514305843], [115.31870931604803, 35.72797514305843], [115.31870931604803, 35.728154806115256], [115.31817032687756, 35.728154806115256], [115.31817032687756, 35.72833446917208], [115.3176313377071, 35.72833446917208], [115.3176313377071, 35.72869379528573], [115.31781100076391, 35.72869379528573], [115.31781100076391, 35.72941244751302], [115.31799066382074, 35.72941244751302], [115.31799066382074, 35.72959211056985], [115.31852965299122, 35.72959211056985], [115.31852965299122, 35.72995143668349], [115.31799066382074, 35.72995143668349]]]}, "properties": {"name": "cand11", "ptype": "hall", "confidence": "low", "rank": 11, "area_ha": 4.1, "rise_db": 6.6, "digitised_from": "Sentinel-1 VV rise 2022->2026, orbit 142"}}, {"type": "Feature", "geometry": {"geodesic": false, "type": "Polygon", "coordinates": [[[115.34691641596939, 35.75726022132073], [115.34691641596939, 35.75690089520708], [115.34673675291256, 35.75690089520708], [115.34673675291256, 35.75636190603661], [115.34691641596939, 35.75636190603661], [115.34691641596939, 35.75564325380931], [115.34673675291256, 35.75564325380931], [115.34673675291256, 35.75546359075249], [115.34655708985574, 35.75546359075249], [115.34655708985574, 35.755283927695665], [115.34637742679892, 35.755283927695665], [115.34637742679892, 35.75492460158202], [115.34655708985574, 35.75492460158202], [115.34655708985574, 35.75474493852519], [115.34691641596939, 35.75474493852519], [115.34691641596939, 35.75492460158202], [115.34709607902622, 35.75492460158202], [115.34709607902622, 35.755104264638845], [115.34781473125351, 35.755104264638845], [115.34781473125351, 35.75456527546837], [115.34817405736716, 35.75456527546837], [115.34817405736716, 35.75474493852519], [115.34835372042399, 35.75474493852519], [115.34835372042399, 35.75618224297978], [115.34799439431033, 35.75618224297978], [115.34799439431033, 35.75636190603661], [115.34781473125351, 35.75636190603661], [115.34781473125351, 35.756721232150255], [115.34763506819668, 35.756721232150255], [115.34763506819668, 35.75708055826391], [115.34745540513985, 35.75708055826391], [115.34745540513985, 35.75726022132073], [115.34691641596939, 35.75726022132073]]]}, "properties": {"name": "cand12", "ptype": "hall", "confidence": "low", "rank": 12, "area_ha": 3.9, "rise_db": 8.6, "digitised_from": "Sentinel-1 VV rise 2022->2026, orbit 142"}}, {"type": "Feature", "geometry": {"geodesic": false, "type": "Polygon", "coordinates": [[[115.33074674085523, 35.7330057086495], [115.33074674085523, 35.73282604559268], [115.32984842557111, 35.73282604559268], [115.32984842557111, 35.73246671947903], [115.33002808862794, 35.73246671947903], [115.33002808862794, 35.73210739336538], [115.32984842557111, 35.73210739336538], [115.32984842557111, 35.731927730308556], [115.32948909945748, 35.731927730308556], [115.32948909945748, 35.73138874113808], [115.33092640391206, 35.73138874113808], [115.33092640391206, 35.731209078081264], [115.33146539308254, 35.731209078081264], [115.33146539308254, 35.73156840419491], [115.33182471919618, 35.73156840419491], [115.33182471919618, 35.731748067251736], [115.332004382253, 35.731748067251736], [115.332004382253, 35.73210739336538], [115.33182471919618, 35.73210739336538], [115.33182471919618, 35.73282604559268], [115.33164505613935, 35.73282604559268], [115.33164505613935, 35.7330057086495], [115.33074674085523, 35.7330057086495]], [[115.33128573002571, 35.73246671947903], [115.3303874147416, 35.73246671947903], [115.3303874147416, 35.73210739336538], [115.33092640391206, 35.73210739336538], [115.33092640391206, 35.731927730308556], [115.33128573002571, 35.731927730308556], [115.33128573002571, 35.73210739336538], [115.33146539308254, 35.73210739336538], [115.33146539308254, 35.73228705642221], [115.33128573002571, 35.73228705642221], [115.33128573002571, 35.73246671947903]]]}, "properties": {"name": "cand13", "ptype": "hall", "confidence": "low", "rank": 13, "area_ha": 3.5, "rise_db": 7.5, "digitised_from": "Sentinel-1 VV rise 2022->2026, orbit 142"}}, {"type": "Feature", "geometry": {"geodesic": false, "type": "Polygon", "coordinates": [[[115.33092640391206, 35.751690666559185], [115.33092640391206, 35.751511003502365], [115.33074674085523, 35.751511003502365], [115.33074674085523, 35.75115167738872], [115.33056707779842, 35.75115167738872], [115.33056707779842, 35.75079235127507], [115.33074674085523, 35.75079235127507], [115.33074674085523, 35.75043302516142], [115.3303874147416, 35.75043302516142], [115.3303874147416, 35.75061268821825], [115.33020775168477, 35.75061268821825], [115.33020775168477, 35.75079235127507], [115.3303874147416, 35.75079235127507], [115.3303874147416, 35.75115167738872], [115.32966876251429, 35.75115167738872], [115.32966876251429, 35.75097201433189], [115.32948909945748, 35.75097201433189], [115.32948909945748, 35.75061268821825], [115.32877044723017, 35.75061268821825], [115.32877044723017, 35.75043302516142], [115.32859078417336, 35.75043302516142], [115.32859078417336, 35.74989403599095], [115.32877044723017, 35.74989403599095], [115.32877044723017, 35.7495347098773], [115.32912977334382, 35.7495347098773], [115.32912977334382, 35.749355046820476], [115.32966876251429, 35.749355046820476], [115.32966876251429, 35.7495347098773], [115.33002808862794, 35.7495347098773], [115.33002808862794, 35.74971437293412], [115.32966876251429, 35.74971437293412], [115.32966876251429, 35.750073699047775], [115.32984842557111, 35.750073699047775], [115.32984842557111, 35.750253362104594], [115.3303874147416, 35.750253362104594], [115.3303874147416, 35.750073699047775], [115.33074674085523, 35.750073699047775], [115.33074674085523, 35.750253362104594], [115.33092640391206, 35.750253362104594], [115.33092640391206, 35.75043302516142], [115.33110606696889, 35.75043302516142], [115.33110606696889, 35.75097201433189], [115.33128573002571, 35.75097201433189], [115.33128573002571, 35.751511003502365], [115.33110606696889, 35.751511003502365], [115.33110606696889, 35.751690666559185], [115.33092640391206, 35.751690666559185]]]}, "properties": {"name": "cand14", "ptype": "hall", "confidence": "low", "rank": 14, "area_ha": 3.3, "rise_db": 6.9, "digitised_from": "Sentinel-1 VV rise 2022->2026, orbit 142"}}, {"type": "Feature", "geometry": {"geodesic": false, "type": "Polygon", "coordinates": [[[115.386082962357, 35.76282977608227], [115.386082962357, 35.762470449968625], [115.38590329930018, 35.762470449968625], [115.38590329930018, 35.76193146079815], [115.38644228847065, 35.76193146079815], [115.38644228847065, 35.7615721346845], [115.38572363624336, 35.7615721346845], [115.38572363624336, 35.761033145514034], [115.38590329930018, 35.761033145514034], [115.38590329930018, 35.76085348245721], [115.38698127764111, 35.76085348245721], [115.38698127764111, 35.76067381940038], [115.38734060375477, 35.76067381940038], [115.38734060375477, 35.76121280857085], [115.38752026681159, 35.76121280857085], [115.38752026681159, 35.761751797741326], [115.38734060375477, 35.761751797741326], [115.38734060375477, 35.76193146079815], [115.38716094069794, 35.76193146079815], [115.38716094069794, 35.762470449968625], [115.38698127764111, 35.762470449968625], [115.38698127764111, 35.762650113025444], [115.38644228847065, 35.762650113025444], [115.38644228847065, 35.76282977608227], [115.386082962357, 35.76282977608227]], [[115.38662195152747, 35.7615721346845], [115.38644228847065, 35.7615721346845], [115.38644228847065, 35.76139247162768], [115.38662195152747, 35.76139247162768], [115.38662195152747, 35.7615721346845]]]}, "properties": {"name": "cand15", "ptype": "hall", "confidence": "low", "rank": 15, "area_ha": 3.1, "rise_db": 6.4, "digitised_from": "Sentinel-1 VV rise 2022->2026, orbit 142"}}, {"type": "Feature", "geometry": {"geodesic": false, "type": "Polygon", "coordinates": [[[115.36398440636766, 35.755283927695665], [115.36398440636766, 35.755104264638845], [115.36380474331084, 35.755104264638845], [115.36380474331084, 35.75492460158202], [115.36362508025401, 35.75492460158202], [115.36362508025401, 35.75474493852519], [115.36344541719718, 35.75474493852519], [115.36344541719718, 35.7540262862979], [115.36380474331084, 35.7540262862979], [115.36380474331084, 35.753846623241074], [115.36416406942449, 35.753846623241074], [115.36416406942449, 35.75366696018425], [115.3643437324813, 35.75366696018425], [115.3643437324813, 35.753846623241074], [115.36452339553813, 35.753846623241074], [115.36452339553813, 35.7540262862979], [115.36470305859496, 35.7540262862979], [115.36470305859496, 35.75420594935472], [115.36542171082225, 35.75420594935472], [115.36542171082225, 35.7540262862979], [115.36667935222002, 35.7540262862979], [115.36667935222002, 35.754385612411546], [115.36560137387907, 35.754385612411546], [115.36560137387907, 35.75456527546837], [115.36506238470861, 35.75456527546837], [115.36506238470861, 35.75492460158202], [115.36488272165178, 35.75492460158202], [115.36488272165178, 35.755104264638845], [115.3643437324813, 35.755104264638845], [115.3643437324813, 35.755283927695665], [115.36398440636766, 35.755283927695665]]]}, "properties": {"name": "cand16", "ptype": "hall", "confidence": "low", "rank": 16, "area_ha": 3.0, "rise_db": 7.4, "digitised_from": "Sentinel-1 VV rise 2022->2026, orbit 142"}}, {"type": "Feature", "geometry": {"geodesic": false, "type": "Polygon", "coordinates": [[[115.3620081127426, 35.737676948126925], [115.3620081127426, 35.73713795895645], [115.36182844968577, 35.73713795895645], [115.36182844968577, 35.7374972850701], [115.36146912357212, 35.7374972850701], [115.36146912357212, 35.73677863284281], [115.3612894605153, 35.73677863284281], [115.3612894605153, 35.73713795895645], [115.36110979745848, 35.73713795895645], [115.36110979745848, 35.736958295899626], [115.36093013440166, 35.736958295899626], [115.36093013440166, 35.736239643672334], [115.36110979745848, 35.736239643672334], [115.36110979745848, 35.73570065450186], [115.36146912357212, 35.73570065450186], [115.36146912357212, 35.73588031755868], [115.36164878662895, 35.73588031755868], [115.36164878662895, 35.73605998061551], [115.36218777579943, 35.73605998061551], [115.36218777579943, 35.736239643672334], [115.36290642802672, 35.736239643672334], [115.36290642802672, 35.73677863284281], [115.36308609108355, 35.73677863284281], [115.36308609108355, 35.736958295899626], [115.36272676496989, 35.736958295899626], [115.36272676496989, 35.73713795895645], [115.36254710191307, 35.73713795895645], [115.36254710191307, 35.73731762201327], [115.36308609108355, 35.73731762201327], [115.36308609108355, 35.737676948126925], [115.3620081127426, 35.737676948126925]], [[115.36164878662895, 35.736239643672334], [115.3612894605153, 35.736239643672334], [115.3612894605153, 35.73605998061551], [115.36164878662895, 35.73605998061551], [115.36164878662895, 35.736239643672334]], [[115.36272676496989, 35.73659896978598], [115.36254710191307, 35.73659896978598], [115.36254710191307, 35.736419306729154], [115.36272676496989, 35.736419306729154], [115.36272676496989, 35.73659896978598]], [[115.36182844968577, 35.73677863284281], [115.36146912357212, 35.73677863284281], [115.36146912357212, 35.73659896978598], [115.36182844968577, 35.73659896978598], [115.36182844968577, 35.73677863284281]], [[115.36236743885624, 35.73731762201327], [115.36218777579943, 35.73731762201327], [115.36218777579943, 35.73713795895645], [115.3620081127426, 35.73713795895645], [115.3620081127426, 35.73677863284281], [115.36218777579943, 35.73677863284281], [115.36218777579943, 35.736958295899626], [115.36236743885624, 35.736958295899626], [115.36236743885624, 35.73731762201327]]]}, "properties": {"name": "cand17", "ptype": "hall", "confidence": "low", "rank": 17, "area_ha": 2.9, "rise_db": 6.9, "digitised_from": "Sentinel-1 VV rise 2022->2026, orbit 142"}}, {"type": "Feature", "geometry": {"geodesic": false, "type": "Polygon", "coordinates": [[[115.32966876251429, 35.72492087109243], [115.32966876251429, 35.7247412080356], [115.32948909945748, 35.7247412080356], [115.32948909945748, 35.72420221886513], [115.32930943640065, 35.72420221886513], [115.32930943640065, 35.724022555808304], [115.32912977334382, 35.724022555808304], [115.32912977334382, 35.72366322969466], [115.328950110287, 35.72366322969466], [115.328950110287, 35.72348356663783], [115.32912977334382, 35.72348356663783], [115.32912977334382, 35.72330390358101], [115.32930943640065, 35.72330390358101], [115.32930943640065, 35.723124240524186], [115.33056707779842, 35.723124240524186], [115.33056707779842, 35.72330390358101], [115.33074674085523, 35.72330390358101], [115.33074674085523, 35.72420221886513], [115.33056707779842, 35.72420221886513], [115.33056707779842, 35.72438188192196], [115.33020775168477, 35.72438188192196], [115.33020775168477, 35.72492087109243], [115.32966876251429, 35.72492087109243]], [[115.33020775168477, 35.72438188192196], [115.32984842557111, 35.72438188192196], [115.32984842557111, 35.72420221886513], [115.33020775168477, 35.72420221886513], [115.33020775168477, 35.72438188192196]]]}, "properties": {"name": "cand18", "ptype": "hall", "confidence": "low", "rank": 18, "area_ha": 2.7, "rise_db": 7.7, "digitised_from": "Sentinel-1 VV rise 2022->2026, orbit 142"}}, {"type": "Feature", "geometry": {"geodesic": false, "type": "Polygon", "coordinates": [[[115.36667935222002, 35.75097201433189], [115.36667935222002, 35.75079235127507], [115.36649968916319, 35.75079235127507], [115.36649968916319, 35.750253362104594], [115.36632002610637, 35.750253362104594], [115.36632002610637, 35.750073699047775], [115.36614036304955, 35.750073699047775], [115.36614036304955, 35.74989403599095], [115.36596069999273, 35.74989403599095], [115.36596069999273, 35.74971437293412], [115.36614036304955, 35.74971437293412], [115.36614036304955, 35.7495347098773], [115.36649968916319, 35.7495347098773], [115.36649968916319, 35.74971437293412], [115.36703867833367, 35.74971437293412], [115.36703867833367, 35.7495347098773], [115.36775733056096, 35.7495347098773], [115.36775733056096, 35.74971437293412], [115.36793699361779, 35.74971437293412], [115.36793699361779, 35.74989403599095], [115.36811665667462, 35.74989403599095], [115.36811665667462, 35.750253362104594], [115.36775733056096, 35.750253362104594], [115.36775733056096, 35.750073699047775], [115.36721834139048, 35.750073699047775], [115.36721834139048, 35.75043302516142], [115.36739800444731, 35.75043302516142], [115.36739800444731, 35.75079235127507], [115.36721834139048, 35.75079235127507], [115.36721834139048, 35.75097201433189], [115.36667935222002, 35.75097201433189]]]}, "properties": {"name": "cand19", "ptype": "hall", "confidence": "low", "rank": 19, "area_ha": 2.1, "rise_db": 7.3, "digitised_from": "Sentinel-1 VV rise 2022->2026, orbit 142"}}, {"type": "Feature", "geometry": {"geodesic": false, "type": "Polygon", "coordinates": [[[115.33811292618502, 35.755283927695665], [115.33811292618502, 35.755104264638845], [115.33793326312819, 35.755104264638845], [115.33793326312819, 35.755283927695665], [115.33775360007137, 35.755283927695665], [115.33775360007137, 35.755104264638845], [115.33703494784407, 35.755104264638845], [115.33703494784407, 35.754385612411546], [115.3372146109009, 35.754385612411546], [115.3372146109009, 35.75420594935472], [115.33829258924185, 35.75420594935472], [115.33829258924185, 35.7540262862979], [115.33865191535548, 35.7540262862979], [115.33865191535548, 35.754385612411546], [115.33847225229867, 35.754385612411546], [115.33847225229867, 35.75474493852519], [115.33865191535548, 35.75474493852519], [115.33865191535548, 35.755104264638845], [115.33829258924185, 35.755104264638845], [115.33829258924185, 35.755283927695665], [115.33811292618502, 35.755283927695665]]]}, "properties": {"name": "cand20", "ptype": "hall", "confidence": "low", "rank": 20, "area_ha": 1.8, "rise_db": 5.7, "digitised_from": "Sentinel-1 VV rise 2022->2026, orbit 142"}}, {"type": "Feature", "geometry": {"geodesic": false, "type": "Polygon", "coordinates": [[[115.3733268853225, 35.72078862078548], [115.3733268853225, 35.72060895772865], [115.37278789615203, 35.72060895772865], [115.37278789615203, 35.72078862078548], [115.3726082330952, 35.72078862078548], [115.3726082330952, 35.72060895772865], [115.37224890698155, 35.72060895772865], [115.37224890698155, 35.72042929467183], [115.37170991781109, 35.72042929467183], [115.37170991781109, 35.72006996855818], [115.37278789615203, 35.72006996855818], [115.37278789615203, 35.71989030550136], [115.37296755920886, 35.71989030550136], [115.37296755920886, 35.719530979387706], [115.3733268853225, 35.719530979387706], [115.3733268853225, 35.72042929467183], [115.37440486366344, 35.72042929467183], [115.37440486366344, 35.72078862078548], [115.3733268853225, 35.72078862078548]]]}, "properties": {"name": "cand21", "ptype": "hall", "confidence": "low", "rank": 21, "area_ha": 1.8, "rise_db": 7.9, "digitised_from": "Sentinel-1 VV rise 2022->2026, orbit 142"}}, {"type": "Feature", "geometry": {"geodesic": false, "type": "Polygon", "coordinates": [[[115.32068560967309, 35.72995143668349], [115.32068560967309, 35.72977177362667], [115.32032628355945, 35.72977177362667], [115.32032628355945, 35.72995143668349], [115.32014662050263, 35.72995143668349], [115.32014662050263, 35.72977177362667], [115.3199669574458, 35.72977177362667], [115.3199669574458, 35.72941244751302], [115.31978729438897, 35.72941244751302], [115.31978729438897, 35.729053121399375], [115.3199669574458, 35.729053121399375], [115.3199669574458, 35.728873458342555], [115.32032628355945, 35.728873458342555], [115.32032628355945, 35.72869379528573], [115.32122459884357, 35.72869379528573], [115.32122459884357, 35.72959211056985], [115.32104493578674, 35.72959211056985], [115.32104493578674, 35.72995143668349], [115.32068560967309, 35.72995143668349]]]}, "properties": {"name": "cand22", "ptype": "hall", "confidence": "low", "rank": 22, "area_ha": 1.8, "rise_db": 7.7, "digitised_from": "Sentinel-1 VV rise 2022->2026, orbit 142"}}, {"type": "Feature", "geometry": {"geodesic": false, "type": "Polygon", "coordinates": [[[115.33020775168477, 35.730490425853965], [115.33020775168477, 35.730310762797146], [115.32966876251429, 35.730310762797146], [115.32966876251429, 35.730490425853965], [115.32948909945748, 35.730490425853965], [115.32948909945748, 35.730310762797146], [115.32930943640065, 35.730310762797146], [115.32930943640065, 35.72995143668349], [115.32912977334382, 35.72995143668349], [115.32912977334382, 35.72977177362667], [115.32930943640065, 35.72977177362667], [115.32930943640065, 35.72959211056985], [115.32966876251429, 35.72959211056985], [115.32966876251429, 35.72977177362667], [115.33074674085523, 35.72977177362667], [115.33074674085523, 35.728873458342555], [115.33128573002571, 35.728873458342555], [115.33128573002571, 35.7292327844562], [115.33110606696889, 35.7292327844562], [115.33110606696889, 35.72995143668349], [115.33074674085523, 35.72995143668349], [115.33074674085523, 35.73013109974032], [115.33056707779842, 35.73013109974032], [115.33056707779842, 35.730490425853965], [115.33020775168477, 35.730490425853965]]]}, "properties": {"name": "cand23", "ptype": "hall", "confidence": "low", "rank": 23, "area_ha": 1.7, "rise_db": 6.1, "digitised_from": "Sentinel-1 VV rise 2022->2026, orbit 142"}}, {"type": "Feature", "geometry": {"geodesic": false, "type": "Polygon", "coordinates": [[[115.32805179500288, 35.7540262862979], [115.32805179500288, 35.753846623241074], [115.32787213194605, 35.753846623241074], [115.32787213194605, 35.75366696018425], [115.32769246888923, 35.75366696018425], [115.32769246888923, 35.75348729712743], [115.32751280583241, 35.75348729712743], [115.32751280583241, 35.7533076340706], [115.32733314277559, 35.7533076340706], [115.32733314277559, 35.75312797101378], [115.32715347971876, 35.75312797101378], [115.32715347971876, 35.752948307956956], [115.32733314277559, 35.752948307956956], [115.32733314277559, 35.75276864490013], [115.32787213194605, 35.75276864490013], [115.32787213194605, 35.75258898184331], [115.32805179500288, 35.75258898184331], [115.32805179500288, 35.75240931878648], [115.3282314580597, 35.75240931878648], [115.3282314580597, 35.75258898184331], [115.32859078417336, 35.75258898184331], [115.32859078417336, 35.75276864490013], [115.32877044723017, 35.75276864490013], [115.32877044723017, 35.7533076340706], [115.32859078417336, 35.7533076340706], [115.32859078417336, 35.75348729712743], [115.32841112111653, 35.75348729712743], [115.32841112111653, 35.7533076340706], [115.32805179500288, 35.7533076340706], [115.32805179500288, 35.75366696018425], [115.32841112111653, 35.75366696018425], [115.32841112111653, 35.753846623241074], [115.32859078417336, 35.753846623241074], [115.32859078417336, 35.7540262862979], [115.32805179500288, 35.7540262862979]]]}, "properties": {"name": "cand24", "ptype": "hall", "confidence": "low", "rank": 24, "area_ha": 1.7, "rise_db": 8.0, "digitised_from": "Sentinel-1 VV rise 2022->2026, orbit 142"}}, {"type": "Feature", "geometry": {"geodesic": false, "type": "Polygon", "coordinates": [[[115.38787959292524, 35.77828079896913], [115.38787959292524, 35.7781011359123], [115.38769992986842, 35.7781011359123], [115.38769992986842, 35.77828079896913], [115.38716094069794, 35.77828079896913], [115.38716094069794, 35.777921472855475], [115.38734060375477, 35.777921472855475], [115.38734060375477, 35.77720282062818], [115.38877790820936, 35.77720282062818], [115.38877790820936, 35.77756214674183], [115.38859824515254, 35.77756214674183], [115.38859824515254, 35.777741809798655], [115.38841858209571, 35.777741809798655], [115.38841858209571, 35.7781011359123], [115.38823891903888, 35.7781011359123], [115.38823891903888, 35.77828079896913], [115.38787959292524, 35.77828079896913]]]}, "properties": {"name": "cand25", "ptype": "hall", "confidence": "low", "rank": 25, "area_ha": 1.6, "rise_db": 8.1, "digitised_from": "Sentinel-1 VV rise 2022->2026, orbit 142"}}, {"type": "Feature", "geometry": {"geodesic": false, "type": "Polygon", "coordinates": [[[115.36398440636766, 35.75348729712743], [115.36398440636766, 35.7533076340706], [115.36308609108355, 35.7533076340706], [115.36308609108355, 35.752948307956956], [115.36344541719718, 35.752948307956956], [115.36344541719718, 35.75276864490013], [115.36362508025401, 35.75276864490013], [115.36362508025401, 35.75222965572966], [115.36344541719718, 35.75222965572966], [115.36344541719718, 35.75187032961601], [115.36398440636766, 35.75187032961601], [115.36398440636766, 35.75204999267284], [115.36416406942449, 35.75204999267284], [115.36416406942449, 35.75222965572966], [115.36452339553813, 35.75222965572966], [115.36452339553813, 35.75204999267284], [115.36470305859496, 35.75204999267284], [115.36470305859496, 35.75222965572966], [115.36488272165178, 35.75222965572966], [115.36488272165178, 35.75240931878648], [115.36470305859496, 35.75240931878648], [115.36470305859496, 35.75258898184331], [115.36452339553813, 35.75258898184331], [115.36452339553813, 35.75240931878648], [115.3643437324813, 35.75240931878648], [115.3643437324813, 35.75258898184331], [115.36416406942449, 35.75258898184331], [115.36416406942449, 35.75348729712743], [115.36398440636766, 35.75348729712743]]]}, "properties": {"name": "cand26", "ptype": "hall", "confidence": "low", "rank": 26, "area_ha": 1.6, "rise_db": 5.7, "digitised_from": "Sentinel-1 VV rise 2022->2026, orbit 142"}}, {"type": "Feature", "geometry": {"geodesic": false, "type": "Polygon", "coordinates": [[[115.37063193947014, 35.74683976402494], [115.37063193947014, 35.74666010096812], [115.37027261335649, 35.74666010096812], [115.37027261335649, 35.74683976402494], [115.36991328724285, 35.74683976402494], [115.36991328724285, 35.74666010096812], [115.36919463501555, 35.74666010096812], [115.36919463501555, 35.74683976402494], [115.36847598278825, 35.74683976402494], [115.36847598278825, 35.74666010096812], [115.36811665667462, 35.74666010096812], [115.36811665667462, 35.746480437911295], [115.36829631973143, 35.746480437911295], [115.36829631973143, 35.74630077485447], [115.36883530890191, 35.74630077485447], [115.36883530890191, 35.74612111179765], [115.36937429807237, 35.74612111179765], [115.36937429807237, 35.74630077485447], [115.37009295029968, 35.74630077485447], [115.37009295029968, 35.746480437911295], [115.37045227641332, 35.746480437911295], [115.37045227641332, 35.74630077485447], [115.37081160252697, 35.74630077485447], [115.37081160252697, 35.746480437911295], [115.3709912655838, 35.746480437911295], [115.3709912655838, 35.74666010096812], [115.37081160252697, 35.74666010096812], [115.37081160252697, 35.74683976402494], [115.37063193947014, 35.74683976402494]]]}, "properties": {"name": "cand27", "ptype": "hall", "confidence": "low", "rank": 27, "area_ha": 1.5, "rise_db": 8.4, "digitised_from": "Sentinel-1 VV rise 2022->2026, orbit 142"}}, {"type": "Feature", "geometry": {"geodesic": false, "type": "Polygon", "coordinates": [[[115.36829631973143, 35.71755468576264], [115.36829631973143, 35.71737502270582], [115.36793699361779, 35.71737502270582], [115.36793699361779, 35.71755468576264], [115.36739800444731, 35.71755468576264], [115.36739800444731, 35.71737502270582], [115.36757766750414, 35.71737502270582], [115.36757766750414, 35.71701569659218], [115.36775733056096, 35.71701569659218], [115.36775733056096, 35.71683603353535], [115.36901497195873, 35.71683603353535], [115.36901497195873, 35.71701569659218], [115.36937429807237, 35.71701569659218], [115.36937429807237, 35.71755468576264], [115.36829631973143, 35.71755468576264]]]}, "properties": {"name": "cand28", "ptype": "hall", "confidence": "low", "rank": 28, "area_ha": 1.4, "rise_db": 8.0, "digitised_from": "Sentinel-1 VV rise 2022->2026, orbit 142"}}, {"type": "Feature", "geometry": {"geodesic": false, "type": "Polygon", "coordinates": [[[115.35733687326517, 35.71989030550136], [115.35733687326517, 35.719530979387706], [115.35715721020836, 35.719530979387706], [115.35715721020836, 35.71917165327406], [115.35733687326517, 35.71917165327406], [115.35733687326517, 35.71899199021724], [115.357516536322, 35.71899199021724], [115.357516536322, 35.71827333798994], [115.35733687326517, 35.71827333798994], [115.35733687326517, 35.718093674933115], [115.35769619937882, 35.718093674933115], [115.35769619937882, 35.71827333798994], [115.35805552549247, 35.71827333798994], [115.35805552549247, 35.71845300104677], [115.35841485160611, 35.71845300104677], [115.35841485160611, 35.718812327160414], [115.35787586243565, 35.718812327160414], [115.35787586243565, 35.719530979387706], [115.35769619937882, 35.719530979387706], [115.35769619937882, 35.71989030550136], [115.35733687326517, 35.71989030550136]]]}, "properties": {"name": "cand29", "ptype": "hall", "confidence": "low", "rank": 29, "area_ha": 1.3, "rise_db": 6.7, "digitised_from": "Sentinel-1 VV rise 2022->2026, orbit 142"}}, {"type": "Feature", "geometry": {"geodesic": false, "type": "Polygon", "coordinates": [[[115.35104866627634, 35.74306683983164], [115.35104866627634, 35.742887176774815], [115.35086900321951, 35.742887176774815], [115.35086900321951, 35.742707513717995], [115.35068934016269, 35.742707513717995], [115.35068934016269, 35.74252785066117], [115.35050967710586, 35.74252785066117], [115.35050967710586, 35.742707513717995], [115.3499706879354, 35.742707513717995], [115.3499706879354, 35.742887176774815], [115.34961136182174, 35.742887176774815], [115.34961136182174, 35.742707513717995], [115.34943169876492, 35.742707513717995], [115.34943169876492, 35.74216852454752], [115.34961136182174, 35.74216852454752], [115.34961136182174, 35.7419888614907], [115.3499706879354, 35.7419888614907], [115.3499706879354, 35.74216852454752], [115.35050967710586, 35.74216852454752], [115.35050967710586, 35.74234818760434], [115.35068934016269, 35.74234818760434], [115.35068934016269, 35.74252785066117], [115.35140799238998, 35.74252785066117], [115.35140799238998, 35.74306683983164], [115.35104866627634, 35.74306683983164]]]}, "properties": {"name": "cand30", "ptype": "hall", "confidence": "low", "rank": 30, "area_ha": 1.3, "rise_db": 6.3, "digitised_from": "Sentinel-1 VV rise 2022->2026, orbit 142"}}, {"type": "Feature", "geometry": {"geodesic": false, "type": "Polygon", "coordinates": [[[115.36110979745848, 35.75833819966167], [115.36110979745848, 35.758158536604846], [115.36093013440166, 35.758158536604846], [115.36093013440166, 35.757978873548026], [115.360570808288, 35.757978873548026], [115.360570808288, 35.758158536604846], [115.36021148217436, 35.758158536604846], [115.36021148217436, 35.75833819966167], [115.36003181911754, 35.75833819966167], [115.36003181911754, 35.758158536604846], [115.35985215606071, 35.758158536604846], [115.35985215606071, 35.75761954743437], [115.35967249300388, 35.75761954743437], [115.35967249300388, 35.757439884377554], [115.36075047134483, 35.757439884377554], [115.36075047134483, 35.75761954743437], [115.36110979745848, 35.75761954743437], [115.36110979745848, 35.7577992104912], [115.3612894605153, 35.7577992104912], [115.3612894605153, 35.757978873548026], [115.36146912357212, 35.757978873548026], [115.36146912357212, 35.758158536604846], [115.3612894605153, 35.758158536604846], [115.3612894605153, 35.75833819966167], [115.36110979745848, 35.75833819966167]]]}, "properties": {"name": "cand31", "ptype": "hall", "confidence": "low", "rank": 31, "area_ha": 1.2, "rise_db": 6.6, "digitised_from": "Sentinel-1 VV rise 2022->2026, orbit 142"}}, {"type": "Feature", "geometry": {"geodesic": false, "type": "Polygon", "coordinates": [[[115.37494385283392, 35.772711244207585], [115.37494385283392, 35.77235191809394], [115.37440486366344, 35.77235191809394], [115.37440486366344, 35.77253158115076], [115.37422520060662, 35.77253158115076], [115.37422520060662, 35.772711244207585], [115.37386587449298, 35.772711244207585], [115.37386587449298, 35.77253158115076], [115.37368621143615, 35.77253158115076], [115.37368621143615, 35.77235191809394], [115.37386587449298, 35.77235191809394], [115.37386587449298, 35.771992591980286], [115.3740455375498, 35.771992591980286], [115.3740455375498, 35.77181292892347], [115.3747641897771, 35.77181292892347], [115.3747641897771, 35.771992591980286], [115.37512351589073, 35.771992591980286], [115.37512351589073, 35.77217225503711], [115.37530317894756, 35.77217225503711], [115.37530317894756, 35.77253158115076], [115.37548284200439, 35.77253158115076], [115.37548284200439, 35.772711244207585], [115.37494385283392, 35.772711244207585]]]}, "properties": {"name": "cand32", "ptype": "hall", "confidence": "low", "rank": 32, "area_ha": 1.2, "rise_db": 8.7, "digitised_from": "Sentinel-1 VV rise 2022->2026, orbit 142"}}, {"type": "Feature", "geometry": {"geodesic": false, "type": "Polygon", "coordinates": [[[115.32930943640065, 35.72743615388796], [115.32930943640065, 35.72725649083114], [115.32912977334382, 35.72725649083114], [115.32912977334382, 35.726717501660666], [115.328950110287, 35.726717501660666], [115.328950110287, 35.72653783860384], [115.32877044723017, 35.72653783860384], [115.32877044723017, 35.72617851249019], [115.328950110287, 35.72617851249019], [115.328950110287, 35.72599884943337], [115.32948909945748, 35.72599884943337], [115.32948909945748, 35.72617851249019], [115.32966876251429, 35.72617851249019], [115.32966876251429, 35.72635817554702], [115.32948909945748, 35.72635817554702], [115.32948909945748, 35.726717501660666], [115.32966876251429, 35.726717501660666], [115.32966876251429, 35.72707682777431], [115.32984842557111, 35.72707682777431], [115.32984842557111, 35.72725649083114], [115.32966876251429, 35.72725649083114], [115.32966876251429, 35.72743615388796], [115.32930943640065, 35.72743615388796]]]}, "properties": {"name": "cand33", "ptype": "hall", "confidence": "low", "rank": 33, "area_ha": 1.1, "rise_db": 7.6, "digitised_from": "Sentinel-1 VV rise 2022->2026, orbit 142"}}, {"type": "Feature", "geometry": {"geodesic": false, "type": "Polygon", "coordinates": [[[115.37943542925451, 35.77378922254853], [115.37943542925451, 35.7736095594917], [115.37871677702722, 35.7736095594917], [115.37871677702722, 35.77342989643488], [115.3785371139704, 35.77342989643488], [115.3785371139704, 35.77307057032123], [115.379974418425, 35.77307057032123], [115.379974418425, 35.77325023337806], [115.3801540814818, 35.77325023337806], [115.3801540814818, 35.77342989643488], [115.379974418425, 35.77342989643488], [115.379974418425, 35.77378922254853], [115.37943542925451, 35.77378922254853]]]}, "properties": {"name": "cand34", "ptype": "hall", "confidence": "low", "rank": 34, "area_ha": 1.1, "rise_db": 5.9, "digitised_from": "Sentinel-1 VV rise 2022->2026, orbit 142"}}, {"type": "Feature", "geometry": {"geodesic": false, "type": "Polygon", "coordinates": [[[115.31817032687756, 35.77899945119642], [115.31817032687756, 35.7788197881396], [115.31781100076391, 35.7788197881396], [115.31781100076391, 35.7781011359123], [115.31799066382074, 35.7781011359123], [115.31799066382074, 35.777921472855475], [115.31817032687756, 35.777921472855475], [115.31817032687756, 35.777741809798655], [115.31870931604803, 35.777741809798655], [115.31870931604803, 35.77828079896913], [115.31852965299122, 35.77828079896913], [115.31852965299122, 35.77899945119642], [115.31817032687756, 35.77899945119642]]]}, "properties": {"name": "cand35", "ptype": "hall", "confidence": "low", "rank": 35, "area_ha": 1.0, "rise_db": 8.5, "digitised_from": "Sentinel-1 VV rise 2022->2026, orbit 142"}}, {"type": "Feature", "geometry": {"geodesic": false, "type": "Polygon", "coordinates": [[[115.32463819692322, 35.72653783860384], [115.32463819692322, 35.72635817554702], [115.3244585338664, 35.72635817554702], [115.3244585338664, 35.72599884943337], [115.32409920775275, 35.72599884943337], [115.32409920775275, 35.72617851249019], [115.32391954469593, 35.72617851249019], [115.32391954469593, 35.72581918637655], [115.3251771860937, 35.72581918637655], [115.3251771860937, 35.72563952331972], [115.32607550137782, 35.72563952331972], [115.32607550137782, 35.72581918637655], [115.32589583832099, 35.72581918637655], [115.32589583832099, 35.72599884943337], [115.32481785998004, 35.72599884943337], [115.32481785998004, 35.72617851249019], [115.3251771860937, 35.72617851249019], [115.3251771860937, 35.72635817554702], [115.32499752303687, 35.72635817554702], [115.32499752303687, 35.72653783860384], [115.32463819692322, 35.72653783860384]]]}, "properties": {"name": "cand36", "ptype": "hall", "confidence": "low", "rank": 36, "area_ha": 1.0, "rise_db": 5.2, "digitised_from": "Sentinel-1 VV rise 2022->2026, orbit 142"}}]}