{"type": "FeatureCollection", "features": [{"type": "Feature", "geometry": {"geodesic": false, "type": "Polygon", "coordinates": [[[119.4574274930435, 34.4913543229395], [119.4574274930435, 34.491174659882674], [119.45724782998667, 34.491174659882674], [119.45724782998667, 34.490994996825854], [119.4567088408162, 34.490994996825854], [119.4567088408162, 34.49045600765538], [119.45688850387302, 34.49045600765538], [119.45688850387302, 34.490276344598556], [119.45706816692984, 34.490276344598556], [119.45706816692984, 34.49009668154173], [119.45724782998667, 34.49009668154173], [119.45724782998667, 34.48991701848491], [119.4574274930435, 34.48991701848491], [119.4574274930435, 34.48973735542808], [119.45760715610032, 34.48973735542808], [119.45760715610032, 34.488120387916666], [119.45778681915715, 34.488120387916666], [119.45778681915715, 34.48794072485985], [119.45796648221396, 34.48794072485985], [119.45796648221396, 34.487401735689375], [119.45778681915715, 34.487401735689375], [119.45778681915715, 34.48704240957573], [119.45796648221396, 34.48704240957573], [119.45796648221396, 34.4868627465189], [119.4590444605549, 34.4868627465189], [119.4590444605549, 34.48704240957573], [119.45976311278221, 34.48704240957573], [119.45976311278221, 34.48722207263255], [119.46012243889585, 34.48722207263255], [119.46012243889585, 34.487401735689375], [119.4604817650095, 34.487401735689375], [119.4604817650095, 34.488120387916666], [119.46030210195268, 34.488120387916666], [119.46030210195268, 34.48830005097349], [119.46012243889585, 34.48830005097349], [119.46012243889585, 34.48973735542808], [119.45976311278221, 34.48973735542808], [119.45976311278221, 34.48955769237126], [119.45958344972539, 34.48955769237126], [119.45958344972539, 34.48973735542808], [119.45940378666856, 34.48973735542808], [119.45940378666856, 34.48955769237126], [119.4590444605549, 34.48955769237126], [119.4590444605549, 34.48937802931444], [119.45886479749808, 34.48937802931444], [119.45886479749808, 34.48919836625761], [119.45868513444127, 34.48919836625761], [119.45868513444127, 34.48937802931444], [119.45796648221396, 34.48937802931444], [119.45796648221396, 34.48955769237126], [119.45814614527079, 34.48955769237126], [119.45814614527079, 34.48973735542808], [119.45832580832761, 34.48973735542808], [119.45832580832761, 34.48991701848491], [119.45814614527079, 34.48991701848491], [119.45814614527079, 34.49009668154173], [119.45796648221396, 34.49009668154173], [119.45796648221396, 34.490276344598556], [119.45778681915715, 34.490276344598556], [119.45778681915715, 34.49045600765538], [119.45796648221396, 34.49045600765538], [119.45796648221396, 34.49081533376903], [119.45778681915715, 34.49081533376903], [119.45778681915715, 34.490994996825854], [119.4574274930435, 34.490994996825854], [119.4574274930435, 34.491174659882674], [119.45760715610032, 34.491174659882674], [119.45760715610032, 34.4913543229395], [119.4574274930435, 34.4913543229395]], [[119.45976311278221, 34.48776106180302], [119.45940378666856, 34.48776106180302], [119.45940378666856, 34.487581398746194], [119.45976311278221, 34.487581398746194], [119.45976311278221, 34.48776106180302]]]}, "properties": {"name": "cand01", "ptype": "hall", "confidence": "low", "rank": 1, "area_ha": 9.6, "rise_db": 10.0, "digitised_from": "Sentinel-1 VV rise 2022->2026, orbit 69"}}, {"type": "Feature", "geometry": {"geodesic": false, "type": "Polygon", "coordinates": [[[119.4522172643956, 34.49422893184868], [119.4522172643956, 34.493869605735036], [119.45203760133877, 34.493869605735036], [119.45203760133877, 34.494049268791855], [119.45149861216831, 34.494049268791855], [119.45149861216831, 34.493869605735036], [119.45131894911148, 34.493869605735036], [119.45131894911148, 34.49368994267821], [119.45113928605466, 34.49368994267821], [119.45113928605466, 34.493869605735036], [119.45060029688419, 34.493869605735036], [119.45060029688419, 34.49351027962138], [119.45077995994102, 34.49351027962138], [119.45077995994102, 34.49333061656456], [119.4498816446569, 34.49333061656456], [119.4498816446569, 34.49315095350774], [119.44970198160007, 34.49315095350774], [119.44970198160007, 34.49297129045092], [119.44934265548642, 34.49297129045092], [119.44934265548642, 34.49279162739409], [119.44898332937277, 34.49279162739409], [119.44898332937277, 34.492432301280445], [119.44916299242959, 34.492432301280445], [119.44916299242959, 34.491713649053146], [119.44934265548642, 34.491713649053146], [119.44934265548642, 34.491174659882674], [119.45024097077054, 34.491174659882674], [119.45024097077054, 34.4913543229395], [119.45042063382736, 34.4913543229395], [119.45042063382736, 34.49153398599632], [119.45113928605466, 34.49153398599632], [119.45113928605466, 34.491713649053146], [119.45131894911148, 34.491713649053146], [119.45131894911148, 34.49207297516679], [119.45113928605466, 34.49207297516679], [119.45113928605466, 34.49225263822362], [119.45095962299783, 34.49225263822362], [119.45095962299783, 34.49297129045092], [119.45131894911148, 34.49297129045092], [119.45131894911148, 34.49279162739409], [119.45149861216831, 34.49279162739409], [119.45149861216831, 34.492432301280445], [119.45167827522513, 34.492432301280445], [119.45167827522513, 34.49225263822362], [119.45185793828196, 34.49225263822362], [119.45185793828196, 34.49207297516679], [119.45257659050925, 34.49207297516679], [119.45257659050925, 34.49225263822362], [119.45275625356608, 34.49225263822362], [119.45275625356608, 34.49207297516679], [119.45311557967972, 34.49207297516679], [119.45311557967972, 34.49225263822362], [119.45329524273654, 34.49225263822362], [119.45329524273654, 34.492432301280445], [119.45347490579337, 34.492432301280445], [119.45347490579337, 34.49279162739409], [119.45329524273654, 34.49279162739409], [119.45329524273654, 34.49297129045092], [119.45275625356608, 34.49297129045092], [119.45275625356608, 34.49279162739409], [119.4522172643956, 34.49279162739409], [119.4522172643956, 34.492611964337264], [119.45203760133877, 34.492611964337264], [119.45203760133877, 34.49279162739409], [119.45167827522513, 34.49279162739409], [119.45167827522513, 34.49297129045092], [119.4522172643956, 34.49297129045092], [119.4522172643956, 34.49315095350774], [119.45275625356608, 34.49315095350774], [119.45275625356608, 34.49333061656456], [119.45311557967972, 34.49333061656456], [119.45311557967972, 34.49351027962138], [119.45239692745243, 34.49351027962138], [119.45239692745243, 34.49368994267821], [119.45257659050925, 34.49368994267821], [119.45257659050925, 34.49422893184868], [119.4522172643956, 34.49422893184868]], [[119.45095962299783, 34.49333061656456], [119.45077995994102, 34.49333061656456], [119.45077995994102, 34.49297129045092], [119.45095962299783, 34.49297129045092], [119.45095962299783, 34.49333061656456]], [[119.45095962299783, 34.49368994267821], [119.45077995994102, 34.49368994267821], [119.45077995994102, 34.49351027962138], [119.45095962299783, 34.49351027962138], [119.45095962299783, 34.49368994267821]]]}, "properties": {"name": "cand02", "ptype": "hall", "confidence": "low", "rank": 2, "area_ha": 8.2, "rise_db": 8.0, "digitised_from": "Sentinel-1 VV rise 2022->2026, orbit 69"}}, {"type": "Feature", "geometry": {"geodesic": false, "type": "Polygon", "coordinates": [[[119.45113928605466, 34.46081160327944], [119.45113928605466, 34.46063194022261], [119.44970198160007, 34.46063194022261], [119.44970198160007, 34.460452277165786], [119.44952231854325, 34.460452277165786], [119.44952231854325, 34.460272614108966], [119.44934265548642, 34.460272614108966], [119.44934265548642, 34.46009295105214], [119.44916299242959, 34.46009295105214], [119.44916299242959, 34.45919463576802], [119.44934265548642, 34.45919463576802], [119.44934265548642, 34.459014972711195], [119.44952231854325, 34.459014972711195], [119.44952231854325, 34.45919463576802], [119.44934265548642, 34.45919463576802], [119.44934265548642, 34.45955396188167], [119.44970198160007, 34.45955396188167], [119.44970198160007, 34.45991328799531], [119.44952231854325, 34.45991328799531], [119.44952231854325, 34.46009295105214], [119.45006130771371, 34.46009295105214], [119.45006130771371, 34.45991328799531], [119.4498816446569, 34.45991328799531], [119.4498816446569, 34.45955396188167], [119.45006130771371, 34.45955396188167], [119.45006130771371, 34.45937429882484], [119.4498816446569, 34.45937429882484], [119.4498816446569, 34.459014972711195], [119.44970198160007, 34.459014972711195], [119.44970198160007, 34.458835309654376], [119.44934265548642, 34.458835309654376], [119.44934265548642, 34.45847598354072], [119.44952231854325, 34.45847598354072], [119.44952231854325, 34.45865564659755], [119.44970198160007, 34.45865564659755], [119.44970198160007, 34.45847598354072], [119.45006130771371, 34.45847598354072], [119.45006130771371, 34.45865564659755], [119.4498816446569, 34.45865564659755], [119.4498816446569, 34.458835309654376], [119.45024097077054, 34.458835309654376], [119.45024097077054, 34.45847598354072], [119.45131894911148, 34.45847598354072], [119.45131894911148, 34.45865564659755], [119.45113928605466, 34.45865564659755], [119.45113928605466, 34.458835309654376], [119.45077995994102, 34.458835309654376], [119.45077995994102, 34.459014972711195], [119.45095962299783, 34.459014972711195], [119.45095962299783, 34.45919463576802], [119.45149861216831, 34.45919463576802], [119.45149861216831, 34.459014972711195], [119.45131894911148, 34.459014972711195], [119.45131894911148, 34.458835309654376], [119.45149861216831, 34.458835309654376], [119.45149861216831, 34.45865564659755], [119.45185793828196, 34.45865564659755], [119.45185793828196, 34.458835309654376], [119.45167827522513, 34.458835309654376], [119.45167827522513, 34.45919463576802], [119.45203760133877, 34.45919463576802], [119.45203760133877, 34.45937429882484], [119.4522172643956, 34.45937429882484], [119.4522172643956, 34.459014972711195], [119.45239692745243, 34.459014972711195], [119.45239692745243, 34.46063194022261], [119.45203760133877, 34.46063194022261], [119.45203760133877, 34.46081160327944], [119.45113928605466, 34.46081160327944]], [[119.45077995994102, 34.45919463576802], [119.45060029688419, 34.45919463576802], [119.45060029688419, 34.459014972711195], [119.45077995994102, 34.459014972711195], [119.45077995994102, 34.45919463576802]], [[119.45042063382736, 34.459733624938494], [119.45024097077054, 34.459733624938494], [119.45024097077054, 34.45937429882484], [119.45077995994102, 34.45937429882484], [119.45077995994102, 34.45955396188167], [119.45042063382736, 34.45955396188167], [119.45042063382736, 34.459733624938494]], [[119.4522172643956, 34.459733624938494], [119.45167827522513, 34.459733624938494], [119.45167827522513, 34.45955396188167], [119.4522172643956, 34.45955396188167], [119.4522172643956, 34.459733624938494]], [[119.4522172643956, 34.46009295105214], [119.45203760133877, 34.46009295105214], [119.45203760133877, 34.45991328799531], [119.4522172643956, 34.45991328799531], [119.4522172643956, 34.46009295105214]], [[119.45203760133877, 34.460452277165786], [119.45185793828196, 34.460452277165786], [119.45185793828196, 34.460272614108966], [119.45203760133877, 34.460272614108966], [119.45203760133877, 34.460452277165786]]]}, "properties": {"name": "cand03", "ptype": "hall", "confidence": "low", "rank": 3, "area_ha": 6.2, "rise_db": 6.1, "digitised_from": "Sentinel-1 VV rise 2022->2026, orbit 69"}}, {"type": "Feature", "geometry": {"geodesic": false, "type": "Polygon", "coordinates": [[[119.45293591662289, 34.49728320381469], [119.45293591662289, 34.49710354075786], [119.45257659050925, 34.49710354075786], [119.45257659050925, 34.49692387770104], [119.4522172643956, 34.49692387770104], [119.4522172643956, 34.49674421464422], [119.45203760133877, 34.49674421464422], [119.45203760133877, 34.49656455158739], [119.45185793828196, 34.49656455158739], [119.45185793828196, 34.49638488853057], [119.45149861216831, 34.49638488853057], [119.45149861216831, 34.49656455158739], [119.45095962299783, 34.49656455158739], [119.45095962299783, 34.49674421464422], [119.45060029688419, 34.49674421464422], [119.45060029688419, 34.49638488853057], [119.45077995994102, 34.49638488853057], [119.45077995994102, 34.4958458993601], [119.45095962299783, 34.4958458993601], [119.45095962299783, 34.49566623630327], [119.45113928605466, 34.49566623630327], [119.45113928605466, 34.495306910189626], [119.45131894911148, 34.495306910189626], [119.45131894911148, 34.4951272471328], [119.45149861216831, 34.4951272471328], [119.45149861216831, 34.49458825796233], [119.45167827522513, 34.49458825796233], [119.45167827522513, 34.49440859490551], [119.45185793828196, 34.49440859490551], [119.45185793828196, 34.49458825796233], [119.45203760133877, 34.49458825796233], [119.45203760133877, 34.494767921019154], [119.45185793828196, 34.494767921019154], [119.45185793828196, 34.4951272471328], [119.45203760133877, 34.4951272471328], [119.45203760133877, 34.49566623630327], [119.45185793828196, 34.49566623630327], [119.45185793828196, 34.49602556241692], [119.4522172643956, 34.49602556241692], [119.4522172643956, 34.4958458993601], [119.45239692745243, 34.4958458993601], [119.45239692745243, 34.495486573246446], [119.45257659050925, 34.495486573246446], [119.45257659050925, 34.495306910189626], [119.45239692745243, 34.495306910189626], [119.45239692745243, 34.49494758407598], [119.45257659050925, 34.49494758407598], [119.45257659050925, 34.494767921019154], [119.45275625356608, 34.494767921019154], [119.45275625356608, 34.49458825796233], [119.45329524273654, 34.49458825796233], [119.45329524273654, 34.494767921019154], [119.45347490579337, 34.494767921019154], [119.45347490579337, 34.49494758407598], [119.45383423190702, 34.49494758407598], [119.45383423190702, 34.4951272471328], [119.45419355802066, 34.4951272471328], [119.45419355802066, 34.495306910189626], [119.45401389496384, 34.495306910189626], [119.45401389496384, 34.49566623630327], [119.45383423190702, 34.49566623630327], [119.45383423190702, 34.4958458993601], [119.45347490579337, 34.4958458993601], [119.45347490579337, 34.49656455158739], [119.45329524273654, 34.49656455158739], [119.45329524273654, 34.49710354075786], [119.45311557967972, 34.49710354075786], [119.45311557967972, 34.49728320381469], [119.45293591662289, 34.49728320381469]]]}, "properties": {"name": "cand04", "ptype": "hall", "confidence": "low", "rank": 4, "area_ha": 6.2, "rise_db": 7.1, "digitised_from": "Sentinel-1 VV rise 2022->2026, orbit 69"}}, {"type": "Feature", "geometry": {"geodesic": false, "type": "Polygon", "coordinates": [[[119.47557346178272, 34.47949656118912], [119.47557346178272, 34.479316898132296], [119.47413615732812, 34.479316898132296], [119.47413615732812, 34.47913723507548], [119.47395649427129, 34.47913723507548], [119.47395649427129, 34.47823891979135], [119.47413615732812, 34.47823891979135], [119.47413615732812, 34.47805925673453], [119.47431582038494, 34.47805925673453], [119.47431582038494, 34.47769993062088], [119.47413615732812, 34.47769993062088], [119.47413615732812, 34.477160941450414], [119.47431582038494, 34.477160941450414], [119.47431582038494, 34.47662195227994], [119.47449548344177, 34.47662195227994], [119.47449548344177, 34.476442289223115], [119.47521413566906, 34.476442289223115], [119.47521413566906, 34.47662195227994], [119.47539379872589, 34.47662195227994], [119.47539379872589, 34.47734060450723], [119.47521413566906, 34.47734060450723], [119.47521413566906, 34.47752026756406], [119.47503447261224, 34.47752026756406], [119.47503447261224, 34.47769993062088], [119.47539379872589, 34.47769993062088], [119.47539379872589, 34.477879593677706], [119.47575312483953, 34.477879593677706], [119.47575312483953, 34.47805925673453], [119.47593278789635, 34.47805925673453], [119.47593278789635, 34.477879593677706], [119.47611245095318, 34.477879593677706], [119.47611245095318, 34.47805925673453], [119.47629211401001, 34.47805925673453], [119.47629211401001, 34.47841858284818], [119.47665144012365, 34.47841858284818], [119.47665144012365, 34.478598245905005], [119.47683110318047, 34.478598245905005], [119.47683110318047, 34.478777908961824], [119.47665144012365, 34.478777908961824], [119.47665144012365, 34.47895757201865], [119.47647177706683, 34.47895757201865], [119.47647177706683, 34.47913723507548], [119.47629211401001, 34.47913723507548], [119.47629211401001, 34.479316898132296], [119.47593278789635, 34.479316898132296], [119.47593278789635, 34.47949656118912], [119.47557346178272, 34.47949656118912]], [[119.47485480955541, 34.47698127839359], [119.47449548344177, 34.47698127839359], [119.47449548344177, 34.47680161533676], [119.47467514649858, 34.47680161533676], [119.47467514649858, 34.47662195227994], [119.47485480955541, 34.47662195227994], [119.47485480955541, 34.47698127839359]], [[119.47503447261224, 34.477160941450414], [119.47485480955541, 34.477160941450414], [119.47485480955541, 34.47698127839359], [119.47503447261224, 34.47698127839359], [119.47503447261224, 34.477160941450414]], [[119.47503447261224, 34.47823891979135], [119.47467514649858, 34.47823891979135], [119.47467514649858, 34.47805925673453], [119.47503447261224, 34.47805925673453], [119.47503447261224, 34.47823891979135]], [[119.47575312483953, 34.47841858284818], [119.47539379872589, 34.47841858284818], [119.47539379872589, 34.47823891979135], [119.47575312483953, 34.47823891979135], [119.47575312483953, 34.47841858284818]], [[119.47431582038494, 34.478598245905005], [119.47413615732812, 34.478598245905005], [119.47413615732812, 34.47841858284818], [119.47431582038494, 34.47841858284818], [119.47431582038494, 34.478598245905005]], [[119.47557346178272, 34.47913723507548], [119.47539379872589, 34.47913723507548], [119.47539379872589, 34.47895757201865], [119.47521413566906, 34.47895757201865], [119.47521413566906, 34.478777908961824], [119.47557346178272, 34.478777908961824], [119.47557346178272, 34.47913723507548]], [[119.47629211401001, 34.47913723507548], [119.47611245095318, 34.47913723507548], [119.47611245095318, 34.478777908961824], [119.47629211401001, 34.478777908961824], [119.47629211401001, 34.47913723507548]]]}, "properties": {"name": "cand05", "ptype": "hall", "confidence": "low", "rank": 5, "area_ha": 5.6, "rise_db": 7.2, "digitised_from": "Sentinel-1 VV rise 2022->2026, orbit 69"}}, {"type": "Feature", "geometry": {"geodesic": false, "type": "Polygon", "coordinates": [[[119.4897668432718, 34.475543973939], [119.4897668432718, 34.47536431088217], [119.48958718021497, 34.47536431088217], [119.48958718021497, 34.475543973939], [119.48940751715816, 34.475543973939], [119.48940751715816, 34.47536431088217], [119.48922785410133, 34.47536431088217], [119.48922785410133, 34.47518464782535], [119.4890481910445, 34.47518464782535], [119.4890481910445, 34.475004984768525], [119.48940751715816, 34.475004984768525], [119.48940751715816, 34.4748253217117], [119.4890481910445, 34.4748253217117], [119.4890481910445, 34.47464565865488], [119.48868886493085, 34.47464565865488], [119.48868886493085, 34.47446599559805], [119.48850920187402, 34.47446599559805], [119.48850920187402, 34.47410666948441], [119.48868886493085, 34.47410666948441], [119.48868886493085, 34.47374734337075], [119.4890481910445, 34.47374734337075], [119.4890481910445, 34.473567680313934], [119.48886852798768, 34.473567680313934], [119.48886852798768, 34.472849028086635], [119.49084482161274, 34.472849028086635], [119.49084482161274, 34.47302869114346], [119.49102448466957, 34.47302869114346], [119.49102448466957, 34.47320835420028], [119.49084482161274, 34.47320835420028], [119.49084482161274, 34.47338801725711], [119.49066515855591, 34.47338801725711], [119.49066515855591, 34.473567680313934], [119.49048549549909, 34.473567680313934], [119.49048549549909, 34.47374734337075], [119.49066515855591, 34.47374734337075], [119.49066515855591, 34.47410666948441], [119.49048549549909, 34.47410666948441], [119.49048549549909, 34.474286332541226], [119.49030583244227, 34.474286332541226], [119.49030583244227, 34.47446599559805], [119.49048549549909, 34.47446599559805], [119.49048549549909, 34.475004984768525], [119.49030583244227, 34.475004984768525], [119.49030583244227, 34.47518464782535], [119.49048549549909, 34.47518464782535], [119.49048549549909, 34.47536431088217], [119.49030583244227, 34.47536431088217], [119.49030583244227, 34.475543973939], [119.4897668432718, 34.475543973939]], [[119.48922785410133, 34.47338801725711], [119.4890481910445, 34.47338801725711], [119.4890481910445, 34.47320835420028], [119.48922785410133, 34.47320835420028], [119.48922785410133, 34.47338801725711]], [[119.48940751715816, 34.47410666948441], [119.48922785410133, 34.47410666948441], [119.48922785410133, 34.473567680313934], [119.48940751715816, 34.473567680313934], [119.48940751715816, 34.47410666948441]], [[119.48886852798768, 34.474286332541226], [119.48868886493085, 34.474286332541226], [119.48868886493085, 34.47410666948441], [119.48886852798768, 34.47410666948441], [119.48886852798768, 34.474286332541226]], [[119.49012616938545, 34.47446599559805], [119.48994650632862, 34.47446599559805], [119.48994650632862, 34.474286332541226], [119.49012616938545, 34.474286332541226], [119.49012616938545, 34.47446599559805]], [[119.48940751715816, 34.47464565865488], [119.4890481910445, 34.47464565865488], [119.4890481910445, 34.47446599559805], [119.48922785410133, 34.47446599559805], [119.48922785410133, 34.474286332541226], [119.48940751715816, 34.474286332541226], [119.48940751715816, 34.47464565865488]], [[119.48994650632862, 34.475004984768525], [119.4897668432718, 34.475004984768525], [119.4897668432718, 34.4748253217117], [119.48994650632862, 34.4748253217117], [119.48994650632862, 34.475004984768525]]]}, "properties": {"name": "cand06", "ptype": "hall", "confidence": "low", "rank": 6, "area_ha": 5.1, "rise_db": 7.3, "digitised_from": "Sentinel-1 VV rise 2022->2026, orbit 69"}}, {"type": "Feature", "geometry": {"geodesic": false, "type": "Polygon", "coordinates": [[[119.47880739680554, 34.45721834214296], [119.47880739680554, 34.45703867908613], [119.47754975540778, 34.45703867908613], [119.47754975540778, 34.456679352972486], [119.47719042929413, 34.456679352972486], [119.47719042929413, 34.45685901602931], [119.4770107662373, 34.45685901602931], [119.4770107662373, 34.45703867908613], [119.47683110318047, 34.45703867908613], [119.47683110318047, 34.45685901602931], [119.47647177706683, 34.45685901602931], [119.47647177706683, 34.45703867908613], [119.47629211401001, 34.45703867908613], [119.47629211401001, 34.45685901602931], [119.47539379872589, 34.45685901602931], [119.47539379872589, 34.456679352972486], [119.47521413566906, 34.456679352972486], [119.47521413566906, 34.45649968991566], [119.47539379872589, 34.45649968991566], [119.47539379872589, 34.45632002685884], [119.47557346178272, 34.45632002685884], [119.47557346178272, 34.45649968991566], [119.47575312483953, 34.45649968991566], [119.47575312483953, 34.456140363802014], [119.47557346178272, 34.456140363802014], [119.47557346178272, 34.45578103768837], [119.47575312483953, 34.45578103768837], [119.47575312483953, 34.45560137463154], [119.47629211401001, 34.45560137463154], [119.47629211401001, 34.45578103768837], [119.4770107662373, 34.45578103768837], [119.4770107662373, 34.45596070074519], [119.47719042929413, 34.45596070074519], [119.47719042929413, 34.456140363802014], [119.47862773374871, 34.456140363802014], [119.47862773374871, 34.45632002685884], [119.47916672291919, 34.45632002685884], [119.47916672291919, 34.45649968991566], [119.47934638597602, 34.45649968991566], [119.47934638597602, 34.45703867908613], [119.47916672291919, 34.45703867908613], [119.47916672291919, 34.45721834214296], [119.47880739680554, 34.45721834214296]], [[119.47629211401001, 34.45649968991566], [119.47611245095318, 34.45649968991566], [119.47611245095318, 34.45632002685884], [119.47629211401001, 34.45632002685884], [119.47629211401001, 34.45649968991566]], [[119.47772941846459, 34.456679352972486], [119.47754975540778, 34.456679352972486], [119.47754975540778, 34.45649968991566], [119.47772941846459, 34.45649968991566], [119.47772941846459, 34.456679352972486]]]}, "properties": {"name": "cand07", "ptype": "hall", "confidence": "low", "rank": 7, "area_ha": 4.4, "rise_db": 7.2, "digitised_from": "Sentinel-1 VV rise 2022->2026, orbit 69"}}, {"type": "Feature", "geometry": {"geodesic": false, "type": "Polygon", "coordinates": [[[119.45922412361173, 34.4951272471328], [119.45922412361173, 34.49494758407598], [119.45886479749808, 34.49494758407598], [119.45886479749808, 34.49458825796233], [119.45868513444127, 34.49458825796233], [119.45868513444127, 34.49440859490551], [119.45886479749808, 34.49440859490551], [119.45886479749808, 34.49368994267821], [119.45868513444127, 34.49368994267821], [119.45868513444127, 34.49351027962138], [119.45886479749808, 34.49351027962138], [119.45886479749808, 34.49333061656456], [119.45922412361173, 34.49333061656456], [119.45922412361173, 34.49297129045092], [119.45940378666856, 34.49297129045092], [119.45940378666856, 34.49315095350774], [119.45958344972539, 34.49315095350774], [119.45958344972539, 34.49333061656456], [119.46138008029362, 34.49333061656456], [119.46138008029362, 34.49351027962138], [119.46155974335045, 34.49351027962138], [119.46155974335045, 34.494049268791855], [119.46138008029362, 34.494049268791855], [119.46138008029362, 34.49440859490551], [119.4612004172368, 34.49440859490551], [119.4612004172368, 34.49458825796233], [119.46084109112314, 34.49458825796233], [119.46084109112314, 34.49440859490551], [119.46030210195268, 34.49440859490551], [119.46030210195268, 34.49422893184868], [119.45994277583902, 34.49422893184868], [119.45994277583902, 34.494049268791855], [119.45976311278221, 34.494049268791855], [119.45976311278221, 34.49422893184868], [119.45958344972539, 34.49422893184868], [119.45958344972539, 34.494767921019154], [119.45940378666856, 34.494767921019154], [119.45940378666856, 34.4951272471328], [119.45922412361173, 34.4951272471328]], [[119.45940378666856, 34.49458825796233], [119.45922412361173, 34.49458825796233], [119.45922412361173, 34.49440859490551], [119.45940378666856, 34.49440859490551], [119.45940378666856, 34.49458825796233]]]}, "properties": {"name": "cand08", "ptype": "hall", "confidence": "low", "rank": 8, "area_ha": 4.0, "rise_db": 6.5, "digitised_from": "Sentinel-1 VV rise 2022->2026, orbit 69"}}, {"type": "Feature", "geometry": {"geodesic": false, "type": "Polygon", "coordinates": [[[119.45527153636161, 34.49297129045092], [119.45527153636161, 34.49225263822362], [119.45491221024795, 34.49225263822362], [119.45491221024795, 34.49207297516679], [119.45473254719114, 34.49207297516679], [119.45473254719114, 34.492432301280445], [119.45437322107749, 34.492432301280445], [119.45437322107749, 34.492611964337264], [119.45419355802066, 34.492611964337264], [119.45419355802066, 34.49297129045092], [119.45401389496384, 34.49297129045092], [119.45401389496384, 34.49279162739409], [119.45383423190702, 34.49279162739409], [119.45383423190702, 34.492432301280445], [119.45401389496384, 34.492432301280445], [119.45401389496384, 34.49225263822362], [119.45437322107749, 34.49225263822362], [119.45437322107749, 34.49189331210997], [119.45401389496384, 34.49189331210997], [119.45401389496384, 34.491713649053146], [119.45383423190702, 34.491713649053146], [119.45383423190702, 34.4913543229395], [119.45401389496384, 34.4913543229395], [119.45401389496384, 34.491174659882674], [119.45419355802066, 34.491174659882674], [119.45419355802066, 34.490994996825854], [119.45455288413432, 34.490994996825854], [119.45455288413432, 34.491174659882674], [119.45491221024795, 34.491174659882674], [119.45491221024795, 34.4913543229395], [119.45509187330478, 34.4913543229395], [119.45509187330478, 34.49153398599632], [119.45545119941843, 34.49153398599632], [119.45545119941843, 34.491713649053146], [119.45563086247526, 34.491713649053146], [119.45563086247526, 34.49189331210997], [119.45581052553209, 34.49189331210997], [119.45581052553209, 34.49207297516679], [119.45634951470255, 34.49207297516679], [119.45634951470255, 34.49189331210997], [119.45688850387302, 34.49189331210997], [119.45688850387302, 34.49207297516679], [119.45706816692984, 34.49207297516679], [119.45706816692984, 34.492432301280445], [119.45688850387302, 34.492432301280445], [119.45688850387302, 34.492611964337264], [119.4567088408162, 34.492611964337264], [119.4567088408162, 34.49279162739409], [119.45616985164573, 34.49279162739409], [119.45616985164573, 34.492611964337264], [119.4559901885889, 34.492611964337264], [119.4559901885889, 34.49279162739409], [119.45581052553209, 34.49279162739409], [119.45581052553209, 34.49297129045092], [119.45527153636161, 34.49297129045092]], [[119.45491221024795, 34.491713649053146], [119.45473254719114, 34.491713649053146], [119.45473254719114, 34.49153398599632], [119.45491221024795, 34.49153398599632], [119.45491221024795, 34.491713649053146]]]}, "properties": {"name": "cand09", "ptype": "hall", "confidence": "low", "rank": 9, "area_ha": 3.8, "rise_db": 7.0, "digitised_from": "Sentinel-1 VV rise 2022->2026, orbit 69"}}, {"type": "Feature", "geometry": {"geodesic": false, "type": "Polygon", "coordinates": [[[119.47162087453259, 34.461350592449904], [119.47162087453259, 34.461170929393084], [119.47108188536211, 34.461170929393084], [119.47108188536211, 34.46099126633626], [119.47072255924846, 34.46099126633626], [119.47072255924846, 34.461170929393084], [119.47054289619165, 34.461170929393084], [119.47054289619165, 34.46099126633626], [119.47018357007799, 34.46099126633626], [119.47018357007799, 34.46081160327944], [119.46982424396434, 34.46081160327944], [119.46982424396434, 34.46099126633626], [119.46964458090753, 34.46099126633626], [119.46964458090753, 34.459733624938494], [119.46982424396434, 34.459733624938494], [119.46982424396434, 34.45955396188167], [119.47018357007799, 34.45955396188167], [119.47018357007799, 34.459733624938494], [119.47144121147576, 34.459733624938494], [119.47144121147576, 34.45991328799531], [119.4718005375894, 34.45991328799531], [119.4718005375894, 34.46009295105214], [119.47198020064623, 34.46009295105214], [119.47198020064623, 34.460272614108966], [119.47215986370306, 34.460272614108966], [119.47215986370306, 34.46081160327944], [119.47198020064623, 34.46081160327944], [119.47198020064623, 34.46099126633626], [119.47215986370306, 34.46099126633626], [119.47215986370306, 34.461170929393084], [119.47198020064623, 34.461170929393084], [119.47198020064623, 34.461350592449904], [119.47162087453259, 34.461350592449904]], [[119.47036323313482, 34.46009295105214], [119.47018357007799, 34.46009295105214], [119.47018357007799, 34.45991328799531], [119.47036323313482, 34.45991328799531], [119.47036323313482, 34.46009295105214]], [[119.47054289619165, 34.460272614108966], [119.47036323313482, 34.460272614108966], [119.47036323313482, 34.46009295105214], [119.47054289619165, 34.46009295105214], [119.47054289619165, 34.460272614108966]], [[119.47126154841894, 34.460272614108966], [119.47108188536211, 34.460272614108966], [119.47108188536211, 34.46009295105214], [119.47126154841894, 34.46009295105214], [119.47126154841894, 34.460272614108966]], [[119.47072255924846, 34.460452277165786], [119.47054289619165, 34.460452277165786], [119.47054289619165, 34.460272614108966], [119.47072255924846, 34.460272614108966], [119.47072255924846, 34.460452277165786]], [[119.47000390702117, 34.46063194022261], [119.46982424396434, 34.46063194022261], [119.46982424396434, 34.460452277165786], [119.47000390702117, 34.460452277165786], [119.47000390702117, 34.46063194022261]]]}, "properties": {"name": "cand10", "ptype": "hall", "confidence": "low", "rank": 10, "area_ha": 3.8, "rise_db": 6.1, "digitised_from": "Sentinel-1 VV rise 2022->2026, orbit 69"}}, {"type": "Feature", "geometry": {"geodesic": false, "type": "Polygon", "coordinates": [[[119.4470070357477, 34.49440859490551], [119.4470070357477, 34.49422893184868], [119.44664770963406, 34.49422893184868], [119.44664770963406, 34.494049268791855], [119.44628838352041, 34.494049268791855], [119.44628838352041, 34.49422893184868], [119.44610872046358, 34.49422893184868], [119.44610872046358, 34.49440859490551], [119.44592905740677, 34.49440859490551], [119.44592905740677, 34.49422893184868], [119.44556973129312, 34.49422893184868], [119.44556973129312, 34.494049268791855], [119.44539006823629, 34.494049268791855], [119.44539006823629, 34.493869605735036], [119.44521040517947, 34.493869605735036], [119.44521040517947, 34.49351027962138], [119.44485107906583, 34.49351027962138], [119.44485107906583, 34.49333061656456], [119.444671416009, 34.49333061656456], [119.444671416009, 34.49297129045092], [119.44485107906583, 34.49297129045092], [119.44485107906583, 34.492611964337264], [119.44539006823629, 34.492611964337264], [119.44539006823629, 34.49279162739409], [119.44556973129312, 34.49279162739409], [119.44556973129312, 34.49297129045092], [119.44574939434995, 34.49297129045092], [119.44574939434995, 34.49315095350774], [119.44556973129312, 34.49315095350774], [119.44556973129312, 34.49333061656456], [119.44574939434995, 34.49333061656456], [119.44574939434995, 34.49351027962138], [119.44556973129312, 34.49351027962138], [119.44556973129312, 34.49368994267821], [119.44610872046358, 34.49368994267821], [119.44610872046358, 34.49333061656456], [119.44628838352041, 34.49333061656456], [119.44628838352041, 34.49297129045092], [119.44646804657724, 34.49297129045092], [119.44646804657724, 34.49315095350774], [119.44682737269089, 34.49315095350774], [119.44682737269089, 34.49333061656456], [119.44736636186136, 34.49333061656456], [119.44736636186136, 34.49351027962138], [119.44790535103184, 34.49351027962138], [119.44790535103184, 34.493869605735036], [119.44772568797501, 34.493869605735036], [119.44772568797501, 34.494049268791855], [119.44790535103184, 34.494049268791855], [119.44790535103184, 34.49422893184868], [119.44772568797501, 34.49422893184868], [119.44772568797501, 34.49440859490551], [119.4470070357477, 34.49440859490551]]]}, "properties": {"name": "cand11", "ptype": "hall", "confidence": "low", "rank": 11, "area_ha": 3.6, "rise_db": 8.2, "digitised_from": "Sentinel-1 VV rise 2022->2026, orbit 69"}}, {"type": "Feature", "geometry": {"geodesic": false, "type": "Polygon", "coordinates": [[[119.45832580832761, 34.49207297516679], [119.45832580832761, 34.491174659882674], [119.45814614527079, 34.491174659882674], [119.45814614527079, 34.490994996825854], [119.45832580832761, 34.490994996825854], [119.45832580832761, 34.49045600765538], [119.45868513444127, 34.49045600765538], [119.45868513444127, 34.49009668154173], [119.45922412361173, 34.49009668154173], [119.45922412361173, 34.48991701848491], [119.45958344972539, 34.48991701848491], [119.45958344972539, 34.49009668154173], [119.45994277583902, 34.49009668154173], [119.45994277583902, 34.49045600765538], [119.46030210195268, 34.49045600765538], [119.46030210195268, 34.490276344598556], [119.46066142806633, 34.490276344598556], [119.46066142806633, 34.4906356707122], [119.4604817650095, 34.4906356707122], [119.4604817650095, 34.49081533376903], [119.46012243889585, 34.49081533376903], [119.46012243889585, 34.490994996825854], [119.45994277583902, 34.490994996825854], [119.45994277583902, 34.491174659882674], [119.45958344972539, 34.491174659882674], [119.45958344972539, 34.490994996825854], [119.4590444605549, 34.490994996825854], [119.4590444605549, 34.4913543229395], [119.45886479749808, 34.4913543229395], [119.45886479749808, 34.49153398599632], [119.4590444605549, 34.49153398599632], [119.4590444605549, 34.491713649053146], [119.45886479749808, 34.491713649053146], [119.45886479749808, 34.49189331210997], [119.45868513444127, 34.49189331210997], [119.45868513444127, 34.49207297516679], [119.45832580832761, 34.49207297516679]], [[119.46012243889585, 34.49081533376903], [119.45976311278221, 34.49081533376903], [119.45976311278221, 34.4906356707122], [119.46012243889585, 34.4906356707122], [119.46012243889585, 34.49081533376903]], [[119.45886479749808, 34.491713649053146], [119.45868513444127, 34.491713649053146], [119.45868513444127, 34.49153398599632], [119.45886479749808, 34.49153398599632], [119.45886479749808, 34.491713649053146]]]}, "properties": {"name": "cand12", "ptype": "hall", "confidence": "low", "rank": 12, "area_ha": 2.9, "rise_db": 15.3, "digitised_from": "Sentinel-1 VV rise 2022->2026, orbit 69"}}, {"type": "Feature", "geometry": {"geodesic": false, "type": "Polygon", "coordinates": [[[119.4236508383606, 34.478598245905005], [119.4236508383606, 34.47841858284818], [119.42293218613331, 34.47841858284818], [119.42293218613331, 34.47823891979135], [119.42275252307648, 34.47823891979135], [119.42275252307648, 34.47769993062088], [119.42311184919014, 34.47769993062088], [119.42311184919014, 34.47752026756406], [119.42347117530377, 34.47752026756406], [119.42347117530377, 34.47698127839359], [119.4236508383606, 34.47698127839359], [119.4236508383606, 34.47626262616629], [119.42383050141743, 34.47626262616629], [119.42383050141743, 34.47590330005264], [119.42418982753107, 34.47590330005264], [119.42418982753107, 34.47626262616629], [119.42401016447425, 34.47626262616629], [119.42401016447425, 34.476442289223115], [119.42418982753107, 34.476442289223115], [119.42418982753107, 34.47662195227994], [119.42401016447425, 34.47662195227994], [119.42401016447425, 34.477160941450414], [119.4236508383606, 34.477160941450414], [119.4236508383606, 34.47752026756406], [119.42401016447425, 34.47752026756406], [119.42401016447425, 34.47769993062088], [119.42436949058789, 34.47769993062088], [119.42436949058789, 34.47752026756406], [119.42454915364472, 34.47752026756406], [119.42454915364472, 34.47841858284818], [119.42436949058789, 34.47841858284818], [119.42436949058789, 34.478598245905005], [119.4236508383606, 34.478598245905005]]]}, "properties": {"name": "cand13", "ptype": "hall", "confidence": "low", "rank": 13, "area_ha": 2.7, "rise_db": 8.3, "digitised_from": "Sentinel-1 VV rise 2022->2026, orbit 69"}}, {"type": "Feature", "geometry": {"geodesic": false, "type": "Polygon", "coordinates": [[[119.46515300448692, 34.45865564659755], [119.46515300448692, 34.45847598354072], [119.46479367837327, 34.45847598354072], [119.46479367837327, 34.45811665742708], [119.46461401531646, 34.45811665742708], [119.46461401531646, 34.4582963204839], [119.46443435225963, 34.4582963204839], [119.46443435225963, 34.45811665742708], [119.4642546892028, 34.45811665742708], [119.4642546892028, 34.45775733131343], [119.46443435225963, 34.45775733131343], [119.46443435225963, 34.45721834214296], [119.46461401531646, 34.45721834214296], [119.46461401531646, 34.45775733131343], [119.46443435225963, 34.45775733131343], [119.46443435225963, 34.45793699437025], [119.46479367837327, 34.45793699437025], [119.46479367837327, 34.457577668256604], [119.46515300448692, 34.457577668256604], [119.46515300448692, 34.45739800519978], [119.46533266754375, 34.45739800519978], [119.46533266754375, 34.45775733131343], [119.46551233060057, 34.45775733131343], [119.46551233060057, 34.457577668256604], [119.46587165671421, 34.457577668256604], [119.46587165671421, 34.45721834214296], [119.4656919936574, 34.45721834214296], [119.4656919936574, 34.45685901602931], [119.46587165671421, 34.45685901602931], [119.46587165671421, 34.45649968991566], [119.46659030894152, 34.45649968991566], [119.46659030894152, 34.45685901602931], [119.4664106458847, 34.45685901602931], [119.4664106458847, 34.45703867908613], [119.46623098282787, 34.45703867908613], [119.46623098282787, 34.45721834214296], [119.4664106458847, 34.45721834214296], [119.4664106458847, 34.45739800519978], [119.46605131977104, 34.45739800519978], [119.46605131977104, 34.457577668256604], [119.46587165671421, 34.457577668256604], [119.46587165671421, 34.45793699437025], [119.46623098282787, 34.45793699437025], [119.46623098282787, 34.45847598354072], [119.46533266754375, 34.45847598354072], [119.46533266754375, 34.45865564659755], [119.46515300448692, 34.45865564659755]], [[119.46623098282787, 34.45703867908613], [119.46605131977104, 34.45703867908613], [119.46605131977104, 34.45685901602931], [119.46623098282787, 34.45685901602931], [119.46623098282787, 34.45703867908613]], [[119.46533266754375, 34.4582963204839], [119.4649733414301, 34.4582963204839], [119.4649733414301, 34.45793699437025], [119.46515300448692, 34.45793699437025], [119.46515300448692, 34.45811665742708], [119.46533266754375, 34.45811665742708], [119.46533266754375, 34.4582963204839]]]}, "properties": {"name": "cand14", "ptype": "hall", "confidence": "low", "rank": 14, "area_ha": 2.4, "rise_db": 6.9, "digitised_from": "Sentinel-1 VV rise 2022->2026, orbit 69"}}, {"type": "Feature", "geometry": {"geodesic": false, "type": "Polygon", "coordinates": [[[119.45563086247526, 34.49782219298516], [119.45563086247526, 34.497642529928335], [119.45545119941843, 34.497642529928335], [119.45545119941843, 34.49746286687151], [119.45527153636161, 34.49746286687151], [119.45527153636161, 34.49710354075786], [119.45545119941843, 34.49710354075786], [119.45545119941843, 34.49692387770104], [119.45563086247526, 34.49692387770104], [119.45563086247526, 34.49638488853057], [119.45652917775938, 34.49638488853057], [119.45652917775938, 34.496205225473744], [119.45688850387302, 34.496205225473744], [119.45688850387302, 34.49656455158739], [119.4567088408162, 34.49656455158739], [119.4567088408162, 34.49674421464422], [119.45652917775938, 34.49674421464422], [119.45652917775938, 34.49692387770104], [119.45634951470255, 34.49692387770104], [119.45634951470255, 34.49728320381469], [119.45616985164573, 34.49728320381469], [119.45616985164573, 34.497642529928335], [119.4559901885889, 34.497642529928335], [119.4559901885889, 34.49782219298516], [119.45563086247526, 34.49782219298516]]]}, "properties": {"name": "cand15", "ptype": "hall", "confidence": "low", "rank": 15, "area_ha": 1.7, "rise_db": 6.2, "digitised_from": "Sentinel-1 VV rise 2022->2026, orbit 69"}}, {"type": "Feature", "geometry": {"geodesic": false, "type": "Polygon", "coordinates": [[[119.4574274930435, 34.48183218092783], [119.4574274930435, 34.481652517871005], [119.45724782998667, 34.481652517871005], [119.45724782998667, 34.481472854814186], [119.45706816692984, 34.481472854814186], [119.45706816692984, 34.48075420258689], [119.45724782998667, 34.48075420258689], [119.45724782998667, 34.48057453953007], [119.45832580832761, 34.48057453953007], [119.45832580832761, 34.48111352870054], [119.45814614527079, 34.48111352870054], [119.45814614527079, 34.481652517871005], [119.45760715610032, 34.481652517871005], [119.45760715610032, 34.48183218092783], [119.4574274930435, 34.48183218092783]]]}, "properties": {"name": "cand16", "ptype": "hall", "confidence": "low", "rank": 16, "area_ha": 1.5, "rise_db": 6.3, "digitised_from": "Sentinel-1 VV rise 2022->2026, orbit 69"}}, {"type": "Feature", "geometry": {"geodesic": false, "type": "Polygon", "coordinates": [[[119.44772568797501, 34.487401735689375], [119.44772568797501, 34.48722207263255], [119.44736636186136, 34.48722207263255], [119.44736636186136, 34.48704240957573], [119.44718669880453, 34.48704240957573], [119.44718669880453, 34.4868627465189], [119.4470070357477, 34.4868627465189], [119.4470070357477, 34.486683083462076], [119.44754602491818, 34.486683083462076], [119.44754602491818, 34.4868627465189], [119.44790535103184, 34.4868627465189], [119.44790535103184, 34.4861440942916], [119.44808501408865, 34.4861440942916], [119.44808501408865, 34.485964431234784], [119.44826467714547, 34.485964431234784], [119.44826467714547, 34.48578476817796], [119.44862400325913, 34.48578476817796], [119.44862400325913, 34.4861440942916], [119.4484443402023, 34.4861440942916], [119.4484443402023, 34.48722207263255], [119.44826467714547, 34.48722207263255], [119.44826467714547, 34.487401735689375], [119.44772568797501, 34.487401735689375]]]}, "properties": {"name": "cand17", "ptype": "hall", "confidence": "low", "rank": 17, "area_ha": 1.4, "rise_db": 7.3, "digitised_from": "Sentinel-1 VV rise 2022->2026, orbit 69"}}, {"type": "Feature", "geometry": {"geodesic": false, "type": "Polygon", "coordinates": [[[119.45778681915715, 34.49333061656456], [119.45778681915715, 34.49315095350774], [119.45760715610032, 34.49315095350774], [119.45760715610032, 34.49297129045092], [119.4574274930435, 34.49297129045092], [119.4574274930435, 34.492611964337264], [119.45760715610032, 34.492611964337264], [119.45760715610032, 34.492432301280445], [119.45832580832761, 34.492432301280445], [119.45832580832761, 34.492611964337264], [119.45868513444127, 34.492611964337264], [119.45868513444127, 34.492432301280445], [119.45886479749808, 34.492432301280445], [119.45886479749808, 34.492611964337264], [119.4590444605549, 34.492611964337264], [119.4590444605549, 34.49297129045092], [119.45886479749808, 34.49297129045092], [119.45886479749808, 34.49315095350774], [119.45868513444127, 34.49315095350774], [119.45868513444127, 34.49333061656456], [119.45778681915715, 34.49333061656456]]]}, "properties": {"name": "cand18", "ptype": "hall", "confidence": "low", "rank": 18, "area_ha": 1.4, "rise_db": 6.0, "digitised_from": "Sentinel-1 VV rise 2022->2026, orbit 69"}}, {"type": "Feature", "geometry": {"geodesic": false, "type": "Polygon", "coordinates": [[[119.46066142806633, 34.499978149667044], [119.46066142806633, 34.4996188235534], [119.46030210195268, 34.4996188235534], [119.46030210195268, 34.49943916049657], [119.46012243889585, 34.49943916049657], [119.46012243889585, 34.498900171326106], [119.4612004172368, 34.498900171326106], [119.4612004172368, 34.499079834382925], [119.46138008029362, 34.499079834382925], [119.46138008029362, 34.49925949743975], [119.46155974335045, 34.49925949743975], [119.46155974335045, 34.49943916049657], [119.46138008029362, 34.49943916049657], [119.46138008029362, 34.4996188235534], [119.4612004172368, 34.4996188235534], [119.4612004172368, 34.499798486610224], [119.46102075417997, 34.499798486610224], [119.46102075417997, 34.499978149667044], [119.46066142806633, 34.499978149667044]], [[119.46084109112314, 34.4996188235534], [119.46066142806633, 34.4996188235534], [119.46066142806633, 34.49943916049657], [119.46084109112314, 34.49943916049657], [119.46084109112314, 34.4996188235534]]]}, "properties": {"name": "cand19", "ptype": "hall", "confidence": "low", "rank": 19, "area_ha": 1.2, "rise_db": 5.2, "digitised_from": "Sentinel-1 VV rise 2022->2026, orbit 69"}}, {"type": "Feature", "geometry": {"geodesic": false, "type": "Polygon", "coordinates": [[[119.47198020064623, 34.500517138837516], [119.47198020064623, 34.5003374757807], [119.47162087453259, 34.5003374757807], [119.47162087453259, 34.4996188235534], [119.4718005375894, 34.4996188235534], [119.4718005375894, 34.49943916049657], [119.47198020064623, 34.49943916049657], [119.47198020064623, 34.49925949743975], [119.47233952675988, 34.49925949743975], [119.47233952675988, 34.49943916049657], [119.47269885287352, 34.49943916049657], [119.47269885287352, 34.4996188235534], [119.47287851593035, 34.4996188235534], [119.47287851593035, 34.499798486610224], [119.47269885287352, 34.499798486610224], [119.47269885287352, 34.499978149667044], [119.47251918981671, 34.499978149667044], [119.47251918981671, 34.50015781272387], [119.47233952675988, 34.50015781272387], [119.47233952675988, 34.5003374757807], [119.47215986370306, 34.5003374757807], [119.47215986370306, 34.500517138837516], [119.47198020064623, 34.500517138837516]]]}, "properties": {"name": "cand20", "ptype": "hall", "confidence": "low", "rank": 20, "area_ha": 1.2, "rise_db": 7.5, "digitised_from": "Sentinel-1 VV rise 2022->2026, orbit 69"}}, {"type": "Feature", "geometry": {"geodesic": false, "type": "Polygon", "coordinates": [[[119.42329151224695, 34.48075420258689], [119.42329151224695, 34.48057453953007], [119.42293218613331, 34.48057453953007], [119.42293218613331, 34.48039487647324], [119.42275252307648, 34.48039487647324], [119.42275252307648, 34.480215213416415], [119.42293218613331, 34.480215213416415], [119.42293218613331, 34.480035550359595], [119.42311184919014, 34.480035550359595], [119.42311184919014, 34.480215213416415], [119.4236508383606, 34.480215213416415], [119.4236508383606, 34.480035550359595], [119.42383050141743, 34.480035550359595], [119.42383050141743, 34.47985588730277], [119.42401016447425, 34.47985588730277], [119.42401016447425, 34.480035550359595], [119.42436949058789, 34.480035550359595], [119.42436949058789, 34.48039487647324], [119.42454915364472, 34.48039487647324], [119.42454915364472, 34.48057453953007], [119.42383050141743, 34.48057453953007], [119.42383050141743, 34.48075420258689], [119.42329151224695, 34.48075420258689]]]}, "properties": {"name": "cand21", "ptype": "hall", "confidence": "low", "rank": 21, "area_ha": 1.1, "rise_db": 7.1, "digitised_from": "Sentinel-1 VV rise 2022->2026, orbit 69"}}, {"type": "Feature", "geometry": {"geodesic": false, "type": "Polygon", "coordinates": [[[119.46623098282787, 34.46692014721145], [119.46623098282787, 34.46674048415463], [119.46551233060057, 34.46674048415463], [119.46551233060057, 34.466201494984155], [119.4656919936574, 34.466201494984155], [119.4656919936574, 34.46602183192733], [119.46587165671421, 34.46602183192733], [119.46587165671421, 34.4658421688705], [119.46623098282787, 34.4658421688705], [119.46623098282787, 34.46602183192733], [119.4664106458847, 34.46602183192733], [119.4664106458847, 34.466201494984155], [119.46659030894152, 34.466201494984155], [119.46659030894152, 34.46674048415463], [119.4664106458847, 34.46674048415463], [119.4664106458847, 34.46692014721145], [119.46623098282787, 34.46692014721145]]]}, "properties": {"name": "cand22", "ptype": "hall", "confidence": "low", "rank": 22, "area_ha": 1.0, "rise_db": 7.0, "digitised_from": "Sentinel-1 VV rise 2022->2026, orbit 69"}}]}