{"type": "FeatureCollection", "features": [{"type": "Feature", "geometry": {"geodesic": false, "type": "Polygon", "coordinates": [[[107.4327587628764, 27.25344841573169], [107.4327587628764, 27.252729763504394], [107.43293842593323, 27.252729763504394], [107.43293842593323, 27.25255010044757], [107.43257909981958, 27.25255010044757], [107.43257909981958, 27.25237043739075], [107.43239943676275, 27.25237043739075], [107.43239943676275, 27.2520111112771], [107.43221977370594, 27.2520111112771], [107.43221977370594, 27.251831448220276], [107.43186044759229, 27.251831448220276], [107.43186044759229, 27.251651785163453], [107.43168078453546, 27.251651785163453], [107.43168078453546, 27.251292459049804], [107.43150112147863, 27.251292459049804], [107.43150112147863, 27.25057380682251], [107.43168078453546, 27.25057380682251], [107.43168078453546, 27.250394143765686], [107.43150112147863, 27.250394143765686], [107.43150112147863, 27.249855154595213], [107.43132145842182, 27.249855154595213], [107.43132145842182, 27.24967549153839], [107.431141795365, 27.24967549153839], [107.431141795365, 27.24895683931109], [107.43132145842182, 27.24895683931109], [107.43132145842182, 27.24877717625427], [107.43150112147863, 27.24877717625427], [107.43150112147863, 27.248597513197446], [107.43078246925134, 27.248597513197446], [107.43078246925134, 27.248417850140623], [107.43042314313769, 27.248417850140623], [107.43042314313769, 27.248238187083796], [107.43024348008088, 27.248238187083796], [107.43024348008088, 27.248058524026973], [107.43042314313769, 27.248058524026973], [107.43042314313769, 27.24787886097015], [107.43078246925134, 27.24787886097015], [107.43078246925134, 27.247699197913327], [107.431141795365, 27.247699197913327], [107.431141795365, 27.246800882629206], [107.43096213230817, 27.246800882629206], [107.43096213230817, 27.246621219572383], [107.43042314313769, 27.246621219572383], [107.43042314313769, 27.246800882629206], [107.43006381702405, 27.246800882629206], [107.43006381702405, 27.24698054568603], [107.4297044909104, 27.24698054568603], [107.4297044909104, 27.247160208742855], [107.42916550173993, 27.247160208742855], [107.42916550173993, 27.24698054568603], [107.42934516479676, 27.24698054568603], [107.42934516479676, 27.246261893458733], [107.42952482785357, 27.246261893458733], [107.42952482785357, 27.24608223040191], [107.42934516479676, 27.24608223040191], [107.42934516479676, 27.24572290428826], [107.42952482785357, 27.24572290428826], [107.42952482785357, 27.245902567345087], [107.42988415396722, 27.245902567345087], [107.42988415396722, 27.246261893458733], [107.43042314313769, 27.246261893458733], [107.43042314313769, 27.245543241231438], [107.43024348008088, 27.245543241231438], [107.43024348008088, 27.245183915117792], [107.42952482785357, 27.245183915117792], [107.42952482785357, 27.245004252060966], [107.42916550173993, 27.245004252060966], [107.42916550173993, 27.244824589004143], [107.42934516479676, 27.244824589004143], [107.42934516479676, 27.244465262890497], [107.43024348008088, 27.244465262890497], [107.43024348008088, 27.24428559983367], [107.43042314313769, 27.24428559983367], [107.43042314313769, 27.244105936776847], [107.43024348008088, 27.244105936776847], [107.43024348008088, 27.243746610663198], [107.43042314313769, 27.243746610663198], [107.43042314313769, 27.243566947606375], [107.43024348008088, 27.243566947606375], [107.43024348008088, 27.243387284549552], [107.42952482785357, 27.243387284549552], [107.42952482785357, 27.24320762149273], [107.4289858386831, 27.24320762149273], [107.4289858386831, 27.243387284549552], [107.42826718645581, 27.243387284549552], [107.42826718645581, 27.243566947606375], [107.42844684951262, 27.243566947606375], [107.42844684951262, 27.243926273720025], [107.42862651256945, 27.243926273720025], [107.42862651256945, 27.244105936776847], [107.42880617562628, 27.244105936776847], [107.42880617562628, 27.244465262890497], [107.42844684951262, 27.244465262890497], [107.42844684951262, 27.24428559983367], [107.42826718645581, 27.24428559983367], [107.42826718645581, 27.244105936776847], [107.42808752339899, 27.244105936776847], [107.42808752339899, 27.243746610663198], [107.42790786034216, 27.243746610663198], [107.42790786034216, 27.243387284549552], [107.42772819728533, 27.243387284549552], [107.42772819728533, 27.243027958435903], [107.4275485342285, 27.243027958435903], [107.4275485342285, 27.242488969265434], [107.4273688711717, 27.242488969265434], [107.4273688711717, 27.242309306208607], [107.42665021894439, 27.242309306208607], [107.42665021894439, 27.24194998009496], [107.42647055588756, 27.24194998009496], [107.42647055588756, 27.240872001754017], [107.42665021894439, 27.240872001754017], [107.42665021894439, 27.24015334952672], [107.42647055588756, 27.24015334952672], [107.42647055588756, 27.2399736864699], [107.42629089283075, 27.2399736864699], [107.42629089283075, 27.24051267564037], [107.42575190366027, 27.24051267564037], [107.42575190366027, 27.240333012583545], [107.42557224060344, 27.240333012583545], [107.42557224060344, 27.24015334952672], [107.42539257754663, 27.24015334952672], [107.42539257754663, 27.2399736864699], [107.4252129144898, 27.2399736864699], [107.4252129144898, 27.239255034242603], [107.42539257754663, 27.239255034242603], [107.42539257754663, 27.238895708128954], [107.42503325143298, 27.238895708128954], [107.42503325143298, 27.23871604507213], [107.42485358837615, 27.23871604507213], [107.42485358837615, 27.238536382015308], [107.42467392531933, 27.238536382015308], [107.42467392531933, 27.23835671895848], [107.4244942622625, 27.23835671895848], [107.4244942622625, 27.237638066731186], [107.42431459920569, 27.237638066731186], [107.42431459920569, 27.237458403674363], [107.42413493614886, 27.237458403674363], [107.42413493614886, 27.23727874061754], [107.42395527309203, 27.23727874061754], [107.42395527309203, 27.237099077560714], [107.42377561003521, 27.237099077560714], [107.42377561003521, 27.237458403674363], [107.42359594697838, 27.237458403674363], [107.42359594697838, 27.23781772978801], [107.42341628392157, 27.23781772978801], [107.42341628392157, 27.237997392844836], [107.42323662086474, 27.237997392844836], [107.42323662086474, 27.23835671895848], [107.42341628392157, 27.23835671895848], [107.42341628392157, 27.238895708128954], [107.42359594697838, 27.238895708128954], [107.42359594697838, 27.239075371185777], [107.42377561003521, 27.239075371185777], [107.42377561003521, 27.239255034242603], [107.42341628392157, 27.239255034242603], [107.42341628392157, 27.239075371185777], [107.42323662086474, 27.239075371185777], [107.42323662086474, 27.238895708128954], [107.42305695780792, 27.238895708128954], [107.42305695780792, 27.23871604507213], [107.42287729475109, 27.23871604507213], [107.42287729475109, 27.23835671895848], [107.42305695780792, 27.23835671895848], [107.42305695780792, 27.23817705590166], [107.42269763169426, 27.23817705590166], [107.42269763169426, 27.237997392844836], [107.42251796863744, 27.237997392844836], [107.42251796863744, 27.23781772978801], [107.42269763169426, 27.23781772978801], [107.42269763169426, 27.237458403674363], [107.42323662086474, 27.237458403674363], [107.42323662086474, 27.23727874061754], [107.42341628392157, 27.23727874061754], [107.42341628392157, 27.236739751447068], [107.42359594697838, 27.236739751447068], [107.42359594697838, 27.23638042533342], [107.42377561003521, 27.23638042533342], [107.42377561003521, 27.236200762276596], [107.42485358837615, 27.236200762276596], [107.42485358837615, 27.23638042533342], [107.42503325143298, 27.23638042533342], [107.42503325143298, 27.236739751447068], [107.42539257754663, 27.236739751447068], [107.42539257754663, 27.23638042533342], [107.42557224060344, 27.23638042533342], [107.42557224060344, 27.236021099219773], [107.42575190366027, 27.236021099219773], [107.42575190366027, 27.235841436162946], [107.4259315667171, 27.235841436162946], [107.4259315667171, 27.235661773106123], [107.42611122977392, 27.235661773106123], [107.42611122977392, 27.2354821100493], [107.42665021894439, 27.2354821100493], [107.42665021894439, 27.235302446992478], [107.42682988200121, 27.235302446992478], [107.42682988200121, 27.234763457822005], [107.42700954505804, 27.234763457822005], [107.42700954505804, 27.234583794765182], [107.42718920811487, 27.234583794765182], [107.42718920811487, 27.234404131708356], [107.4273688711717, 27.234404131708356], [107.4273688711717, 27.234224468651533], [107.42772819728533, 27.234224468651533], [107.42772819728533, 27.23404480559471], [107.42790786034216, 27.23404480559471], [107.42790786034216, 27.234224468651533], [107.42808752339899, 27.234224468651533], [107.42808752339899, 27.234583794765182], [107.42790786034216, 27.234583794765182], [107.42790786034216, 27.234943120878828], [107.42772819728533, 27.234943120878828], [107.42772819728533, 27.23512278393565], [107.4275485342285, 27.23512278393565], [107.4275485342285, 27.235661773106123], [107.42772819728533, 27.235661773106123], [107.42772819728533, 27.235841436162946], [107.42808752339899, 27.235841436162946], [107.42808752339899, 27.236021099219773], [107.42826718645581, 27.236021099219773], [107.42826718645581, 27.236200762276596], [107.42862651256945, 27.236200762276596], [107.42862651256945, 27.236021099219773], [107.4289858386831, 27.236021099219773], [107.4289858386831, 27.235841436162946], [107.42952482785357, 27.235841436162946], [107.42952482785357, 27.235661773106123], [107.42988415396722, 27.235661773106123], [107.42988415396722, 27.235841436162946], [107.43024348008088, 27.235841436162946], [107.43024348008088, 27.236021099219773], [107.43042314313769, 27.236021099219773], [107.43042314313769, 27.236560088390245], [107.42988415396722, 27.236560088390245], [107.42988415396722, 27.23691941450389], [107.43006381702405, 27.23691941450389], [107.43006381702405, 27.237099077560714], [107.43096213230817, 27.237099077560714], [107.43096213230817, 27.237458403674363], [107.431141795365, 27.237458403674363], [107.431141795365, 27.237638066731186], [107.43132145842182, 27.237638066731186], [107.43132145842182, 27.23781772978801], [107.43150112147863, 27.23781772978801], [107.43150112147863, 27.237997392844836], [107.43132145842182, 27.237997392844836], [107.43132145842182, 27.23817705590166], [107.43096213230817, 27.23817705590166], [107.43096213230817, 27.23835671895848], [107.43132145842182, 27.23835671895848], [107.43132145842182, 27.23871604507213], [107.43096213230817, 27.23871604507213], [107.43096213230817, 27.238895708128954], [107.43078246925134, 27.238895708128954], [107.43078246925134, 27.239075371185777], [107.43060280619451, 27.239075371185777], [107.43060280619451, 27.239255034242603], [107.43006381702405, 27.239255034242603], [107.43006381702405, 27.23961436035625], [107.43024348008088, 27.23961436035625], [107.43024348008088, 27.239794023413072], [107.43096213230817, 27.239794023413072], [107.43096213230817, 27.23961436035625], [107.431141795365, 27.23961436035625], [107.431141795365, 27.239434697299426], [107.43168078453546, 27.239434697299426], [107.43168078453546, 27.239794023413072], [107.43150112147863, 27.239794023413072], [107.43150112147863, 27.24015334952672], [107.43132145842182, 27.24015334952672], [107.43132145842182, 27.240333012583545], [107.431141795365, 27.240333012583545], [107.431141795365, 27.24051267564037], [107.43096213230817, 27.24051267564037], [107.43096213230817, 27.240692338697194], [107.43078246925134, 27.240692338697194], [107.43078246925134, 27.24051267564037], [107.43042314313769, 27.24051267564037], [107.43042314313769, 27.240333012583545], [107.43006381702405, 27.240333012583545], [107.43006381702405, 27.240692338697194], [107.43024348008088, 27.240692338697194], [107.43024348008088, 27.241231327867666], [107.43006381702405, 27.241231327867666], [107.43006381702405, 27.24141099092449], [107.42952482785357, 27.24141099092449], [107.42952482785357, 27.241590653981312], [107.42880617562628, 27.241590653981312], [107.42880617562628, 27.24141099092449], [107.42826718645581, 27.24141099092449], [107.42826718645581, 27.241590653981312], [107.42808752339899, 27.241590653981312], [107.42808752339899, 27.24194998009496], [107.42826718645581, 27.24194998009496], [107.42826718645581, 27.242129643151785], [107.42844684951262, 27.242129643151785], [107.42844684951262, 27.242309306208607], [107.42880617562628, 27.242309306208607], [107.42880617562628, 27.242488969265434], [107.42916550173993, 27.242488969265434], [107.42916550173993, 27.242309306208607], [107.42952482785357, 27.242309306208607], [107.42952482785357, 27.242129643151785], [107.4297044909104, 27.242129643151785], [107.4297044909104, 27.24194998009496], [107.43024348008088, 27.24194998009496], [107.43024348008088, 27.241770317038135], [107.43060280619451, 27.241770317038135], [107.43060280619451, 27.241590653981312], [107.43078246925134, 27.241590653981312], [107.43078246925134, 27.24141099092449], [107.43096213230817, 27.24141099092449], [107.43096213230817, 27.241231327867666], [107.431141795365, 27.241231327867666], [107.431141795365, 27.24105166481084], [107.43132145842182, 27.24105166481084], [107.43132145842182, 27.241231327867666], [107.43150112147863, 27.241231327867666], [107.43150112147863, 27.24105166481084], [107.43168078453546, 27.24105166481084], [107.43168078453546, 27.240872001754017], [107.43221977370594, 27.240872001754017], [107.43221977370594, 27.241231327867666], [107.43186044759229, 27.241231327867666], [107.43186044759229, 27.24141099092449], [107.43150112147863, 27.24141099092449], [107.43150112147863, 27.241590653981312], [107.43132145842182, 27.241590653981312], [107.43132145842182, 27.241770317038135], [107.431141795365, 27.241770317038135], [107.431141795365, 27.242309306208607], [107.43078246925134, 27.242309306208607], [107.43078246925134, 27.242668632322257], [107.43096213230817, 27.242668632322257], [107.43096213230817, 27.24284829537908], [107.431141795365, 27.24284829537908], [107.431141795365, 27.243027958435903], [107.43132145842182, 27.243027958435903], [107.43132145842182, 27.243387284549552], [107.43150112147863, 27.243387284549552], [107.43150112147863, 27.243566947606375], [107.43168078453546, 27.243566947606375], [107.43168078453546, 27.243746610663198], [107.43204011064911, 27.243746610663198], [107.43204011064911, 27.243566947606375], [107.43221977370594, 27.243566947606375], [107.43221977370594, 27.243027958435903], [107.43239943676275, 27.243027958435903], [107.43239943676275, 27.242668632322257], [107.4327587628764, 27.242668632322257], [107.4327587628764, 27.24320762149273], [107.43293842593323, 27.24320762149273], [107.43293842593323, 27.243387284549552], [107.43311808899006, 27.243387284549552], [107.43311808899006, 27.243566947606375], [107.43329775204688, 27.243566947606375], [107.43329775204688, 27.243746610663198], [107.4334774151037, 27.243746610663198], [107.4334774151037, 27.243566947606375], [107.43383674121735, 27.243566947606375], [107.43383674121735, 27.243926273720025], [107.43365707816052, 27.243926273720025], [107.43365707816052, 27.24428559983367], [107.4334774151037, 27.24428559983367], [107.4334774151037, 27.244465262890497], [107.43257909981958, 27.244465262890497], [107.43257909981958, 27.24464492594732], [107.43150112147863, 27.24464492594732], [107.43150112147863, 27.245183915117792], [107.43132145842182, 27.245183915117792], [107.43132145842182, 27.245363578174615], [107.431141795365, 27.245363578174615], [107.431141795365, 27.245543241231438], [107.43096213230817, 27.245543241231438], [107.43096213230817, 27.245902567345087], [107.431141795365, 27.245902567345087], [107.431141795365, 27.24608223040191], [107.43132145842182, 27.24608223040191], [107.43132145842182, 27.24644155651556], [107.43186044759229, 27.24644155651556], [107.43186044759229, 27.246261893458733], [107.43257909981958, 27.246261893458733], [107.43257909981958, 27.24644155651556], [107.43293842593323, 27.24644155651556], [107.43293842593323, 27.246261893458733], [107.43311808899006, 27.246261893458733], [107.43311808899006, 27.24608223040191], [107.43293842593323, 27.24608223040191], [107.43293842593323, 27.24572290428826], [107.43311808899006, 27.24572290428826], [107.43311808899006, 27.245543241231438], [107.43329775204688, 27.245543241231438], [107.43329775204688, 27.245363578174615], [107.43383674121735, 27.245363578174615], [107.43383674121735, 27.245183915117792], [107.43401640427417, 27.245183915117792], [107.43401640427417, 27.245004252060966], [107.43509438261512, 27.245004252060966], [107.43509438261512, 27.244824589004143], [107.43527404567195, 27.244824589004143], [107.43527404567195, 27.24464492594732], [107.43563337178558, 27.24464492594732], [107.43563337178558, 27.244824589004143], [107.43581303484241, 27.244824589004143], [107.43581303484241, 27.245004252060966], [107.43599269789924, 27.245004252060966], [107.43599269789924, 27.245183915117792], [107.43617236095606, 27.245183915117792], [107.43617236095606, 27.245363578174615], [107.43599269789924, 27.245363578174615], [107.43599269789924, 27.24608223040191], [107.43617236095606, 27.24608223040191], [107.43617236095606, 27.246261893458733], [107.43635202401288, 27.246261893458733], [107.43635202401288, 27.24644155651556], [107.4365316870697, 27.24644155651556], [107.4365316870697, 27.246621219572383], [107.43671135012653, 27.246621219572383], [107.43671135012653, 27.246800882629206], [107.43689101318336, 27.246800882629206], [107.43689101318336, 27.24698054568603], [107.43707067624018, 27.24698054568603], [107.43707067624018, 27.247160208742855], [107.43743000235382, 27.247160208742855], [107.43743000235382, 27.247339871799678], [107.43760966541065, 27.247339871799678], [107.43760966541065, 27.2475195348565], [107.43743000235382, 27.2475195348565], [107.43743000235382, 27.247699197913327], [107.43725033929701, 27.247699197913327], [107.43725033929701, 27.24787886097015], [107.43689101318336, 27.24787886097015], [107.43689101318336, 27.247699197913327], [107.43671135012653, 27.247699197913327], [107.43671135012653, 27.2475195348565], [107.4365316870697, 27.2475195348565], [107.4365316870697, 27.247339871799678], [107.43635202401288, 27.247339871799678], [107.43635202401288, 27.247160208742855], [107.43599269789924, 27.247160208742855], [107.43599269789924, 27.247339871799678], [107.43581303484241, 27.247339871799678], [107.43581303484241, 27.247699197913327], [107.43563337178558, 27.247699197913327], [107.43563337178558, 27.24787886097015], [107.43545370872876, 27.24787886097015], [107.43545370872876, 27.247699197913327], [107.43527404567195, 27.247699197913327], [107.43527404567195, 27.2475195348565], [107.43473505650147, 27.2475195348565], [107.43473505650147, 27.247699197913327], [107.43437573038781, 27.247699197913327], [107.43437573038781, 27.24787886097015], [107.43383674121735, 27.24787886097015], [107.43383674121735, 27.248058524026973], [107.43365707816052, 27.248058524026973], [107.43365707816052, 27.248238187083796], [107.4334774151037, 27.248238187083796], [107.4334774151037, 27.248417850140623], [107.43329775204688, 27.248417850140623], [107.43329775204688, 27.248597513197446], [107.43311808899006, 27.248597513197446], [107.43311808899006, 27.24877717625427], [107.43293842593323, 27.24877717625427], [107.43293842593323, 27.24895683931109], [107.4327587628764, 27.24895683931109], [107.4327587628764, 27.24931616542474], [107.43293842593323, 27.24931616542474], [107.43293842593323, 27.24967549153839], [107.43257909981958, 27.24967549153839], [107.43257909981958, 27.24931616542474], [107.43239943676275, 27.24931616542474], [107.43239943676275, 27.24877717625427], [107.43221977370594, 27.24877717625427], [107.43221977370594, 27.248238187083796], [107.43204011064911, 27.248238187083796], [107.43204011064911, 27.24787886097015], [107.43186044759229, 27.24787886097015], [107.43186044759229, 27.247699197913327], [107.43150112147863, 27.247699197913327], [107.43150112147863, 27.24787886097015], [107.43132145842182, 27.24787886097015], [107.43132145842182, 27.248058524026973], [107.43150112147863, 27.248058524026973], [107.43150112147863, 27.248417850140623], [107.43168078453546, 27.248417850140623], [107.43168078453546, 27.248597513197446], [107.43186044759229, 27.248597513197446], [107.43186044759229, 27.24877717625427], [107.43204011064911, 27.24877717625427], [107.43204011064911, 27.249495828481564], [107.43221977370594, 27.249495828481564], [107.43221977370594, 27.249855154595213], [107.43239943676275, 27.249855154595213], [107.43239943676275, 27.250034817652036], [107.43257909981958, 27.250034817652036], [107.43257909981958, 27.250394143765686], [107.43204011064911, 27.250394143765686], [107.43204011064911, 27.25057380682251], [107.43186044759229, 27.25057380682251], [107.43186044759229, 27.25111279599298], [107.43204011064911, 27.25111279599298], [107.43204011064911, 27.251472122106627], [107.43221977370594, 27.251472122106627], [107.43221977370594, 27.251651785163453], [107.43239943676275, 27.251651785163453], [107.43239943676275, 27.251831448220276], [107.4327587628764, 27.251831448220276], [107.4327587628764, 27.252190774333922], [107.43293842593323, 27.252190774333922], [107.43293842593323, 27.25237043739075], [107.43437573038781, 27.25237043739075], [107.43437573038781, 27.25255010044757], [107.434196067331, 27.25255010044757], [107.434196067331, 27.252729763504394], [107.43383674121735, 27.252729763504394], [107.43383674121735, 27.252909426561217], [107.43365707816052, 27.252909426561217], [107.43365707816052, 27.253089089618044], [107.4334774151037, 27.253089089618044], [107.4334774151037, 27.252909426561217], [107.43311808899006, 27.252909426561217], [107.43311808899006, 27.253268752674867], [107.43293842593323, 27.253268752674867], [107.43293842593323, 27.25344841573169], [107.4327587628764, 27.25344841573169]], [[107.42395527309203, 27.23691941450389], [107.42377561003521, 27.23691941450389], [107.42377561003521, 27.236739751447068], [107.42395527309203, 27.236739751447068], [107.42395527309203, 27.23691941450389]], [[107.42934516479676, 27.23727874061754], [107.42880617562628, 27.23727874061754], [107.42880617562628, 27.23691941450389], [107.4289858386831, 27.23691941450389], [107.4289858386831, 27.236560088390245], [107.42916550173993, 27.236560088390245], [107.42916550173993, 27.236739751447068], [107.42934516479676, 27.236739751447068], [107.42934516479676, 27.23727874061754]], [[107.42952482785357, 27.23817705590166], [107.42934516479676, 27.23817705590166], [107.42934516479676, 27.237997392844836], [107.42952482785357, 27.237997392844836], [107.42952482785357, 27.23817705590166]], [[107.43006381702405, 27.23871604507213], [107.42988415396722, 27.23871604507213], [107.42988415396722, 27.23835671895848], [107.43006381702405, 27.23835671895848], [107.43006381702405, 27.23871604507213]], [[107.4297044909104, 27.239794023413072], [107.42952482785357, 27.239794023413072], [107.42952482785357, 27.239434697299426], [107.4297044909104, 27.239434697299426], [107.4297044909104, 27.239794023413072]], [[107.42790786034216, 27.2399736864699], [107.42718920811487, 27.2399736864699], [107.42718920811487, 27.239794023413072], [107.42682988200121, 27.239794023413072], [107.42682988200121, 27.23961436035625], [107.42647055588756, 27.23961436035625], [107.42647055588756, 27.239075371185777], [107.42629089283075, 27.239075371185777], [107.42629089283075, 27.238895708128954], [107.42611122977392, 27.238895708128954], [107.42611122977392, 27.23871604507213], [107.4259315667171, 27.23871604507213], [107.4259315667171, 27.237997392844836], [107.42611122977392, 27.237997392844836], [107.42611122977392, 27.23781772978801], [107.4259315667171, 27.23781772978801], [107.4259315667171, 27.237458403674363], [107.42629089283075, 27.237458403674363], [107.42629089283075, 27.237638066731186], [107.42647055588756, 27.237638066731186], [107.42647055588756, 27.237997392844836], [107.42665021894439, 27.237997392844836], [107.42665021894439, 27.238536382015308], [107.42682988200121, 27.238536382015308], [107.42682988200121, 27.23871604507213], [107.42718920811487, 27.23871604507213], [107.42718920811487, 27.238895708128954], [107.4273688711717, 27.238895708128954], [107.4273688711717, 27.23835671895848], [107.42700954505804, 27.23835671895848], [107.42700954505804, 27.237997392844836], [107.42682988200121, 27.237997392844836], [107.42682988200121, 27.237638066731186], [107.42665021894439, 27.237638066731186], [107.42665021894439, 27.237458403674363], [107.42647055588756, 27.237458403674363], [107.42647055588756, 27.237099077560714], [107.42682988200121, 27.237099077560714], [107.42682988200121, 27.23727874061754], [107.42700954505804, 27.23727874061754], [107.42700954505804, 27.237458403674363], [107.42718920811487, 27.237458403674363], [107.42718920811487, 27.237638066731186], [107.4273688711717, 27.237638066731186], [107.4273688711717, 27.237997392844836], [107.4275485342285, 27.237997392844836], [107.4275485342285, 27.23817705590166], [107.42772819728533, 27.23817705590166], [107.42772819728533, 27.23871604507213], [107.42790786034216, 27.23871604507213], [107.42790786034216, 27.239075371185777], [107.42772819728533, 27.239075371185777], [107.42772819728533, 27.23961436035625], [107.42790786034216, 27.23961436035625], [107.42790786034216, 27.2399736864699]], [[107.42772819728533, 27.240872001754017], [107.4275485342285, 27.240872001754017], [107.4275485342285, 27.240692338697194], [107.4273688711717, 27.240692338697194], [107.4273688711717, 27.240333012583545], [107.42790786034216, 27.240333012583545], [107.42790786034216, 27.240692338697194], [107.42772819728533, 27.240692338697194], [107.42772819728533, 27.240872001754017]], [[107.42826718645581, 27.24284829537908], [107.42808752339899, 27.24284829537908], [107.42808752339899, 27.242668632322257], [107.42826718645581, 27.242668632322257], [107.42826718645581, 27.24284829537908]], [[107.43509438261512, 27.245902567345087], [107.43473505650147, 27.245902567345087], [107.43473505650147, 27.245543241231438], [107.43509438261512, 27.245543241231438], [107.43509438261512, 27.245902567345087]], [[107.43365707816052, 27.246261893458733], [107.4334774151037, 27.246261893458733], [107.4334774151037, 27.24608223040191], [107.43365707816052, 27.24608223040191], [107.43365707816052, 27.246261893458733]], [[107.4334774151037, 27.24644155651556], [107.43311808899006, 27.24644155651556], [107.43311808899006, 27.246261893458733], [107.4334774151037, 27.246261893458733], [107.4334774151037, 27.24644155651556]], [[107.43311808899006, 27.24787886097015], [107.43293842593323, 27.24787886097015], [107.43293842593323, 27.247699197913327], [107.4327587628764, 27.247699197913327], [107.4327587628764, 27.2475195348565], [107.43257909981958, 27.2475195348565], [107.43257909981958, 27.247339871799678], [107.4327587628764, 27.247339871799678], [107.4327587628764, 27.247160208742855], [107.43293842593323, 27.247160208742855], [107.43293842593323, 27.247339871799678], [107.43311808899006, 27.247339871799678], [107.43311808899006, 27.24787886097015]]]}, "properties": {"name": "cand01", "ptype": "hall", "confidence": "low", "rank": 1, "area_ha": 77.1, "rise_db": 7.8, "digitised_from": "Sentinel-1 VV rise 2022->2026, orbit 157"}}, {"type": "Feature", "geometry": {"geodesic": false, "type": "Polygon", "coordinates": [[[107.43473505650147, 27.252729763504394], [107.43473505650147, 27.252190774333922], [107.43455539344464, 27.252190774333922], [107.43455539344464, 27.251651785163453], [107.43437573038781, 27.251651785163453], [107.43437573038781, 27.25057380682251], [107.43401640427417, 27.25057380682251], [107.43401640427417, 27.25075346987933], [107.4334774151037, 27.25075346987933], [107.4334774151037, 27.250034817652036], [107.43365707816052, 27.250034817652036], [107.43365707816052, 27.249855154595213], [107.43383674121735, 27.249855154595213], [107.43383674121735, 27.24967549153839], [107.43401640427417, 27.24967549153839], [107.43401640427417, 27.249495828481564], [107.434196067331, 27.249495828481564], [107.434196067331, 27.24931616542474], [107.43437573038781, 27.24931616542474], [107.43437573038781, 27.249136502367918], [107.43527404567195, 27.249136502367918], [107.43527404567195, 27.24895683931109], [107.43563337178558, 27.24895683931109], [107.43563337178558, 27.24877717625427], [107.43581303484241, 27.24877717625427], [107.43581303484241, 27.248238187083796], [107.43617236095606, 27.248238187083796], [107.43617236095606, 27.248417850140623], [107.43635202401288, 27.248417850140623], [107.43635202401288, 27.24877717625427], [107.4365316870697, 27.24877717625427], [107.4365316870697, 27.24931616542474], [107.43635202401288, 27.24931616542474], [107.43635202401288, 27.249136502367918], [107.43617236095606, 27.249136502367918], [107.43617236095606, 27.24895683931109], [107.43599269789924, 27.24895683931109], [107.43599269789924, 27.249136502367918], [107.43581303484241, 27.249136502367918], [107.43581303484241, 27.24931616542474], [107.43563337178558, 27.24931616542474], [107.43563337178558, 27.249495828481564], [107.43545370872876, 27.249495828481564], [107.43545370872876, 27.250394143765686], [107.43617236095606, 27.250394143765686], [107.43617236095606, 27.25075346987933], [107.43635202401288, 27.25075346987933], [107.43635202401288, 27.250933132936154], [107.4365316870697, 27.250933132936154], [107.4365316870697, 27.251292459049804], [107.43635202401288, 27.251292459049804], [107.43635202401288, 27.251472122106627], [107.43599269789924, 27.251472122106627], [107.43599269789924, 27.251651785163453], [107.43581303484241, 27.251651785163453], [107.43581303484241, 27.251831448220276], [107.43563337178558, 27.251831448220276], [107.43563337178558, 27.2520111112771], [107.43545370872876, 27.2520111112771], [107.43545370872876, 27.252190774333922], [107.43527404567195, 27.252190774333922], [107.43527404567195, 27.25255010044757], [107.43509438261512, 27.25255010044757], [107.43509438261512, 27.252729763504394], [107.43473505650147, 27.252729763504394]], [[107.43437573038781, 27.249855154595213], [107.434196067331, 27.249855154595213], [107.434196067331, 27.24967549153839], [107.43437573038781, 27.24967549153839], [107.43437573038781, 27.249855154595213]], [[107.43617236095606, 27.250933132936154], [107.43581303484241, 27.250933132936154], [107.43581303484241, 27.25075346987933], [107.43617236095606, 27.25075346987933], [107.43617236095606, 27.250933132936154]]]}, "properties": {"name": "cand02", "ptype": "hall", "confidence": "low", "rank": 2, "area_ha": 7.6, "rise_db": 6.6, "digitised_from": "Sentinel-1 VV rise 2022->2026, orbit 157"}}, {"type": "Feature", "geometry": {"geodesic": false, "type": "Polygon", "coordinates": [[[107.43743000235382, 27.25111279599298], [107.43743000235382, 27.250933132936154], [107.43725033929701, 27.250933132936154], [107.43725033929701, 27.25075346987933], [107.43707067624018, 27.25075346987933], [107.43707067624018, 27.250394143765686], [107.43760966541065, 27.250394143765686], [107.43760966541065, 27.25021448070886], [107.4379689915243, 27.25021448070886], [107.4379689915243, 27.250034817652036], [107.43814865458113, 27.250034817652036], [107.43814865458113, 27.249855154595213], [107.43832831763794, 27.249855154595213], [107.43832831763794, 27.24967549153839], [107.43814865458113, 27.24967549153839], [107.43814865458113, 27.249136502367918], [107.43832831763794, 27.249136502367918], [107.43832831763794, 27.24895683931109], [107.43850798069477, 27.24895683931109], [107.43850798069477, 27.24877717625427], [107.43868764375159, 27.24877717625427], [107.43868764375159, 27.24895683931109], [107.43886730680842, 27.24895683931109], [107.43886730680842, 27.249136502367918], [107.43976562209254, 27.249136502367918], [107.43976562209254, 27.249495828481564], [107.43994528514936, 27.249495828481564], [107.43994528514936, 27.250034817652036], [107.43958595903571, 27.250034817652036], [107.43958595903571, 27.249855154595213], [107.43922663292207, 27.249855154595213], [107.43922663292207, 27.25021448070886], [107.43904696986525, 27.25021448070886], [107.43904696986525, 27.250394143765686], [107.43850798069477, 27.250394143765686], [107.43850798069477, 27.25057380682251], [107.43814865458113, 27.25057380682251], [107.43814865458113, 27.25075346987933], [107.4379689915243, 27.25075346987933], [107.4379689915243, 27.250933132936154], [107.43760966541065, 27.250933132936154], [107.43760966541065, 27.25111279599298], [107.43743000235382, 27.25111279599298]]]}, "properties": {"name": "cand03", "ptype": "hall", "confidence": "low", "rank": 3, "area_ha": 3.3, "rise_db": 7.5, "digitised_from": "Sentinel-1 VV rise 2022->2026, orbit 157"}}, {"type": "Feature", "geometry": {"geodesic": false, "type": "Polygon", "coordinates": [[[107.42341628392157, 27.233326153367415], [107.42341628392157, 27.233146490310588], [107.42323662086474, 27.233146490310588], [107.42323662086474, 27.232966827253765], [107.42341628392157, 27.232966827253765], [107.42341628392157, 27.232427838083293], [107.42305695780792, 27.232427838083293], [107.42305695780792, 27.23260750114012], [107.42287729475109, 27.23260750114012], [107.42287729475109, 27.232787164196942], [107.42251796863744, 27.232787164196942], [107.42251796863744, 27.23260750114012], [107.42233830558062, 27.23260750114012], [107.42233830558062, 27.232427838083293], [107.42251796863744, 27.232427838083293], [107.42251796863744, 27.232068511969647], [107.42269763169426, 27.232068511969647], [107.42269763169426, 27.23188884891282], [107.42287729475109, 27.23188884891282], [107.42287729475109, 27.231709185855998], [107.42305695780792, 27.231709185855998], [107.42305695780792, 27.231529522799175], [107.42341628392157, 27.231529522799175], [107.42341628392157, 27.231709185855998], [107.42359594697838, 27.231709185855998], [107.42359594697838, 27.23224817502647], [107.42377561003521, 27.23224817502647], [107.42377561003521, 27.232427838083293], [107.42395527309203, 27.232427838083293], [107.42395527309203, 27.232787164196942], [107.42377561003521, 27.232787164196942], [107.42377561003521, 27.233146490310588], [107.42359594697838, 27.233146490310588], [107.42359594697838, 27.233326153367415], [107.42341628392157, 27.233326153367415]]]}, "properties": {"name": "cand04", "ptype": "hall", "confidence": "low", "rank": 4, "area_ha": 1.7, "rise_db": 7.0, "digitised_from": "Sentinel-1 VV rise 2022->2026, orbit 157"}}, {"type": "Feature", "geometry": {"geodesic": false, "type": "Polygon", "coordinates": [[[107.41101953300071, 27.20781399929842], [107.41101953300071, 27.207634336241593], [107.41083986994389, 27.207634336241593], [107.41083986994389, 27.20745467318477], [107.41101953300071, 27.20745467318477], [107.41101953300071, 27.206915684014298], [107.41066020688706, 27.206915684014298], [107.41066020688706, 27.206736020957475], [107.41048054383025, 27.206736020957475], [107.41048054383025, 27.206915684014298], [107.40976189160294, 27.206915684014298], [107.40976189160294, 27.206556357900652], [107.40994155465977, 27.206556357900652], [107.40994155465977, 27.20637669484383], [107.41209751134166, 27.20637669484383], [107.41209751134166, 27.206556357900652], [107.41191784828483, 27.206556357900652], [107.41191784828483, 27.206736020957475], [107.411738185228, 27.206736020957475], [107.411738185228, 27.206915684014298], [107.41137885911436, 27.206915684014298], [107.41137885911436, 27.207095347071125], [107.41119919605754, 27.207095347071125], [107.41119919605754, 27.20745467318477], [107.41137885911436, 27.20745467318477], [107.41137885911436, 27.207634336241593], [107.41119919605754, 27.207634336241593], [107.41119919605754, 27.20781399929842], [107.41101953300071, 27.20781399929842]]]}, "properties": {"name": "cand05", "ptype": "hall", "confidence": "low", "rank": 5, "area_ha": 1.7, "rise_db": 8.8, "digitised_from": "Sentinel-1 VV rise 2022->2026, orbit 157"}}, {"type": "Feature", "geometry": {"geodesic": false, "type": "Polygon", "coordinates": [[[107.44605382908138, 27.27554697172103], [107.44605382908138, 27.275367308664208], [107.44587416602455, 27.275367308664208], [107.44587416602455, 27.27518764560738], [107.44569450296773, 27.27518764560738], [107.44569450296773, 27.274828319493736], [107.44533517685407, 27.274828319493736], [107.44533517685407, 27.274289330323263], [107.4455148399109, 27.274289330323263], [107.4455148399109, 27.27375034115279], [107.44587416602455, 27.27375034115279], [107.44587416602455, 27.273930004209614], [107.44605382908138, 27.273930004209614], [107.44605382908138, 27.274828319493736], [107.44623349213819, 27.274828319493736], [107.44623349213819, 27.27500798255056], [107.44641315519502, 27.27500798255056], [107.44641315519502, 27.27554697172103], [107.44605382908138, 27.27554697172103]]]}, "properties": {"name": "cand06", "ptype": "hall", "confidence": "low", "rank": 6, "area_ha": 1.3, "rise_db": 5.7, "digitised_from": "Sentinel-1 VV rise 2022->2026, orbit 157"}}, {"type": "Feature", "geometry": {"geodesic": false, "type": "Polygon", "coordinates": [[[107.42665021894439, 27.214461532400904], [107.42665021894439, 27.21428186934408], [107.42611122977392, 27.21428186934408], [107.42611122977392, 27.214102206287254], [107.4259315667171, 27.214102206287254], [107.4259315667171, 27.21392254323043], [107.42575190366027, 27.21392254323043], [107.42575190366027, 27.21374288017361], [107.42557224060344, 27.21374288017361], [107.42557224060344, 27.21338355405996], [107.42539257754663, 27.21338355405996], [107.42539257754663, 27.213203891003136], [107.42557224060344, 27.213203891003136], [107.42557224060344, 27.213024227946313], [107.42611122977392, 27.213024227946313], [107.42611122977392, 27.213203891003136], [107.42629089283075, 27.213203891003136], [107.42629089283075, 27.213563217116782], [107.42647055588756, 27.213563217116782], [107.42647055588756, 27.21374288017361], [107.42665021894439, 27.21374288017361], [107.42665021894439, 27.21428186934408], [107.42682988200121, 27.21428186934408], [107.42682988200121, 27.214461532400904], [107.42665021894439, 27.214461532400904]]]}, "properties": {"name": "cand07", "ptype": "hall", "confidence": "low", "rank": 7, "area_ha": 1.2, "rise_db": 9.1, "digitised_from": "Sentinel-1 VV rise 2022->2026, orbit 157"}}, {"type": "Feature", "geometry": {"geodesic": false, "type": "Polygon", "coordinates": [[[107.42161965335332, 27.236200762276596], [107.42161965335332, 27.236021099219773], [107.42143999029649, 27.236021099219773], [107.42143999029649, 27.23512278393565], [107.42161965335332, 27.23512278393565], [107.42161965335332, 27.234943120878828], [107.4221586425238, 27.234943120878828], [107.4221586425238, 27.23512278393565], [107.42233830558062, 27.23512278393565], [107.42233830558062, 27.235661773106123], [107.4221586425238, 27.235661773106123], [107.4221586425238, 27.235841436162946], [107.42179931641014, 27.235841436162946], [107.42179931641014, 27.236200762276596], [107.42161965335332, 27.236200762276596]]]}, "properties": {"name": "cand08", "ptype": "hall", "confidence": "low", "rank": 8, "area_ha": 1.0, "rise_db": 6.3, "digitised_from": "Sentinel-1 VV rise 2022->2026, orbit 157"}}]}