{"type": "FeatureCollection", "features": [{"type": "Feature", "geometry": {"geodesic": false, "type": "Polygon", "coordinates": [[[120.2835182283198, 27.04162567173631], [120.2835182283198, 27.041446008679483], [120.28333856526298, 27.041446008679483], [120.28333856526298, 27.041086682565837], [120.28315890220615, 27.041086682565837], [120.28315890220615, 27.04090701950901], [120.28279957609251, 27.04090701950901], [120.28279957609251, 27.04126634562266], [120.28297923914934, 27.04126634562266], [120.28297923914934, 27.041446008679483], [120.28261991303569, 27.041446008679483], [120.28261991303569, 27.040727356452187], [120.28226058692204, 27.040727356452187], [120.28226058692204, 27.040547693395364], [120.28208092386521, 27.040547693395364], [120.28208092386521, 27.04036803033854], [120.28172159775157, 27.04036803033854], [120.28172159775157, 27.040008704224892], [120.28208092386521, 27.040008704224892], [120.28208092386521, 27.03982904116807], [120.28226058692204, 27.03982904116807], [120.28226058692204, 27.03946971505442], [120.28244024997886, 27.03946971505442], [120.28244024997886, 27.039110388940774], [120.28261991303569, 27.039110388940774], [120.28261991303569, 27.038751062827124], [120.28279957609251, 27.038751062827124], [120.28279957609251, 27.03839173671348], [120.28297923914934, 27.03839173671348], [120.28297923914934, 27.038212073656652], [120.28315890220615, 27.038212073656652], [120.28315890220615, 27.03803241059983], [120.28333856526298, 27.03803241059983], [120.28333856526298, 27.037673084486183], [120.2835182283198, 27.037673084486183], [120.2835182283198, 27.037313758372534], [120.28369789137663, 27.037313758372534], [120.28369789137663, 27.03713409531571], [120.28387755443346, 27.03713409531571], [120.28387755443346, 27.03659510614524], [120.28369789137663, 27.03659510614524], [120.28369789137663, 27.03677476920206], [120.2835182283198, 27.03677476920206], [120.2835182283198, 27.036954432258884], [120.28333856526298, 27.036954432258884], [120.28333856526298, 27.037313758372534], [120.28297923914934, 27.037313758372534], [120.28297923914934, 27.03713409531571], [120.28315890220615, 27.03713409531571], [120.28315890220615, 27.036954432258884], [120.28333856526298, 27.036954432258884], [120.28333856526298, 27.03677476920206], [120.2835182283198, 27.03677476920206], [120.2835182283198, 27.036415443088416], [120.28369789137663, 27.036415443088416], [120.28369789137663, 27.03623578003159], [120.28387755443346, 27.03623578003159], [120.28387755443346, 27.035876453917943], [120.28405721749027, 27.035876453917943], [120.28405721749027, 27.03569679086112], [120.28459620666075, 27.03569679086112], [120.28459620666075, 27.036056116974766], [120.28513519583122, 27.036056116974766], [120.28513519583122, 27.035876453917943], [120.2856741850017, 27.035876453917943], [120.2856741850017, 27.035157801690648], [120.28549452194487, 27.035157801690648], [120.28549452194487, 27.03497813863382], [120.2856741850017, 27.03497813863382], [120.2856741850017, 27.034798475577], [120.28585384805852, 27.034798475577], [120.28585384805852, 27.034618812520176], [120.28621317417216, 27.034618812520176], [120.28621317417216, 27.034259486406526], [120.28639283722899, 27.034259486406526], [120.28639283722899, 27.034079823349703], [120.28675216334264, 27.034079823349703], [120.28675216334264, 27.034439149463353], [120.28657250028581, 27.034439149463353], [120.28657250028581, 27.034618812520176], [120.28639283722899, 27.034618812520176], [120.28639283722899, 27.034798475577], [120.28657250028581, 27.034798475577], [120.28657250028581, 27.03497813863382], [120.28675216334264, 27.03497813863382], [120.28675216334264, 27.03533746474747], [120.28711148945628, 27.03533746474747], [120.28711148945628, 27.035517127804294], [120.28765047862676, 27.035517127804294], [120.28765047862676, 27.035157801690648], [120.28747081556993, 27.035157801690648], [120.28747081556993, 27.034798475577], [120.28765047862676, 27.034798475577], [120.28765047862676, 27.034618812520176], [120.28818946779722, 27.034618812520176], [120.28818946779722, 27.035157801690648], [120.28854879391088, 27.035157801690648], [120.28854879391088, 27.03497813863382], [120.2887284569677, 27.03497813863382], [120.2887284569677, 27.034618812520176], [120.28854879391088, 27.034618812520176], [120.28854879391088, 27.033720497236054], [120.28836913085405, 27.033720497236054], [120.28836913085405, 27.03354083417923], [120.28765047862676, 27.03354083417923], [120.28765047862676, 27.033720497236054], [120.28693182639947, 27.033720497236054], [120.28693182639947, 27.033181508065585], [120.28711148945628, 27.033181508065585], [120.28711148945628, 27.03300184500876], [120.28765047862676, 27.03300184500876], [120.28765047862676, 27.032822181951936], [120.28783014168359, 27.032822181951936], [120.28783014168359, 27.032642518895113], [120.28818946779722, 27.032642518895113], [120.28818946779722, 27.03246285583829], [120.2887284569677, 27.03246285583829], [120.2887284569677, 27.03210352972464], [120.28908778308134, 27.03210352972464], [120.28908778308134, 27.031923866667817], [120.28926744613817, 27.031923866667817], [120.28926744613817, 27.03174420361099], [120.28962677225182, 27.03174420361099], [120.28962677225182, 27.031564540554168], [120.28980643530865, 27.031564540554168], [120.28980643530865, 27.03174420361099], [120.28998609836546, 27.03174420361099], [120.28998609836546, 27.031923866667817], [120.29016576142229, 27.031923866667817], [120.29016576142229, 27.03174420361099], [120.29052508753594, 27.03174420361099], [120.29052508753594, 27.031564540554168], [120.29070475059277, 27.031564540554168], [120.29070475059277, 27.031384877497345], [120.2910640767064, 27.031384877497345], [120.2910640767064, 27.031564540554168], [120.29124373976323, 27.031564540554168], [120.29124373976323, 27.03174420361099], [120.29142340282006, 27.03174420361099], [120.29142340282006, 27.031923866667817], [120.29178272893371, 27.031923866667817], [120.29178272893371, 27.03210352972464], [120.29214205504735, 27.03210352972464], [120.29214205504735, 27.03246285583829], [120.29232171810418, 27.03246285583829], [120.29232171810418, 27.032642518895113], [120.292501381161, 27.032642518895113], [120.292501381161, 27.032822181951936], [120.29268104421783, 27.032822181951936], [120.29268104421783, 27.03300184500876], [120.29286070727466, 27.03300184500876], [120.29286070727466, 27.033361171122408], [120.292501381161, 27.033361171122408], [120.292501381161, 27.03390016029288], [120.29232171810418, 27.03390016029288], [120.29232171810418, 27.034079823349703], [120.292501381161, 27.034079823349703], [120.292501381161, 27.034259486406526], [120.29268104421783, 27.034259486406526], [120.29268104421783, 27.034798475577], [120.292501381161, 27.034798475577], [120.292501381161, 27.03497813863382], [120.29232171810418, 27.03497813863382], [120.29232171810418, 27.03533746474747], [120.29214205504735, 27.03533746474747], [120.29214205504735, 27.03569679086112], [120.29196239199054, 27.03569679086112], [120.29196239199054, 27.036056116974766], [120.29178272893371, 27.036056116974766], [120.29178272893371, 27.03623578003159], [120.29160306587688, 27.03623578003159], [120.29160306587688, 27.036954432258884], [120.29232171810418, 27.036954432258884], [120.29232171810418, 27.03677476920206], [120.292501381161, 27.03677476920206], [120.292501381161, 27.03659510614524], [120.29268104421783, 27.03659510614524], [120.29268104421783, 27.03623578003159], [120.29286070727466, 27.03623578003159], [120.29286070727466, 27.036056116974766], [120.29304037033147, 27.036056116974766], [120.29304037033147, 27.03569679086112], [120.2932200333883, 27.03569679086112], [120.2932200333883, 27.03533746474747], [120.29339969644512, 27.03533746474747], [120.29339969644512, 27.03497813863382], [120.29357935950195, 27.03497813863382], [120.29357935950195, 27.034798475577], [120.29375902255877, 27.034798475577], [120.29375902255877, 27.034439149463353], [120.2939386856156, 27.034439149463353], [120.2939386856156, 27.03497813863382], [120.29375902255877, 27.03497813863382], [120.29375902255877, 27.03569679086112], [120.29357935950195, 27.03569679086112], [120.29357935950195, 27.035876453917943], [120.29339969644512, 27.035876453917943], [120.29339969644512, 27.036056116974766], [120.2932200333883, 27.036056116974766], [120.2932200333883, 27.036415443088416], [120.29286070727466, 27.036415443088416], [120.29286070727466, 27.036954432258884], [120.29268104421783, 27.036954432258884], [120.29268104421783, 27.03713409531571], [120.292501381161, 27.03713409531571], [120.292501381161, 27.037313758372534], [120.29160306587688, 27.037313758372534], [120.29160306587688, 27.03713409531571], [120.29142340282006, 27.03713409531571], [120.29142340282006, 27.036954432258884], [120.29124373976323, 27.036954432258884], [120.29124373976323, 27.03659510614524], [120.2908844136496, 27.03659510614524], [120.2908844136496, 27.036415443088416], [120.29070475059277, 27.036415443088416], [120.29070475059277, 27.03623578003159], [120.29052508753594, 27.03623578003159], [120.29052508753594, 27.03677476920206], [120.29034542447911, 27.03677476920206], [120.29034542447911, 27.03713409531571], [120.29016576142229, 27.03713409531571], [120.29016576142229, 27.037313758372534], [120.28998609836546, 27.037313758372534], [120.28998609836546, 27.037493421429357], [120.289447109195, 27.037493421429357], [120.289447109195, 27.037313758372534], [120.28908778308134, 27.037313758372534], [120.28908778308134, 27.037673084486183], [120.28854879391088, 27.037673084486183], [120.28854879391088, 27.037493421429357], [120.28818946779722, 27.037493421429357], [120.28818946779722, 27.037313758372534], [120.28747081556993, 27.037313758372534], [120.28747081556993, 27.037493421429357], [120.2872911525131, 27.037493421429357], [120.2872911525131, 27.037313758372534], [120.28711148945628, 27.037313758372534], [120.28711148945628, 27.03677476920206], [120.28585384805852, 27.03677476920206], [120.28585384805852, 27.03659510614524], [120.2856741850017, 27.03659510614524], [120.2856741850017, 27.036415443088416], [120.28549452194487, 27.036415443088416], [120.28549452194487, 27.03659510614524], [120.28513519583122, 27.03659510614524], [120.28513519583122, 27.03677476920206], [120.28477586971758, 27.03677476920206], [120.28477586971758, 27.036954432258884], [120.28459620666075, 27.036954432258884], [120.28459620666075, 27.03713409531571], [120.28441654360392, 27.03713409531571], [120.28441654360392, 27.037313758372534], [120.2842368805471, 27.037313758372534], [120.2842368805471, 27.037493421429357], [120.28405721749027, 27.037493421429357], [120.28405721749027, 27.037852747543006], [120.28387755443346, 27.037852747543006], [120.28387755443346, 27.038212073656652], [120.28369789137663, 27.038212073656652], [120.28369789137663, 27.03839173671348], [120.2835182283198, 27.03839173671348], [120.2835182283198, 27.038751062827124], [120.28333856526298, 27.038751062827124], [120.28333856526298, 27.038930725883947], [120.28315890220615, 27.038930725883947], [120.28315890220615, 27.039290051997597], [120.28297923914934, 27.039290051997597], [120.28297923914934, 27.039649378111246], [120.28279957609251, 27.039649378111246], [120.28279957609251, 27.03982904116807], [120.28261991303569, 27.03982904116807], [120.28261991303569, 27.04036803033854], [120.28279957609251, 27.04036803033854], [120.28279957609251, 27.040547693395364], [120.28333856526298, 27.040547693395364], [120.28333856526298, 27.040727356452187], [120.28387755443346, 27.040727356452187], [120.28387755443346, 27.04090701950901], [120.28405721749027, 27.04090701950901], [120.28405721749027, 27.041086682565837], [120.28441654360392, 27.041086682565837], [120.28441654360392, 27.041446008679483], [120.2842368805471, 27.041446008679483], [120.2842368805471, 27.04162567173631], [120.2835182283198, 27.04162567173631]], [[120.28908778308134, 27.03354083417923], [120.2887284569677, 27.03354083417923], [120.2887284569677, 27.033361171122408], [120.28854879391088, 27.033361171122408], [120.28854879391088, 27.032822181951936], [120.28890812002453, 27.032822181951936], [120.28890812002453, 27.032642518895113], [120.28908778308134, 27.032642518895113], [120.28908778308134, 27.03246285583829], [120.28926744613817, 27.03246285583829], [120.28926744613817, 27.032283192781463], [120.289447109195, 27.032283192781463], [120.289447109195, 27.03210352972464], [120.28962677225182, 27.03210352972464], [120.28962677225182, 27.031923866667817], [120.28980643530865, 27.031923866667817], [120.28980643530865, 27.03210352972464], [120.28998609836546, 27.03210352972464], [120.28998609836546, 27.032283192781463], [120.28980643530865, 27.032283192781463], [120.28980643530865, 27.032822181951936], [120.29016576142229, 27.032822181951936], [120.29016576142229, 27.033181508065585], [120.28998609836546, 27.033181508065585], [120.28998609836546, 27.033361171122408], [120.28926744613817, 27.033361171122408], [120.28926744613817, 27.033181508065585], [120.28908778308134, 27.033181508065585], [120.28908778308134, 27.03354083417923]], [[120.29232171810418, 27.034439149463353], [120.29214205504735, 27.034439149463353], [120.29214205504735, 27.034259486406526], [120.29178272893371, 27.034259486406526], [120.29178272893371, 27.03390016029288], [120.29214205504735, 27.03390016029288], [120.29214205504735, 27.034079823349703], [120.29232171810418, 27.034079823349703], [120.29232171810418, 27.034439149463353]], [[120.28621317417216, 27.036056116974766], [120.28585384805852, 27.036056116974766], [120.28585384805852, 27.035876453917943], [120.28621317417216, 27.035876453917943], [120.28621317417216, 27.036056116974766]], [[120.2908844136496, 27.03623578003159], [120.29070475059277, 27.03623578003159], [120.29070475059277, 27.036056116974766], [120.2908844136496, 27.036056116974766], [120.2908844136496, 27.03623578003159]], [[120.28405721749027, 27.03659510614524], [120.28387755443346, 27.03659510614524], [120.28387755443346, 27.036415443088416], [120.28405721749027, 27.036415443088416], [120.28405721749027, 27.03659510614524]], [[120.28908778308134, 27.03713409531571], [120.28836913085405, 27.03713409531571], [120.28836913085405, 27.03677476920206], [120.2880098047404, 27.03677476920206], [120.2880098047404, 27.03659510614524], [120.28765047862676, 27.03659510614524], [120.28765047862676, 27.036415443088416], [120.28783014168359, 27.036415443088416], [120.28783014168359, 27.036056116974766], [120.28765047862676, 27.036056116974766], [120.28765047862676, 27.035876453917943], [120.28783014168359, 27.035876453917943], [120.28783014168359, 27.03569679086112], [120.28818946779722, 27.03569679086112], [120.28818946779722, 27.035876453917943], [120.28854879391088, 27.035876453917943], [120.28854879391088, 27.03659510614524], [120.28926744613817, 27.03659510614524], [120.28926744613817, 27.036954432258884], [120.28908778308134, 27.036954432258884], [120.28908778308134, 27.03713409531571]]]}, "properties": {"name": "cand01", "ptype": "hall", "confidence": "low", "rank": 1, "area_ha": 38.7, "rise_db": 9.7, "digitised_from": "Sentinel-1 VV rise 2022->2026, orbit 69"}}, {"type": "Feature", "geometry": {"geodesic": false, "type": "Polygon", "coordinates": [[[120.25441281311433, 27.07073108694178], [120.25441281311433, 27.070551423884957], [120.25405348700069, 27.070551423884957], [120.25405348700069, 27.07037176082813], [120.25387382394386, 27.07037176082813], [120.25387382394386, 27.069832771657662], [120.25369416088704, 27.069832771657662], [120.25369416088704, 27.06929378248719], [120.25387382394386, 27.06929378248719], [120.25387382394386, 27.06893445637354], [120.25405348700069, 27.06893445637354], [120.25405348700069, 27.068575130259894], [120.25369416088704, 27.068575130259894], [120.25369416088704, 27.068036141089422], [120.25387382394386, 27.068036141089422], [120.25387382394386, 27.067856478032596], [120.25405348700069, 27.067856478032596], [120.25405348700069, 27.067676814975773], [120.25423315005752, 27.067676814975773], [120.25423315005752, 27.06749715191895], [120.25441281311433, 27.06749715191895], [120.25441281311433, 27.067317488862127], [120.25531112839846, 27.067317488862127], [120.25531112839846, 27.0671378258053], [120.2556704545121, 27.0671378258053], [120.2556704545121, 27.066958162748477], [120.25585011756893, 27.066958162748477], [120.25585011756893, 27.066778499691655], [120.25602978062575, 27.066778499691655], [120.25602978062575, 27.06659883663483], [120.25638910673939, 27.06659883663483], [120.25638910673939, 27.066778499691655], [120.25674843285304, 27.066778499691655], [120.25674843285304, 27.066958162748477], [120.25692809590987, 27.066958162748477], [120.25692809590987, 27.0671378258053], [120.2571077589667, 27.0671378258053], [120.2571077589667, 27.06749715191895], [120.25728742202352, 27.06749715191895], [120.25728742202352, 27.067676814975773], [120.25746708508034, 27.067676814975773], [120.25746708508034, 27.067317488862127], [120.25764674813716, 27.067317488862127], [120.25764674813716, 27.066958162748477], [120.25854506342128, 27.066958162748477], [120.25854506342128, 27.0671378258053], [120.25908405259176, 27.0671378258053], [120.25908405259176, 27.067317488862127], [120.25962304176223, 27.067317488862127], [120.25962304176223, 27.06749715191895], [120.25998236787588, 27.06749715191895], [120.25998236787588, 27.067856478032596], [120.2594433787054, 27.067856478032596], [120.2594433787054, 27.068036141089422], [120.25854506342128, 27.068036141089422], [120.25854506342128, 27.067856478032596], [120.25836540036445, 27.067856478032596], [120.25836540036445, 27.068036141089422], [120.25818573730764, 27.068036141089422], [120.25818573730764, 27.068395467203068], [120.25800607425082, 27.068395467203068], [120.25800607425082, 27.068754793316717], [120.25782641119399, 27.068754793316717], [120.25782641119399, 27.06893445637354], [120.25764674813716, 27.06893445637354], [120.25764674813716, 27.069832771657662], [120.25746708508034, 27.069832771657662], [120.25746708508034, 27.070012434714485], [120.2571077589667, 27.070012434714485], [120.2571077589667, 27.070192097771308], [120.25638910673939, 27.070192097771308], [120.25638910673939, 27.07037176082813], [120.2556704545121, 27.07037176082813], [120.2556704545121, 27.070551423884957], [120.25513146534163, 27.070551423884957], [120.25513146534163, 27.07073108694178], [120.25441281311433, 27.07073108694178]], [[120.2556704545121, 27.067856478032596], [120.25549079145527, 27.067856478032596], [120.25549079145527, 27.067676814975773], [120.2556704545121, 27.067676814975773], [120.2556704545121, 27.067856478032596]], [[120.25782641119399, 27.068036141089422], [120.25764674813716, 27.068036141089422], [120.25764674813716, 27.067856478032596], [120.25782641119399, 27.067856478032596], [120.25782641119399, 27.068036141089422]], [[120.25764674813716, 27.068215804146245], [120.25746708508034, 27.068215804146245], [120.25746708508034, 27.068036141089422], [120.25764674813716, 27.068036141089422], [120.25764674813716, 27.068215804146245]], [[120.25746708508034, 27.068395467203068], [120.25728742202352, 27.068395467203068], [120.25728742202352, 27.068215804146245], [120.25746708508034, 27.068215804146245], [120.25746708508034, 27.068395467203068]], [[120.25782641119399, 27.068754793316717], [120.25764674813716, 27.068754793316717], [120.25764674813716, 27.068575130259894], [120.25782641119399, 27.068575130259894], [120.25782641119399, 27.068754793316717]]]}, "properties": {"name": "cand02", "ptype": "hall", "confidence": "low", "rank": 2, "area_ha": 17.7, "rise_db": 8.8, "digitised_from": "Sentinel-1 VV rise 2022->2026, orbit 69"}}, {"type": "Feature", "geometry": {"geodesic": false, "type": "Polygon", "coordinates": [[[120.27615204299002, 27.04539859592961], [120.27615204299002, 27.045218932872785], [120.27597237993321, 27.045218932872785], [120.27597237993321, 27.044679943702313], [120.27633170604685, 27.044679943702313], [120.27633170604685, 27.04450028064549], [120.27651136910367, 27.04450028064549], [120.27651136910367, 27.044320617588667], [120.27705035827415, 27.044320617588667], [120.27705035827415, 27.04450028064549], [120.27723002133096, 27.04450028064549], [120.27723002133096, 27.044320617588667], [120.27740968438779, 27.044320617588667], [120.27740968438779, 27.04414095453184], [120.27723002133096, 27.04414095453184], [120.27723002133096, 27.043781628418195], [120.27651136910367, 27.043781628418195], [120.27651136910367, 27.043601965361372], [120.2766910321605, 27.043601965361372], [120.2766910321605, 27.0430629761909], [120.27687069521733, 27.0430629761909], [120.27687069521733, 27.042883313134073], [120.27705035827415, 27.042883313134073], [120.27705035827415, 27.042523987020427], [120.2766910321605, 27.042523987020427], [120.2766910321605, 27.042344323963604], [120.27651136910367, 27.042344323963604], [120.27651136910367, 27.042164660906778], [120.27615204299002, 27.042164660906778], [120.27615204299002, 27.042344323963604], [120.27597237993321, 27.042344323963604], [120.27597237993321, 27.042523987020427], [120.27579271687638, 27.042523987020427], [120.27579271687638, 27.042883313134073], [120.27597237993321, 27.042883313134073], [120.27597237993321, 27.043242639247723], [120.27561305381955, 27.043242639247723], [120.27561305381955, 27.0430629761909], [120.27543339076273, 27.0430629761909], [120.27543339076273, 27.042883313134073], [120.2752537277059, 27.042883313134073], [120.2752537277059, 27.042344323963604], [120.27543339076273, 27.042344323963604], [120.27543339076273, 27.042164660906778], [120.27561305381955, 27.042164660906778], [120.27561305381955, 27.041984997849955], [120.27579271687638, 27.041984997849955], [120.27579271687638, 27.04162567173631], [120.27597237993321, 27.04162567173631], [120.27597237993321, 27.041446008679483], [120.27633170604685, 27.041446008679483], [120.27633170604685, 27.040727356452187], [120.27651136910367, 27.040727356452187], [120.27651136910367, 27.04036803033854], [120.2766910321605, 27.04036803033854], [120.2766910321605, 27.040188367281715], [120.27687069521733, 27.040188367281715], [120.27687069521733, 27.04036803033854], [120.27758934744462, 27.04036803033854], [120.27758934744462, 27.040188367281715], [120.27812833661508, 27.040188367281715], [120.27812833661508, 27.041446008679483], [120.27794867355827, 27.041446008679483], [120.27794867355827, 27.041805334793132], [120.27812833661508, 27.041805334793132], [120.27812833661508, 27.042344323963604], [120.27866732578556, 27.042344323963604], [120.27866732578556, 27.042523987020427], [120.27884698884239, 27.042523987020427], [120.27884698884239, 27.04270365007725], [120.27902665189922, 27.04270365007725], [120.27902665189922, 27.043242639247723], [120.27884698884239, 27.043242639247723], [120.27884698884239, 27.043422302304545], [120.27866732578556, 27.043422302304545], [120.27866732578556, 27.043242639247723], [120.27848766272874, 27.043242639247723], [120.27848766272874, 27.0430629761909], [120.27830799967191, 27.0430629761909], [120.27830799967191, 27.042883313134073], [120.27812833661508, 27.042883313134073], [120.27812833661508, 27.04270365007725], [120.27740968438779, 27.04270365007725], [120.27740968438779, 27.0430629761909], [120.27723002133096, 27.0430629761909], [120.27723002133096, 27.043422302304545], [120.27705035827415, 27.043422302304545], [120.27705035827415, 27.043601965361372], [120.27723002133096, 27.043601965361372], [120.27723002133096, 27.043781628418195], [120.27758934744462, 27.043781628418195], [120.27758934744462, 27.04414095453184], [120.27794867355827, 27.04414095453184], [120.27794867355827, 27.044320617588667], [120.27812833661508, 27.044320617588667], [120.27812833661508, 27.044679943702313], [120.27758934744462, 27.044679943702313], [120.27758934744462, 27.044859606759136], [120.27687069521733, 27.044859606759136], [120.27687069521733, 27.045039269815963], [120.27651136910367, 27.045039269815963], [120.27651136910367, 27.045218932872785], [120.27633170604685, 27.045218932872785], [120.27633170604685, 27.04539859592961], [120.27615204299002, 27.04539859592961]]]}, "properties": {"name": "cand03", "ptype": "hall", "confidence": "low", "rank": 3, "area_ha": 9.4, "rise_db": 6.2, "digitised_from": "Sentinel-1 VV rise 2022->2026, orbit 69"}}, {"type": "Feature", "geometry": {"geodesic": false, "type": "Polygon", "coordinates": [[[120.25351449783021, 27.067317488862127], [120.25351449783021, 27.0671378258053], [120.25297550865974, 27.0671378258053], [120.25297550865974, 27.066239510521182], [120.25315517171657, 27.066239510521182], [120.25315517171657, 27.06605984746436], [120.25369416088704, 27.06605984746436], [120.25369416088704, 27.065520858293887], [120.25351449783021, 27.065520858293887], [120.25351449783021, 27.065341195237064], [120.25315517171657, 27.065341195237064], [120.25315517171657, 27.065520858293887], [120.25297550865974, 27.065520858293887], [120.25297550865974, 27.06570052135071], [120.25279584560292, 27.06570052135071], [120.25279584560292, 27.065880184407533], [120.25243651948927, 27.065880184407533], [120.25243651948927, 27.06605984746436], [120.25225685643245, 27.06605984746436], [120.25225685643245, 27.06570052135071], [120.25243651948927, 27.06570052135071], [120.25243651948927, 27.065161532180237], [120.25261618254609, 27.065161532180237], [120.25261618254609, 27.06462254300977], [120.25315517171657, 27.06462254300977], [120.25315517171657, 27.06480220606659], [120.2533348347734, 27.06480220606659], [120.2533348347734, 27.06462254300977], [120.25351449783021, 27.06462254300977], [120.25351449783021, 27.064442879952942], [120.25387382394386, 27.064442879952942], [120.25387382394386, 27.06462254300977], [120.25405348700069, 27.06462254300977], [120.25405348700069, 27.06480220606659], [120.25423315005752, 27.06480220606659], [120.25423315005752, 27.064981869123415], [120.25441281311433, 27.064981869123415], [120.25441281311433, 27.06480220606659], [120.25459247617115, 27.06480220606659], [120.25459247617115, 27.06570052135071], [120.25441281311433, 27.06570052135071], [120.25441281311433, 27.065880184407533], [120.25423315005752, 27.065880184407533], [120.25423315005752, 27.066239510521182], [120.25405348700069, 27.066239510521182], [120.25405348700069, 27.066958162748477], [120.25387382394386, 27.066958162748477], [120.25387382394386, 27.0671378258053], [120.25369416088704, 27.0671378258053], [120.25369416088704, 27.067317488862127], [120.25351449783021, 27.067317488862127]], [[120.25387382394386, 27.065161532180237], [120.25351449783021, 27.065161532180237], [120.25351449783021, 27.06480220606659], [120.25369416088704, 27.06480220606659], [120.25369416088704, 27.064981869123415], [120.25387382394386, 27.064981869123415], [120.25387382394386, 27.065161532180237]]]}, "properties": {"name": "cand04", "ptype": "hall", "confidence": "low", "rank": 4, "area_ha": 4.2, "rise_db": 6.8, "digitised_from": "Sentinel-1 VV rise 2022->2026, orbit 69"}}, {"type": "Feature", "geometry": {"geodesic": false, "type": "Polygon", "coordinates": [[[120.27974530412651, 27.042523987020427], [120.27974530412651, 27.042344323963604], [120.27956564106968, 27.042344323963604], [120.27956564106968, 27.042164660906778], [120.27974530412651, 27.042164660906778], [120.27974530412651, 27.04162567173631], [120.27992496718333, 27.04162567173631], [120.27992496718333, 27.041446008679483], [120.27974530412651, 27.041446008679483], [120.27974530412651, 27.04090701950901], [120.27938597801285, 27.04090701950901], [120.27938597801285, 27.040727356452187], [120.27902665189922, 27.040727356452187], [120.27902665189922, 27.040547693395364], [120.27884698884239, 27.040547693395364], [120.27884698884239, 27.040188367281715], [120.27920631495603, 27.040188367281715], [120.27920631495603, 27.04036803033854], [120.28028429329697, 27.04036803033854], [120.28028429329697, 27.040547693395364], [120.28136227163792, 27.040547693395364], [120.28136227163792, 27.040727356452187], [120.28154193469474, 27.040727356452187], [120.28154193469474, 27.04090701950901], [120.28136227163792, 27.04090701950901], [120.28136227163792, 27.041086682565837], [120.28100294552428, 27.041086682565837], [120.28100294552428, 27.04126634562266], [120.28136227163792, 27.04126634562266], [120.28136227163792, 27.04162567173631], [120.28118260858109, 27.04162567173631], [120.28118260858109, 27.041805334793132], [120.28082328246745, 27.041805334793132], [120.28082328246745, 27.041984997849955], [120.28064361941063, 27.041984997849955], [120.28064361941063, 27.041805334793132], [120.2804639563538, 27.041805334793132], [120.2804639563538, 27.041984997849955], [120.28028429329697, 27.041984997849955], [120.28028429329697, 27.042164660906778], [120.28010463024015, 27.042164660906778], [120.28010463024015, 27.042344323963604], [120.27992496718333, 27.042344323963604], [120.27992496718333, 27.042523987020427], [120.27974530412651, 27.042523987020427]]]}, "properties": {"name": "cand05", "ptype": "hall", "confidence": "low", "rank": 5, "area_ha": 3.5, "rise_db": 6.2, "digitised_from": "Sentinel-1 VV rise 2022->2026, orbit 69"}}, {"type": "Feature", "geometry": {"geodesic": false, "type": "Polygon", "coordinates": [[[120.25441281311433, 27.06426321689612], [120.25441281311433, 27.064083553839296], [120.25423315005752, 27.064083553839296], [120.25423315005752, 27.06390389078247], [120.25405348700069, 27.06390389078247], [120.25405348700069, 27.063724227725647], [120.25387382394386, 27.063724227725647], [120.25387382394386, 27.06390389078247], [120.25369416088704, 27.06390389078247], [120.25369416088704, 27.064083553839296], [120.25351449783021, 27.064083553839296], [120.25351449783021, 27.06390389078247], [120.25315517171657, 27.06390389078247], [120.25315517171657, 27.064083553839296], [120.25297550865974, 27.064083553839296], [120.25297550865974, 27.06426321689612], [120.25243651948927, 27.06426321689612], [120.25243651948927, 27.064083553839296], [120.25207719337563, 27.064083553839296], [120.25207719337563, 27.063724227725647], [120.25297550865974, 27.063724227725647], [120.25297550865974, 27.06390389078247], [120.25315517171657, 27.06390389078247], [120.25315517171657, 27.063724227725647], [120.25351449783021, 27.063724227725647], [120.25351449783021, 27.063544564668824], [120.25369416088704, 27.063544564668824], [120.25369416088704, 27.063364901612], [120.25387382394386, 27.063364901612], [120.25387382394386, 27.06300557549835], [120.25261618254609, 27.06300557549835], [120.25261618254609, 27.06282591244153], [120.25243651948927, 27.06282591244153], [120.25243651948927, 27.062646249384706], [120.25297550865974, 27.062646249384706], [120.25297550865974, 27.06246658632788], [120.25405348700069, 27.06246658632788], [120.25405348700069, 27.062286923271056], [120.25441281311433, 27.062286923271056], [120.25441281311433, 27.06246658632788], [120.25459247617115, 27.06246658632788], [120.25459247617115, 27.06282591244153], [120.25477213922798, 27.06282591244153], [120.25477213922798, 27.063185238555175], [120.25495180228481, 27.063185238555175], [120.25495180228481, 27.063364901612], [120.25477213922798, 27.063364901612], [120.25477213922798, 27.06426321689612], [120.25441281311433, 27.06426321689612]]]}, "properties": {"name": "cand06", "ptype": "hall", "confidence": "low", "rank": 6, "area_ha": 3.5, "rise_db": 5.5, "digitised_from": "Sentinel-1 VV rise 2022->2026, orbit 69"}}, {"type": "Feature", "geometry": {"geodesic": false, "type": "Polygon", "coordinates": [[[120.25153820420515, 27.05923265130505], [120.25153820420515, 27.059052988248226], [120.25135854114833, 27.059052988248226], [120.25135854114833, 27.05869366213458], [120.25099921503468, 27.05869366213458], [120.25099921503468, 27.059052988248226], [120.2504602258642, 27.059052988248226], [120.2504602258642, 27.058873325191403], [120.25028056280739, 27.058873325191403], [120.25028056280739, 27.05869366213458], [120.25010089975056, 27.05869366213458], [120.25010089975056, 27.058513999077753], [120.24992123669374, 27.058513999077753], [120.24992123669374, 27.05833433602093], [120.24974157363691, 27.05833433602093], [120.24974157363691, 27.05797500990728], [120.24992123669374, 27.05797500990728], [120.24992123669374, 27.057795346850458], [120.25010089975056, 27.057795346850458], [120.25010089975056, 27.057615683793635], [120.25099921503468, 27.057615683793635], [120.25099921503468, 27.057795346850458], [120.25117887809151, 27.057795346850458], [120.25117887809151, 27.058154672964108], [120.25135854114833, 27.058154672964108], [120.25135854114833, 27.05833433602093], [120.25117887809151, 27.05833433602093], [120.25117887809151, 27.058513999077753], [120.25171786726197, 27.058513999077753], [120.25171786726197, 27.05923265130505], [120.25153820420515, 27.05923265130505]]]}, "properties": {"name": "cand07", "ptype": "hall", "confidence": "low", "rank": 7, "area_ha": 2.3, "rise_db": 8.3, "digitised_from": "Sentinel-1 VV rise 2022->2026, orbit 69"}}, {"type": "Feature", "geometry": {"geodesic": false, "type": "Polygon", "coordinates": [[[120.28082328246745, 27.04539859592961], [120.28082328246745, 27.045218932872785], [120.28064361941063, 27.045218932872785], [120.28064361941063, 27.044859606759136], [120.2804639563538, 27.044859606759136], [120.2804639563538, 27.044679943702313], [120.27992496718333, 27.044679943702313], [120.27992496718333, 27.04450028064549], [120.27974530412651, 27.04450028064549], [120.27974530412651, 27.044320617588667], [120.27956564106968, 27.044320617588667], [120.27956564106968, 27.04414095453184], [120.27974530412651, 27.04414095453184], [120.27974530412651, 27.043961291475018], [120.28064361941063, 27.043961291475018], [120.28064361941063, 27.04414095453184], [120.28154193469474, 27.04414095453184], [120.28154193469474, 27.044320617588667], [120.28172159775157, 27.044320617588667], [120.28172159775157, 27.04450028064549], [120.28154193469474, 27.04450028064549], [120.28154193469474, 27.044679943702313], [120.28136227163792, 27.044679943702313], [120.28136227163792, 27.044859606759136], [120.28100294552428, 27.044859606759136], [120.28100294552428, 27.045039269815963], [120.28082328246745, 27.045039269815963], [120.28082328246745, 27.045218932872785], [120.28100294552428, 27.045218932872785], [120.28100294552428, 27.04539859592961], [120.28082328246745, 27.04539859592961]]]}, "properties": {"name": "cand08", "ptype": "hall", "confidence": "low", "rank": 8, "area_ha": 1.8, "rise_db": 6.8, "digitised_from": "Sentinel-1 VV rise 2022->2026, orbit 69"}}, {"type": "Feature", "geometry": {"geodesic": false, "type": "Polygon", "coordinates": [[[120.28657250028581, 27.041446008679483], [120.28657250028581, 27.04126634562266], [120.28639283722899, 27.04126634562266], [120.28639283722899, 27.04036803033854], [120.28657250028581, 27.04036803033854], [120.28657250028581, 27.040008704224892], [120.28693182639947, 27.040008704224892], [120.28693182639947, 27.040188367281715], [120.28711148945628, 27.040188367281715], [120.28711148945628, 27.04090701950901], [120.2872911525131, 27.04090701950901], [120.2872911525131, 27.041086682565837], [120.28747081556993, 27.041086682565837], [120.28747081556993, 27.04090701950901], [120.28765047862676, 27.04090701950901], [120.28765047862676, 27.041446008679483], [120.28657250028581, 27.041446008679483]]]}, "properties": {"name": "cand09", "ptype": "hall", "confidence": "low", "rank": 9, "area_ha": 1.4, "rise_db": 12.5, "digitised_from": "Sentinel-1 VV rise 2022->2026, orbit 69"}}, {"type": "Feature", "geometry": {"geodesic": false, "type": "Polygon", "coordinates": [[[120.28226058692204, 27.04629691121373], [120.28226058692204, 27.046117248156904], [120.2819012608084, 27.046117248156904], [120.2819012608084, 27.04593758510008], [120.28172159775157, 27.04593758510008], [120.28172159775157, 27.045757922043258], [120.2819012608084, 27.045757922043258], [120.2819012608084, 27.045578258986435], [120.28208092386521, 27.045578258986435], [120.28208092386521, 27.04539859592961], [120.28226058692204, 27.04539859592961], [120.28226058692204, 27.044679943702313], [120.28279957609251, 27.044679943702313], [120.28279957609251, 27.044859606759136], [120.28297923914934, 27.044859606759136], [120.28297923914934, 27.045218932872785], [120.28279957609251, 27.045218932872785], [120.28279957609251, 27.04539859592961], [120.28261991303569, 27.04539859592961], [120.28261991303569, 27.046117248156904], [120.28244024997886, 27.046117248156904], [120.28244024997886, 27.04629691121373], [120.28226058692204, 27.04629691121373]]]}, "properties": {"name": "cand10", "ptype": "hall", "confidence": "low", "rank": 10, "area_ha": 1.2, "rise_db": 7.9, "digitised_from": "Sentinel-1 VV rise 2022->2026, orbit 69"}}, {"type": "Feature", "geometry": {"geodesic": false, "type": "Polygon", "coordinates": [[[120.27561305381955, 27.046656237327376], [120.27561305381955, 27.046476574270553], [120.27543339076273, 27.046476574270553], [120.27543339076273, 27.046117248156904], [120.2752537277059, 27.046117248156904], [120.2752537277059, 27.04593758510008], [120.27507406464909, 27.04593758510008], [120.27507406464909, 27.046117248156904], [120.27489440159226, 27.046117248156904], [120.27489440159226, 27.04629691121373], [120.27471473853544, 27.04629691121373], [120.27471473853544, 27.04593758510008], [120.27489440159226, 27.04593758510008], [120.27489440159226, 27.045757922043258], [120.2752537277059, 27.045757922043258], [120.2752537277059, 27.045578258986435], [120.27561305381955, 27.045578258986435], [120.27561305381955, 27.04593758510008], [120.27579271687638, 27.04593758510008], [120.27579271687638, 27.046117248156904], [120.27597237993321, 27.046117248156904], [120.27597237993321, 27.04629691121373], [120.27651136910367, 27.04629691121373], [120.27651136910367, 27.046117248156904], [120.2766910321605, 27.046117248156904], [120.2766910321605, 27.04629691121373], [120.27687069521733, 27.04629691121373], [120.27687069521733, 27.046476574270553], [120.27615204299002, 27.046476574270553], [120.27615204299002, 27.046656237327376], [120.27561305381955, 27.046656237327376]]]}, "properties": {"name": "cand11", "ptype": "hall", "confidence": "low", "rank": 11, "area_ha": 1.1, "rise_db": 6.1, "digitised_from": "Sentinel-1 VV rise 2022->2026, orbit 69"}}]}