{"type": "FeatureCollection", "features": [{"type": "Feature", "geometry": {"geodesic": false, "type": "Polygon", "coordinates": [[[121.29484157518156, 39.42651883083533], [121.29484157518156, 39.42615950472168], [121.29448224906791, 39.42615950472168], [121.29448224906791, 39.42508152638074], [121.2943025860111, 39.42508152638074], [121.2943025860111, 39.42490186332391], [121.29376359684062, 39.42490186332391], [121.29376359684062, 39.424722200267084], [121.2935839337838, 39.424722200267084], [121.2935839337838, 39.424542537210264], [121.29340427072697, 39.424542537210264], [121.29340427072697, 39.424722200267084], [121.29322460767015, 39.424722200267084], [121.29322460767015, 39.424542537210264], [121.29340427072697, 39.424542537210264], [121.29340427072697, 39.42436287415344], [121.29322460767015, 39.42436287415344], [121.29322460767015, 39.42418321109662], [121.29304494461333, 39.42418321109662], [121.29304494461333, 39.42400354803979], [121.29322460767015, 39.42400354803979], [121.29322460767015, 39.423823884982966], [121.2928652815565, 39.423823884982966], [121.2928652815565, 39.423644221926146], [121.29268561849968, 39.423644221926146], [121.29268561849968, 39.42328489581249], [121.29232629238604, 39.42328489581249], [121.29232629238604, 39.423105232755674], [121.29250595544285, 39.423105232755674], [121.29250595544285, 39.42292556969885], [121.2928652815565, 39.42292556969885], [121.2928652815565, 39.42274590664202], [121.29214662932921, 39.42274590664202], [121.29214662932921, 39.422386580528375], [121.29160764015873, 39.422386580528375], [121.29160764015873, 39.422206917471556], [121.2914279771019, 39.422206917471556], [121.2914279771019, 39.42202725441473], [121.29124831404509, 39.42202725441473], [121.29124831404509, 39.4218475913579], [121.29106865098827, 39.4218475913579], [121.29106865098827, 39.42148826524426], [121.29088898793144, 39.42148826524426], [121.29088898793144, 39.42130860218743], [121.29070932487461, 39.42130860218743], [121.29070932487461, 39.42112893913061], [121.29052966181779, 39.42112893913061], [121.29052966181779, 39.420949276073785], [121.29034999876097, 39.420949276073785], [121.29034999876097, 39.42076961301696], [121.29017033570415, 39.42076961301696], [121.29017033570415, 39.42041028690331], [121.29052966181779, 39.42041028690331], [121.29052966181779, 39.42023062384649], [121.29034999876097, 39.42023062384649], [121.29034999876097, 39.420050960789666], [121.29017033570415, 39.420050960789666], [121.29017033570415, 39.41987129773284], [121.2898110095905, 39.41987129773284], [121.2898110095905, 39.420050960789666], [121.28945168347684, 39.420050960789666], [121.28945168347684, 39.41987129773284], [121.28927202042003, 39.41987129773284], [121.28927202042003, 39.41969163467602], [121.2890923573632, 39.41969163467602], [121.2890923573632, 39.419511971619194], [121.28891269430638, 39.419511971619194], [121.28891269430638, 39.41897298244872], [121.2890923573632, 39.41897298244872], [121.2890923573632, 39.418793319391895], [121.28837370513591, 39.418793319391895], [121.28837370513591, 39.418613656335076], [121.28819404207908, 39.418613656335076], [121.28819404207908, 39.41843399327825], [121.28801437902226, 39.41843399327825], [121.28801437902226, 39.41825433022143], [121.2876550529086, 39.41825433022143], [121.2876550529086, 39.4180746671646], [121.28801437902226, 39.4180746671646], [121.28801437902226, 39.41789500410778], [121.28837370513591, 39.41789500410778], [121.28837370513591, 39.41771534105096], [121.28927202042003, 39.41771534105096], [121.28927202042003, 39.417176351880485], [121.28963134653367, 39.417176351880485], [121.28963134653367, 39.41699668882366], [121.2898110095905, 39.41699668882366], [121.2898110095905, 39.41681702576683], [121.28999067264732, 39.41681702576683], [121.28999067264732, 39.41699668882366], [121.29088898793144, 39.41699668882366], [121.29088898793144, 39.41663736271001], [121.29106865098827, 39.41663736271001], [121.29106865098827, 39.41627803659637], [121.2914279771019, 39.41627803659637], [121.2914279771019, 39.41609837353954], [121.29178730321556, 39.41609837353954], [121.29178730321556, 39.41627803659637], [121.29214662932921, 39.41627803659637], [121.29214662932921, 39.41663736271001], [121.29196696627238, 39.41663736271001], [121.29196696627238, 39.417176351880485], [121.29232629238604, 39.417176351880485], [121.29232629238604, 39.41681702576683], [121.2928652815565, 39.41681702576683], [121.2928652815565, 39.41663736271001], [121.29304494461333, 39.41663736271001], [121.29304494461333, 39.416457699653186], [121.29322460767015, 39.416457699653186], [121.29322460767015, 39.41609837353954], [121.29304494461333, 39.41609837353954], [121.29304494461333, 39.415739047425895], [121.29322460767015, 39.415739047425895], [121.29322460767015, 39.41555938436907], [121.2935839337838, 39.41555938436907], [121.2935839337838, 39.41537972131224], [121.29394325989745, 39.41537972131224], [121.29394325989745, 39.41555938436907], [121.2943025860111, 39.41555938436907], [121.2943025860111, 39.41537972131224], [121.29448224906791, 39.41537972131224], [121.29448224906791, 39.41520005825542], [121.2943025860111, 39.41520005825542], [121.2943025860111, 39.415020395198596], [121.29412292295427, 39.415020395198596], [121.29412292295427, 39.41484073214177], [121.2943025860111, 39.41484073214177], [121.2943025860111, 39.414301742971304], [121.29448224906791, 39.414301742971304], [121.29448224906791, 39.41412207991448], [121.29502123823839, 39.41412207991448], [121.29502123823839, 39.414301742971304], [121.29520090129522, 39.414301742971304], [121.29520090129522, 39.41448140602812], [121.29591955352251, 39.41448140602812], [121.29591955352251, 39.414301742971304], [121.29573989046568, 39.414301742971304], [121.29573989046568, 39.41412207991448], [121.29591955352251, 39.41412207991448], [121.29591955352251, 39.41394241685765], [121.29645854269297, 39.41394241685765], [121.29645854269297, 39.41376275380083], [121.2966382057498, 39.41376275380083], [121.2966382057498, 39.413583090744005], [121.29699753186345, 39.413583090744005], [121.29699753186345, 39.41376275380083], [121.29735685797709, 39.41376275380083], [121.29735685797709, 39.413583090744005], [121.29753652103392, 39.413583090744005], [121.29753652103392, 39.41322376463036], [121.29735685797709, 39.41322376463036], [121.29735685797709, 39.412864438516706], [121.29717719492028, 39.412864438516706], [121.29717719492028, 39.41268477545989], [121.29771618409075, 39.41268477545989], [121.29771618409075, 39.412864438516706], [121.29789584714757, 39.412864438516706], [121.29789584714757, 39.41304410157353], [121.2980755102044, 39.41304410157353], [121.2980755102044, 39.41322376463036], [121.29825517326123, 39.41322376463036], [121.29825517326123, 39.413583090744005], [121.29861449937486, 39.413583090744005], [121.29861449937486, 39.41376275380083], [121.29879416243169, 39.41376275380083], [121.29879416243169, 39.41394241685765], [121.29897382548852, 39.41394241685765], [121.29897382548852, 39.41412207991448], [121.29915348854534, 39.41412207991448], [121.29915348854534, 39.414301742971304], [121.29951281465898, 39.414301742971304], [121.29951281465898, 39.41448140602812], [121.29969247771581, 39.41448140602812], [121.29969247771581, 39.41466106908495], [121.29987214077264, 39.41466106908495], [121.29987214077264, 39.41484073214177], [121.30005180382946, 39.41484073214177], [121.30005180382946, 39.41520005825542], [121.30023146688629, 39.41520005825542], [121.30023146688629, 39.41537972131224], [121.3004111299431, 39.41537972131224], [121.3004111299431, 39.41555938436907], [121.30059079299993, 39.41555938436907], [121.30059079299993, 39.415739047425895], [121.30095011911358, 39.415739047425895], [121.30095011911358, 39.415918710482714], [121.3011297821704, 39.415918710482714], [121.3011297821704, 39.41609837353954], [121.30130944522722, 39.41609837353954], [121.30130944522722, 39.416457699653186], [121.30148910828404, 39.416457699653186], [121.30148910828404, 39.41663736271001], [121.30166877134087, 39.41663736271001], [121.30166877134087, 39.41681702576683], [121.30202809745452, 39.41681702576683], [121.30202809745452, 39.41753567799413], [121.30220776051135, 39.41753567799413], [121.30220776051135, 39.41789500410778], [121.30256708662499, 39.41789500410778], [121.30256708662499, 39.4180746671646], [121.30274674968182, 39.4180746671646], [121.30274674968182, 39.41825433022143], [121.30256708662499, 39.41825433022143], [121.30256708662499, 39.418613656335076], [121.30238742356816, 39.418613656335076], [121.30238742356816, 39.418793319391895], [121.30292641273864, 39.418793319391895], [121.30292641273864, 39.41897298244872], [121.30310607579547, 39.41897298244872], [121.30310607579547, 39.41915264550555], [121.30328573885228, 39.41915264550555], [121.30328573885228, 39.419511971619194], [121.30364506496593, 39.419511971619194], [121.30364506496593, 39.41969163467602], [121.30346540190911, 39.41969163467602], [121.30346540190911, 39.41987129773284], [121.30328573885228, 39.41987129773284], [121.30328573885228, 39.42023062384649], [121.30346540190911, 39.42023062384649], [121.30346540190911, 39.42041028690331], [121.30418405413641, 39.42041028690331], [121.30418405413641, 39.42076961301696], [121.30400439107959, 39.42076961301696], [121.30400439107959, 39.42058994996014], [121.30382472802276, 39.42058994996014], [121.30382472802276, 39.42076961301696], [121.30364506496593, 39.42076961301696], [121.30364506496593, 39.420949276073785], [121.30400439107959, 39.420949276073785], [121.30400439107959, 39.42112893913061], [121.30382472802276, 39.42112893913061], [121.30382472802276, 39.42130860218743], [121.30364506496593, 39.42130860218743], [121.30364506496593, 39.42112893913061], [121.30328573885228, 39.42112893913061], [121.30328573885228, 39.420949276073785], [121.30346540190911, 39.420949276073785], [121.30346540190911, 39.42076961301696], [121.30328573885228, 39.42076961301696], [121.30328573885228, 39.42058994996014], [121.30310607579547, 39.42058994996014], [121.30310607579547, 39.42076961301696], [121.30274674968182, 39.42076961301696], [121.30274674968182, 39.420949276073785], [121.30238742356816, 39.420949276073785], [121.30238742356816, 39.42112893913061], [121.30202809745452, 39.42112893913061], [121.30202809745452, 39.42130860218743], [121.30148910828404, 39.42130860218743], [121.30148910828404, 39.42148826524426], [121.30130944522722, 39.42148826524426], [121.30130944522722, 39.4218475913579], [121.3011297821704, 39.4218475913579], [121.3011297821704, 39.422386580528375], [121.30130944522722, 39.422386580528375], [121.30130944522722, 39.422206917471556], [121.30148910828404, 39.422206917471556], [121.30148910828404, 39.422386580528375], [121.30166877134087, 39.422386580528375], [121.30166877134087, 39.4225662435852], [121.3018484343977, 39.4225662435852], [121.3018484343977, 39.422386580528375], [121.30202809745452, 39.422386580528375], [121.30202809745452, 39.42274590664202], [121.3018484343977, 39.42274590664202], [121.3018484343977, 39.42292556969885], [121.30202809745452, 39.42292556969885], [121.30202809745452, 39.423105232755674], [121.30220776051135, 39.423105232755674], [121.30220776051135, 39.42328489581249], [121.30238742356816, 39.42328489581249], [121.30238742356816, 39.42346455886932], [121.30256708662499, 39.42346455886932], [121.30256708662499, 39.423644221926146], [121.30292641273864, 39.423644221926146], [121.30292641273864, 39.423823884982966], [121.30274674968182, 39.423823884982966], [121.30274674968182, 39.42400354803979], [121.30310607579547, 39.42400354803979], [121.30310607579547, 39.423823884982966], [121.30328573885228, 39.423823884982966], [121.30328573885228, 39.42400354803979], [121.30346540190911, 39.42400354803979], [121.30346540190911, 39.42418321109662], [121.30328573885228, 39.42418321109662], [121.30328573885228, 39.42436287415344], [121.30310607579547, 39.42436287415344], [121.30310607579547, 39.424542537210264], [121.30274674968182, 39.424542537210264], [121.30274674968182, 39.424722200267084], [121.30256708662499, 39.424722200267084], [121.30256708662499, 39.424542537210264], [121.30274674968182, 39.424542537210264], [121.30274674968182, 39.42436287415344], [121.30256708662499, 39.42436287415344], [121.30256708662499, 39.42418321109662], [121.30238742356816, 39.42418321109662], [121.30238742356816, 39.42400354803979], [121.30202809745452, 39.42400354803979], [121.30202809745452, 39.42418321109662], [121.3018484343977, 39.42418321109662], [121.3018484343977, 39.42436287415344], [121.30166877134087, 39.42436287415344], [121.30166877134087, 39.42400354803979], [121.3018484343977, 39.42400354803979], [121.3018484343977, 39.423823884982966], [121.30202809745452, 39.423823884982966], [121.30202809745452, 39.423644221926146], [121.30148910828404, 39.423644221926146], [121.30148910828404, 39.42346455886932], [121.30166877134087, 39.42346455886932], [121.30166877134087, 39.42328489581249], [121.30095011911358, 39.42328489581249], [121.30095011911358, 39.42346455886932], [121.30077045605675, 39.42346455886932], [121.30077045605675, 39.42328489581249], [121.30059079299993, 39.42328489581249], [121.30059079299993, 39.423105232755674], [121.3004111299431, 39.423105232755674], [121.3004111299431, 39.42328489581249], [121.30005180382946, 39.42328489581249], [121.30005180382946, 39.42346455886932], [121.29987214077264, 39.42346455886932], [121.29987214077264, 39.423644221926146], [121.29969247771581, 39.423644221926146], [121.29969247771581, 39.423823884982966], [121.29933315160216, 39.423823884982966], [121.29933315160216, 39.42400354803979], [121.29915348854534, 39.42400354803979], [121.29915348854534, 39.42418321109662], [121.29897382548852, 39.42418321109662], [121.29897382548852, 39.42436287415344], [121.29879416243169, 39.42436287415344], [121.29879416243169, 39.424722200267084], [121.29933315160216, 39.424722200267084], [121.29933315160216, 39.42508152638074], [121.29915348854534, 39.42508152638074], [121.29915348854534, 39.425261189437556], [121.29879416243169, 39.425261189437556], [121.29879416243169, 39.42508152638074], [121.29861449937486, 39.42508152638074], [121.29861449937486, 39.42490186332391], [121.29879416243169, 39.42490186332391], [121.29879416243169, 39.424722200267084], [121.29861449937486, 39.424722200267084], [121.29861449937486, 39.424542537210264], [121.29843483631804, 39.424542537210264], [121.29843483631804, 39.42436287415344], [121.29825517326123, 39.42436287415344], [121.29825517326123, 39.42418321109662], [121.29789584714757, 39.42418321109662], [121.29789584714757, 39.42400354803979], [121.29771618409075, 39.42400354803979], [121.29771618409075, 39.423644221926146], [121.29735685797709, 39.423644221926146], [121.29735685797709, 39.423823884982966], [121.29699753186345, 39.423823884982966], [121.29699753186345, 39.42418321109662], [121.29681786880663, 39.42418321109662], [121.29681786880663, 39.424542537210264], [121.29699753186345, 39.424542537210264], [121.29699753186345, 39.42490186332391], [121.29681786880663, 39.42490186332391], [121.29681786880663, 39.424722200267084], [121.29520090129522, 39.424722200267084], [121.29520090129522, 39.42490186332391], [121.29502123823839, 39.42490186332391], [121.29502123823839, 39.425261189437556], [121.29520090129522, 39.425261189437556], [121.29520090129522, 39.42580017860803], [121.29502123823839, 39.42580017860803], [121.29502123823839, 39.425979841664855], [121.29484157518156, 39.425979841664855], [121.29484157518156, 39.42615950472168], [121.29538056435203, 39.42615950472168], [121.29538056435203, 39.42651883083533], [121.29484157518156, 39.42651883083533]], [[121.29861449937486, 39.414301742971304], [121.29825517326123, 39.414301742971304], [121.29825517326123, 39.41412207991448], [121.2980755102044, 39.41412207991448], [121.2980755102044, 39.41394241685765], [121.29789584714757, 39.41394241685765], [121.29789584714757, 39.413583090744005], [121.29825517326123, 39.413583090744005], [121.29825517326123, 39.41394241685765], [121.29843483631804, 39.41394241685765], [121.29843483631804, 39.41412207991448], [121.29861449937486, 39.41412207991448], [121.29861449937486, 39.414301742971304]], [[121.29466191212474, 39.41448140602812], [121.29448224906791, 39.41448140602812], [121.29448224906791, 39.414301742971304], [121.29466191212474, 39.414301742971304], [121.29466191212474, 39.41448140602812]], [[121.29627887963616, 39.41466106908495], [121.29591955352251, 39.41466106908495], [121.29591955352251, 39.41448140602812], [121.29627887963616, 39.41448140602812], [121.29627887963616, 39.41466106908495]], [[121.29825517326123, 39.41484073214177], [121.29789584714757, 39.41484073214177], [121.29789584714757, 39.41466106908495], [121.29825517326123, 39.41466106908495], [121.29825517326123, 39.41484073214177]], [[121.29448224906791, 39.415020395198596], [121.2943025860111, 39.415020395198596], [121.2943025860111, 39.41484073214177], [121.29448224906791, 39.41484073214177], [121.29448224906791, 39.415020395198596]], [[121.29933315160216, 39.41520005825542], [121.29915348854534, 39.41520005825542], [121.29915348854534, 39.415020395198596], [121.29897382548852, 39.415020395198596], [121.29897382548852, 39.41484073214177], [121.29933315160216, 39.41484073214177], [121.29933315160216, 39.41520005825542]], [[121.29951281465898, 39.41537972131224], [121.29933315160216, 39.41537972131224], [121.29933315160216, 39.41520005825542], [121.29951281465898, 39.41520005825542], [121.29951281465898, 39.41537972131224]], [[121.29520090129522, 39.41555938436907], [121.29484157518156, 39.41555938436907], [121.29484157518156, 39.41537972131224], [121.29466191212474, 39.41537972131224], [121.29466191212474, 39.41520005825542], [121.29502123823839, 39.41520005825542], [121.29502123823839, 39.41537972131224], [121.29520090129522, 39.41537972131224], [121.29520090129522, 39.41555938436907]], [[121.29681786880663, 39.41555938436907], [121.2966382057498, 39.41555938436907], [121.2966382057498, 39.415020395198596], [121.29645854269297, 39.415020395198596], [121.29645854269297, 39.41484073214177], [121.29681786880663, 39.41484073214177], [121.29681786880663, 39.41555938436907]], [[121.29538056435203, 39.415918710482714], [121.29520090129522, 39.415918710482714], [121.29520090129522, 39.415739047425895], [121.29538056435203, 39.415739047425895], [121.29538056435203, 39.415918710482714]], [[121.29771618409075, 39.41609837353954], [121.29753652103392, 39.41609837353954], [121.29753652103392, 39.415918710482714], [121.29735685797709, 39.415918710482714], [121.29735685797709, 39.415739047425895], [121.29771618409075, 39.415739047425895], [121.29771618409075, 39.41609837353954]], [[121.29969247771581, 39.41627803659637], [121.29843483631804, 39.41627803659637], [121.29843483631804, 39.415918710482714], [121.29861449937486, 39.415918710482714], [121.29861449937486, 39.415739047425895], [121.29933315160216, 39.415739047425895], [121.29933315160216, 39.41555938436907], [121.29951281465898, 39.41555938436907], [121.29951281465898, 39.41537972131224], [121.29969247771581, 39.41537972131224], [121.29969247771581, 39.41555938436907], [121.30005180382946, 39.41555938436907], [121.30005180382946, 39.415918710482714], [121.29987214077264, 39.415918710482714], [121.29987214077264, 39.41609837353954], [121.29969247771581, 39.41609837353954], [121.29969247771581, 39.41627803659637]], [[121.29771618409075, 39.41681702576683], [121.29753652103392, 39.41681702576683], [121.29753652103392, 39.41663736271001], [121.29771618409075, 39.41663736271001], [121.29771618409075, 39.41681702576683]], [[121.29681786880663, 39.41699668882366], [121.29609921657934, 39.41699668882366], [121.29609921657934, 39.41681702576683], [121.29591955352251, 39.41681702576683], [121.29591955352251, 39.41627803659637], [121.29645854269297, 39.41627803659637], [121.29645854269297, 39.416457699653186], [121.2966382057498, 39.416457699653186], [121.2966382057498, 39.41663736271001], [121.29681786880663, 39.41663736271001], [121.29681786880663, 39.41699668882366]], [[121.29753652103392, 39.41699668882366], [121.29735685797709, 39.41699668882366], [121.29735685797709, 39.41681702576683], [121.29753652103392, 39.41681702576683], [121.29753652103392, 39.41699668882366]], [[121.2980755102044, 39.41699668882366], [121.29771618409075, 39.41699668882366], [121.29771618409075, 39.41681702576683], [121.2980755102044, 39.41681702576683], [121.2980755102044, 39.41699668882366]], [[121.2914279771019, 39.417176351880485], [121.29124831404509, 39.417176351880485], [121.29124831404509, 39.41699668882366], [121.2914279771019, 39.41699668882366], [121.2914279771019, 39.417176351880485]], [[121.29735685797709, 39.417176351880485], [121.29717719492028, 39.417176351880485], [121.29717719492028, 39.41699668882366], [121.29735685797709, 39.41699668882366], [121.29735685797709, 39.417176351880485]], [[121.30059079299993, 39.417356014937305], [121.30023146688629, 39.417356014937305], [121.30023146688629, 39.41627803659637], [121.30059079299993, 39.41627803659637], [121.30059079299993, 39.416457699653186], [121.30077045605675, 39.416457699653186], [121.30077045605675, 39.41663736271001], [121.30095011911358, 39.41663736271001], [121.30095011911358, 39.41699668882366], [121.30077045605675, 39.41699668882366], [121.30077045605675, 39.417176351880485], [121.30059079299993, 39.417176351880485], [121.30059079299993, 39.417356014937305]], [[121.29879416243169, 39.41753567799413], [121.29861449937486, 39.41753567799413], [121.29861449937486, 39.417356014937305], [121.29879416243169, 39.417356014937305], [121.29879416243169, 39.41753567799413]], [[121.29484157518156, 39.41771534105096], [121.29466191212474, 39.41771534105096], [121.29466191212474, 39.41753567799413], [121.29484157518156, 39.41753567799413], [121.29484157518156, 39.41771534105096]], [[121.30148910828404, 39.41771534105096], [121.30130944522722, 39.41771534105096], [121.30130944522722, 39.41753567799413], [121.3011297821704, 39.41753567799413], [121.3011297821704, 39.417176351880485], [121.30130944522722, 39.417176351880485], [121.30130944522722, 39.417356014937305], [121.30148910828404, 39.417356014937305], [121.30148910828404, 39.41771534105096]], [[121.29340427072697, 39.41789500410778], [121.29322460767015, 39.41789500410778], [121.29322460767015, 39.41753567799413], [121.29304494461333, 39.41753567799413], [121.29304494461333, 39.417356014937305], [121.29322460767015, 39.417356014937305], [121.29322460767015, 39.417176351880485], [121.2935839337838, 39.417176351880485], [121.2935839337838, 39.41771534105096], [121.29340427072697, 39.41771534105096], [121.29340427072697, 39.41789500410778]], [[121.2966382057498, 39.41789500410778], [121.29573989046568, 39.41789500410778], [121.29573989046568, 39.41771534105096], [121.29609921657934, 39.41771534105096], [121.29609921657934, 39.417356014937305], [121.29645854269297, 39.417356014937305], [121.29645854269297, 39.41771534105096], [121.2966382057498, 39.41771534105096], [121.2966382057498, 39.41789500410778]], [[121.29861449937486, 39.41789500410778], [121.29843483631804, 39.41789500410778], [121.29843483631804, 39.41771534105096], [121.29861449937486, 39.41771534105096], [121.29861449937486, 39.41789500410778]], [[121.30166877134087, 39.41789500410778], [121.30148910828404, 39.41789500410778], [121.30148910828404, 39.41771534105096], [121.30166877134087, 39.41771534105096], [121.30166877134087, 39.41789500410778]], [[121.29753652103392, 39.41825433022143], [121.29717719492028, 39.41825433022143], [121.29717719492028, 39.4180746671646], [121.29699753186345, 39.4180746671646], [121.29699753186345, 39.41789500410778], [121.29681786880663, 39.41789500410778], [121.29681786880663, 39.41753567799413], [121.29699753186345, 39.41753567799413], [121.29699753186345, 39.41771534105096], [121.29717719492028, 39.41771534105096], [121.29717719492028, 39.41789500410778], [121.29735685797709, 39.41789500410778], [121.29735685797709, 39.4180746671646], [121.29753652103392, 39.4180746671646], [121.29753652103392, 39.41825433022143]], [[121.29017033570415, 39.418793319391895], [121.2898110095905, 39.418793319391895], [121.2898110095905, 39.418613656335076], [121.29017033570415, 39.418613656335076], [121.29017033570415, 39.418793319391895]], [[121.2943025860111, 39.418793319391895], [121.29340427072697, 39.418793319391895], [121.29340427072697, 39.418613656335076], [121.29250595544285, 39.418613656335076], [121.29250595544285, 39.41843399327825], [121.29268561849968, 39.41843399327825], [121.29268561849968, 39.41825433022143], [121.29394325989745, 39.41825433022143], [121.29394325989745, 39.41843399327825], [121.29412292295427, 39.41843399327825], [121.29412292295427, 39.41825433022143], [121.2943025860111, 39.41825433022143], [121.2943025860111, 39.4180746671646], [121.29448224906791, 39.4180746671646], [121.29448224906791, 39.41789500410778], [121.29484157518156, 39.41789500410778], [121.29484157518156, 39.4180746671646], [121.29502123823839, 39.4180746671646], [121.29502123823839, 39.41843399327825], [121.29484157518156, 39.41843399327825], [121.29484157518156, 39.418613656335076], [121.2943025860111, 39.418613656335076], [121.2943025860111, 39.418793319391895]], [[121.3018484343977, 39.418793319391895], [121.30077045605675, 39.418793319391895], [121.30077045605675, 39.418613656335076], [121.30059079299993, 39.418613656335076], [121.30059079299993, 39.41843399327825], [121.30077045605675, 39.41843399327825], [121.30077045605675, 39.41825433022143], [121.30202809745452, 39.41825433022143], [121.30202809745452, 39.418613656335076], [121.3018484343977, 39.418613656335076], [121.3018484343977, 39.418793319391895]], [[121.29717719492028, 39.41897298244872], [121.29681786880663, 39.41897298244872], [121.29681786880663, 39.418793319391895], [121.29717719492028, 39.418793319391895], [121.29717719492028, 39.41897298244872]], [[121.30005180382946, 39.41897298244872], [121.29987214077264, 39.41897298244872], [121.29987214077264, 39.418793319391895], [121.30005180382946, 39.418793319391895], [121.30005180382946, 39.41897298244872]], [[121.28999067264732, 39.41915264550555], [121.2898110095905, 39.41915264550555], [121.2898110095905, 39.41897298244872], [121.28999067264732, 39.41897298244872], [121.28999067264732, 39.41915264550555]], [[121.29124831404509, 39.41933230856237], [121.29088898793144, 39.41933230856237], [121.29088898793144, 39.41915264550555], [121.29124831404509, 39.41915264550555], [121.29124831404509, 39.41933230856237]], [[121.30292641273864, 39.41933230856237], [121.30274674968182, 39.41933230856237], [121.30274674968182, 39.41915264550555], [121.30292641273864, 39.41915264550555], [121.30292641273864, 39.41933230856237]], [[121.29304494461333, 39.419511971619194], [121.29232629238604, 39.419511971619194], [121.29232629238604, 39.41933230856237], [121.29196696627238, 39.41933230856237], [121.29196696627238, 39.419511971619194], [121.29178730321556, 39.419511971619194], [121.29178730321556, 39.41915264550555], [121.29232629238604, 39.41915264550555], [121.29232629238604, 39.41897298244872], [121.29268561849968, 39.41897298244872], [121.29268561849968, 39.41933230856237], [121.29304494461333, 39.41933230856237], [121.29304494461333, 39.419511971619194]], [[121.29879416243169, 39.419511971619194], [121.2980755102044, 39.419511971619194], [121.2980755102044, 39.41933230856237], [121.29789584714757, 39.41933230856237], [121.29789584714757, 39.41897298244872], [121.29825517326123, 39.41897298244872], [121.29825517326123, 39.41915264550555], [121.29843483631804, 39.41915264550555], [121.29843483631804, 39.41897298244872], [121.29861449937486, 39.41897298244872], [121.29861449937486, 39.41933230856237], [121.29879416243169, 39.41933230856237], [121.29879416243169, 39.419511971619194]], [[121.29933315160216, 39.419511971619194], [121.29897382548852, 39.419511971619194], [121.29897382548852, 39.41933230856237], [121.29915348854534, 39.41933230856237], [121.29915348854534, 39.41915264550555], [121.29969247771581, 39.41915264550555], [121.29969247771581, 39.41933230856237], [121.29933315160216, 39.41933230856237], [121.29933315160216, 39.419511971619194]], [[121.29556022740886, 39.41969163467602], [121.29538056435203, 39.41969163467602], [121.29538056435203, 39.419511971619194], [121.29556022740886, 39.419511971619194], [121.29556022740886, 39.41969163467602]], [[121.30274674968182, 39.41987129773284], [121.30238742356816, 39.41987129773284], [121.30238742356816, 39.41969163467602], [121.30274674968182, 39.41969163467602], [121.30274674968182, 39.41987129773284]], [[121.29412292295427, 39.420050960789666], [121.29376359684062, 39.420050960789666], [121.29376359684062, 39.41987129773284], [121.2935839337838, 39.41987129773284], [121.2935839337838, 39.41969163467602], [121.29340427072697, 39.41969163467602], [121.29340427072697, 39.41933230856237], [121.29376359684062, 39.41933230856237], [121.29376359684062, 39.419511971619194], [121.29394325989745, 39.419511971619194], [121.29394325989745, 39.41969163467602], [121.29412292295427, 39.41969163467602], [121.29412292295427, 39.420050960789666]], [[121.30130944522722, 39.420050960789666], [121.30095011911358, 39.420050960789666], [121.30095011911358, 39.41987129773284], [121.30130944522722, 39.41987129773284], [121.30130944522722, 39.420050960789666]], [[121.29088898793144, 39.42023062384649], [121.29052966181779, 39.42023062384649], [121.29052966181779, 39.41987129773284], [121.29088898793144, 39.41987129773284], [121.29088898793144, 39.41969163467602], [121.29070932487461, 39.41969163467602], [121.29070932487461, 39.419511971619194], [121.29106865098827, 39.419511971619194], [121.29106865098827, 39.41969163467602], [121.29124831404509, 39.41969163467602], [121.29124831404509, 39.41987129773284], [121.29106865098827, 39.41987129773284], [121.29106865098827, 39.420050960789666], [121.29088898793144, 39.420050960789666], [121.29088898793144, 39.42023062384649]], [[121.29681786880663, 39.42023062384649], [121.29645854269297, 39.42023062384649], [121.29645854269297, 39.420050960789666], [121.29681786880663, 39.420050960789666], [121.29681786880663, 39.42023062384649]], [[121.29861449937486, 39.42041028690331], [121.29735685797709, 39.42041028690331], [121.29735685797709, 39.420050960789666], [121.29771618409075, 39.420050960789666], [121.29771618409075, 39.41987129773284], [121.29843483631804, 39.41987129773284], [121.29843483631804, 39.42023062384649], [121.29861449937486, 39.42023062384649], [121.29861449937486, 39.42041028690331]], [[121.29681786880663, 39.42076961301696], [121.2966382057498, 39.42076961301696], [121.2966382057498, 39.42041028690331], [121.29681786880663, 39.42041028690331], [121.29681786880663, 39.42076961301696]], [[121.29951281465898, 39.42076961301696], [121.29915348854534, 39.42076961301696], [121.29915348854534, 39.42058994996014], [121.29897382548852, 39.42058994996014], [121.29897382548852, 39.42023062384649], [121.29915348854534, 39.42023062384649], [121.29915348854534, 39.42041028690331], [121.29951281465898, 39.42041028690331], [121.29951281465898, 39.42076961301696]], [[121.29556022740886, 39.42130860218743], [121.29520090129522, 39.42130860218743], [121.29520090129522, 39.42112893913061], [121.29448224906791, 39.42112893913061], [121.29448224906791, 39.420949276073785], [121.2943025860111, 39.420949276073785], [121.2943025860111, 39.42076961301696], [121.29448224906791, 39.42076961301696], [121.29448224906791, 39.42058994996014], [121.29502123823839, 39.42058994996014], [121.29502123823839, 39.42076961301696], [121.29520090129522, 39.42076961301696], [121.29520090129522, 39.420949276073785], [121.29591955352251, 39.420949276073785], [121.29591955352251, 39.42076961301696], [121.2966382057498, 39.42076961301696], [121.2966382057498, 39.420949276073785], [121.29645854269297, 39.420949276073785], [121.29645854269297, 39.42112893913061], [121.29556022740886, 39.42112893913061], [121.29556022740886, 39.42130860218743]], [[121.29933315160216, 39.42166792830108], [121.29915348854534, 39.42166792830108], [121.29915348854534, 39.42112893913061], [121.29951281465898, 39.42112893913061], [121.29951281465898, 39.42130860218743], [121.29969247771581, 39.42130860218743], [121.29969247771581, 39.42148826524426], [121.29933315160216, 39.42148826524426], [121.29933315160216, 39.42166792830108]], [[121.2935839337838, 39.4218475913579], [121.29304494461333, 39.4218475913579], [121.29304494461333, 39.42166792830108], [121.2935839337838, 39.42166792830108], [121.2935839337838, 39.4218475913579]], [[121.29556022740886, 39.4218475913579], [121.29538056435203, 39.4218475913579], [121.29538056435203, 39.42166792830108], [121.29556022740886, 39.42166792830108], [121.29556022740886, 39.4218475913579]], [[121.29502123823839, 39.422206917471556], [121.29484157518156, 39.422206917471556], [121.29484157518156, 39.42202725441473], [121.29412292295427, 39.42202725441473], [121.29412292295427, 39.4218475913579], [121.2943025860111, 39.4218475913579], [121.2943025860111, 39.42166792830108], [121.29412292295427, 39.42166792830108], [121.29412292295427, 39.42148826524426], [121.29502123823839, 39.42148826524426], [121.29502123823839, 39.4218475913579], [121.29520090129522, 39.4218475913579], [121.29520090129522, 39.42202725441473], [121.29502123823839, 39.42202725441473], [121.29502123823839, 39.422206917471556]], [[121.2935839337838, 39.422386580528375], [121.29340427072697, 39.422386580528375], [121.29340427072697, 39.422206917471556], [121.2935839337838, 39.422206917471556], [121.2935839337838, 39.422386580528375]], [[121.29609921657934, 39.422386580528375], [121.29573989046568, 39.422386580528375], [121.29573989046568, 39.42202725441473], [121.29609921657934, 39.42202725441473], [121.29609921657934, 39.422386580528375]], [[121.29645854269297, 39.422386580528375], [121.29627887963616, 39.422386580528375], [121.29627887963616, 39.422206917471556], [121.29645854269297, 39.422206917471556], [121.29645854269297, 39.422386580528375]], [[121.2935839337838, 39.42274590664202], [121.2928652815565, 39.42274590664202], [121.2928652815565, 39.4225662435852], [121.29304494461333, 39.4225662435852], [121.29304494461333, 39.422386580528375], [121.29340427072697, 39.422386580528375], [121.29340427072697, 39.4225662435852], [121.2935839337838, 39.4225662435852], [121.2935839337838, 39.42274590664202]], [[121.29627887963616, 39.42274590664202], [121.29609921657934, 39.42274590664202], [121.29609921657934, 39.4225662435852], [121.29627887963616, 39.4225662435852], [121.29627887963616, 39.42274590664202]], [[121.30148910828404, 39.42292556969885], [121.30130944522722, 39.42292556969885], [121.30130944522722, 39.42274590664202], [121.30148910828404, 39.42274590664202], [121.30148910828404, 39.42292556969885]], [[121.29987214077264, 39.423105232755674], [121.29969247771581, 39.423105232755674], [121.29969247771581, 39.42292556969885], [121.29933315160216, 39.42292556969885], [121.29933315160216, 39.42274590664202], [121.29951281465898, 39.42274590664202], [121.29951281465898, 39.4225662435852], [121.29969247771581, 39.4225662435852], [121.29969247771581, 39.422386580528375], [121.30059079299993, 39.422386580528375], [121.30059079299993, 39.42202725441473], [121.3004111299431, 39.42202725441473], [121.3004111299431, 39.42166792830108], [121.30095011911358, 39.42166792830108], [121.30095011911358, 39.42202725441473], [121.30077045605675, 39.42202725441473], [121.30077045605675, 39.4225662435852], [121.30059079299993, 39.4225662435852], [121.30059079299993, 39.42274590664202], [121.30005180382946, 39.42274590664202], [121.30005180382946, 39.42292556969885], [121.29987214077264, 39.42292556969885], [121.29987214077264, 39.423105232755674]], [[121.30130944522722, 39.423105232755674], [121.30095011911358, 39.423105232755674], [121.30095011911358, 39.42292556969885], [121.30130944522722, 39.42292556969885], [121.30130944522722, 39.423105232755674]], [[121.29969247771581, 39.42328489581249], [121.29951281465898, 39.42328489581249], [121.29951281465898, 39.423105232755674], [121.29969247771581, 39.423105232755674], [121.29969247771581, 39.42328489581249]], [[121.30095011911358, 39.42328489581249], [121.30077045605675, 39.42328489581249], [121.30077045605675, 39.423105232755674], [121.30095011911358, 39.423105232755674], [121.30095011911358, 39.42328489581249]], [[121.29753652103392, 39.42346455886932], [121.29735685797709, 39.42346455886932], [121.29735685797709, 39.42328489581249], [121.29753652103392, 39.42328489581249], [121.29753652103392, 39.42346455886932]], [[121.29951281465898, 39.42346455886932], [121.29933315160216, 39.42346455886932], [121.29933315160216, 39.42328489581249], [121.29951281465898, 39.42328489581249], [121.29951281465898, 39.42346455886932]], [[121.29699753186345, 39.423644221926146], [121.29681786880663, 39.423644221926146], [121.29681786880663, 39.42346455886932], [121.29699753186345, 39.42346455886932], [121.29699753186345, 39.423644221926146]], [[121.29825517326123, 39.423644221926146], [121.29789584714757, 39.423644221926146], [121.29789584714757, 39.42346455886932], [121.2980755102044, 39.42346455886932], [121.2980755102044, 39.42328489581249], [121.29825517326123, 39.42328489581249], [121.29825517326123, 39.423105232755674], [121.29861449937486, 39.423105232755674], [121.29861449937486, 39.42292556969885], [121.29915348854534, 39.42292556969885], [121.29915348854534, 39.42346455886932], [121.29825517326123, 39.42346455886932], [121.29825517326123, 39.423644221926146]], [[121.29448224906791, 39.423823884982966], [121.2943025860111, 39.423823884982966], [121.2943025860111, 39.423644221926146], [121.29448224906791, 39.423644221926146], [121.29448224906791, 39.423823884982966]], [[121.29915348854534, 39.42400354803979], [121.29897382548852, 39.42400354803979], [121.29897382548852, 39.423644221926146], [121.29915348854534, 39.423644221926146], [121.29915348854534, 39.42400354803979]]]}, "properties": {"name": "cand01", "ptype": "hall", "confidence": "low", "rank": 1, "area_ha": 121.9, "rise_db": 9.1, "digitised_from": "Sentinel-1 VV rise 2022->2026, orbit 98"}}, {"type": "Feature", "geometry": {"geodesic": false, "type": "Polygon", "coordinates": [[[121.30023146688629, 39.42993242891498], [121.30023146688629, 39.429752765858154], [121.29969247771581, 39.429752765858154], [121.29969247771581, 39.42921377668768], [121.29987214077264, 39.42921377668768], [121.29987214077264, 39.42903411363086], [121.29969247771581, 39.42903411363086], [121.29969247771581, 39.42849512446039], [121.29987214077264, 39.42849512446039], [121.29987214077264, 39.428135798346744], [121.29969247771581, 39.428135798346744], [121.29969247771581, 39.428315461403564], [121.29951281465898, 39.428315461403564], [121.29951281465898, 39.42849512446039], [121.29915348854534, 39.42849512446039], [121.29915348854534, 39.42867478751721], [121.29879416243169, 39.42867478751721], [121.29879416243169, 39.428854450574036], [121.29843483631804, 39.428854450574036], [121.29843483631804, 39.42903411363086], [121.29789584714757, 39.42903411363086], [121.29789584714757, 39.428854450574036], [121.29753652103392, 39.428854450574036], [121.29753652103392, 39.42867478751721], [121.29735685797709, 39.42867478751721], [121.29735685797709, 39.428315461403564], [121.29771618409075, 39.428315461403564], [121.29771618409075, 39.428135798346744], [121.2980755102044, 39.428135798346744], [121.2980755102044, 39.42795613528992], [121.29825517326123, 39.42795613528992], [121.29825517326123, 39.42777647223309], [121.29861449937486, 39.42777647223309], [121.29861449937486, 39.42795613528992], [121.29879416243169, 39.42795613528992], [121.29879416243169, 39.42777647223309], [121.29915348854534, 39.42777647223309], [121.29915348854534, 39.427417146119446], [121.29933315160216, 39.427417146119446], [121.29933315160216, 39.42723748306262], [121.29915348854534, 39.42723748306262], [121.29915348854534, 39.4270578200058], [121.29933315160216, 39.4270578200058], [121.29933315160216, 39.42687815694897], [121.29987214077264, 39.42687815694897], [121.29987214077264, 39.4270578200058], [121.30005180382946, 39.4270578200058], [121.30005180382946, 39.42687815694897], [121.30023146688629, 39.42687815694897], [121.30023146688629, 39.42669849389215], [121.30059079299993, 39.42669849389215], [121.30059079299993, 39.4263391677785], [121.30077045605675, 39.4263391677785], [121.30077045605675, 39.42615950472168], [121.30095011911358, 39.42615950472168], [121.30095011911358, 39.425979841664855], [121.3011297821704, 39.425979841664855], [121.3011297821704, 39.42580017860803], [121.30148910828404, 39.42580017860803], [121.30148910828404, 39.42562051555121], [121.3018484343977, 39.42562051555121], [121.3018484343977, 39.42544085249438], [121.30256708662499, 39.42544085249438], [121.30256708662499, 39.42580017860803], [121.30274674968182, 39.42580017860803], [121.30274674968182, 39.425979841664855], [121.30292641273864, 39.425979841664855], [121.30292641273864, 39.42615950472168], [121.30274674968182, 39.42615950472168], [121.30274674968182, 39.4263391677785], [121.30238742356816, 39.4263391677785], [121.30238742356816, 39.42651883083533], [121.30220776051135, 39.42651883083533], [121.30220776051135, 39.42669849389215], [121.30166877134087, 39.42669849389215], [121.30166877134087, 39.42687815694897], [121.30148910828404, 39.42687815694897], [121.30148910828404, 39.4270578200058], [121.3011297821704, 39.4270578200058], [121.3011297821704, 39.42723748306262], [121.30095011911358, 39.42723748306262], [121.30095011911358, 39.4270578200058], [121.30059079299993, 39.4270578200058], [121.30059079299993, 39.42777647223309], [121.3004111299431, 39.42777647223309], [121.3004111299431, 39.428135798346744], [121.30005180382946, 39.428135798346744], [121.30005180382946, 39.428315461403564], [121.3004111299431, 39.428315461403564], [121.3004111299431, 39.42849512446039], [121.30077045605675, 39.42849512446039], [121.30077045605675, 39.428854450574036], [121.30059079299993, 39.428854450574036], [121.30059079299993, 39.42903411363086], [121.3004111299431, 39.42903411363086], [121.3004111299431, 39.42921377668768], [121.30005180382946, 39.42921377668768], [121.30005180382946, 39.429573102801335], [121.30077045605675, 39.429573102801335], [121.30077045605675, 39.42993242891498], [121.30023146688629, 39.42993242891498]], [[121.30130944522722, 39.42651883083533], [121.3011297821704, 39.42651883083533], [121.3011297821704, 39.4263391677785], [121.30130944522722, 39.4263391677785], [121.30130944522722, 39.42651883083533]], [[121.3011297821704, 39.42669849389215], [121.30095011911358, 39.42669849389215], [121.30095011911358, 39.42651883083533], [121.3011297821704, 39.42651883083533], [121.3011297821704, 39.42669849389215]], [[121.30095011911358, 39.42687815694897], [121.30077045605675, 39.42687815694897], [121.30077045605675, 39.42669849389215], [121.30095011911358, 39.42669849389215], [121.30095011911358, 39.42687815694897]], [[121.30023146688629, 39.42795613528992], [121.30005180382946, 39.42795613528992], [121.30005180382946, 39.42777647223309], [121.30023146688629, 39.42777647223309], [121.30023146688629, 39.42795613528992]]]}, "properties": {"name": "cand02", "ptype": "hall", "confidence": "low", "rank": 2, "area_ha": 8.4, "rise_db": 7.6, "digitised_from": "Sentinel-1 VV rise 2022->2026, orbit 98"}}, {"type": "Feature", "geometry": {"geodesic": false, "type": "Polygon", "coordinates": [[[121.29394325989745, 39.44789873459737], [121.29394325989745, 39.44771907154055], [121.29340427072697, 39.44771907154055], [121.29340427072697, 39.44753940848372], [121.29322460767015, 39.44753940848372], [121.29322460767015, 39.4473597454269], [121.29304494461333, 39.4473597454269], [121.29304494461333, 39.44753940848372], [121.2928652815565, 39.44753940848372], [121.2928652815565, 39.4473597454269], [121.29268561849968, 39.4473597454269], [121.29268561849968, 39.447180082370075], [121.2914279771019, 39.447180082370075], [121.2914279771019, 39.44700041931325], [121.29124831404509, 39.44700041931325], [121.29124831404509, 39.44682075625643], [121.29106865098827, 39.44682075625643], [121.29106865098827, 39.4466410931996], [121.29088898793144, 39.4466410931996], [121.29088898793144, 39.447180082370075], [121.29052966181779, 39.447180082370075], [121.29052966181779, 39.4473597454269], [121.29034999876097, 39.4473597454269], [121.29034999876097, 39.447180082370075], [121.29017033570415, 39.447180082370075], [121.29017033570415, 39.44682075625643], [121.29034999876097, 39.44682075625643], [121.29034999876097, 39.4466410931996], [121.2898110095905, 39.4466410931996], [121.2898110095905, 39.44646143014278], [121.28945168347684, 39.44646143014278], [121.28945168347684, 39.445742777915484], [121.28963134653367, 39.445742777915484], [121.28963134653367, 39.44556311485866], [121.29070932487461, 39.44556311485866], [121.29070932487461, 39.445742777915484], [121.29322460767015, 39.445742777915484], [121.29322460767015, 39.44610210402913], [121.2928652815565, 39.44610210402913], [121.2928652815565, 39.44628176708596], [121.29304494461333, 39.44628176708596], [121.29304494461333, 39.4466410931996], [121.29322460767015, 39.4466410931996], [121.29322460767015, 39.44682075625643], [121.29340427072697, 39.44682075625643], [121.29340427072697, 39.44700041931325], [121.29394325989745, 39.44700041931325], [121.29394325989745, 39.447180082370075], [121.2943025860111, 39.447180082370075], [121.2943025860111, 39.44753940848372], [121.29448224906791, 39.44753940848372], [121.29448224906791, 39.44771907154055], [121.29412292295427, 39.44771907154055], [121.29412292295427, 39.44789873459737], [121.29394325989745, 39.44789873459737]]]}, "properties": {"name": "cand03", "ptype": "hall", "confidence": "low", "rank": 3, "area_ha": 7.1, "rise_db": 7.3, "digitised_from": "Sentinel-1 VV rise 2022->2026, orbit 98"}}, {"type": "Feature", "geometry": {"geodesic": false, "type": "Polygon", "coordinates": [[[121.2943025860111, 39.452210647961145], [121.2943025860111, 39.45203098490432], [121.29376359684062, 39.45203098490432], [121.29376359684062, 39.45167165879067], [121.29340427072697, 39.45167165879067], [121.29340427072697, 39.451491995733846], [121.29322460767015, 39.451491995733846], [121.29322460767015, 39.45131233267703], [121.29304494461333, 39.45131233267703], [121.29304494461333, 39.4511326696202], [121.2928652815565, 39.4511326696202], [121.2928652815565, 39.451491995733846], [121.29214662932921, 39.451491995733846], [121.29214662932921, 39.45131233267703], [121.29232629238604, 39.45131233267703], [121.29232629238604, 39.4511326696202], [121.29268561849968, 39.4511326696202], [121.29268561849968, 39.450953006563374], [121.2928652815565, 39.450953006563374], [121.2928652815565, 39.450773343506555], [121.29322460767015, 39.450773343506555], [121.29322460767015, 39.450953006563374], [121.29376359684062, 39.450953006563374], [121.29376359684062, 39.450773343506555], [121.29394325989745, 39.450773343506555], [121.29394325989745, 39.45041401739291], [121.29412292295427, 39.45041401739291], [121.29412292295427, 39.450054691279256], [121.2943025860111, 39.450054691279256], [121.2943025860111, 39.449875028222436], [121.29466191212474, 39.449875028222436], [121.29466191212474, 39.450054691279256], [121.29502123823839, 39.450054691279256], [121.29502123823839, 39.45023435433608], [121.29520090129522, 39.45023435433608], [121.29520090129522, 39.45041401739291], [121.29538056435203, 39.45041401739291], [121.29538056435203, 39.45059368044973], [121.29556022740886, 39.45059368044973], [121.29556022740886, 39.450773343506555], [121.29573989046568, 39.450773343506555], [121.29573989046568, 39.4511326696202], [121.29556022740886, 39.4511326696202], [121.29556022740886, 39.45131233267703], [121.29538056435203, 39.45131233267703], [121.29538056435203, 39.45167165879067], [121.29556022740886, 39.45167165879067], [121.29556022740886, 39.45203098490432], [121.29538056435203, 39.45203098490432], [121.29538056435203, 39.452210647961145], [121.2943025860111, 39.452210647961145]]]}, "properties": {"name": "cand04", "ptype": "hall", "confidence": "low", "rank": 4, "area_ha": 5.2, "rise_db": 11.0, "digitised_from": "Sentinel-1 VV rise 2022->2026, orbit 98"}}, {"type": "Feature", "geometry": {"geodesic": false, "type": "Polygon", "coordinates": [[[121.29753652103392, 39.445024125688185], [121.29753652103392, 39.444844462631366], [121.29735685797709, 39.444844462631366], [121.29735685797709, 39.445024125688185], [121.29717719492028, 39.445024125688185], [121.29717719492028, 39.444844462631366], [121.2966382057498, 39.444844462631366], [121.2966382057498, 39.44466479957454], [121.29609921657934, 39.44466479957454], [121.29609921657934, 39.444844462631366], [121.29591955352251, 39.444844462631366], [121.29591955352251, 39.44466479957454], [121.29538056435203, 39.44466479957454], [121.29538056435203, 39.444844462631366], [121.29520090129522, 39.444844462631366], [121.29520090129522, 39.44466479957454], [121.29412292295427, 39.44466479957454], [121.29412292295427, 39.44448513651772], [121.29394325989745, 39.44448513651772], [121.29394325989745, 39.44466479957454], [121.29340427072697, 39.44466479957454], [121.29340427072697, 39.444844462631366], [121.29322460767015, 39.444844462631366], [121.29322460767015, 39.44466479957454], [121.29304494461333, 39.44466479957454], [121.29304494461333, 39.44448513651772], [121.29322460767015, 39.44448513651772], [121.29322460767015, 39.44430547346089], [121.29340427072697, 39.44430547346089], [121.29340427072697, 39.44394614734725], [121.29376359684062, 39.44394614734725], [121.29376359684062, 39.44412581040407], [121.29394325989745, 39.44412581040407], [121.29394325989745, 39.44430547346089], [121.2943025860111, 39.44430547346089], [121.2943025860111, 39.44412581040407], [121.29484157518156, 39.44412581040407], [121.29484157518156, 39.44430547346089], [121.29502123823839, 39.44430547346089], [121.29502123823839, 39.44412581040407], [121.29520090129522, 39.44412581040407], [121.29520090129522, 39.44430547346089], [121.29538056435203, 39.44430547346089], [121.29538056435203, 39.44448513651772], [121.29573989046568, 39.44448513651772], [121.29573989046568, 39.44430547346089], [121.29591955352251, 39.44430547346089], [121.29591955352251, 39.44412581040407], [121.29645854269297, 39.44412581040407], [121.29645854269297, 39.44430547346089], [121.29717719492028, 39.44430547346089], [121.29717719492028, 39.44448513651772], [121.29915348854534, 39.44448513651772], [121.29915348854534, 39.444844462631366], [121.29861449937486, 39.444844462631366], [121.29861449937486, 39.445024125688185], [121.29753652103392, 39.445024125688185]], [[121.29484157518156, 39.44448513651772], [121.29466191212474, 39.44448513651772], [121.29466191212474, 39.44430547346089], [121.29484157518156, 39.44430547346089], [121.29484157518156, 39.44448513651772]]]}, "properties": {"name": "cand05", "ptype": "hall", "confidence": "low", "rank": 5, "area_ha": 3.5, "rise_db": 6.9, "digitised_from": "Sentinel-1 VV rise 2022->2026, orbit 98"}}, {"type": "Feature", "geometry": {"geodesic": false, "type": "Polygon", "coordinates": [[[121.28621774845402, 39.44646143014278], [121.28621774845402, 39.44628176708596], [121.28585842234037, 39.44628176708596], [121.28585842234037, 39.44646143014278], [121.28549909622672, 39.44646143014278], [121.28549909622672, 39.445742777915484], [121.28567875928354, 39.445742777915484], [121.28567875928354, 39.44556311485866], [121.2860380853972, 39.44556311485866], [121.2860380853972, 39.44538345180184], [121.28639741151085, 39.44538345180184], [121.28639741151085, 39.445742777915484], [121.28657707456766, 39.445742777915484], [121.28657707456766, 39.44556311485866], [121.28693640068131, 39.44556311485866], [121.28693640068131, 39.44538345180184], [121.28747538985178, 39.44538345180184], [121.28747538985178, 39.44556311485866], [121.2876550529086, 39.44556311485866], [121.2876550529086, 39.44538345180184], [121.28837370513591, 39.44538345180184], [121.28837370513591, 39.44628176708596], [121.28819404207908, 39.44628176708596], [121.28819404207908, 39.44646143014278], [121.28621774845402, 39.44646143014278]]]}, "properties": {"name": "cand06", "ptype": "hall", "confidence": "low", "rank": 6, "area_ha": 3.4, "rise_db": 9.7, "digitised_from": "Sentinel-1 VV rise 2022->2026, orbit 98"}}, {"type": "Feature", "geometry": {"geodesic": false, "type": "Polygon", "coordinates": [[[121.30292641273864, 39.45328862630209], [121.30292641273864, 39.45310896324526], [121.30274674968182, 39.45310896324526], [121.30274674968182, 39.45274963713162], [121.30292641273864, 39.45274963713162], [121.30292641273864, 39.45256997407479], [121.30310607579547, 39.45256997407479], [121.30310607579547, 39.452210647961145], [121.30328573885228, 39.452210647961145], [121.30328573885228, 39.4518513218475], [121.30346540190911, 39.4518513218475], [121.30346540190911, 39.451491995733846], [121.30364506496593, 39.451491995733846], [121.30364506496593, 39.45131233267703], [121.30382472802276, 39.45131233267703], [121.30382472802276, 39.4511326696202], [121.30400439107959, 39.4511326696202], [121.30400439107959, 39.45059368044973], [121.30418405413641, 39.45059368044973], [121.30418405413641, 39.45041401739291], [121.30436371719323, 39.45041401739291], [121.30436371719323, 39.450054691279256], [121.30454338025005, 39.450054691279256], [121.30454338025005, 39.449875028222436], [121.30472304330688, 39.449875028222436], [121.30472304330688, 39.44969536516561], [121.3049027063637, 39.44969536516561], [121.3049027063637, 39.449336039051964], [121.30508236942053, 39.449336039051964], [121.30508236942053, 39.44915637599514], [121.30526203247734, 39.44915637599514], [121.30526203247734, 39.44969536516561], [121.30508236942053, 39.44969536516561], [121.30508236942053, 39.450054691279256], [121.3049027063637, 39.450054691279256], [121.3049027063637, 39.45041401739291], [121.30472304330688, 39.45041401739291], [121.30472304330688, 39.45059368044973], [121.30454338025005, 39.45059368044973], [121.30454338025005, 39.450953006563374], [121.30436371719323, 39.450953006563374], [121.30436371719323, 39.4511326696202], [121.30418405413641, 39.4511326696202], [121.30418405413641, 39.451491995733846], [121.30400439107959, 39.451491995733846], [121.30400439107959, 39.4518513218475], [121.30382472802276, 39.4518513218475], [121.30382472802276, 39.45203098490432], [121.30364506496593, 39.45203098490432], [121.30364506496593, 39.45239031101797], [121.30346540190911, 39.45239031101797], [121.30346540190911, 39.45274963713162], [121.30328573885228, 39.45274963713162], [121.30328573885228, 39.45310896324526], [121.30310607579547, 39.45310896324526], [121.30310607579547, 39.45328862630209], [121.30292641273864, 39.45328862630209]]]}, "properties": {"name": "cand07", "ptype": "hall", "confidence": "low", "rank": 7, "area_ha": 2.3, "rise_db": 9.9, "digitised_from": "Sentinel-1 VV rise 2022->2026, orbit 98"}}, {"type": "Feature", "geometry": {"geodesic": false, "type": "Polygon", "coordinates": [[[121.27939055229471, 39.4473597454269], [121.27939055229471, 39.447180082370075], [121.27921088923789, 39.447180082370075], [121.27921088923789, 39.44700041931325], [121.27885156312423, 39.44700041931325], [121.27885156312423, 39.4466410931996], [121.27867190006741, 39.4466410931996], [121.27867190006741, 39.44682075625643], [121.2784922370106, 39.44682075625643], [121.2784922370106, 39.4466410931996], [121.27831257395377, 39.4466410931996], [121.27831257395377, 39.44646143014278], [121.27885156312423, 39.44646143014278], [121.27885156312423, 39.44592244097231], [121.27867190006741, 39.44592244097231], [121.27867190006741, 39.445742777915484], [121.27903122618106, 39.445742777915484], [121.27903122618106, 39.44592244097231], [121.27939055229471, 39.44592244097231], [121.27939055229471, 39.44610210402913], [121.27921088923789, 39.44610210402913], [121.27921088923789, 39.44646143014278], [121.27939055229471, 39.44646143014278], [121.27939055229471, 39.44682075625643], [121.27921088923789, 39.44682075625643], [121.27921088923789, 39.44700041931325], [121.27957021535153, 39.44700041931325], [121.27957021535153, 39.44682075625643], [121.27974987840835, 39.44682075625643], [121.27974987840835, 39.4466410931996], [121.280109204522, 39.4466410931996], [121.280109204522, 39.44610210402913], [121.28028886757883, 39.44610210402913], [121.28028886757883, 39.44592244097231], [121.280109204522, 39.44592244097231], [121.280109204522, 39.445742777915484], [121.28064819369247, 39.445742777915484], [121.28064819369247, 39.44592244097231], [121.2808278567493, 39.44592244097231], [121.2808278567493, 39.44610210402913], [121.28064819369247, 39.44610210402913], [121.28064819369247, 39.44646143014278], [121.28046853063566, 39.44646143014278], [121.28046853063566, 39.4466410931996], [121.28028886757883, 39.4466410931996], [121.28028886757883, 39.44682075625643], [121.280109204522, 39.44682075625643], [121.280109204522, 39.44700041931325], [121.28028886757883, 39.44700041931325], [121.28028886757883, 39.447180082370075], [121.280109204522, 39.447180082370075], [121.280109204522, 39.4473597454269], [121.27939055229471, 39.4473597454269]]]}, "properties": {"name": "cand08", "ptype": "hall", "confidence": "low", "rank": 8, "area_ha": 2.0, "rise_db": 6.3, "digitised_from": "Sentinel-1 VV rise 2022->2026, orbit 98"}}, {"type": "Feature", "geometry": {"geodesic": false, "type": "Polygon", "coordinates": [[[121.27957021535153, 39.43855625564253], [121.27957021535153, 39.43801726647206], [121.27939055229471, 39.43801726647206], [121.27939055229471, 39.43783760341523], [121.27921088923789, 39.43783760341523], [121.27921088923789, 39.437657940358406], [121.27903122618106, 39.437657940358406], [121.27903122618106, 39.43783760341523], [121.27885156312423, 39.43783760341523], [121.27885156312423, 39.43801726647206], [121.27867190006741, 39.43801726647206], [121.27867190006741, 39.43783760341523], [121.2784922370106, 39.43783760341523], [121.2784922370106, 39.437657940358406], [121.27831257395377, 39.437657940358406], [121.27831257395377, 39.437118951187934], [121.27885156312423, 39.437118951187934], [121.27885156312423, 39.43657996201746], [121.27903122618106, 39.43657996201746], [121.27903122618106, 39.43640029896064], [121.27939055229471, 39.43640029896064], [121.27939055229471, 39.43747827730159], [121.27974987840835, 39.43747827730159], [121.27974987840835, 39.437657940358406], [121.280109204522, 39.437657940358406], [121.280109204522, 39.43783760341523], [121.27992954146518, 39.43783760341523], [121.27992954146518, 39.43801726647206], [121.27974987840835, 39.43801726647206], [121.27974987840835, 39.43819692952888], [121.27992954146518, 39.43819692952888], [121.27992954146518, 39.438376592585705], [121.27974987840835, 39.438376592585705], [121.27974987840835, 39.43855625564253], [121.27957021535153, 39.43855625564253]]]}, "properties": {"name": "cand09", "ptype": "hall", "confidence": "low", "rank": 9, "area_ha": 1.9, "rise_db": 4.9, "digitised_from": "Sentinel-1 VV rise 2022->2026, orbit 98"}}, {"type": "Feature", "geometry": {"geodesic": false, "type": "Polygon", "coordinates": [[[121.28172617203342, 39.44807839765419], [121.28172617203342, 39.44789873459737], [121.28154650897659, 39.44789873459737], [121.28154650897659, 39.44771907154055], [121.28190583509024, 39.44771907154055], [121.28190583509024, 39.44753940848372], [121.28064819369247, 39.44753940848372], [121.28064819369247, 39.447180082370075], [121.28100751980612, 39.447180082370075], [121.28100751980612, 39.4473597454269], [121.28154650897659, 39.4473597454269], [121.28154650897659, 39.44700041931325], [121.28064819369247, 39.44700041931325], [121.28064819369247, 39.44682075625643], [121.28100751980612, 39.44682075625643], [121.28100751980612, 39.44628176708596], [121.28136684591978, 39.44628176708596], [121.28136684591978, 39.44646143014278], [121.28154650897659, 39.44646143014278], [121.28154650897659, 39.4466410931996], [121.28172617203342, 39.4466410931996], [121.28172617203342, 39.44628176708596], [121.28190583509024, 39.44628176708596], [121.28190583509024, 39.4466410931996], [121.28172617203342, 39.4466410931996], [121.28172617203342, 39.44682075625643], [121.28190583509024, 39.44682075625643], [121.28190583509024, 39.447180082370075], [121.28208549814707, 39.447180082370075], [121.28208549814707, 39.4473597454269], [121.28244482426072, 39.4473597454269], [121.28244482426072, 39.44753940848372], [121.28262448731753, 39.44753940848372], [121.28262448731753, 39.44771907154055], [121.28280415037436, 39.44771907154055], [121.28280415037436, 39.44789873459737], [121.28244482426072, 39.44789873459737], [121.28244482426072, 39.44771907154055], [121.2822651612039, 39.44771907154055], [121.2822651612039, 39.44753940848372], [121.28208549814707, 39.44753940848372], [121.28208549814707, 39.44807839765419], [121.28172617203342, 39.44807839765419]]]}, "properties": {"name": "cand10", "ptype": "hall", "confidence": "low", "rank": 10, "area_ha": 1.8, "rise_db": 6.4, "digitised_from": "Sentinel-1 VV rise 2022->2026, orbit 98"}}, {"type": "Feature", "geometry": {"geodesic": false, "type": "Polygon", "coordinates": [[[121.28801437902226, 39.417356014937305], [121.28801437902226, 39.41699668882366], [121.28819404207908, 39.41699668882366], [121.28819404207908, 39.41663736271001], [121.28855336819272, 39.41663736271001], [121.28855336819272, 39.416457699653186], [121.2890923573632, 39.416457699653186], [121.2890923573632, 39.41627803659637], [121.28927202042003, 39.41627803659637], [121.28927202042003, 39.415918710482714], [121.28999067264732, 39.415918710482714], [121.28999067264732, 39.415739047425895], [121.29017033570415, 39.415739047425895], [121.29017033570415, 39.41555938436907], [121.29088898793144, 39.41555938436907], [121.29088898793144, 39.41537972131224], [121.29124831404509, 39.41537972131224], [121.29124831404509, 39.41520005825542], [121.29160764015873, 39.41520005825542], [121.29160764015873, 39.41555938436907], [121.2914279771019, 39.41555938436907], [121.2914279771019, 39.415739047425895], [121.29070932487461, 39.415739047425895], [121.29070932487461, 39.415918710482714], [121.28999067264732, 39.415918710482714], [121.28999067264732, 39.41627803659637], [121.2898110095905, 39.41627803659637], [121.2898110095905, 39.416457699653186], [121.2890923573632, 39.416457699653186], [121.2890923573632, 39.41663736271001], [121.28891269430638, 39.41663736271001], [121.28891269430638, 39.41681702576683], [121.28873303124955, 39.41681702576683], [121.28873303124955, 39.41699668882366], [121.28837370513591, 39.41699668882366], [121.28837370513591, 39.417356014937305], [121.28801437902226, 39.417356014937305]]]}, "properties": {"name": "cand11", "ptype": "hall", "confidence": "low", "rank": 11, "area_ha": 1.7, "rise_db": 5.2, "digitised_from": "Sentinel-1 VV rise 2022->2026, orbit 98"}}, {"type": "Feature", "geometry": {"geodesic": false, "type": "Polygon", "coordinates": [[[121.27543796504459, 39.43352569005146], [121.27543796504459, 39.433346026994634], [121.27525830198776, 39.433346026994634], [121.27525830198776, 39.43316636393781], [121.27543796504459, 39.43316636393781], [121.27543796504459, 39.43298670088099], [121.2756176281014, 39.43298670088099], [121.2756176281014, 39.43280703782416], [121.27579729115823, 39.43280703782416], [121.27579729115823, 39.432627374767335], [121.27597695421505, 39.432627374767335], [121.27597695421505, 39.43226804865369], [121.27579729115823, 39.43226804865369], [121.27579729115823, 39.43208838559687], [121.27597695421505, 39.43208838559687], [121.27597695421505, 39.43172905948322], [121.27651594338553, 39.43172905948322], [121.27651594338553, 39.431908722540044], [121.27669560644235, 39.431908722540044], [121.27669560644235, 39.43280703782416], [121.2763362803287, 39.43280703782416], [121.2763362803287, 39.43298670088099], [121.27615661727188, 39.43298670088099], [121.27615661727188, 39.43316636393781], [121.27597695421505, 39.43316636393781], [121.27597695421505, 39.433346026994634], [121.27579729115823, 39.433346026994634], [121.27579729115823, 39.43352569005146], [121.27543796504459, 39.43352569005146]]]}, "properties": {"name": "cand12", "ptype": "hall", "confidence": "low", "rank": 12, "area_ha": 1.6, "rise_db": 8.1, "digitised_from": "Sentinel-1 VV rise 2022->2026, orbit 98"}}, {"type": "Feature", "geometry": {"geodesic": false, "type": "Polygon", "coordinates": [[[121.30292641273864, 39.43226804865369], [121.30292641273864, 39.43208838559687], [121.30256708662499, 39.43208838559687], [121.30256708662499, 39.431908722540044], [121.30238742356816, 39.431908722540044], [121.30238742356816, 39.43172905948322], [121.30220776051135, 39.43172905948322], [121.30220776051135, 39.43208838559687], [121.30148910828404, 39.43208838559687], [121.30148910828404, 39.431908722540044], [121.30130944522722, 39.431908722540044], [121.30130944522722, 39.4315493964264], [121.30148910828404, 39.4315493964264], [121.30148910828404, 39.43136973336957], [121.30202809745452, 39.43136973336957], [121.30202809745452, 39.4315493964264], [121.30292641273864, 39.4315493964264], [121.30292641273864, 39.43172905948322], [121.30310607579547, 39.43172905948322], [121.30310607579547, 39.431908722540044], [121.30328573885228, 39.431908722540044], [121.30328573885228, 39.43226804865369], [121.30292641273864, 39.43226804865369]], [[121.30202809745452, 39.43172905948322], [121.3018484343977, 39.43172905948322], [121.3018484343977, 39.4315493964264], [121.30202809745452, 39.4315493964264], [121.30202809745452, 39.43172905948322]]]}, "properties": {"name": "cand13", "ptype": "hall", "confidence": "low", "rank": 13, "area_ha": 1.2, "rise_db": 6.4, "digitised_from": "Sentinel-1 VV rise 2022->2026, orbit 98"}}, {"type": "Feature", "geometry": {"geodesic": false, "type": "Polygon", "coordinates": [[[121.30130944522722, 39.45544458298397], [121.30130944522722, 39.455085256870326], [121.30148910828404, 39.455085256870326], [121.30148910828404, 39.4549055938135], [121.30166877134087, 39.4549055938135], [121.30166877134087, 39.454546267699854], [121.3018484343977, 39.454546267699854], [121.3018484343977, 39.454366604643035], [121.30202809745452, 39.454366604643035], [121.30202809745452, 39.45400727852938], [121.30220776051135, 39.45400727852938], [121.30220776051135, 39.453647952415736], [121.30274674968182, 39.453647952415736], [121.30274674968182, 39.45400727852938], [121.30256708662499, 39.45400727852938], [121.30256708662499, 39.45418694158621], [121.30238742356816, 39.45418694158621], [121.30238742356816, 39.454546267699854], [121.30220776051135, 39.454546267699854], [121.30220776051135, 39.45472593075668], [121.30202809745452, 39.45472593075668], [121.30202809745452, 39.455085256870326], [121.3018484343977, 39.455085256870326], [121.3018484343977, 39.45544458298397], [121.30130944522722, 39.45544458298397]]]}, "properties": {"name": "cand14", "ptype": "hall", "confidence": "low", "rank": 14, "area_ha": 1.1, "rise_db": 9.2, "digitised_from": "Sentinel-1 VV rise 2022->2026, orbit 98"}}, {"type": "Feature", "geometry": {"geodesic": false, "type": "Polygon", "coordinates": [[[121.29699753186345, 39.42669849389215], [121.29699753186345, 39.42615950472168], [121.29717719492028, 39.42615950472168], [121.29717719492028, 39.4263391677785], [121.29753652103392, 39.4263391677785], [121.29753652103392, 39.42615950472168], [121.2980755102044, 39.42615950472168], [121.2980755102044, 39.425979841664855], [121.29789584714757, 39.425979841664855], [121.29789584714757, 39.42580017860803], [121.29753652103392, 39.42580017860803], [121.29753652103392, 39.42544085249438], [121.29789584714757, 39.42544085249438], [121.29789584714757, 39.425261189437556], [121.2980755102044, 39.425261189437556], [121.2980755102044, 39.42544085249438], [121.29825517326123, 39.42544085249438], [121.29825517326123, 39.42580017860803], [121.29861449937486, 39.42580017860803], [121.29861449937486, 39.42615950472168], [121.2980755102044, 39.42615950472168], [121.2980755102044, 39.4263391677785], [121.29771618409075, 39.4263391677785], [121.29771618409075, 39.42651883083533], [121.29753652103392, 39.42651883083533], [121.29753652103392, 39.42669849389215], [121.29699753186345, 39.42669849389215]]]}, "properties": {"name": "cand15", "ptype": "hall", "confidence": "low", "rank": 15, "area_ha": 1.1, "rise_db": 5.4, "digitised_from": "Sentinel-1 VV rise 2022->2026, orbit 98"}}, {"type": "Feature", "geometry": {"geodesic": false, "type": "Polygon", "coordinates": [[[121.27471931281728, 39.432627374767335], [121.27471931281728, 39.431908722540044], [121.27400066058999, 39.431908722540044], [121.27400066058999, 39.43208838559687], [121.27382099753316, 39.43208838559687], [121.27382099753316, 39.43172905948322], [121.27346167141953, 39.43172905948322], [121.27346167141953, 39.43136973336957], [121.27435998670364, 39.43136973336957], [121.27435998670364, 39.43172905948322], [121.27489897587411, 39.43172905948322], [121.27489897587411, 39.43226804865369], [121.27507863893094, 39.43226804865369], [121.27507863893094, 39.43208838559687], [121.27525830198776, 39.43208838559687], [121.27525830198776, 39.43226804865369], [121.27543796504459, 39.43226804865369], [121.27543796504459, 39.432447711710516], [121.27525830198776, 39.432447711710516], [121.27525830198776, 39.432627374767335], [121.27471931281728, 39.432627374767335]]]}, "properties": {"name": "cand16", "ptype": "hall", "confidence": "low", "rank": 16, "area_ha": 1.1, "rise_db": 4.8, "digitised_from": "Sentinel-1 VV rise 2022->2026, orbit 98"}}]}