{"type": "FeatureCollection", "features": [{"type": "Feature", "geometry": {"geodesic": false, "type": "Polygon", "coordinates": [[[122.52804879722085, 36.979328333836925], [122.52804879722085, 36.9791486707801], [122.52786913416402, 36.9791486707801], [122.52786913416402, 36.97878934466645], [122.52804879722085, 36.97878934466645], [122.52804879722085, 36.97843001855281], [122.52786913416402, 36.97843001855281], [122.52786913416402, 36.97825035549598], [122.5276894711072, 36.97825035549598], [122.5276894711072, 36.97843001855281], [122.52750980805037, 36.97843001855281], [122.52750980805037, 36.97860968160963], [122.52733014499354, 36.97860968160963], [122.52733014499354, 36.97843001855281], [122.52715048193673, 36.97843001855281], [122.52715048193673, 36.977891029382334], [122.5269708188799, 36.977891029382334], [122.5269708188799, 36.97771136632551], [122.52661149276625, 36.97771136632551], [122.52661149276625, 36.97753170326869], [122.52643182970942, 36.97753170326869], [122.52643182970942, 36.97735204021186], [122.52625216665261, 36.97735204021186], [122.52625216665261, 36.977172377155036], [122.52607250359578, 36.977172377155036], [122.52607250359578, 36.976992714098216], [122.52589284053896, 36.976992714098216], [122.52589284053896, 36.97663338798457], [122.52571317748213, 36.97663338798457], [122.52571317748213, 36.976453724927744], [122.5255335144253, 36.976453724927744], [122.5255335144253, 36.97627406187092], [122.52535385136848, 36.97627406187092], [122.52535385136848, 36.9760943988141], [122.52517418831167, 36.9760943988141], [122.52517418831167, 36.975555409643626], [122.52499452525484, 36.975555409643626], [122.52499452525484, 36.9753757465868], [122.52481486219801, 36.9753757465868], [122.52481486219801, 36.97483675741633], [122.52535385136848, 36.97483675741633], [122.52535385136848, 36.97447743130268], [122.52571317748213, 36.97447743130268], [122.52571317748213, 36.974297768245854], [122.5255335144253, 36.974297768245854], [122.5255335144253, 36.974118105189035], [122.52535385136848, 36.974118105189035], [122.52535385136848, 36.97393844213221], [122.52517418831167, 36.97393844213221], [122.52517418831167, 36.97375877907538], [122.52499452525484, 36.97375877907538], [122.52499452525484, 36.974118105189035], [122.52517418831167, 36.974118105189035], [122.52517418831167, 36.97447743130268], [122.52463519914119, 36.97447743130268], [122.52463519914119, 36.974297768245854], [122.52445553608436, 36.974297768245854], [122.52445553608436, 36.97393844213221], [122.52463519914119, 36.97393844213221], [122.52463519914119, 36.97375877907538], [122.52481486219801, 36.97375877907538], [122.52481486219801, 36.97357911601856], [122.52499452525484, 36.97357911601856], [122.52499452525484, 36.973399452961736], [122.52535385136848, 36.973399452961736], [122.52535385136848, 36.97321978990491], [122.5255335144253, 36.97321978990491], [122.5255335144253, 36.97304012684809], [122.52625216665261, 36.97304012684809], [122.52625216665261, 36.97321978990491], [122.52643182970942, 36.97321978990491], [122.52643182970942, 36.973399452961736], [122.5269708188799, 36.973399452961736], [122.5269708188799, 36.97357911601856], [122.52715048193673, 36.97357911601856], [122.52715048193673, 36.97375877907538], [122.52733014499354, 36.97375877907538], [122.52733014499354, 36.97357911601856], [122.5276894711072, 36.97357911601856], [122.5276894711072, 36.97375877907538], [122.52822846027767, 36.97375877907538], [122.52822846027767, 36.97357911601856], [122.52804879722085, 36.97357911601856], [122.52804879722085, 36.973399452961736], [122.52733014499354, 36.973399452961736], [122.52733014499354, 36.97321978990491], [122.52715048193673, 36.97321978990491], [122.52715048193673, 36.972860463791264], [122.52750980805037, 36.972860463791264], [122.52750980805037, 36.972680800734445], [122.52715048193673, 36.972680800734445], [122.52715048193673, 36.97250113767762], [122.52733014499354, 36.97250113767762], [122.52733014499354, 36.97232147462079], [122.52750980805037, 36.97232147462079], [122.52750980805037, 36.97214181156397], [122.5269708188799, 36.97214181156397], [122.5269708188799, 36.97178248545032], [122.52679115582308, 36.97178248545032], [122.52679115582308, 36.9716028223935], [122.52661149276625, 36.9716028223935], [122.52661149276625, 36.97142315933667], [122.52643182970942, 36.97142315933667], [122.52643182970942, 36.97124349627985], [122.52625216665261, 36.97124349627985], [122.52625216665261, 36.9708841701662], [122.52607250359578, 36.9708841701662], [122.52607250359578, 36.970524844052555], [122.52625216665261, 36.970524844052555], [122.52625216665261, 36.97034518099573], [122.52661149276625, 36.97034518099573], [122.52661149276625, 36.97016551793891], [122.52679115582308, 36.97016551793891], [122.52679115582308, 36.96998585488208], [122.52661149276625, 36.96998585488208], [122.52661149276625, 36.969806191825256], [122.52643182970942, 36.969806191825256], [122.52643182970942, 36.96998585488208], [122.52625216665261, 36.96998585488208], [122.52625216665261, 36.969806191825256], [122.52589284053896, 36.969806191825256], [122.52589284053896, 36.96962652876844], [122.52571317748213, 36.96962652876844], [122.52571317748213, 36.969267202654784], [122.52607250359578, 36.969267202654784], [122.52607250359578, 36.96944686571161], [122.52661149276625, 36.96944686571161], [122.52661149276625, 36.96962652876844], [122.52679115582308, 36.96962652876844], [122.52679115582308, 36.96998585488208], [122.5269708188799, 36.96998585488208], [122.5269708188799, 36.97016551793891], [122.52733014499354, 36.97016551793891], [122.52733014499354, 36.97034518099573], [122.52750980805037, 36.97034518099573], [122.52750980805037, 36.97070450710938], [122.5276894711072, 36.97070450710938], [122.5276894711072, 36.9708841701662], [122.52786913416402, 36.9708841701662], [122.52786913416402, 36.97106383322303], [122.52804879722085, 36.97106383322303], [122.52804879722085, 36.97124349627985], [122.52822846027767, 36.97124349627985], [122.52822846027767, 36.97142315933667], [122.52858778639131, 36.97142315933667], [122.52858778639131, 36.97124349627985], [122.52840812333449, 36.97124349627985], [122.52840812333449, 36.9708841701662], [122.52894711250497, 36.9708841701662], [122.52894711250497, 36.970524844052555], [122.52912677556179, 36.970524844052555], [122.52912677556179, 36.97034518099573], [122.52948610167543, 36.97034518099573], [122.52948610167543, 36.970524844052555], [122.52966576473226, 36.970524844052555], [122.52966576473226, 36.97070450710938], [122.52984542778908, 36.97070450710938], [122.52984542778908, 36.97124349627985], [122.52966576473226, 36.97124349627985], [122.52966576473226, 36.97142315933667], [122.52894711250497, 36.97142315933667], [122.52894711250497, 36.97178248545032], [122.53002509084591, 36.97178248545032], [122.53002509084591, 36.9716028223935], [122.53038441695955, 36.9716028223935], [122.53038441695955, 36.97142315933667], [122.53056408001638, 36.97142315933667], [122.53056408001638, 36.97178248545032], [122.5307437430732, 36.97178248545032], [122.5307437430732, 36.971962148507146], [122.53056408001638, 36.971962148507146], [122.53056408001638, 36.97214181156397], [122.53002509084591, 36.97214181156397], [122.53002509084591, 36.97232147462079], [122.5293064386186, 36.97232147462079], [122.5293064386186, 36.97250113767762], [122.52912677556179, 36.97250113767762], [122.52912677556179, 36.972680800734445], [122.52894711250497, 36.972680800734445], [122.52894711250497, 36.972860463791264], [122.5293064386186, 36.972860463791264], [122.5293064386186, 36.972680800734445], [122.52966576473226, 36.972680800734445], [122.52966576473226, 36.97304012684809], [122.52948610167543, 36.97304012684809], [122.52948610167543, 36.97321978990491], [122.52966576473226, 36.97321978990491], [122.52966576473226, 36.97357911601856], [122.52948610167543, 36.97357911601856], [122.52948610167543, 36.97375877907538], [122.5293064386186, 36.97375877907538], [122.5293064386186, 36.97393844213221], [122.52948610167543, 36.97393844213221], [122.52948610167543, 36.974297768245854], [122.52966576473226, 36.974297768245854], [122.52966576473226, 36.974118105189035], [122.53020475390274, 36.974118105189035], [122.53020475390274, 36.97357911601856], [122.53038441695955, 36.97357911601856], [122.53038441695955, 36.97375877907538], [122.5307437430732, 36.97375877907538], [122.5307437430732, 36.97357911601856], [122.53056408001638, 36.97357911601856], [122.53056408001638, 36.973399452961736], [122.5307437430732, 36.973399452961736], [122.5307437430732, 36.97321978990491], [122.53092340613003, 36.97321978990491], [122.53092340613003, 36.97304012684809], [122.53110306918686, 36.97304012684809], [122.53110306918686, 36.972860463791264], [122.5314623953005, 36.972860463791264], [122.5314623953005, 36.972680800734445], [122.53164205835732, 36.972680800734445], [122.53164205835732, 36.97250113767762], [122.53182172141415, 36.97250113767762], [122.53182172141415, 36.972680800734445], [122.5321810475278, 36.972680800734445], [122.5321810475278, 36.972860463791264], [122.53254037364144, 36.972860463791264], [122.53254037364144, 36.97304012684809], [122.53272003669827, 36.97304012684809], [122.53272003669827, 36.973399452961736], [122.53289969975509, 36.973399452961736], [122.53289969975509, 36.97357911601856], [122.53325902586873, 36.97357911601856], [122.53325902586873, 36.974118105189035], [122.53343868892556, 36.974118105189035], [122.53343868892556, 36.974297768245854], [122.53361835198238, 36.974297768245854], [122.53361835198238, 36.97465709435951], [122.53307936281192, 36.97465709435951], [122.53307936281192, 36.97483675741633], [122.53325902586873, 36.97483675741633], [122.53325902586873, 36.97501642047315], [122.53307936281192, 36.97501642047315], [122.53307936281192, 36.97519608352997], [122.53325902586873, 36.97519608352997], [122.53325902586873, 36.975555409643626], [122.53361835198238, 36.975555409643626], [122.53361835198238, 36.975735072700445], [122.53415734115286, 36.975735072700445], [122.53415734115286, 36.97627406187092], [122.5345166672665, 36.97627406187092], [122.5345166672665, 36.976453724927744], [122.53469633032333, 36.976453724927744], [122.53469633032333, 36.97663338798457], [122.53487599338015, 36.97663338798457], [122.53487599338015, 36.97681305104139], [122.53505565643698, 36.97681305104139], [122.53505565643698, 36.976992714098216], [122.5352353194938, 36.976992714098216], [122.5352353194938, 36.97735204021186], [122.53505565643698, 36.97735204021186], [122.53505565643698, 36.97753170326869], [122.53469633032333, 36.97753170326869], [122.53469633032333, 36.97771136632551], [122.5345166672665, 36.97771136632551], [122.5345166672665, 36.977891029382334], [122.53433700420968, 36.977891029382334], [122.53433700420968, 36.97807069243916], [122.53415734115286, 36.97807069243916], [122.53415734115286, 36.97825035549598], [122.53379801503921, 36.97825035549598], [122.53379801503921, 36.97771136632551], [122.53361835198238, 36.97771136632551], [122.53361835198238, 36.97735204021186], [122.53343868892556, 36.97735204021186], [122.53343868892556, 36.977172377155036], [122.53325902586873, 36.977172377155036], [122.53325902586873, 36.97663338798457], [122.53307936281192, 36.97663338798457], [122.53307936281192, 36.976453724927744], [122.53289969975509, 36.976453724927744], [122.53289969975509, 36.97627406187092], [122.53272003669827, 36.97627406187092], [122.53272003669827, 36.97681305104139], [122.53236071058461, 36.97681305104139], [122.53236071058461, 36.97663338798457], [122.5321810475278, 36.97663338798457], [122.5321810475278, 36.976453724927744], [122.53200138447097, 36.976453724927744], [122.53200138447097, 36.97681305104139], [122.5321810475278, 36.97681305104139], [122.5321810475278, 36.976992714098216], [122.53200138447097, 36.976992714098216], [122.53200138447097, 36.977172377155036], [122.53182172141415, 36.977172377155036], [122.53182172141415, 36.97735204021186], [122.5314623953005, 36.97735204021186], [122.5314623953005, 36.97753170326869], [122.53128273224367, 36.97753170326869], [122.53128273224367, 36.97771136632551], [122.5307437430732, 36.97771136632551], [122.5307437430732, 36.977891029382334], [122.53056408001638, 36.977891029382334], [122.53056408001638, 36.97807069243916], [122.53020475390274, 36.97807069243916], [122.53020475390274, 36.97825035549598], [122.52966576473226, 36.97825035549598], [122.52966576473226, 36.97843001855281], [122.52948610167543, 36.97843001855281], [122.52948610167543, 36.97860968160963], [122.52912677556179, 36.97860968160963], [122.52912677556179, 36.97878934466645], [122.52894711250497, 36.97878934466645], [122.52894711250497, 36.97896900772328], [122.52876744944814, 36.97896900772328], [122.52876744944814, 36.979328333836925], [122.52804879722085, 36.979328333836925]], [[122.5293064386186, 36.97070450710938], [122.52912677556179, 36.97070450710938], [122.52912677556179, 36.970524844052555], [122.5293064386186, 36.970524844052555], [122.5293064386186, 36.97070450710938]], [[122.52894711250497, 36.97250113767762], [122.52858778639131, 36.97250113767762], [122.52858778639131, 36.97232147462079], [122.52876744944814, 36.97232147462079], [122.52876744944814, 36.971962148507146], [122.52912677556179, 36.971962148507146], [122.52912677556179, 36.97232147462079], [122.52894711250497, 36.97232147462079], [122.52894711250497, 36.97250113767762]], [[122.52840812333449, 36.97321978990491], [122.52804879722085, 36.97321978990491], [122.52804879722085, 36.97304012684809], [122.52822846027767, 36.97304012684809], [122.52822846027767, 36.972860463791264], [122.52840812333449, 36.972860463791264], [122.52840812333449, 36.97321978990491]], [[122.52948610167543, 36.973399452961736], [122.5293064386186, 36.973399452961736], [122.5293064386186, 36.97321978990491], [122.52948610167543, 36.97321978990491], [122.52948610167543, 36.973399452961736]], [[122.52750980805037, 36.97393844213221], [122.52733014499354, 36.97393844213221], [122.52733014499354, 36.97375877907538], [122.52750980805037, 36.97375877907538], [122.52750980805037, 36.97393844213221]], [[122.53092340613003, 36.97447743130268], [122.5307437430732, 36.97447743130268], [122.5307437430732, 36.974297768245854], [122.53056408001638, 36.974297768245854], [122.53056408001638, 36.974118105189035], [122.5307437430732, 36.974118105189035], [122.5307437430732, 36.97375877907538], [122.53092340613003, 36.97375877907538], [122.53092340613003, 36.97393844213221], [122.5314623953005, 36.97393844213221], [122.5314623953005, 36.974118105189035], [122.53110306918686, 36.974118105189035], [122.53110306918686, 36.974297768245854], [122.53092340613003, 36.974297768245854], [122.53092340613003, 36.97447743130268]], [[122.52894711250497, 36.97519608352997], [122.52876744944814, 36.97519608352997], [122.52876744944814, 36.97483675741633], [122.52894711250497, 36.97483675741633], [122.52894711250497, 36.97519608352997]], [[122.52948610167543, 36.9753757465868], [122.52894711250497, 36.9753757465868], [122.52894711250497, 36.97519608352997], [122.52948610167543, 36.97519608352997], [122.52948610167543, 36.9753757465868]], [[122.53236071058461, 36.9753757465868], [122.53200138447097, 36.9753757465868], [122.53200138447097, 36.97519608352997], [122.53182172141415, 36.97519608352997], [122.53182172141415, 36.9753757465868], [122.53164205835732, 36.9753757465868], [122.53164205835732, 36.97519608352997], [122.53038441695955, 36.97519608352997], [122.53038441695955, 36.97501642047315], [122.5307437430732, 36.97501642047315], [122.5307437430732, 36.97483675741633], [122.53110306918686, 36.97483675741633], [122.53110306918686, 36.97501642047315], [122.53128273224367, 36.97501642047315], [122.53128273224367, 36.97483675741633], [122.5314623953005, 36.97483675741633], [122.5314623953005, 36.974297768245854], [122.53200138447097, 36.974297768245854], [122.53200138447097, 36.97447743130268], [122.53182172141415, 36.97447743130268], [122.53182172141415, 36.97501642047315], [122.53236071058461, 36.97501642047315], [122.53236071058461, 36.9753757465868]], [[122.52535385136848, 36.975555409643626], [122.52517418831167, 36.975555409643626], [122.52517418831167, 36.9753757465868], [122.52535385136848, 36.9753757465868], [122.52535385136848, 36.975555409643626]], [[122.53002509084591, 36.975555409643626], [122.52984542778908, 36.975555409643626], [122.52984542778908, 36.9753757465868], [122.53002509084591, 36.9753757465868], [122.53002509084591, 36.975555409643626]], [[122.52984542778908, 36.975735072700445], [122.52966576473226, 36.975735072700445], [122.52966576473226, 36.975555409643626], [122.52984542778908, 36.975555409643626], [122.52984542778908, 36.975735072700445]], [[122.53200138447097, 36.975735072700445], [122.53164205835732, 36.975735072700445], [122.53164205835732, 36.975555409643626], [122.53200138447097, 36.975555409643626], [122.53200138447097, 36.975735072700445]], [[122.53272003669827, 36.97627406187092], [122.53254037364144, 36.97627406187092], [122.53254037364144, 36.9760943988141], [122.5321810475278, 36.9760943988141], [122.5321810475278, 36.97627406187092], [122.53200138447097, 36.97627406187092], [122.53200138447097, 36.97591473575727], [122.53272003669827, 36.97591473575727], [122.53272003669827, 36.975735072700445], [122.53307936281192, 36.975735072700445], [122.53307936281192, 36.97591473575727], [122.53289969975509, 36.97591473575727], [122.53289969975509, 36.9760943988141], [122.53272003669827, 36.9760943988141], [122.53272003669827, 36.97627406187092]], [[122.53038441695955, 36.977172377155036], [122.53020475390274, 36.977172377155036], [122.53020475390274, 36.976992714098216], [122.53038441695955, 36.976992714098216], [122.53038441695955, 36.977172377155036]], [[122.52984542778908, 36.97735204021186], [122.52948610167543, 36.97735204021186], [122.52948610167543, 36.977172377155036], [122.5293064386186, 36.977172377155036], [122.5293064386186, 36.976992714098216], [122.52948610167543, 36.976992714098216], [122.52948610167543, 36.97681305104139], [122.52984542778908, 36.97681305104139], [122.52984542778908, 36.97663338798457], [122.53002509084591, 36.97663338798457], [122.53002509084591, 36.97627406187092], [122.52984542778908, 36.97627406187092], [122.52984542778908, 36.9760943988141], [122.5307437430732, 36.9760943988141], [122.5307437430732, 36.97627406187092], [122.53092340613003, 36.97627406187092], [122.53092340613003, 36.976453724927744], [122.53128273224367, 36.976453724927744], [122.53128273224367, 36.97663338798457], [122.53092340613003, 36.97663338798457], [122.53092340613003, 36.97681305104139], [122.5307437430732, 36.97681305104139], [122.5307437430732, 36.976992714098216], [122.53038441695955, 36.976992714098216], [122.53038441695955, 36.97681305104139], [122.53002509084591, 36.97681305104139], [122.53002509084591, 36.977172377155036], [122.52984542778908, 36.977172377155036], [122.52984542778908, 36.97735204021186]], [[122.5345166672665, 36.97771136632551], [122.53433700420968, 36.97771136632551], [122.53433700420968, 36.97753170326869], [122.5345166672665, 36.97753170326869], [122.5345166672665, 36.97771136632551]]]}, "properties": {"name": "cand01", "ptype": "hall", "confidence": "low", "rank": 1, "area_ha": 54.8, "rise_db": 9.0, "digitised_from": "Sentinel-1 VV rise 2022->2026, orbit 98"}}, {"type": "Feature", "geometry": {"geodesic": false, "type": "Polygon", "coordinates": [[[122.53002509084591, 36.98974879113271], [122.53002509084591, 36.989569128075885], [122.52966576473226, 36.989569128075885], [122.52966576473226, 36.989389465019066], [122.5293064386186, 36.989389465019066], [122.5293064386186, 36.98920980196224], [122.52948610167543, 36.98920980196224], [122.52948610167543, 36.98903013890542], [122.52966576473226, 36.98903013890542], [122.52966576473226, 36.987952160564475], [122.52948610167543, 36.987952160564475], [122.52948610167543, 36.987413171394], [122.52966576473226, 36.987413171394], [122.52966576473226, 36.98723350833718], [122.5293064386186, 36.98723350833718], [122.5293064386186, 36.986694519166704], [122.52948610167543, 36.986694519166704], [122.52948610167543, 36.986514856109885], [122.5293064386186, 36.986514856109885], [122.5293064386186, 36.98633519305306], [122.52948610167543, 36.98633519305306], [122.52948610167543, 36.98615552999623], [122.52966576473226, 36.98615552999623], [122.52966576473226, 36.98597586693941], [122.5293064386186, 36.98597586693941], [122.5293064386186, 36.98615552999623], [122.52912677556179, 36.98615552999623], [122.52912677556179, 36.98597586693941], [122.52894711250497, 36.98597586693941], [122.52894711250497, 36.98561654082576], [122.52912677556179, 36.98561654082576], [122.52912677556179, 36.98507755165529], [122.5293064386186, 36.98507755165529], [122.5293064386186, 36.98489788859847], [122.52966576473226, 36.98489788859847], [122.52966576473226, 36.98471822554164], [122.53020475390274, 36.98471822554164], [122.53020475390274, 36.98453856248482], [122.53038441695955, 36.98453856248482], [122.53038441695955, 36.984358899427995], [122.5307437430732, 36.984358899427995], [122.5307437430732, 36.98417923637117], [122.53128273224367, 36.98417923637117], [122.53128273224367, 36.98399957331435], [122.53164205835732, 36.98399957331435], [122.53164205835732, 36.98417923637117], [122.53182172141415, 36.98417923637117], [122.53182172141415, 36.98399957331435], [122.53200138447097, 36.98399957331435], [122.53200138447097, 36.9836402472007], [122.53254037364144, 36.9836402472007], [122.53254037364144, 36.98346058414388], [122.53272003669827, 36.98346058414388], [122.53272003669827, 36.98328092108705], [122.53289969975509, 36.98328092108705], [122.53289969975509, 36.983101258030224], [122.53325902586873, 36.983101258030224], [122.53325902586873, 36.982921594973405], [122.53379801503921, 36.982921594973405], [122.53379801503921, 36.983101258030224], [122.53397767809604, 36.983101258030224], [122.53397767809604, 36.98328092108705], [122.53415734115286, 36.98328092108705], [122.53415734115286, 36.9836402472007], [122.53433700420968, 36.9836402472007], [122.53433700420968, 36.98381991025752], [122.53487599338015, 36.98381991025752], [122.53487599338015, 36.9836402472007], [122.53541498255062, 36.9836402472007], [122.53541498255062, 36.98417923637117], [122.5352353194938, 36.98417923637117], [122.5352353194938, 36.984358899427995], [122.53541498255062, 36.984358899427995], [122.53541498255062, 36.98453856248482], [122.5352353194938, 36.98453856248482], [122.5352353194938, 36.98471822554164], [122.5345166672665, 36.98471822554164], [122.5345166672665, 36.98489788859847], [122.53397767809604, 36.98489788859847], [122.53397767809604, 36.98507755165529], [122.53361835198238, 36.98507755165529], [122.53361835198238, 36.985257214712114], [122.53433700420968, 36.985257214712114], [122.53433700420968, 36.98543687776894], [122.53505565643698, 36.98543687776894], [122.53505565643698, 36.98561654082576], [122.5352353194938, 36.98561654082576], [122.5352353194938, 36.98597586693941], [122.53487599338015, 36.98597586693941], [122.53487599338015, 36.98615552999623], [122.53505565643698, 36.98615552999623], [122.53505565643698, 36.98633519305306], [122.5352353194938, 36.98633519305306], [122.5352353194938, 36.987413171394], [122.53505565643698, 36.987413171394], [122.53505565643698, 36.98849114973495], [122.53487599338015, 36.98849114973495], [122.53487599338015, 36.988850475848594], [122.53469633032333, 36.988850475848594], [122.53469633032333, 36.98920980196224], [122.53433700420968, 36.98920980196224], [122.53433700420968, 36.98903013890542], [122.53361835198238, 36.98903013890542], [122.53361835198238, 36.988850475848594], [122.53343868892556, 36.988850475848594], [122.53343868892556, 36.98867081279177], [122.53325902586873, 36.98867081279177], [122.53325902586873, 36.98849114973495], [122.53307936281192, 36.98849114973495], [122.53307936281192, 36.988131823621295], [122.53325902586873, 36.988131823621295], [122.53325902586873, 36.987952160564475], [122.53361835198238, 36.987952160564475], [122.53361835198238, 36.98777249750765], [122.53379801503921, 36.98777249750765], [122.53379801503921, 36.987413171394], [122.53361835198238, 36.987413171394], [122.53361835198238, 36.98759283445082], [122.53343868892556, 36.98759283445082], [122.53343868892556, 36.98777249750765], [122.53307936281192, 36.98777249750765], [122.53307936281192, 36.987952160564475], [122.53289969975509, 36.987952160564475], [122.53289969975509, 36.98849114973495], [122.53272003669827, 36.98849114973495], [122.53272003669827, 36.988850475848594], [122.5321810475278, 36.988850475848594], [122.5321810475278, 36.98867081279177], [122.53200138447097, 36.98867081279177], [122.53200138447097, 36.988131823621295], [122.5321810475278, 36.988131823621295], [122.5321810475278, 36.987952160564475], [122.53200138447097, 36.987952160564475], [122.53200138447097, 36.98777249750765], [122.53182172141415, 36.98777249750765], [122.53182172141415, 36.98759283445082], [122.53164205835732, 36.98759283445082], [122.53164205835732, 36.98777249750765], [122.5314623953005, 36.98777249750765], [122.5314623953005, 36.987952160564475], [122.53164205835732, 36.987952160564475], [122.53164205835732, 36.98831148667812], [122.5314623953005, 36.98831148667812], [122.5314623953005, 36.98849114973495], [122.5307437430732, 36.98849114973495], [122.5307437430732, 36.988850475848594], [122.53056408001638, 36.988850475848594], [122.53056408001638, 36.98920980196224], [122.53092340613003, 36.98920980196224], [122.53092340613003, 36.98974879113271], [122.53002509084591, 36.98974879113271]], [[122.53397767809604, 36.98399957331435], [122.53361835198238, 36.98399957331435], [122.53361835198238, 36.98381991025752], [122.53343868892556, 36.98381991025752], [122.53343868892556, 36.98328092108705], [122.53361835198238, 36.98328092108705], [122.53361835198238, 36.98346058414388], [122.53379801503921, 36.98346058414388], [122.53379801503921, 36.9836402472007], [122.53397767809604, 36.9836402472007], [122.53397767809604, 36.98399957331435]], [[122.53307936281192, 36.98417923637117], [122.53289969975509, 36.98417923637117], [122.53289969975509, 36.98399957331435], [122.53307936281192, 36.98399957331435], [122.53307936281192, 36.98417923637117]], [[122.53289969975509, 36.98453856248482], [122.5321810475278, 36.98453856248482], [122.5321810475278, 36.98417923637117], [122.53236071058461, 36.98417923637117], [122.53236071058461, 36.98399957331435], [122.53254037364144, 36.98399957331435], [122.53254037364144, 36.98417923637117], [122.53289969975509, 36.98417923637117], [122.53289969975509, 36.98453856248482]], [[122.53469633032333, 36.98453856248482], [122.53433700420968, 36.98453856248482], [122.53433700420968, 36.984358899427995], [122.53469633032333, 36.984358899427995], [122.53469633032333, 36.98453856248482]], [[122.53433700420968, 36.98471822554164], [122.53415734115286, 36.98471822554164], [122.53415734115286, 36.98453856248482], [122.53433700420968, 36.98453856248482], [122.53433700420968, 36.98471822554164]], [[122.53182172141415, 36.98543687776894], [122.53128273224367, 36.98543687776894], [122.53128273224367, 36.98507755165529], [122.53092340613003, 36.98507755165529], [122.53092340613003, 36.985257214712114], [122.53056408001638, 36.985257214712114], [122.53056408001638, 36.98489788859847], [122.5307437430732, 36.98489788859847], [122.5307437430732, 36.98471822554164], [122.53128273224367, 36.98471822554164], [122.53128273224367, 36.984358899427995], [122.53164205835732, 36.984358899427995], [122.53164205835732, 36.98453856248482], [122.5314623953005, 36.98453856248482], [122.5314623953005, 36.98471822554164], [122.5321810475278, 36.98471822554164], [122.5321810475278, 36.98489788859847], [122.53200138447097, 36.98489788859847], [122.53200138447097, 36.985257214712114], [122.53182172141415, 36.985257214712114], [122.53182172141415, 36.98543687776894]], [[122.53056408001638, 36.98561654082576], [122.53038441695955, 36.98561654082576], [122.53038441695955, 36.98543687776894], [122.53056408001638, 36.98543687776894], [122.53056408001638, 36.98561654082576]], [[122.53254037364144, 36.98561654082576], [122.53236071058461, 36.98561654082576], [122.53236071058461, 36.985257214712114], [122.53254037364144, 36.985257214712114], [122.53254037364144, 36.98489788859847], [122.53272003669827, 36.98489788859847], [122.53272003669827, 36.98507755165529], [122.53289969975509, 36.98507755165529], [122.53289969975509, 36.985257214712114], [122.53272003669827, 36.985257214712114], [122.53272003669827, 36.98543687776894], [122.53254037364144, 36.98543687776894], [122.53254037364144, 36.98561654082576]], [[122.5321810475278, 36.98687418222353], [122.53200138447097, 36.98687418222353], [122.53200138447097, 36.986694519166704], [122.5321810475278, 36.986694519166704], [122.5321810475278, 36.98687418222353]], [[122.53110306918686, 36.98705384528035], [122.5307437430732, 36.98705384528035], [122.5307437430732, 36.98687418222353], [122.53056408001638, 36.98687418222353], [122.53056408001638, 36.986694519166704], [122.53020475390274, 36.986694519166704], [122.53020475390274, 36.986514856109885], [122.53002509084591, 36.986514856109885], [122.53002509084591, 36.98633519305306], [122.52966576473226, 36.98633519305306], [122.52966576473226, 36.98615552999623], [122.53020475390274, 36.98615552999623], [122.53020475390274, 36.98633519305306], [122.5307437430732, 36.98633519305306], [122.5307437430732, 36.986514856109885], [122.53092340613003, 36.986514856109885], [122.53092340613003, 36.986694519166704], [122.53110306918686, 36.986694519166704], [122.53110306918686, 36.98705384528035]], [[122.53182172141415, 36.98705384528035], [122.53164205835732, 36.98705384528035], [122.53164205835732, 36.98687418222353], [122.53182172141415, 36.98687418222353], [122.53182172141415, 36.98705384528035]], [[122.52984542778908, 36.98723350833718], [122.52966576473226, 36.98723350833718], [122.52966576473226, 36.98705384528035], [122.52984542778908, 36.98705384528035], [122.52984542778908, 36.98723350833718]], [[122.53164205835732, 36.98723350833718], [122.5314623953005, 36.98723350833718], [122.5314623953005, 36.98705384528035], [122.53164205835732, 36.98705384528035], [122.53164205835732, 36.98723350833718]], [[122.53002509084591, 36.98759283445082], [122.52984542778908, 36.98759283445082], [122.52984542778908, 36.987413171394], [122.53002509084591, 36.987413171394], [122.53002509084591, 36.98759283445082]], [[122.5345166672665, 36.987952160564475], [122.53433700420968, 36.987952160564475], [122.53433700420968, 36.98777249750765], [122.5345166672665, 36.98777249750765], [122.5345166672665, 36.987952160564475]], [[122.53002509084591, 36.98849114973495], [122.52984542778908, 36.98849114973495], [122.52984542778908, 36.98831148667812], [122.53002509084591, 36.98831148667812], [122.53002509084591, 36.98849114973495]]]}, "properties": {"name": "cand02", "ptype": "hall", "confidence": "low", "rank": 2, "area_ha": 31.5, "rise_db": 8.6, "digitised_from": "Sentinel-1 VV rise 2022->2026, orbit 98"}}, {"type": "Feature", "geometry": {"geodesic": false, "type": "Polygon", "coordinates": [[[122.51403507878858, 36.94177875496073], [122.51403507878858, 36.941419428847084], [122.51421474184541, 36.941419428847084], [122.51421474184541, 36.94123976579026], [122.51439440490223, 36.94123976579026], [122.51439440490223, 36.94088043967661], [122.51385541573175, 36.94088043967661], [122.51385541573175, 36.940700776619785], [122.51367575267493, 36.940700776619785], [122.51367575267493, 36.940521113562966], [122.51331642656129, 36.940521113562966], [122.51331642656129, 36.940700776619785], [122.5134960896181, 36.940700776619785], [122.5134960896181, 36.94123976579026], [122.51295710044764, 36.94123976579026], [122.51295710044764, 36.941419428847084], [122.51277743739081, 36.941419428847084], [122.51277743739081, 36.9415990919039], [122.51259777433398, 36.9415990919039], [122.51259777433398, 36.94106010273343], [122.51277743739081, 36.94106010273343], [122.51277743739081, 36.94088043967661], [122.51259777433398, 36.94088043967661], [122.51259777433398, 36.940700776619785], [122.51241811127716, 36.940700776619785], [122.51241811127716, 36.94016178744931], [122.51277743739081, 36.94016178744931], [122.51277743739081, 36.94034145050614], [122.51331642656129, 36.94034145050614], [122.51331642656129, 36.94016178744931], [122.5134960896181, 36.94016178744931], [122.5134960896181, 36.93998212439249], [122.51421474184541, 36.93998212439249], [122.51421474184541, 36.94016178744931], [122.51439440490223, 36.94016178744931], [122.51439440490223, 36.93998212439249], [122.51475373101587, 36.93998212439249], [122.51475373101587, 36.94016178744931], [122.51511305712953, 36.94016178744931], [122.51511305712953, 36.940700776619785], [122.51529272018635, 36.940700776619785], [122.51529272018635, 36.94088043967661], [122.51547238324316, 36.94088043967661], [122.51547238324316, 36.94106010273343], [122.51529272018635, 36.94106010273343], [122.51529272018635, 36.941419428847084], [122.51511305712953, 36.941419428847084], [122.51511305712953, 36.94088043967661], [122.51457406795905, 36.94088043967661], [122.51457406795905, 36.94123976579026], [122.51475373101587, 36.94123976579026], [122.51475373101587, 36.9415990919039], [122.51529272018635, 36.9415990919039], [122.51529272018635, 36.94177875496073], [122.51403507878858, 36.94177875496073]]]}, "properties": {"name": "cand03", "ptype": "hall", "confidence": "low", "rank": 3, "area_ha": 3.6, "rise_db": 10.1, "digitised_from": "Sentinel-1 VV rise 2022->2026, orbit 98"}}, {"type": "Feature", "geometry": {"geodesic": false, "type": "Polygon", "coordinates": [[[122.53936756980075, 36.97519608352997], [122.53936756980075, 36.97465709435951], [122.53918790674392, 36.97465709435951], [122.53918790674392, 36.97447743130268], [122.5390082436871, 36.97447743130268], [122.5390082436871, 36.97483675741633], [122.53882858063028, 36.97483675741633], [122.53882858063028, 36.974297768245854], [122.53864891757345, 36.974297768245854], [122.53864891757345, 36.97465709435951], [122.53810992840299, 36.97465709435951], [122.53810992840299, 36.97483675741633], [122.53775060228934, 36.97483675741633], [122.53775060228934, 36.97465709435951], [122.53810992840299, 36.97465709435951], [122.53810992840299, 36.97447743130268], [122.53685228700522, 36.97447743130268], [122.53685228700522, 36.974297768245854], [122.53397767809604, 36.974297768245854], [122.53397767809604, 36.97393844213221], [122.53433700420968, 36.97393844213221], [122.53433700420968, 36.97375877907538], [122.5345166672665, 36.97375877907538], [122.5345166672665, 36.97357911601856], [122.53505565643698, 36.97357911601856], [122.53505565643698, 36.97375877907538], [122.53631329783474, 36.97375877907538], [122.53631329783474, 36.97393844213221], [122.53739127617568, 36.97393844213221], [122.53739127617568, 36.974118105189035], [122.5382895914598, 36.974118105189035], [122.5382895914598, 36.97393844213221], [122.53846925451663, 36.97393844213221], [122.53846925451663, 36.97375877907538], [122.53864891757345, 36.97375877907538], [122.53864891757345, 36.97393844213221], [122.53882858063028, 36.97393844213221], [122.53882858063028, 36.974118105189035], [122.5390082436871, 36.974118105189035], [122.5390082436871, 36.974297768245854], [122.53936756980075, 36.974297768245854], [122.53936756980075, 36.97447743130268], [122.53954723285757, 36.97447743130268], [122.53954723285757, 36.97519608352997], [122.53936756980075, 36.97519608352997]]]}, "properties": {"name": "cand04", "ptype": "hall", "confidence": "low", "rank": 4, "area_ha": 3.6, "rise_db": 9.2, "digitised_from": "Sentinel-1 VV rise 2022->2026, orbit 98"}}, {"type": "Feature", "geometry": {"geodesic": false, "type": "Polygon", "coordinates": [[[122.52229957940249, 36.97232147462079], [122.52229957940249, 36.97214181156397], [122.52194025328883, 36.97214181156397], [122.52194025328883, 36.971962148507146], [122.52211991634566, 36.971962148507146], [122.52211991634566, 36.97178248545032], [122.52158092717518, 36.97178248545032], [122.52158092717518, 36.9716028223935], [122.52140126411835, 36.9716028223935], [122.52140126411835, 36.97142315933667], [122.52122160106154, 36.97142315933667], [122.52122160106154, 36.97106383322303], [122.52104193800471, 36.97106383322303], [122.52104193800471, 36.9708841701662], [122.52086227494789, 36.9708841701662], [122.52086227494789, 36.97070450710938], [122.52104193800471, 36.97070450710938], [122.52104193800471, 36.9708841701662], [122.52140126411835, 36.9708841701662], [122.52140126411835, 36.97016551793891], [122.521760590232, 36.97016551793891], [122.521760590232, 36.97034518099573], [122.52194025328883, 36.97034518099573], [122.52194025328883, 36.970524844052555], [122.52229957940249, 36.970524844052555], [122.52229957940249, 36.97034518099573], [122.52265890551612, 36.97034518099573], [122.52265890551612, 36.97070450710938], [122.5224792424593, 36.97070450710938], [122.5224792424593, 36.9708841701662], [122.52265890551612, 36.9708841701662], [122.52265890551612, 36.97106383322303], [122.52283856857295, 36.97106383322303], [122.52283856857295, 36.97124349627985], [122.52301823162978, 36.97124349627985], [122.52301823162978, 36.97142315933667], [122.52229957940249, 36.97142315933667], [122.52229957940249, 36.9716028223935], [122.52211991634566, 36.9716028223935], [122.52211991634566, 36.97178248545032], [122.52229957940249, 36.97178248545032], [122.52229957940249, 36.971962148507146], [122.5224792424593, 36.971962148507146], [122.5224792424593, 36.97232147462079], [122.52229957940249, 36.97232147462079]]]}, "properties": {"name": "cand05", "ptype": "hall", "confidence": "low", "rank": 5, "area_ha": 2.5, "rise_db": 5.7, "digitised_from": "Sentinel-1 VV rise 2022->2026, orbit 98"}}, {"type": "Feature", "geometry": {"geodesic": false, "type": "Polygon", "coordinates": [[[122.52517418831167, 36.96890787654114], [122.52517418831167, 36.967650235143374], [122.52535385136848, 36.967650235143374], [122.52535385136848, 36.96729090902972], [122.52571317748213, 36.96729090902972], [122.52571317748213, 36.966931582916075], [122.52625216665261, 36.966931582916075], [122.52625216665261, 36.966751919859256], [122.52643182970942, 36.966751919859256], [122.52643182970942, 36.96657225680243], [122.52661149276625, 36.96657225680243], [122.52661149276625, 36.9663925937456], [122.52679115582308, 36.9663925937456], [122.52679115582308, 36.96621293068878], [122.52733014499354, 36.96621293068878], [122.52733014499354, 36.9663925937456], [122.52715048193673, 36.9663925937456], [122.52715048193673, 36.96657225680243], [122.5269708188799, 36.96657225680243], [122.5269708188799, 36.966751919859256], [122.52679115582308, 36.966751919859256], [122.52679115582308, 36.966931582916075], [122.52661149276625, 36.966931582916075], [122.52661149276625, 36.9671112459729], [122.52625216665261, 36.9671112459729], [122.52625216665261, 36.96782989820019], [122.52607250359578, 36.96782989820019], [122.52607250359578, 36.968189224313846], [122.52589284053896, 36.968189224313846], [122.52589284053896, 36.96872821348432], [122.52571317748213, 36.96872821348432], [122.52571317748213, 36.96890787654114], [122.52517418831167, 36.96890787654114]], [[122.52679115582308, 36.966751919859256], [122.52661149276625, 36.966751919859256], [122.52661149276625, 36.96657225680243], [122.52679115582308, 36.96657225680243], [122.52679115582308, 36.966751919859256]]]}, "properties": {"name": "cand06", "ptype": "hall", "confidence": "low", "rank": 6, "area_ha": 2.4, "rise_db": 6.9, "digitised_from": "Sentinel-1 VV rise 2022->2026, orbit 98"}}, {"type": "Feature", "geometry": {"geodesic": false, "type": "Polygon", "coordinates": [[[122.52679115582308, 36.981484290518814], [122.52679115582308, 36.98130462746199], [122.52661149276625, 36.98130462746199], [122.52661149276625, 36.98112496440516], [122.52679115582308, 36.98112496440516], [122.52679115582308, 36.98094530134834], [122.52643182970942, 36.98094530134834], [122.52643182970942, 36.980585975234696], [122.52715048193673, 36.980585975234696], [122.52715048193673, 36.980765638291516], [122.52733014499354, 36.980765638291516], [122.52733014499354, 36.98094530134834], [122.52750980805037, 36.98094530134834], [122.52750980805037, 36.980765638291516], [122.5276894711072, 36.980765638291516], [122.5276894711072, 36.980585975234696], [122.52750980805037, 36.980585975234696], [122.52750980805037, 36.98040631217787], [122.52733014499354, 36.98040631217787], [122.52733014499354, 36.98022664912104], [122.52750980805037, 36.98022664912104], [122.52750980805037, 36.980046986064224], [122.5276894711072, 36.980046986064224], [122.5276894711072, 36.9798673230074], [122.52804879722085, 36.9798673230074], [122.52804879722085, 36.97968765995057], [122.52858778639131, 36.97968765995057], [122.52858778639131, 36.98040631217787], [122.52840812333449, 36.98040631217787], [122.52840812333449, 36.980765638291516], [122.52822846027767, 36.980765638291516], [122.52822846027767, 36.98094530134834], [122.52786913416402, 36.98094530134834], [122.52786913416402, 36.98112496440516], [122.52750980805037, 36.98112496440516], [122.52750980805037, 36.98130462746199], [122.52715048193673, 36.98130462746199], [122.52715048193673, 36.981484290518814], [122.52679115582308, 36.981484290518814]]]}, "properties": {"name": "cand07", "ptype": "hall", "confidence": "low", "rank": 7, "area_ha": 2.2, "rise_db": 6.4, "digitised_from": "Sentinel-1 VV rise 2022->2026, orbit 98"}}, {"type": "Feature", "geometry": {"geodesic": false, "type": "Polygon", "coordinates": [[[122.5231978946866, 36.96962652876844], [122.5231978946866, 36.96944686571161], [122.52301823162978, 36.96944686571161], [122.52301823162978, 36.969087539597965], [122.5231978946866, 36.969087539597965], [122.5231978946866, 36.96854855042749], [122.52373688385707, 36.96854855042749], [122.52373688385707, 36.968368887370666], [122.5239165469139, 36.968368887370666], [122.5239165469139, 36.96872821348432], [122.52373688385707, 36.96872821348432], [122.52373688385707, 36.969087539597965], [122.52409620997072, 36.969087539597965], [122.52409620997072, 36.96890787654114], [122.52499452525484, 36.96890787654114], [122.52499452525484, 36.969267202654784], [122.5239165469139, 36.969267202654784], [122.5239165469139, 36.96944686571161], [122.52373688385707, 36.96944686571161], [122.52373688385707, 36.96962652876844], [122.5231978946866, 36.96962652876844]]]}, "properties": {"name": "cand08", "ptype": "hall", "confidence": "low", "rank": 8, "area_ha": 1.4, "rise_db": 5.7, "digitised_from": "Sentinel-1 VV rise 2022->2026, orbit 98"}}, {"type": "Feature", "geometry": {"geodesic": false, "type": "Polygon", "coordinates": [[[122.51834699215236, 36.972860463791264], [122.51834699215236, 36.972680800734445], [122.51816732909553, 36.972680800734445], [122.51816732909553, 36.971962148507146], [122.51780800298188, 36.971962148507146], [122.51780800298188, 36.97178248545032], [122.51744867686823, 36.97178248545032], [122.51744867686823, 36.9716028223935], [122.51726901381141, 36.9716028223935], [122.51726901381141, 36.97106383322303], [122.51762833992505, 36.97106383322303], [122.51762833992505, 36.97124349627985], [122.51780800298188, 36.97124349627985], [122.51780800298188, 36.97142315933667], [122.5179876660387, 36.97142315933667], [122.5179876660387, 36.9716028223935], [122.51816732909553, 36.9716028223935], [122.51816732909553, 36.97178248545032], [122.51852665520917, 36.97178248545032], [122.51852665520917, 36.971962148507146], [122.518706318266, 36.971962148507146], [122.518706318266, 36.97214181156397], [122.51852665520917, 36.97214181156397], [122.51852665520917, 36.97232147462079], [122.518706318266, 36.97232147462079], [122.518706318266, 36.97250113767762], [122.51888598132282, 36.97250113767762], [122.51888598132282, 36.972860463791264], [122.51834699215236, 36.972860463791264]]]}, "properties": {"name": "cand09", "ptype": "hall", "confidence": "low", "rank": 9, "area_ha": 1.3, "rise_db": 6.1, "digitised_from": "Sentinel-1 VV rise 2022->2026, orbit 98"}}, {"type": "Feature", "geometry": {"geodesic": false, "type": "Polygon", "coordinates": [[[122.518706318266, 36.98759283445082], [122.518706318266, 36.987413171394], [122.51852665520917, 36.987413171394], [122.51852665520917, 36.98723350833718], [122.51834699215236, 36.98723350833718], [122.51834699215236, 36.986514856109885], [122.518706318266, 36.986514856109885], [122.518706318266, 36.986694519166704], [122.51906564437965, 36.986694519166704], [122.51906564437965, 36.986514856109885], [122.51888598132282, 36.986514856109885], [122.51888598132282, 36.98633519305306], [122.51924530743648, 36.98633519305306], [122.51924530743648, 36.986514856109885], [122.51942497049329, 36.986514856109885], [122.51942497049329, 36.98723350833718], [122.51924530743648, 36.98723350833718], [122.51924530743648, 36.987413171394], [122.51906564437965, 36.987413171394], [122.51906564437965, 36.98759283445082], [122.518706318266, 36.98759283445082]]]}, "properties": {"name": "cand10", "ptype": "hall", "confidence": "low", "rank": 10, "area_ha": 1.2, "rise_db": 8.0, "digitised_from": "Sentinel-1 VV rise 2022->2026, orbit 98"}}, {"type": "Feature", "geometry": {"geodesic": false, "type": "Polygon", "coordinates": [[[122.51906564437965, 36.97393844213221], [122.51906564437965, 36.97375877907538], [122.51834699215236, 36.97375877907538], [122.51834699215236, 36.97357911601856], [122.51816732909553, 36.97357911601856], [122.51816732909553, 36.973399452961736], [122.51780800298188, 36.973399452961736], [122.51780800298188, 36.97321978990491], [122.51762833992505, 36.97321978990491], [122.51762833992505, 36.97304012684809], [122.51816732909553, 36.97304012684809], [122.51816732909553, 36.97321978990491], [122.51924530743648, 36.97321978990491], [122.51924530743648, 36.973399452961736], [122.51942497049329, 36.973399452961736], [122.51942497049329, 36.97375877907538], [122.51924530743648, 36.97375877907538], [122.51924530743648, 36.97393844213221], [122.51906564437965, 36.97393844213221]]]}, "properties": {"name": "cand11", "ptype": "hall", "confidence": "low", "rank": 11, "area_ha": 1.0, "rise_db": 8.8, "digitised_from": "Sentinel-1 VV rise 2022->2026, orbit 98"}}]}