{"type": "FeatureCollection", "features": [{"type": "Feature", "geometry": {"geodesic": false, "type": "Polygon", "coordinates": [[[121.3800018641161, 31.485771045332402], [121.3800018641161, 31.48559138227558], [121.37982220105927, 31.48559138227558], [121.37982220105927, 31.485411719218757], [121.37946287494562, 31.485411719218757], [121.37946287494562, 31.48559138227558], [121.3792832118888, 31.48559138227558], [121.3792832118888, 31.485771045332402], [121.37874422271832, 31.485771045332402], [121.37874422271832, 31.48559138227558], [121.37838489660469, 31.48559138227558], [121.37838489660469, 31.485411719218757], [121.37820523354786, 31.485411719218757], [121.37820523354786, 31.485232056161934], [121.37802557049103, 31.485232056161934], [121.37802557049103, 31.485052393105107], [121.37820523354786, 31.485052393105107], [121.37820523354786, 31.484872730048284], [121.37802557049103, 31.484872730048284], [121.37802557049103, 31.48451340393464], [121.3778459074342, 31.48451340393464], [121.3778459074342, 31.48469306699146], [121.37730691826374, 31.48469306699146], [121.37730691826374, 31.485052393105107], [121.37712725520691, 31.485052393105107], [121.37712725520691, 31.484872730048284], [121.37694759215009, 31.484872730048284], [121.37694759215009, 31.48469306699146], [121.37712725520691, 31.48469306699146], [121.37712725520691, 31.48451340393464], [121.37766624437738, 31.48451340393464], [121.37766624437738, 31.484333740877812], [121.3778459074342, 31.484333740877812], [121.3778459074342, 31.48415407782099], [121.37802557049103, 31.48415407782099], [121.37802557049103, 31.48379475170734], [121.37766624437738, 31.48379475170734], [121.37766624437738, 31.483974414764166], [121.37730691826374, 31.483974414764166], [121.37730691826374, 31.48379475170734], [121.37712725520691, 31.48379475170734], [121.37712725520691, 31.483435425593694], [121.37730691826374, 31.483435425593694], [121.37730691826374, 31.48289643642322], [121.37712725520691, 31.48289643642322], [121.37712725520691, 31.483076099480044], [121.37694759215009, 31.483076099480044], [121.37694759215009, 31.48289643642322], [121.37712725520691, 31.48289643642322], [121.37712725520691, 31.48235744725275], [121.37676792909326, 31.48235744725275], [121.37676792909326, 31.482177784195926], [121.37712725520691, 31.482177784195926], [121.37712725520691, 31.481818458082277], [121.37694759215009, 31.481818458082277], [121.37694759215009, 31.481638795025454], [121.37712725520691, 31.481638795025454], [121.37712725520691, 31.48145913196863], [121.37766624437738, 31.48145913196863], [121.37766624437738, 31.481279468911808], [121.37802557049103, 31.481279468911808], [121.37802557049103, 31.48109980585498], [121.37838489660469, 31.48109980585498], [121.37838489660469, 31.480740479741335], [121.37910354883198, 31.480740479741335], [121.37910354883198, 31.480560816684513], [121.3792832118888, 31.480560816684513], [121.3792832118888, 31.480381153627686], [121.37982220105927, 31.480381153627686], [121.37982220105927, 31.480201490570863], [121.37964253800244, 31.480201490570863], [121.37964253800244, 31.48002182751404], [121.37982220105927, 31.48002182751404], [121.37982220105927, 31.479842164457214], [121.38018152717292, 31.479842164457214], [121.38018152717292, 31.48002182751404], [121.38036119022975, 31.48002182751404], [121.38036119022975, 31.479842164457214], [121.38090017940021, 31.479842164457214], [121.38090017940021, 31.47966250140039], [121.38107984245704, 31.47966250140039], [121.38107984245704, 31.479482838343568], [121.38125950551387, 31.479482838343568], [121.38125950551387, 31.479303175286745], [121.3816188316275, 31.479303175286745], [121.3816188316275, 31.47912351222992], [121.38179849468433, 31.47912351222992], [121.38179849468433, 31.478943849173096], [121.38251714691162, 31.478943849173096], [121.38251714691162, 31.478764186116273], [121.38341546219574, 31.478764186116273], [121.38341546219574, 31.478404860002623], [121.38359512525257, 31.478404860002623], [121.38359512525257, 31.4782251969458], [121.3837747883094, 31.4782251969458], [121.3837747883094, 31.478045533888977], [121.38413411442305, 31.478045533888977], [121.38413411442305, 31.47786587083215], [121.38449344053669, 31.47786587083215], [121.38449344053669, 31.477686207775328], [121.38467310359351, 31.477686207775328], [121.38467310359351, 31.477506544718505], [121.38503242970717, 31.477506544718505], [121.38503242970717, 31.477326881661682], [121.385212092764, 31.477326881661682], [121.385212092764, 31.477147218604856], [121.38575108193446, 31.477147218604856], [121.38575108193446, 31.476967555548033], [121.38593074499128, 31.476967555548033], [121.38593074499128, 31.47678789249121], [121.38629007110494, 31.47678789249121], [121.38629007110494, 31.476608229434383], [121.38646973416175, 31.476608229434383], [121.38646973416175, 31.47642856637756], [121.38629007110494, 31.47642856637756], [121.38629007110494, 31.476248903320737], [121.38611040804811, 31.476248903320737], [121.38611040804811, 31.476069240263914], [121.38646973416175, 31.476069240263914], [121.38646973416175, 31.47642856637756], [121.3868290602754, 31.47642856637756], [121.3868290602754, 31.47678789249121], [121.38700872333223, 31.47678789249121], [121.38700872333223, 31.477147218604856], [121.3868290602754, 31.477147218604856], [121.3868290602754, 31.477326881661682], [121.38700872333223, 31.477326881661682], [121.38700872333223, 31.477506544718505], [121.38718838638906, 31.477506544718505], [121.38718838638906, 31.477686207775328], [121.38736804944587, 31.477686207775328], [121.38736804944587, 31.47786587083215], [121.3875477125027, 31.47786587083215], [121.3875477125027, 31.478404860002623], [121.38826636473, 31.478404860002623], [121.38826636473, 31.47858452305945], [121.38844602778681, 31.47858452305945], [121.38844602778681, 31.478764186116273], [121.38826636473, 31.478764186116273], [121.38826636473, 31.479303175286745], [121.38844602778681, 31.479303175286745], [121.38844602778681, 31.47966250140039], [121.38826636473, 31.47966250140039], [121.38826636473, 31.479842164457214], [121.38790703861635, 31.479842164457214], [121.38790703861635, 31.480201490570863], [121.38772737555952, 31.480201490570863], [121.38772737555952, 31.480381153627686], [121.3875477125027, 31.480381153627686], [121.3875477125027, 31.480560816684513], [121.38736804944587, 31.480560816684513], [121.38736804944587, 31.480740479741335], [121.38718838638906, 31.480740479741335], [121.38718838638906, 31.48109980585498], [121.38700872333223, 31.48109980585498], [121.38700872333223, 31.481279468911808], [121.38718838638906, 31.481279468911808], [121.38718838638906, 31.48145913196863], [121.38646973416175, 31.48145913196863], [121.38646973416175, 31.481638795025454], [121.38629007110494, 31.481638795025454], [121.38629007110494, 31.481818458082277], [121.38557141887763, 31.481818458082277], [121.38557141887763, 31.482177784195926], [121.38575108193446, 31.482177784195926], [121.38575108193446, 31.48235744725275], [121.38557141887763, 31.48235744725275], [121.38557141887763, 31.482537110309575], [121.3853917558208, 31.482537110309575], [121.3853917558208, 31.48235744725275], [121.38503242970717, 31.48235744725275], [121.38503242970717, 31.482537110309575], [121.38467310359351, 31.482537110309575], [121.38467310359351, 31.4827167733664], [121.38449344053669, 31.4827167733664], [121.38449344053669, 31.48289643642322], [121.38431377747987, 31.48289643642322], [121.38431377747987, 31.483076099480044], [121.38395445136622, 31.483076099480044], [121.38395445136622, 31.48325576253687], [121.38341546219574, 31.48325576253687], [121.38341546219574, 31.483435425593694], [121.38323579913893, 31.483435425593694], [121.38323579913893, 31.483615088650517], [121.38341546219574, 31.483615088650517], [121.38341546219574, 31.48415407782099], [121.38323579913893, 31.48415407782099], [121.38323579913893, 31.483974414764166], [121.3830561360821, 31.483974414764166], [121.3830561360821, 31.48379475170734], [121.38287647302528, 31.48379475170734], [121.38287647302528, 31.483615088650517], [121.38269680996845, 31.483615088650517], [121.38269680996845, 31.48379475170734], [121.38251714691162, 31.48379475170734], [121.38251714691162, 31.483974414764166], [121.38233748385481, 31.483974414764166], [121.38233748385481, 31.48415407782099], [121.38197815774116, 31.48415407782099], [121.38197815774116, 31.484333740877812], [121.38215782079799, 31.484333740877812], [121.38215782079799, 31.48451340393464], [121.38233748385481, 31.48451340393464], [121.38233748385481, 31.48469306699146], [121.38197815774116, 31.48469306699146], [121.38197815774116, 31.484872730048284], [121.3816188316275, 31.484872730048284], [121.3816188316275, 31.485052393105107], [121.38143916857068, 31.485052393105107], [121.38143916857068, 31.485232056161934], [121.38107984245704, 31.485232056161934], [121.38107984245704, 31.485411719218757], [121.38072051634339, 31.485411719218757], [121.38072051634339, 31.48559138227558], [121.38036119022975, 31.48559138227558], [121.38036119022975, 31.485771045332402], [121.3800018641161, 31.485771045332402]], [[121.38467310359351, 31.480381153627686], [121.38449344053669, 31.480381153627686], [121.38449344053669, 31.480201490570863], [121.38467310359351, 31.480201490570863], [121.38467310359351, 31.480381153627686]], [[121.38054085328656, 31.480740479741335], [121.38036119022975, 31.480740479741335], [121.38036119022975, 31.480560816684513], [121.38054085328656, 31.480560816684513], [121.38054085328656, 31.480740479741335]], [[121.38090017940021, 31.481279468911808], [121.38072051634339, 31.481279468911808], [121.38072051634339, 31.48109980585498], [121.38090017940021, 31.48109980585498], [121.38090017940021, 31.481279468911808]], [[121.3853917558208, 31.481279468911808], [121.385212092764, 31.481279468911808], [121.385212092764, 31.48109980585498], [121.3853917558208, 31.48109980585498], [121.3853917558208, 31.481279468911808]], [[121.38215782079799, 31.4827167733664], [121.38197815774116, 31.4827167733664], [121.38197815774116, 31.482537110309575], [121.38179849468433, 31.482537110309575], [121.38179849468433, 31.48235744725275], [121.3816188316275, 31.48235744725275], [121.3816188316275, 31.482177784195926], [121.38143916857068, 31.482177784195926], [121.38143916857068, 31.481818458082277], [121.3816188316275, 31.481818458082277], [121.3816188316275, 31.481638795025454], [121.38197815774116, 31.481638795025454], [121.38197815774116, 31.48235744725275], [121.38215782079799, 31.48235744725275], [121.38215782079799, 31.4827167733664]], [[121.38269680996845, 31.483615088650517], [121.38251714691162, 31.483615088650517], [121.38251714691162, 31.483435425593694], [121.38269680996845, 31.483435425593694], [121.38269680996845, 31.483615088650517]], [[121.3785645596615, 31.48415407782099], [121.37838489660469, 31.48415407782099], [121.37838489660469, 31.483974414764166], [121.3785645596615, 31.483974414764166], [121.3785645596615, 31.48415407782099]], [[121.37874422271832, 31.485052393105107], [121.37838489660469, 31.485052393105107], [121.37838489660469, 31.484872730048284], [121.3785645596615, 31.484872730048284], [121.3785645596615, 31.48469306699146], [121.37874422271832, 31.48469306699146], [121.37874422271832, 31.485052393105107]]]}, "properties": {"name": "cand01", "ptype": "hall", "confidence": "low", "rank": 1, "area_ha": 64.0, "rise_db": 12.6, "digitised_from": "Sentinel-1 VV rise 2022->2026, orbit 171"}}, {"type": "Feature", "geometry": {"geodesic": false, "type": "Polygon", "coordinates": [[[121.37712725520691, 31.479482838343568], [121.37712725520691, 31.479303175286745], [121.37694759215009, 31.479303175286745], [121.37694759215009, 31.47912351222992], [121.37676792909326, 31.47912351222992], [121.37676792909326, 31.478943849173096], [121.37658826603644, 31.478943849173096], [121.37658826603644, 31.478764186116273], [121.37640860297962, 31.478764186116273], [121.37640860297962, 31.478404860002623], [121.3762289399228, 31.478404860002623], [121.3762289399228, 31.4782251969458], [121.37604927686597, 31.4782251969458], [121.37604927686597, 31.478045533888977], [121.37586961380914, 31.478045533888977], [121.37586961380914, 31.477686207775328], [121.37568995075232, 31.477686207775328], [121.37568995075232, 31.477506544718505], [121.37551028769549, 31.477506544718505], [121.37551028769549, 31.477326881661682], [121.37533062463868, 31.477326881661682], [121.37533062463868, 31.47642856637756], [121.37586961380914, 31.47642856637756], [121.37586961380914, 31.476248903320737], [121.37604927686597, 31.476248903320737], [121.37604927686597, 31.476069240263914], [121.3762289399228, 31.476069240263914], [121.3762289399228, 31.475889577207088], [121.37658826603644, 31.475889577207088], [121.37658826603644, 31.475709914150265], [121.37694759215009, 31.475709914150265], [121.37694759215009, 31.475530251093442], [121.37712725520691, 31.475530251093442], [121.37712725520691, 31.47535058803662], [121.37730691826374, 31.47535058803662], [121.37730691826374, 31.475170924979793], [121.37766624437738, 31.475170924979793], [121.37766624437738, 31.47499126192297], [121.37838489660469, 31.47499126192297], [121.37838489660469, 31.475170924979793], [121.3785645596615, 31.475170924979793], [121.3785645596615, 31.47535058803662], [121.37892388577515, 31.47535058803662], [121.37892388577515, 31.475530251093442], [121.37910354883198, 31.475530251093442], [121.37910354883198, 31.475709914150265], [121.37892388577515, 31.475709914150265], [121.37892388577515, 31.475889577207088], [121.37874422271832, 31.475889577207088], [121.37874422271832, 31.476069240263914], [121.3792832118888, 31.476069240263914], [121.3792832118888, 31.476248903320737], [121.37946287494562, 31.476248903320737], [121.37946287494562, 31.47642856637756], [121.3792832118888, 31.47642856637756], [121.3792832118888, 31.476608229434383], [121.37946287494562, 31.476608229434383], [121.37946287494562, 31.47678789249121], [121.37982220105927, 31.47678789249121], [121.37982220105927, 31.476967555548033], [121.3800018641161, 31.476967555548033], [121.3800018641161, 31.477506544718505], [121.38018152717292, 31.477506544718505], [121.38018152717292, 31.47786587083215], [121.3800018641161, 31.47786587083215], [121.3800018641161, 31.478045533888977], [121.37982220105927, 31.478045533888977], [121.37982220105927, 31.4782251969458], [121.37946287494562, 31.4782251969458], [121.37946287494562, 31.478404860002623], [121.37910354883198, 31.478404860002623], [121.37910354883198, 31.47858452305945], [121.37874422271832, 31.47858452305945], [121.37874422271832, 31.478764186116273], [121.37838489660469, 31.478764186116273], [121.37838489660469, 31.478943849173096], [121.37802557049103, 31.478943849173096], [121.37802557049103, 31.47912351222992], [121.37766624437738, 31.47912351222992], [121.37766624437738, 31.479303175286745], [121.37748658132055, 31.479303175286745], [121.37748658132055, 31.479482838343568], [121.37712725520691, 31.479482838343568]], [[121.37802557049103, 31.476608229434383], [121.3778459074342, 31.476608229434383], [121.3778459074342, 31.47642856637756], [121.37802557049103, 31.47642856637756], [121.37802557049103, 31.476608229434383]]]}, "properties": {"name": "cand02", "ptype": "hall", "confidence": "low", "rank": 2, "area_ha": 16.2, "rise_db": 9.0, "digitised_from": "Sentinel-1 VV rise 2022->2026, orbit 171"}}, {"type": "Feature", "geometry": {"geodesic": false, "type": "Polygon", "coordinates": [[[121.38036119022975, 31.46726575047954], [121.38036119022975, 31.467086087422718], [121.3800018641161, 31.467086087422718], [121.3800018641161, 31.466906424365895], [121.37982220105927, 31.466906424365895], [121.37982220105927, 31.46672676130907], [121.37964253800244, 31.46672676130907], [121.37964253800244, 31.466547098252246], [121.37946287494562, 31.466547098252246], [121.37946287494562, 31.4661877721386], [121.3792832118888, 31.4661877721386], [121.3792832118888, 31.465648782968128], [121.37946287494562, 31.465648782968128], [121.37946287494562, 31.465469119911305], [121.37964253800244, 31.465469119911305], [121.37964253800244, 31.465289456854478], [121.37982220105927, 31.465289456854478], [121.37982220105927, 31.464750467684006], [121.38018152717292, 31.464750467684006], [121.38018152717292, 31.464570804627183], [121.38072051634339, 31.464570804627183], [121.38072051634339, 31.46439114157036], [121.38107984245704, 31.46439114157036], [121.38107984245704, 31.464211478513537], [121.38197815774116, 31.464211478513537], [121.38197815774116, 31.46403181545671], [121.38341546219574, 31.46403181545671], [121.38341546219574, 31.464211478513537], [121.38359512525257, 31.464211478513537], [121.38359512525257, 31.464750467684006], [121.38341546219574, 31.464750467684006], [121.38341546219574, 31.464930130740832], [121.38323579913893, 31.464930130740832], [121.38323579913893, 31.465109793797655], [121.38341546219574, 31.465109793797655], [121.38341546219574, 31.465648782968128], [121.38251714691162, 31.465648782968128], [121.38251714691162, 31.466008109081773], [121.38233748385481, 31.466008109081773], [121.38233748385481, 31.466367435195423], [121.38215782079799, 31.466367435195423], [121.38215782079799, 31.46672676130907], [121.38179849468433, 31.46672676130907], [121.38179849468433, 31.466906424365895], [121.3816188316275, 31.466906424365895], [121.3816188316275, 31.467086087422718], [121.38107984245704, 31.467086087422718], [121.38107984245704, 31.46726575047954], [121.38036119022975, 31.46726575047954]]]}, "properties": {"name": "cand03", "ptype": "hall", "confidence": "low", "rank": 3, "area_ha": 11.2, "rise_db": 9.8, "digitised_from": "Sentinel-1 VV rise 2022->2026, orbit 171"}}, {"type": "Feature", "geometry": {"geodesic": false, "type": "Polygon", "coordinates": [[[121.37730691826374, 31.471936989956962], [121.37730691826374, 31.47175732690014], [121.37712725520691, 31.47175732690014], [121.37712725520691, 31.471577663843316], [121.37694759215009, 31.471577663843316], [121.37694759215009, 31.471398000786493], [121.37676792909326, 31.471398000786493], [121.37676792909326, 31.471038674672844], [121.37658826603644, 31.471038674672844], [121.37658826603644, 31.47049968550237], [121.37640860297962, 31.47049968550237], [121.37640860297962, 31.470140359388726], [121.37658826603644, 31.470140359388726], [121.37658826603644, 31.4699606963319], [121.37676792909326, 31.4699606963319], [121.37676792909326, 31.469781033275076], [121.37640860297962, 31.469781033275076], [121.37640860297962, 31.469601370218253], [121.3762289399228, 31.469601370218253], [121.3762289399228, 31.46942170716143], [121.37640860297962, 31.46942170716143], [121.37640860297962, 31.469242044104604], [121.37658826603644, 31.469242044104604], [121.37658826603644, 31.46906238104778], [121.37694759215009, 31.46906238104778], [121.37694759215009, 31.469242044104604], [121.37712725520691, 31.469242044104604], [121.37712725520691, 31.46942170716143], [121.37748658132055, 31.46942170716143], [121.37748658132055, 31.469601370218253], [121.3778459074342, 31.469601370218253], [121.3778459074342, 31.46942170716143], [121.37820523354786, 31.46942170716143], [121.37820523354786, 31.469242044104604], [121.37838489660469, 31.469242044104604], [121.37838489660469, 31.46906238104778], [121.37874422271832, 31.46906238104778], [121.37874422271832, 31.469242044104604], [121.37910354883198, 31.469242044104604], [121.37910354883198, 31.468882717990958], [121.37892388577515, 31.468882717990958], [121.37892388577515, 31.46870305493413], [121.37910354883198, 31.46870305493413], [121.37910354883198, 31.468343728820486], [121.37982220105927, 31.468343728820486], [121.37982220105927, 31.46852339187731], [121.3800018641161, 31.46852339187731], [121.3800018641161, 31.46870305493413], [121.38018152717292, 31.46870305493413], [121.38018152717292, 31.468882717990958], [121.38036119022975, 31.468882717990958], [121.38036119022975, 31.46906238104778], [121.38054085328656, 31.46906238104778], [121.38054085328656, 31.46942170716143], [121.38036119022975, 31.46942170716143], [121.38036119022975, 31.469601370218253], [121.38072051634339, 31.469601370218253], [121.38072051634339, 31.469781033275076], [121.38090017940021, 31.469781033275076], [121.38090017940021, 31.470140359388726], [121.38072051634339, 31.470140359388726], [121.38072051634339, 31.47032002244555], [121.38054085328656, 31.47032002244555], [121.38054085328656, 31.47049968550237], [121.3800018641161, 31.47049968550237], [121.3800018641161, 31.470679348559194], [121.37964253800244, 31.470679348559194], [121.37964253800244, 31.47085901161602], [121.37946287494562, 31.47085901161602], [121.37946287494562, 31.471038674672844], [121.37910354883198, 31.471038674672844], [121.37910354883198, 31.471218337729667], [121.37892388577515, 31.471218337729667], [121.37892388577515, 31.471398000786493], [121.37838489660469, 31.471398000786493], [121.37838489660469, 31.471577663843316], [121.37802557049103, 31.471577663843316], [121.37802557049103, 31.47175732690014], [121.3778459074342, 31.47175732690014], [121.3778459074342, 31.471936989956962], [121.37730691826374, 31.471936989956962]], [[121.37694759215009, 31.469781033275076], [121.37676792909326, 31.469781033275076], [121.37676792909326, 31.469601370218253], [121.37694759215009, 31.469601370218253], [121.37694759215009, 31.469781033275076]], [[121.37802557049103, 31.471218337729667], [121.37766624437738, 31.471218337729667], [121.37766624437738, 31.47085901161602], [121.37802557049103, 31.47085901161602], [121.37802557049103, 31.471218337729667]]]}, "properties": {"name": "cand04", "ptype": "hall", "confidence": "low", "rank": 4, "area_ha": 11.2, "rise_db": 8.5, "digitised_from": "Sentinel-1 VV rise 2022->2026, orbit 171"}}, {"type": "Feature", "geometry": {"geodesic": false, "type": "Polygon", "coordinates": [[[121.36149656926324, 31.461696195718], [121.36149656926324, 31.46151653266118], [121.3604185909223, 31.46151653266118], [121.3604185909223, 31.461336869604352], [121.36023892786547, 31.461336869604352], [121.36023892786547, 31.46115720654753], [121.35969993869499, 31.46115720654753], [121.35969993869499, 31.461336869604352], [121.3589812864677, 31.461336869604352], [121.3589812864677, 31.46115720654753], [121.35808297118358, 31.46115720654753], [121.35808297118358, 31.460977543490706], [121.35772364506992, 31.460977543490706], [121.35772364506992, 31.46079788043388], [121.35754398201311, 31.46079788043388], [121.35754398201311, 31.460618217377057], [121.35736431895629, 31.460618217377057], [121.35736431895629, 31.45989956514976], [121.35754398201311, 31.45989956514976], [121.35754398201311, 31.459540239036112], [121.35862196035406, 31.459540239036112], [121.35862196035406, 31.45936057597929], [121.35880162341087, 31.45936057597929], [121.35880162341087, 31.459001249865644], [121.35952027563818, 31.459001249865644], [121.35952027563818, 31.458821586808817], [121.35969993869499, 31.458821586808817], [121.35969993869499, 31.458641923751994], [121.35987960175181, 31.458641923751994], [121.35987960175181, 31.458282597638348], [121.35952027563818, 31.458282597638348], [121.35952027563818, 31.4579232715247], [121.3604185909223, 31.4579232715247], [121.3604185909223, 31.45810293458152], [121.36059825397912, 31.45810293458152], [121.36059825397912, 31.45846226069517], [121.36077791703593, 31.45846226069517], [121.36077791703593, 31.458641923751994], [121.36095758009276, 31.458641923751994], [121.36095758009276, 31.458821586808817], [121.36149656926324, 31.458821586808817], [121.36149656926324, 31.459001249865644], [121.36167623232005, 31.459001249865644], [121.36167623232005, 31.459180912922466], [121.36149656926324, 31.459180912922466], [121.36149656926324, 31.459540239036112], [121.36131690620641, 31.459540239036112], [121.36131690620641, 31.45971990209294], [121.36059825397912, 31.45971990209294], [121.36059825397912, 31.460438554320234], [121.3604185909223, 31.460438554320234], [121.3604185909223, 31.460618217377057], [121.36059825397912, 31.460618217377057], [121.36059825397912, 31.46079788043388], [121.36077791703593, 31.46079788043388], [121.36077791703593, 31.460977543490706], [121.36113724314959, 31.460977543490706], [121.36113724314959, 31.46115720654753], [121.36131690620641, 31.46115720654753], [121.36131690620641, 31.460977543490706], [121.36149656926324, 31.460977543490706], [121.36149656926324, 31.46079788043388], [121.36185589537688, 31.46079788043388], [121.36185589537688, 31.461696195718], [121.36149656926324, 31.461696195718]]]}, "properties": {"name": "cand05", "ptype": "hall", "confidence": "low", "rank": 5, "area_ha": 10.9, "rise_db": 7.8, "digitised_from": "Sentinel-1 VV rise 2022->2026, orbit 171"}}, {"type": "Feature", "geometry": {"geodesic": false, "type": "Polygon", "coordinates": [[[121.39293760420742, 31.491160937037122], [121.39293760420742, 31.490801610923473], [121.39275794115059, 31.490801610923473], [121.39275794115059, 31.490442284809827], [121.39239861503694, 31.490442284809827], [121.39239861503694, 31.49062194786665], [121.39221895198013, 31.49062194786665], [121.39221895198013, 31.490801610923473], [121.39185962586647, 31.490801610923473], [121.39185962586647, 31.49062194786665], [121.39167996280965, 31.49062194786665], [121.39167996280965, 31.490442284809827], [121.39185962586647, 31.490442284809827], [121.39185962586647, 31.489364306468882], [121.39221895198013, 31.489364306468882], [121.39221895198013, 31.489543969525705], [121.39239861503694, 31.489543969525705], [121.39239861503694, 31.489364306468882], [121.39257827809377, 31.489364306468882], [121.39257827809377, 31.48918464341206], [121.39275794115059, 31.48918464341206], [121.39275794115059, 31.489004980355233], [121.39293760420742, 31.489004980355233], [121.39293760420742, 31.48882531729841], [121.39383591949154, 31.48882531729841], [121.39383591949154, 31.488465991184764], [121.39401558254836, 31.488465991184764], [121.39401558254836, 31.488286328127938], [121.39455457171883, 31.488286328127938], [121.39455457171883, 31.487927002014292], [121.39473423477565, 31.487927002014292], [121.39473423477565, 31.487747338957465], [121.39527322394612, 31.487747338957465], [121.39527322394612, 31.487927002014292], [121.39563255005977, 31.487927002014292], [121.39563255005977, 31.488106665071115], [121.3958122131166, 31.488106665071115], [121.3958122131166, 31.488286328127938], [121.39563255005977, 31.488286328127938], [121.39563255005977, 31.489004980355233], [121.3958122131166, 31.489004980355233], [121.3958122131166, 31.48918464341206], [121.39635120228706, 31.48918464341206], [121.39635120228706, 31.489364306468882], [121.39617153923025, 31.489364306468882], [121.39617153923025, 31.48972363258253], [121.39599187617343, 31.48972363258253], [121.39599187617343, 31.489543969525705], [121.3958122131166, 31.489543969525705], [121.3958122131166, 31.48972363258253], [121.39545288700295, 31.48972363258253], [121.39545288700295, 31.490262621753], [121.39527322394612, 31.490262621753], [121.39527322394612, 31.490442284809827], [121.39473423477565, 31.490442284809827], [121.39473423477565, 31.490801610923473], [121.394374908662, 31.490801610923473], [121.394374908662, 31.490981273980296], [121.39401558254836, 31.490981273980296], [121.39401558254836, 31.490801610923473], [121.39383591949154, 31.490801610923473], [121.39383591949154, 31.490981273980296], [121.39329693032106, 31.490981273980296], [121.39329693032106, 31.491160937037122], [121.39293760420742, 31.491160937037122]]]}, "properties": {"name": "cand06", "ptype": "hall", "confidence": "low", "rank": 6, "area_ha": 10.4, "rise_db": 12.7, "digitised_from": "Sentinel-1 VV rise 2022->2026, orbit 171"}}, {"type": "Feature", "geometry": {"geodesic": false, "type": "Polygon", "coordinates": [[[121.37317466795679, 31.48882531729841], [121.37317466795679, 31.48738801284382], [121.37299500489996, 31.48738801284382], [121.37299500489996, 31.487208349786997], [121.37335433101362, 31.487208349786997], [121.37335433101362, 31.48702868673017], [121.37281534184314, 31.48702868673017], [121.37281534184314, 31.487208349786997], [121.37263567878631, 31.487208349786997], [121.37263567878631, 31.48738801284382], [121.37209668961584, 31.48738801284382], [121.37209668961584, 31.48702868673017], [121.37173736350219, 31.48702868673017], [121.37173736350219, 31.486849023673347], [121.37155770044536, 31.486849023673347], [121.37155770044536, 31.486669360616524], [121.37137803738855, 31.486669360616524], [121.37137803738855, 31.486310034502875], [121.37119837433173, 31.486310034502875], [121.37119837433173, 31.486130371446052], [121.37137803738855, 31.486130371446052], [121.37137803738855, 31.485771045332402], [121.37155770044536, 31.485771045332402], [121.37155770044536, 31.48559138227558], [121.37227635267267, 31.48559138227558], [121.37227635267267, 31.485411719218757], [121.37281534184314, 31.485411719218757], [121.37281534184314, 31.485232056161934], [121.37299500489996, 31.485232056161934], [121.37299500489996, 31.485052393105107], [121.37317466795679, 31.485052393105107], [121.37317466795679, 31.484872730048284], [121.37407298324091, 31.484872730048284], [121.37407298324091, 31.485232056161934], [121.37371365712725, 31.485232056161934], [121.37371365712725, 31.485411719218757], [121.37353399407043, 31.485411719218757], [121.37353399407043, 31.48559138227558], [121.37317466795679, 31.48559138227558], [121.37317466795679, 31.485771045332402], [121.37281534184314, 31.485771045332402], [121.37281534184314, 31.48595070838923], [121.37263567878631, 31.48595070838923], [121.37263567878631, 31.486130371446052], [121.37281534184314, 31.486130371446052], [121.37281534184314, 31.486310034502875], [121.37299500489996, 31.486310034502875], [121.37299500489996, 31.4864896975597], [121.37353399407043, 31.4864896975597], [121.37353399407043, 31.486310034502875], [121.37371365712725, 31.486310034502875], [121.37371365712725, 31.4864896975597], [121.37407298324091, 31.4864896975597], [121.37407298324091, 31.486669360616524], [121.37443230935456, 31.486669360616524], [121.37443230935456, 31.486310034502875], [121.37497129852503, 31.486310034502875], [121.37497129852503, 31.486669360616524], [121.37515096158185, 31.486669360616524], [121.37515096158185, 31.486849023673347], [121.37551028769549, 31.486849023673347], [121.37551028769549, 31.48702868673017], [121.37586961380914, 31.48702868673017], [121.37586961380914, 31.48738801284382], [121.37568995075232, 31.48738801284382], [121.37568995075232, 31.487567675900642], [121.37515096158185, 31.487567675900642], [121.37515096158185, 31.487747338957465], [121.37443230935456, 31.487747338957465], [121.37443230935456, 31.487567675900642], [121.37425264629773, 31.487567675900642], [121.37425264629773, 31.48738801284382], [121.37407298324091, 31.48738801284382], [121.37407298324091, 31.487567675900642], [121.37389332018408, 31.487567675900642], [121.37389332018408, 31.487747338957465], [121.37371365712725, 31.487747338957465], [121.37371365712725, 31.488286328127938], [121.37353399407043, 31.488286328127938], [121.37353399407043, 31.48882531729841], [121.37317466795679, 31.48882531729841]]]}, "properties": {"name": "cand07", "ptype": "hall", "confidence": "low", "rank": 7, "area_ha": 8.0, "rise_db": 4.9, "digitised_from": "Sentinel-1 VV rise 2022->2026, orbit 171"}}, {"type": "Feature", "geometry": {"geodesic": false, "type": "Polygon", "coordinates": [[[121.38431377747987, 31.47229631607061], [121.38431377747987, 31.47211665301379], [121.38413411442305, 31.47211665301379], [121.38413411442305, 31.471936989956962], [121.38395445136622, 31.471936989956962], [121.38395445136622, 31.47175732690014], [121.3837747883094, 31.47175732690014], [121.3837747883094, 31.471577663843316], [121.38359512525257, 31.471577663843316], [121.38359512525257, 31.471398000786493], [121.38341546219574, 31.471398000786493], [121.38341546219574, 31.471218337729667], [121.38323579913893, 31.471218337729667], [121.38323579913893, 31.471038674672844], [121.3830561360821, 31.471038674672844], [121.3830561360821, 31.47085901161602], [121.38287647302528, 31.47085901161602], [121.38287647302528, 31.47049968550237], [121.38269680996845, 31.47049968550237], [121.38269680996845, 31.47032002244555], [121.38251714691162, 31.47032002244555], [121.38251714691162, 31.470140359388726], [121.38233748385481, 31.470140359388726], [121.38233748385481, 31.4699606963319], [121.38215782079799, 31.4699606963319], [121.38215782079799, 31.469242044104604], [121.38233748385481, 31.469242044104604], [121.38233748385481, 31.46906238104778], [121.38251714691162, 31.46906238104778], [121.38251714691162, 31.468882717990958], [121.38287647302528, 31.468882717990958], [121.38287647302528, 31.46870305493413], [121.38359512525257, 31.46870305493413], [121.38359512525257, 31.46852339187731], [121.38395445136622, 31.46852339187731], [121.38395445136622, 31.46870305493413], [121.38413411442305, 31.46870305493413], [121.38413411442305, 31.46906238104778], [121.38449344053669, 31.46906238104778], [121.38449344053669, 31.469242044104604], [121.38467310359351, 31.469242044104604], [121.38467310359351, 31.46942170716143], [121.38449344053669, 31.46942170716143], [121.38449344053669, 31.469601370218253], [121.38431377747987, 31.469601370218253], [121.38431377747987, 31.469781033275076], [121.38395445136622, 31.469781033275076], [121.38395445136622, 31.4699606963319], [121.3837747883094, 31.4699606963319], [121.3837747883094, 31.47032002244555], [121.38413411442305, 31.47032002244555], [121.38413411442305, 31.47049968550237], [121.38431377747987, 31.47049968550237], [121.38431377747987, 31.470679348559194], [121.38449344053669, 31.470679348559194], [121.38449344053669, 31.47085901161602], [121.38467310359351, 31.47085901161602], [121.38467310359351, 31.471038674672844], [121.38485276665034, 31.471038674672844], [121.38485276665034, 31.471218337729667], [121.38503242970717, 31.471218337729667], [121.38503242970717, 31.471398000786493], [121.385212092764, 31.471398000786493], [121.385212092764, 31.471218337729667], [121.38593074499128, 31.471218337729667], [121.38593074499128, 31.471398000786493], [121.38611040804811, 31.471398000786493], [121.38611040804811, 31.47175732690014], [121.38485276665034, 31.47175732690014], [121.38485276665034, 31.471936989956962], [121.38467310359351, 31.471936989956962], [121.38467310359351, 31.47211665301379], [121.38449344053669, 31.47211665301379], [121.38449344053669, 31.47229631607061], [121.38431377747987, 31.47229631607061]]]}, "properties": {"name": "cand08", "ptype": "hall", "confidence": "low", "rank": 8, "area_ha": 7.4, "rise_db": 10.2, "digitised_from": "Sentinel-1 VV rise 2022->2026, orbit 171"}}, {"type": "Feature", "geometry": {"geodesic": false, "type": "Polygon", "coordinates": [[[121.36473050428606, 31.48595070838923], [121.36473050428606, 31.48559138227558], [121.36491016734288, 31.48559138227558], [121.36491016734288, 31.485052393105107], [121.36473050428606, 31.485052393105107], [121.36473050428606, 31.484872730048284], [121.36455084122925, 31.484872730048284], [121.36455084122925, 31.48451340393464], [121.36544915651336, 31.48451340393464], [121.36544915651336, 31.483974414764166], [121.36508983039971, 31.483974414764166], [121.36508983039971, 31.48415407782099], [121.36526949345654, 31.48415407782099], [121.36526949345654, 31.484333740877812], [121.36491016734288, 31.484333740877812], [121.36491016734288, 31.483974414764166], [121.36473050428606, 31.483974414764166], [121.36473050428606, 31.483615088650517], [121.36455084122925, 31.483615088650517], [121.36455084122925, 31.48379475170734], [121.36437117817242, 31.48379475170734], [121.36437117817242, 31.483974414764166], [121.36401185205877, 31.483974414764166], [121.36401185205877, 31.48415407782099], [121.36365252594511, 31.48415407782099], [121.36365252594511, 31.48379475170734], [121.36401185205877, 31.48379475170734], [121.36401185205877, 31.483615088650517], [121.36437117817242, 31.483615088650517], [121.36437117817242, 31.483435425593694], [121.36455084122925, 31.483435425593694], [121.36455084122925, 31.48289643642322], [121.36491016734288, 31.48289643642322], [121.36491016734288, 31.4827167733664], [121.36508983039971, 31.4827167733664], [121.36508983039971, 31.482537110309575], [121.36526949345654, 31.482537110309575], [121.36526949345654, 31.48235744725275], [121.36544915651336, 31.48235744725275], [121.36544915651336, 31.482177784195926], [121.36562881957018, 31.482177784195926], [121.36562881957018, 31.48235744725275], [121.365808482627, 31.48235744725275], [121.365808482627, 31.482537110309575], [121.36634747179748, 31.482537110309575], [121.36634747179748, 31.483076099480044], [121.36616780874066, 31.483076099480044], [121.36616780874066, 31.48325576253687], [121.36526949345654, 31.48325576253687], [121.36526949345654, 31.483076099480044], [121.36508983039971, 31.483076099480044], [121.36508983039971, 31.483615088650517], [121.36526949345654, 31.483615088650517], [121.36526949345654, 31.48379475170734], [121.365808482627, 31.48379475170734], [121.365808482627, 31.483615088650517], [121.36634747179748, 31.483615088650517], [121.36634747179748, 31.48379475170734], [121.36652713485431, 31.48379475170734], [121.36652713485431, 31.483974414764166], [121.36634747179748, 31.483974414764166], [121.36634747179748, 31.48415407782099], [121.36616780874066, 31.48415407782099], [121.36616780874066, 31.48451340393464], [121.36598814568383, 31.48451340393464], [121.36598814568383, 31.485771045332402], [121.365808482627, 31.485771045332402], [121.365808482627, 31.48595070838923], [121.36473050428606, 31.48595070838923]], [[121.36508983039971, 31.483076099480044], [121.36491016734288, 31.483076099480044], [121.36491016734288, 31.48289643642322], [121.36508983039971, 31.48289643642322], [121.36508983039971, 31.483076099480044]], [[121.36508983039971, 31.484872730048284], [121.36491016734288, 31.484872730048284], [121.36491016734288, 31.48469306699146], [121.36508983039971, 31.48469306699146], [121.36508983039971, 31.484872730048284]]]}, "properties": {"name": "cand09", "ptype": "hall", "confidence": "low", "rank": 9, "area_ha": 5.5, "rise_db": 6.0, "digitised_from": "Sentinel-1 VV rise 2022->2026, orbit 171"}}, {"type": "Feature", "geometry": {"geodesic": false, "type": "Polygon", "coordinates": [[[121.36670679791112, 31.482177784195926], [121.36670679791112, 31.481998121139103], [121.36634747179748, 31.481998121139103], [121.36634747179748, 31.48145913196863], [121.36670679791112, 31.48145913196863], [121.36670679791112, 31.481279468911808], [121.36688646096795, 31.481279468911808], [121.36688646096795, 31.48109980585498], [121.36706612402477, 31.48109980585498], [121.36706612402477, 31.48092014279816], [121.36742545013843, 31.48092014279816], [121.36742545013843, 31.480740479741335], [121.36796443930889, 31.480740479741335], [121.36796443930889, 31.480560816684513], [121.36832376542255, 31.480560816684513], [121.36832376542255, 31.480381153627686], [121.36850342847937, 31.480381153627686], [121.36850342847937, 31.480201490570863], [121.36868309153618, 31.480201490570863], [121.36868309153618, 31.48002182751404], [121.36904241764984, 31.48002182751404], [121.36904241764984, 31.479842164457214], [121.36922208070666, 31.479842164457214], [121.36922208070666, 31.47966250140039], [121.36976106987713, 31.47966250140039], [121.36976106987713, 31.479842164457214], [121.36994073293396, 31.479842164457214], [121.36994073293396, 31.48002182751404], [121.37012039599078, 31.48002182751404], [121.37012039599078, 31.480201490570863], [121.37030005904761, 31.480201490570863], [121.37030005904761, 31.480381153627686], [121.37047972210443, 31.480381153627686], [121.37047972210443, 31.480560816684513], [121.37030005904761, 31.480560816684513], [121.37030005904761, 31.480740479741335], [121.37012039599078, 31.480740479741335], [121.37012039599078, 31.48092014279816], [121.36976106987713, 31.48092014279816], [121.36976106987713, 31.480740479741335], [121.36922208070666, 31.480740479741335], [121.36922208070666, 31.48109980585498], [121.36904241764984, 31.48109980585498], [121.36904241764984, 31.481279468911808], [121.36886275459301, 31.481279468911808], [121.36886275459301, 31.48145913196863], [121.36850342847937, 31.48145913196863], [121.36850342847937, 31.481638795025454], [121.36760511319524, 31.481638795025454], [121.36760511319524, 31.481818458082277], [121.3672457870816, 31.481818458082277], [121.3672457870816, 31.481998121139103], [121.36706612402477, 31.481998121139103], [121.36706612402477, 31.482177784195926], [121.36670679791112, 31.482177784195926]]]}, "properties": {"name": "cand10", "ptype": "hall", "confidence": "low", "rank": 10, "area_ha": 5.0, "rise_db": 7.6, "digitised_from": "Sentinel-1 VV rise 2022->2026, orbit 171"}}, {"type": "Feature", "geometry": {"geodesic": false, "type": "Polygon", "coordinates": [[[121.37443230935456, 31.473014968297907], [121.37443230935456, 31.472835305241084], [121.37425264629773, 31.472835305241084], [121.37425264629773, 31.472655642184257], [121.37407298324091, 31.472655642184257], [121.37407298324091, 31.472475979127434], [121.37389332018408, 31.472475979127434], [121.37389332018408, 31.47229631607061], [121.37371365712725, 31.47229631607061], [121.37371365712725, 31.47211665301379], [121.37353399407043, 31.47211665301379], [121.37353399407043, 31.471936989956962], [121.37281534184314, 31.471936989956962], [121.37281534184314, 31.47211665301379], [121.3724560157295, 31.47211665301379], [121.3724560157295, 31.471936989956962], [121.37263567878631, 31.471936989956962], [121.37263567878631, 31.47175732690014], [121.37281534184314, 31.47175732690014], [121.37281534184314, 31.471577663843316], [121.37335433101362, 31.471577663843316], [121.37335433101362, 31.471038674672844], [121.37389332018408, 31.471038674672844], [121.37389332018408, 31.47085901161602], [121.37443230935456, 31.47085901161602], [121.37443230935456, 31.471038674672844], [121.37461197241137, 31.471038674672844], [121.37461197241137, 31.471218337729667], [121.3747916354682, 31.471218337729667], [121.3747916354682, 31.471398000786493], [121.37497129852503, 31.471398000786493], [121.37497129852503, 31.47175732690014], [121.37515096158185, 31.47175732690014], [121.37515096158185, 31.471936989956962], [121.37533062463868, 31.471936989956962], [121.37533062463868, 31.47211665301379], [121.37551028769549, 31.47211665301379], [121.37551028769549, 31.47229631607061], [121.37568995075232, 31.47229631607061], [121.37568995075232, 31.472655642184257], [121.37551028769549, 31.472655642184257], [121.37551028769549, 31.472835305241084], [121.37533062463868, 31.472835305241084], [121.37533062463868, 31.473014968297907], [121.37443230935456, 31.473014968297907]]]}, "properties": {"name": "cand11", "ptype": "hall", "confidence": "low", "rank": 11, "area_ha": 4.2, "rise_db": 10.6, "digitised_from": "Sentinel-1 VV rise 2022->2026, orbit 171"}}, {"type": "Feature", "geometry": {"geodesic": false, "type": "Polygon", "coordinates": [[[121.37083904821807, 31.478404860002623], [121.37083904821807, 31.4782251969458], [121.37065938516125, 31.4782251969458], [121.37065938516125, 31.47786587083215], [121.37083904821807, 31.47786587083215], [121.37083904821807, 31.477686207775328], [121.3710187112749, 31.477686207775328], [121.3710187112749, 31.477506544718505], [121.37155770044536, 31.477506544718505], [121.37155770044536, 31.477326881661682], [121.37209668961584, 31.477326881661682], [121.37209668961584, 31.477147218604856], [121.3724560157295, 31.477147218604856], [121.3724560157295, 31.476967555548033], [121.37263567878631, 31.476967555548033], [121.37263567878631, 31.47678789249121], [121.37335433101362, 31.47678789249121], [121.37335433101362, 31.476967555548033], [121.37353399407043, 31.476967555548033], [121.37353399407043, 31.477326881661682], [121.37335433101362, 31.477326881661682], [121.37335433101362, 31.477506544718505], [121.37317466795679, 31.477506544718505], [121.37317466795679, 31.477686207775328], [121.37281534184314, 31.477686207775328], [121.37281534184314, 31.47786587083215], [121.37263567878631, 31.47786587083215], [121.37263567878631, 31.478045533888977], [121.37173736350219, 31.478045533888977], [121.37173736350219, 31.4782251969458], [121.37155770044536, 31.4782251969458], [121.37155770044536, 31.478404860002623], [121.37083904821807, 31.478404860002623]]]}, "properties": {"name": "cand12", "ptype": "hall", "confidence": "low", "rank": 12, "area_ha": 2.9, "rise_db": 7.2, "digitised_from": "Sentinel-1 VV rise 2022->2026, orbit 171"}}, {"type": "Feature", "geometry": {"geodesic": false, "type": "Polygon", "coordinates": [[[121.35269307947887, 31.472835305241084], [121.35269307947887, 31.472655642184257], [121.35233375336522, 31.472655642184257], [121.35233375336522, 31.472835305241084], [121.35161510113792, 31.472835305241084], [121.35161510113792, 31.472655642184257], [121.3514354380811, 31.472655642184257], [121.3514354380811, 31.472475979127434], [121.35125577502427, 31.472475979127434], [121.35125577502427, 31.47229631607061], [121.35107611196744, 31.47229631607061], [121.35107611196744, 31.472475979127434], [121.35089644891062, 31.472475979127434], [121.35089644891062, 31.47229631607061], [121.3507167858538, 31.47229631607061], [121.3507167858538, 31.47211665301379], [121.35053712279698, 31.47211665301379], [121.35053712279698, 31.471936989956962], [121.35017779668333, 31.471936989956962], [121.35017779668333, 31.47211665301379], [121.3499981336265, 31.47211665301379], [121.3499981336265, 31.47229631607061], [121.34981847056967, 31.47229631607061], [121.34981847056967, 31.472655642184257], [121.34945914445603, 31.472655642184257], [121.34945914445603, 31.47229631607061], [121.34963880751286, 31.47229631607061], [121.34963880751286, 31.471936989956962], [121.34981847056967, 31.471936989956962], [121.34981847056967, 31.471577663843316], [121.35017779668333, 31.471577663843316], [121.35017779668333, 31.47175732690014], [121.35053712279698, 31.47175732690014], [121.35053712279698, 31.471577663843316], [121.35125577502427, 31.471577663843316], [121.35125577502427, 31.47175732690014], [121.3514354380811, 31.47175732690014], [121.3514354380811, 31.471936989956962], [121.35215409030839, 31.471936989956962], [121.35215409030839, 31.47211665301379], [121.35251341642204, 31.47211665301379], [121.35251341642204, 31.47229631607061], [121.35269307947887, 31.47229631607061], [121.35269307947887, 31.472475979127434], [121.35287274253568, 31.472475979127434], [121.35287274253568, 31.472835305241084], [121.35269307947887, 31.472835305241084]]]}, "properties": {"name": "cand13", "ptype": "hall", "confidence": "low", "rank": 13, "area_ha": 2.6, "rise_db": 8.5, "digitised_from": "Sentinel-1 VV rise 2022->2026, orbit 171"}}, {"type": "Feature", "geometry": {"geodesic": false, "type": "Polygon", "coordinates": [[[121.3582626342404, 31.476608229434383], [121.3582626342404, 31.47642856637756], [121.35808297118358, 31.47642856637756], [121.35808297118358, 31.475889577207088], [121.3582626342404, 31.475889577207088], [121.3582626342404, 31.47535058803662], [121.35844229729723, 31.47535058803662], [121.35844229729723, 31.475170924979793], [121.35862196035406, 31.475170924979793], [121.35862196035406, 31.474811598866147], [121.35880162341087, 31.474811598866147], [121.35880162341087, 31.47463193580932], [121.3589812864677, 31.47463193580932], [121.3589812864677, 31.474272609695674], [121.35880162341087, 31.474272609695674], [121.35880162341087, 31.47409294663885], [121.3589812864677, 31.47409294663885], [121.3589812864677, 31.473913283582025], [121.35916094952452, 31.473913283582025], [121.35916094952452, 31.47409294663885], [121.35952027563818, 31.47409294663885], [121.35952027563818, 31.474452272752497], [121.35969993869499, 31.474452272752497], [121.35969993869499, 31.47463193580932], [121.35952027563818, 31.47463193580932], [121.35952027563818, 31.474811598866147], [121.35934061258135, 31.474811598866147], [121.35934061258135, 31.47499126192297], [121.35916094952452, 31.47499126192297], [121.35916094952452, 31.475170924979793], [121.3589812864677, 31.475170924979793], [121.3589812864677, 31.475530251093442], [121.35934061258135, 31.475530251093442], [121.35934061258135, 31.47535058803662], [121.35952027563818, 31.47535058803662], [121.35952027563818, 31.475170924979793], [121.35969993869499, 31.475170924979793], [121.35969993869499, 31.47499126192297], [121.35987960175181, 31.47499126192297], [121.35987960175181, 31.475170924979793], [121.35969993869499, 31.475170924979793], [121.35969993869499, 31.47535058803662], [121.35987960175181, 31.47535058803662], [121.35987960175181, 31.475530251093442], [121.35969993869499, 31.475530251093442], [121.35969993869499, 31.475709914150265], [121.35952027563818, 31.475709914150265], [121.35952027563818, 31.475889577207088], [121.35934061258135, 31.475889577207088], [121.35934061258135, 31.476069240263914], [121.35862196035406, 31.476069240263914], [121.35862196035406, 31.47642856637756], [121.35844229729723, 31.47642856637756], [121.35844229729723, 31.476608229434383], [121.3582626342404, 31.476608229434383]]]}, "properties": {"name": "cand14", "ptype": "hall", "confidence": "low", "rank": 14, "area_ha": 2.6, "rise_db": 6.9, "digitised_from": "Sentinel-1 VV rise 2022->2026, orbit 171"}}, {"type": "Feature", "geometry": {"geodesic": false, "type": "Polygon", "coordinates": [[[121.39024265835506, 31.48702868673017], [121.39024265835506, 31.486849023673347], [121.39006299529824, 31.486849023673347], [121.39006299529824, 31.4864896975597], [121.39024265835506, 31.4864896975597], [121.39024265835506, 31.486310034502875], [121.39042232141188, 31.486310034502875], [121.39042232141188, 31.486130371446052], [121.39150029975282, 31.486130371446052], [121.39150029975282, 31.48595070838923], [121.39167996280965, 31.48595070838923], [121.39167996280965, 31.48559138227558], [121.39185962586647, 31.48559138227558], [121.39185962586647, 31.485411719218757], [121.39257827809377, 31.485411719218757], [121.39257827809377, 31.485232056161934], [121.39275794115059, 31.485232056161934], [121.39275794115059, 31.48559138227558], [121.39293760420742, 31.48559138227558], [121.39293760420742, 31.485771045332402], [121.39275794115059, 31.485771045332402], [121.39275794115059, 31.48595070838923], [121.39257827809377, 31.48595070838923], [121.39257827809377, 31.486130371446052], [121.39221895198013, 31.486130371446052], [121.39221895198013, 31.486310034502875], [121.39185962586647, 31.486310034502875], [121.39185962586647, 31.4864896975597], [121.39167996280965, 31.4864896975597], [121.39167996280965, 31.486669360616524], [121.39114097363918, 31.486669360616524], [121.39114097363918, 31.486849023673347], [121.39078164752553, 31.486849023673347], [121.39078164752553, 31.48702868673017], [121.39024265835506, 31.48702868673017]]]}, "properties": {"name": "cand15", "ptype": "hall", "confidence": "low", "rank": 15, "area_ha": 2.5, "rise_db": 7.8, "digitised_from": "Sentinel-1 VV rise 2022->2026, orbit 171"}}, {"type": "Feature", "geometry": {"geodesic": false, "type": "Polygon", "coordinates": [[[121.39617153923025, 31.488286328127938], [121.39617153923025, 31.487927002014292], [121.39653086534389, 31.487927002014292], [121.39653086534389, 31.487567675900642], [121.39689019145754, 31.487567675900642], [121.39689019145754, 31.48738801284382], [121.39706985451437, 31.48738801284382], [121.39706985451437, 31.487208349786997], [121.39742918062801, 31.487208349786997], [121.39742918062801, 31.48702868673017], [121.39778850674166, 31.48702868673017], [121.39778850674166, 31.487208349786997], [121.39832749591213, 31.487208349786997], [121.39832749591213, 31.48738801284382], [121.39868682202578, 31.48738801284382], [121.39868682202578, 31.487747338957465], [121.3988664850826, 31.487747338957465], [121.3988664850826, 31.487927002014292], [121.39850715896895, 31.487927002014292], [121.39850715896895, 31.488106665071115], [121.39814783285532, 31.488106665071115], [121.39814783285532, 31.487747338957465], [121.39742918062801, 31.487747338957465], [121.39742918062801, 31.487927002014292], [121.39724951757118, 31.487927002014292], [121.39724951757118, 31.488106665071115], [121.39689019145754, 31.488106665071115], [121.39689019145754, 31.488286328127938], [121.39617153923025, 31.488286328127938]]]}, "properties": {"name": "cand16", "ptype": "hall", "confidence": "low", "rank": 16, "area_ha": 2.1, "rise_db": 8.0, "digitised_from": "Sentinel-1 VV rise 2022->2026, orbit 171"}}, {"type": "Feature", "geometry": {"geodesic": false, "type": "Polygon", "coordinates": [[[121.39706985451437, 31.483076099480044], [121.39706985451437, 31.48289643642322], [121.39689019145754, 31.48289643642322], [121.39689019145754, 31.4827167733664], [121.39706985451437, 31.4827167733664], [121.39706985451437, 31.482177784195926], [121.39689019145754, 31.482177784195926], [121.39689019145754, 31.481998121139103], [121.39724951757118, 31.481998121139103], [121.39724951757118, 31.482177784195926], [121.39742918062801, 31.482177784195926], [121.39742918062801, 31.48235744725275], [121.39796816979849, 31.48235744725275], [121.39796816979849, 31.482177784195926], [121.39832749591213, 31.482177784195926], [121.39832749591213, 31.481998121139103], [121.39850715896895, 31.481998121139103], [121.39850715896895, 31.481818458082277], [121.3988664850826, 31.481818458082277], [121.3988664850826, 31.481638795025454], [121.39922581119625, 31.481638795025454], [121.39922581119625, 31.481998121139103], [121.39940547425307, 31.481998121139103], [121.39940547425307, 31.482177784195926], [121.39922581119625, 31.482177784195926], [121.39922581119625, 31.48235744725275], [121.3988664850826, 31.48235744725275], [121.3988664850826, 31.482537110309575], [121.39850715896895, 31.482537110309575], [121.39850715896895, 31.4827167733664], [121.39832749591213, 31.4827167733664], [121.39832749591213, 31.48289643642322], [121.39814783285532, 31.48289643642322], [121.39814783285532, 31.4827167733664], [121.39796816979849, 31.4827167733664], [121.39796816979849, 31.48289643642322], [121.39742918062801, 31.48289643642322], [121.39742918062801, 31.483076099480044], [121.39706985451437, 31.483076099480044]]]}, "properties": {"name": "cand17", "ptype": "hall", "confidence": "low", "rank": 17, "area_ha": 2.0, "rise_db": 10.6, "digitised_from": "Sentinel-1 VV rise 2022->2026, orbit 171"}}, {"type": "Feature", "geometry": {"geodesic": false, "type": "Polygon", "coordinates": [[[121.37604927686597, 31.46439114157036], [121.37604927686597, 31.464211478513537], [121.37586961380914, 31.464211478513537], [121.37586961380914, 31.46403181545671], [121.37515096158185, 31.46403181545671], [121.37515096158185, 31.463852152399888], [121.3747916354682, 31.463852152399888], [121.3747916354682, 31.463672489343065], [121.37461197241137, 31.463672489343065], [121.37461197241137, 31.46349282628624], [121.37443230935456, 31.46349282628624], [121.37443230935456, 31.463313163229415], [121.37461197241137, 31.463313163229415], [121.37461197241137, 31.46295383711577], [121.37533062463868, 31.46295383711577], [121.37533062463868, 31.463133500172592], [121.37551028769549, 31.463133500172592], [121.37551028769549, 31.46349282628624], [121.37604927686597, 31.46349282628624], [121.37604927686597, 31.463672489343065], [121.3762289399228, 31.463672489343065], [121.3762289399228, 31.463852152399888], [121.37658826603644, 31.463852152399888], [121.37658826603644, 31.46439114157036], [121.37604927686597, 31.46439114157036]], [[121.37551028769549, 31.463672489343065], [121.37533062463868, 31.463672489343065], [121.37533062463868, 31.46349282628624], [121.37551028769549, 31.46349282628624], [121.37551028769549, 31.463672489343065]]]}, "properties": {"name": "cand18", "ptype": "hall", "confidence": "low", "rank": 18, "area_ha": 1.8, "rise_db": 7.6, "digitised_from": "Sentinel-1 VV rise 2022->2026, orbit 171"}}, {"type": "Feature", "geometry": {"geodesic": false, "type": "Polygon", "coordinates": [[[121.37263567878631, 31.45756394541105], [121.37263567878631, 31.457384282354226], [121.3724560157295, 31.457384282354226], [121.3724560157295, 31.456306304013285], [121.37263567878631, 31.456306304013285], [121.37263567878631, 31.455946977899636], [121.37281534184314, 31.455946977899636], [121.37281534184314, 31.455587651785986], [121.37299500489996, 31.455587651785986], [121.37299500489996, 31.455407988729164], [121.37317466795679, 31.455407988729164], [121.37317466795679, 31.455587651785986], [121.37335433101362, 31.455587651785986], [121.37335433101362, 31.45648596707011], [121.37317466795679, 31.45648596707011], [121.37317466795679, 31.45666563012693], [121.37299500489996, 31.45666563012693], [121.37299500489996, 31.456845293183754], [121.37281534184314, 31.456845293183754], [121.37281534184314, 31.457204619297404], [121.37299500489996, 31.457204619297404], [121.37299500489996, 31.457384282354226], [121.37281534184314, 31.457384282354226], [121.37281534184314, 31.45756394541105], [121.37263567878631, 31.45756394541105]]]}, "properties": {"name": "cand19", "ptype": "hall", "confidence": "low", "rank": 19, "area_ha": 1.4, "rise_db": 6.1, "digitised_from": "Sentinel-1 VV rise 2022->2026, orbit 171"}}, {"type": "Feature", "geometry": {"geodesic": false, "type": "Polygon", "coordinates": [[[121.3604185909223, 31.47642856637756], [121.3604185909223, 31.475889577207088], [121.36059825397912, 31.475889577207088], [121.36059825397912, 31.475170924979793], [121.3604185909223, 31.475170924979793], [121.3604185909223, 31.474811598866147], [121.36077791703593, 31.474811598866147], [121.36077791703593, 31.47499126192297], [121.36095758009276, 31.47499126192297], [121.36095758009276, 31.475170924979793], [121.36113724314959, 31.475170924979793], [121.36113724314959, 31.47535058803662], [121.36131690620641, 31.47535058803662], [121.36131690620641, 31.475530251093442], [121.36149656926324, 31.475530251093442], [121.36149656926324, 31.475709914150265], [121.36131690620641, 31.475709914150265], [121.36131690620641, 31.476069240263914], [121.36113724314959, 31.476069240263914], [121.36113724314959, 31.476248903320737], [121.36095758009276, 31.476248903320737], [121.36095758009276, 31.47642856637756], [121.3604185909223, 31.47642856637756]]]}, "properties": {"name": "cand20", "ptype": "hall", "confidence": "low", "rank": 20, "area_ha": 1.3, "rise_db": 6.0, "digitised_from": "Sentinel-1 VV rise 2022->2026, orbit 171"}}, {"type": "Feature", "geometry": {"geodesic": false, "type": "Polygon", "coordinates": [[[121.37389332018408, 31.47858452305945], [121.37389332018408, 31.478404860002623], [121.37371365712725, 31.478404860002623], [121.37371365712725, 31.478045533888977], [121.37389332018408, 31.478045533888977], [121.37389332018408, 31.4782251969458], [121.37407298324091, 31.4782251969458], [121.37407298324091, 31.478045533888977], [121.37425264629773, 31.478045533888977], [121.37425264629773, 31.477686207775328], [121.37443230935456, 31.477686207775328], [121.37443230935456, 31.477326881661682], [121.37461197241137, 31.477326881661682], [121.37461197241137, 31.477147218604856], [121.37497129852503, 31.477147218604856], [121.37497129852503, 31.477326881661682], [121.37515096158185, 31.477326881661682], [121.37515096158185, 31.477686207775328], [121.37533062463868, 31.477686207775328], [121.37533062463868, 31.47786587083215], [121.37515096158185, 31.47786587083215], [121.37515096158185, 31.478045533888977], [121.3747916354682, 31.478045533888977], [121.3747916354682, 31.4782251969458], [121.37461197241137, 31.4782251969458], [121.37461197241137, 31.478404860002623], [121.37425264629773, 31.478404860002623], [121.37425264629773, 31.47858452305945], [121.37389332018408, 31.47858452305945]]]}, "properties": {"name": "cand21", "ptype": "hall", "confidence": "low", "rank": 21, "area_ha": 1.3, "rise_db": 6.1, "digitised_from": "Sentinel-1 VV rise 2022->2026, orbit 171"}}, {"type": "Feature", "geometry": {"geodesic": false, "type": "Polygon", "coordinates": [[[121.39760884368484, 31.486849023673347], [121.39760884368484, 31.486669360616524], [121.39724951757118, 31.486669360616524], [121.39724951757118, 31.486310034502875], [121.39706985451437, 31.486310034502875], [121.39706985451437, 31.48595070838923], [121.39689019145754, 31.48595070838923], [121.39689019145754, 31.48559138227558], [121.39653086534389, 31.48559138227558], [121.39653086534389, 31.485232056161934], [121.39635120228706, 31.485232056161934], [121.39635120228706, 31.485052393105107], [121.39617153923025, 31.485052393105107], [121.39617153923025, 31.48469306699146], [121.39599187617343, 31.48469306699146], [121.39599187617343, 31.48451340393464], [121.39563255005977, 31.48451340393464], [121.39563255005977, 31.483974414764166], [121.39599187617343, 31.483974414764166], [121.39599187617343, 31.484333740877812], [121.39617153923025, 31.484333740877812], [121.39617153923025, 31.48469306699146], [121.39653086534389, 31.48469306699146], [121.39653086534389, 31.485052393105107], [121.39671052840072, 31.485052393105107], [121.39671052840072, 31.485232056161934], [121.39689019145754, 31.485232056161934], [121.39689019145754, 31.48559138227558], [121.39706985451437, 31.48559138227558], [121.39706985451437, 31.485771045332402], [121.39724951757118, 31.485771045332402], [121.39724951757118, 31.48595070838923], [121.39742918062801, 31.48595070838923], [121.39742918062801, 31.486130371446052], [121.39760884368484, 31.486130371446052], [121.39760884368484, 31.4864896975597], [121.39778850674166, 31.4864896975597], [121.39778850674166, 31.486669360616524], [121.39796816979849, 31.486669360616524], [121.39796816979849, 31.486849023673347], [121.39760884368484, 31.486849023673347]]]}, "properties": {"name": "cand22", "ptype": "hall", "confidence": "low", "rank": 22, "area_ha": 1.3, "rise_db": 9.3, "digitised_from": "Sentinel-1 VV rise 2022->2026, orbit 171"}}, {"type": "Feature", "geometry": {"geodesic": false, "type": "Polygon", "coordinates": [[[121.38593074499128, 31.47499126192297], [121.38593074499128, 31.474811598866147], [121.38557141887763, 31.474811598866147], [121.38557141887763, 31.47463193580932], [121.3853917558208, 31.47463193580932], [121.3853917558208, 31.47409294663885], [121.38575108193446, 31.47409294663885], [121.38575108193446, 31.473913283582025], [121.38629007110494, 31.473913283582025], [121.38629007110494, 31.47409294663885], [121.38664939721858, 31.47409294663885], [121.38664939721858, 31.474452272752497], [121.38646973416175, 31.474452272752497], [121.38646973416175, 31.47499126192297], [121.38593074499128, 31.47499126192297]]]}, "properties": {"name": "cand23", "ptype": "hall", "confidence": "low", "rank": 23, "area_ha": 1.2, "rise_db": 7.1, "digitised_from": "Sentinel-1 VV rise 2022->2026, orbit 171"}}, {"type": "Feature", "geometry": {"geodesic": false, "type": "Polygon", "coordinates": [[[121.35484903616074, 31.475530251093442], [121.35484903616074, 31.47535058803662], [121.35466937310393, 31.47535058803662], [121.35466937310393, 31.475170924979793], [121.3544897100471, 31.475170924979793], [121.3544897100471, 31.47463193580932], [121.35484903616074, 31.47463193580932], [121.35484903616074, 31.474452272752497], [121.35502869921757, 31.474452272752497], [121.35502869921757, 31.474272609695674], [121.3552083622744, 31.474272609695674], [121.3552083622744, 31.47409294663885], [121.35592701450169, 31.47409294663885], [121.35592701450169, 31.474452272752497], [121.35556768838805, 31.474452272752497], [121.35556768838805, 31.47463193580932], [121.3552083622744, 31.47463193580932], [121.3552083622744, 31.474811598866147], [121.35538802533122, 31.474811598866147], [121.35538802533122, 31.47499126192297], [121.3552083622744, 31.47499126192297], [121.3552083622744, 31.475530251093442], [121.35484903616074, 31.475530251093442]]]}, "properties": {"name": "cand24", "ptype": "hall", "confidence": "low", "rank": 24, "area_ha": 1.2, "rise_db": 5.3, "digitised_from": "Sentinel-1 VV rise 2022->2026, orbit 171"}}, {"type": "Feature", "geometry": {"geodesic": false, "type": "Polygon", "coordinates": [[[121.3537710578198, 31.451096075365392], [121.3537710578198, 31.450916412308565], [121.35359139476299, 31.450916412308565], [121.35359139476299, 31.450736749251742], [121.35323206864933, 31.450736749251742], [121.35323206864933, 31.450916412308565], [121.3530524055925, 31.450916412308565], [121.3530524055925, 31.451096075365392], [121.35251341642204, 31.451096075365392], [121.35251341642204, 31.450916412308565], [121.35233375336522, 31.450916412308565], [121.35233375336522, 31.450377423138097], [121.3530524055925, 31.450377423138097], [121.3530524055925, 31.45055708619492], [121.35359139476299, 31.45055708619492], [121.35359139476299, 31.450377423138097], [121.3537710578198, 31.450377423138097], [121.3537710578198, 31.450736749251742], [121.35395072087663, 31.450736749251742], [121.35395072087663, 31.45055708619492], [121.35413038393345, 31.45055708619492], [121.35413038393345, 31.451096075365392], [121.3537710578198, 31.451096075365392]]]}, "properties": {"name": "cand25", "ptype": "hall", "confidence": "low", "rank": 25, "area_ha": 1.1, "rise_db": 4.8, "digitised_from": "Sentinel-1 VV rise 2022->2026, orbit 171"}}]}