{"type": "FeatureCollection", "features": [{"type": "Feature", "geometry": {"geodesic": false, "type": "Polygon", "coordinates": [[[118.73284638487269, 37.28709115017627], [118.73284638487269, 37.2865521610058], [118.73302604792951, 37.2865521610058], [118.73302604792951, 37.28637249794898], [118.73284638487269, 37.28637249794898], [118.73284638487269, 37.286192834892155], [118.73266672181586, 37.286192834892155], [118.73266672181586, 37.28673182406263], [118.73230739570222, 37.28673182406263], [118.73230739570222, 37.28637249794898], [118.73194806958857, 37.28637249794898], [118.73194806958857, 37.2865521610058], [118.73158874347492, 37.2865521610058], [118.73158874347492, 37.28637249794898], [118.7314090804181, 37.28637249794898], [118.7314090804181, 37.286192834892155], [118.73104975430445, 37.286192834892155], [118.73104975430445, 37.28637249794898], [118.73087009124762, 37.28637249794898], [118.73087009124762, 37.286192834892155], [118.73051076513399, 37.286192834892155], [118.73051076513399, 37.28637249794898], [118.73033110207716, 37.28637249794898], [118.73033110207716, 37.2865521610058], [118.73015143902033, 37.2865521610058], [118.73015143902033, 37.28673182406263], [118.72979211290668, 37.28673182406263], [118.72979211290668, 37.2865521610058], [118.72961244984985, 37.2865521610058], [118.72961244984985, 37.28637249794898], [118.72943278679304, 37.28637249794898], [118.72943278679304, 37.2865521610058], [118.72925312373621, 37.2865521610058], [118.72925312373621, 37.28673182406263], [118.72907346067939, 37.28673182406263], [118.72907346067939, 37.28709115017627], [118.72871413456573, 37.28709115017627], [118.72871413456573, 37.28691148711945], [118.72853447150892, 37.28691148711945], [118.72853447150892, 37.28673182406263], [118.7283548084521, 37.28673182406263], [118.7283548084521, 37.2865521610058], [118.72763615622479, 37.2865521610058], [118.72763615622479, 37.28673182406263], [118.72727683011115, 37.28673182406263], [118.72727683011115, 37.2865521610058], [118.72709716705432, 37.2865521610058], [118.72709716705432, 37.28637249794898], [118.72637851482703, 37.28637249794898], [118.72637851482703, 37.28601317183533], [118.7261988517702, 37.28601317183533], [118.7261988517702, 37.28565384572168], [118.72637851482703, 37.28565384572168], [118.72637851482703, 37.285474182664856], [118.72655817788386, 37.285474182664856], [118.72655817788386, 37.28511485655121], [118.7261988517702, 37.28511485655121], [118.7261988517702, 37.284755530437565], [118.72601918871338, 37.284755530437565], [118.72601918871338, 37.284935193494384], [118.72583952565655, 37.284935193494384], [118.72583952565655, 37.28511485655121], [118.72565986259973, 37.28511485655121], [118.72565986259973, 37.28529451960804], [118.72583952565655, 37.28529451960804], [118.72583952565655, 37.28601317183533], [118.72565986259973, 37.28601317183533], [118.72565986259973, 37.286192834892155], [118.72548019954291, 37.286192834892155], [118.72548019954291, 37.28637249794898], [118.72494121037244, 37.28637249794898], [118.72494121037244, 37.286192834892155], [118.72476154731561, 37.286192834892155], [118.72476154731561, 37.28601317183533], [118.7245818842588, 37.28601317183533], [118.7245818842588, 37.28583350877851], [118.72440222120197, 37.28583350877851], [118.72440222120197, 37.28601317183533], [118.72422255814514, 37.28601317183533], [118.72422255814514, 37.286192834892155], [118.72368356897466, 37.286192834892155], [118.72368356897466, 37.28637249794898], [118.72332424286103, 37.28637249794898], [118.72332424286103, 37.286192834892155], [118.7231445798042, 37.286192834892155], [118.7231445798042, 37.28583350877851], [118.72296491674737, 37.28583350877851], [118.72296491674737, 37.28529451960804], [118.72332424286103, 37.28529451960804], [118.72332424286103, 37.284935193494384], [118.7231445798042, 37.284935193494384], [118.7231445798042, 37.28457586738074], [118.72296491674737, 37.28457586738074], [118.72296491674737, 37.28439620432392], [118.7231445798042, 37.28439620432392], [118.7231445798042, 37.28421654126709], [118.72332424286103, 37.28421654126709], [118.72332424286103, 37.284036878210266], [118.72368356897466, 37.284036878210266], [118.72368356897466, 37.283857215153446], [118.72404289508832, 37.283857215153446], [118.72404289508832, 37.284036878210266], [118.72422255814514, 37.284036878210266], [118.72422255814514, 37.28421654126709], [118.72440222120197, 37.28421654126709], [118.72440222120197, 37.28439620432392], [118.72476154731561, 37.28439620432392], [118.72476154731561, 37.28421654126709], [118.7245818842588, 37.28421654126709], [118.7245818842588, 37.283857215153446], [118.72476154731561, 37.283857215153446], [118.72476154731561, 37.28367755209662], [118.72404289508832, 37.28367755209662], [118.72404289508832, 37.28349788903979], [118.72350390591785, 37.28349788903979], [118.72350390591785, 37.283318225982974], [118.72332424286103, 37.283318225982974], [118.72332424286103, 37.28241991069885], [118.72350390591785, 37.28241991069885], [118.72350390591785, 37.2820605845852], [118.72332424286103, 37.2820605845852], [118.72332424286103, 37.28170125847156], [118.72350390591785, 37.28170125847156], [118.72350390591785, 37.28152159541473], [118.72368356897466, 37.28152159541473], [118.72368356897466, 37.28134193235791], [118.72404289508832, 37.28134193235791], [118.72404289508832, 37.281162269301085], [118.72422255814514, 37.281162269301085], [118.72422255814514, 37.28134193235791], [118.7245818842588, 37.28134193235791], [118.7245818842588, 37.281162269301085], [118.72476154731561, 37.281162269301085], [118.72476154731561, 37.28134193235791], [118.72548019954291, 37.28134193235791], [118.72548019954291, 37.28080294318744], [118.72565986259973, 37.28080294318744], [118.72565986259973, 37.28152159541473], [118.72583952565655, 37.28152159541473], [118.72583952565655, 37.28170125847156], [118.7261988517702, 37.28170125847156], [118.7261988517702, 37.28224024764203], [118.72601918871338, 37.28224024764203], [118.72601918871338, 37.28241991069885], [118.72583952565655, 37.28241991069885], [118.72583952565655, 37.282599573755675], [118.72601918871338, 37.282599573755675], [118.72601918871338, 37.283318225982974], [118.72583952565655, 37.283318225982974], [118.72583952565655, 37.28439620432392], [118.72601918871338, 37.28439620432392], [118.72601918871338, 37.28457586738074], [118.72637851482703, 37.28457586738074], [118.72637851482703, 37.284036878210266], [118.72709716705432, 37.284036878210266], [118.72709716705432, 37.28367755209662], [118.72727683011115, 37.28367755209662], [118.72727683011115, 37.28349788903979], [118.72637851482703, 37.28349788903979], [118.72637851482703, 37.28295889986932], [118.72655817788386, 37.28295889986932], [118.72655817788386, 37.2827792368125], [118.72673784094067, 37.2827792368125], [118.72673784094067, 37.282599573755675], [118.7269175039975, 37.282599573755675], [118.7269175039975, 37.28241991069885], [118.72673784094067, 37.28241991069885], [118.72673784094067, 37.2820605845852], [118.72655817788386, 37.2820605845852], [118.72655817788386, 37.28188092152838], [118.72673784094067, 37.28188092152838], [118.72673784094067, 37.28170125847156], [118.72781581928162, 37.28170125847156], [118.72781581928162, 37.28152159541473], [118.7283548084521, 37.28152159541473], [118.7283548084521, 37.28170125847156], [118.72871413456573, 37.28170125847156], [118.72871413456573, 37.28134193235791], [118.72925312373621, 37.28134193235791], [118.72925312373621, 37.28152159541473], [118.72943278679304, 37.28152159541473], [118.72943278679304, 37.28170125847156], [118.72979211290668, 37.28170125847156], [118.72979211290668, 37.28224024764203], [118.72961244984985, 37.28224024764203], [118.72961244984985, 37.28241991069885], [118.72979211290668, 37.28241991069885], [118.72979211290668, 37.282599573755675], [118.7299717759635, 37.282599573755675], [118.7299717759635, 37.2827792368125], [118.73015143902033, 37.2827792368125], [118.73015143902033, 37.28313856292615], [118.73033110207716, 37.28313856292615], [118.73033110207716, 37.28349788903979], [118.73051076513399, 37.28349788903979], [118.73051076513399, 37.28367755209662], [118.7306904281908, 37.28367755209662], [118.7306904281908, 37.283857215153446], [118.73033110207716, 37.283857215153446], [118.73033110207716, 37.28349788903979], [118.73015143902033, 37.28349788903979], [118.73015143902033, 37.28367755209662], [118.7299717759635, 37.28367755209662], [118.7299717759635, 37.283857215153446], [118.72979211290668, 37.283857215153446], [118.72979211290668, 37.284036878210266], [118.72943278679304, 37.284036878210266], [118.72943278679304, 37.284935193494384], [118.7299717759635, 37.284935193494384], [118.7299717759635, 37.28457586738074], [118.73015143902033, 37.28457586738074], [118.73015143902033, 37.28439620432392], [118.73033110207716, 37.28439620432392], [118.73033110207716, 37.284036878210266], [118.7306904281908, 37.284036878210266], [118.7306904281908, 37.28421654126709], [118.73087009124762, 37.28421654126709], [118.73087009124762, 37.284036878210266], [118.73104975430445, 37.284036878210266], [118.73104975430445, 37.283318225982974], [118.7306904281908, 37.283318225982974], [118.7306904281908, 37.28295889986932], [118.73087009124762, 37.28295889986932], [118.73087009124762, 37.282599573755675], [118.73104975430445, 37.282599573755675], [118.73104975430445, 37.28241991069885], [118.7314090804181, 37.28241991069885], [118.7314090804181, 37.2820605845852], [118.73104975430445, 37.2820605845852], [118.73104975430445, 37.28188092152838], [118.73087009124762, 37.28188092152838], [118.73087009124762, 37.28170125847156], [118.7306904281908, 37.28170125847156], [118.7306904281908, 37.28134193235791], [118.73087009124762, 37.28134193235791], [118.73087009124762, 37.281162269301085], [118.7306904281908, 37.281162269301085], [118.7306904281908, 37.28080294318744], [118.73104975430445, 37.28080294318744], [118.73104975430445, 37.281162269301085], [118.73122941736128, 37.281162269301085], [118.73122941736128, 37.28098260624426], [118.73176840653174, 37.28098260624426], [118.73176840653174, 37.281162269301085], [118.73248705875905, 37.281162269301085], [118.73248705875905, 37.28098260624426], [118.73302604792951, 37.28098260624426], [118.73302604792951, 37.281162269301085], [118.73320571098634, 37.281162269301085], [118.73320571098634, 37.28134193235791], [118.73338537404317, 37.28134193235791], [118.73338537404317, 37.281162269301085], [118.7337447001568, 37.281162269301085], [118.7337447001568, 37.28098260624426], [118.73410402627046, 37.28098260624426], [118.73410402627046, 37.28152159541473], [118.73428368932728, 37.28152159541473], [118.73428368932728, 37.281162269301085], [118.73446335238411, 37.281162269301085], [118.73446335238411, 37.28098260624426], [118.73482267849775, 37.28098260624426], [118.73482267849775, 37.281162269301085], [118.73500234155458, 37.281162269301085], [118.73500234155458, 37.28134193235791], [118.73536166766823, 37.28134193235791], [118.73536166766823, 37.281162269301085], [118.7351820046114, 37.281162269301085], [118.7351820046114, 37.28098260624426], [118.73554133072504, 37.28098260624426], [118.73554133072504, 37.28062328013061], [118.7359006568387, 37.28062328013061], [118.7359006568387, 37.28080294318744], [118.73608031989552, 37.28080294318744], [118.73608031989552, 37.28098260624426], [118.7359006568387, 37.28098260624426], [118.7359006568387, 37.28134193235791], [118.73608031989552, 37.28134193235791], [118.73608031989552, 37.281162269301085], [118.73625998295235, 37.281162269301085], [118.73625998295235, 37.28152159541473], [118.73643964600917, 37.28152159541473], [118.73643964600917, 37.28134193235791], [118.73697863517964, 37.28134193235791], [118.73697863517964, 37.28098260624426], [118.73733796129329, 37.28098260624426], [118.73733796129329, 37.2820605845852], [118.7375176243501, 37.2820605845852], [118.7375176243501, 37.28224024764203], [118.73787695046376, 37.28224024764203], [118.73787695046376, 37.28241991069885], [118.73715829823647, 37.28241991069885], [118.73715829823647, 37.282599573755675], [118.73733796129329, 37.282599573755675], [118.73733796129329, 37.28313856292615], [118.73823627657741, 37.28313856292615], [118.73823627657741, 37.283318225982974], [118.73913459186153, 37.283318225982974], [118.73913459186153, 37.28295889986932], [118.73931425491836, 37.28295889986932], [118.73931425491836, 37.28224024764203], [118.73913459186153, 37.28224024764203], [118.73913459186153, 37.28170125847156], [118.73931425491836, 37.28170125847156], [118.73931425491836, 37.28152159541473], [118.73949391797517, 37.28152159541473], [118.73949391797517, 37.281162269301085], [118.739673581032, 37.281162269301085], [118.739673581032, 37.28170125847156], [118.73985324408882, 37.28170125847156], [118.73985324408882, 37.28188092152838], [118.74003290714565, 37.28188092152838], [118.74003290714565, 37.28134193235791], [118.74021257020247, 37.28134193235791], [118.74021257020247, 37.281162269301085], [118.7403922332593, 37.281162269301085], [118.7403922332593, 37.28098260624426], [118.74111088548659, 37.28098260624426], [118.74111088548659, 37.281162269301085], [118.74200920077071, 37.281162269301085], [118.74200920077071, 37.28098260624426], [118.742727852998, 37.28098260624426], [118.742727852998, 37.281162269301085], [118.74290751605483, 37.281162269301085], [118.74290751605483, 37.28152159541473], [118.74254818994117, 37.28152159541473], [118.74254818994117, 37.28170125847156], [118.74218886382754, 37.28170125847156], [118.74218886382754, 37.2820605845852], [118.74254818994117, 37.2820605845852], [118.74254818994117, 37.28224024764203], [118.742727852998, 37.28224024764203], [118.742727852998, 37.28241991069885], [118.74254818994117, 37.28241991069885], [118.74254818994117, 37.282599573755675], [118.74182953771388, 37.282599573755675], [118.74182953771388, 37.28241991069885], [118.74111088548659, 37.28241991069885], [118.74111088548659, 37.2827792368125], [118.74129054854342, 37.2827792368125], [118.74129054854342, 37.28313856292615], [118.74075155937294, 37.28313856292615], [118.74075155937294, 37.283318225982974], [118.74093122242977, 37.283318225982974], [118.74093122242977, 37.28349788903979], [118.74057189631611, 37.28349788903979], [118.74057189631611, 37.28313856292615], [118.73985324408882, 37.28313856292615], [118.73985324408882, 37.283318225982974], [118.74003290714565, 37.283318225982974], [118.74003290714565, 37.28349788903979], [118.73985324408882, 37.28349788903979], [118.73985324408882, 37.28367755209662], [118.739673581032, 37.28367755209662], [118.739673581032, 37.28421654126709], [118.74003290714565, 37.28421654126709], [118.74003290714565, 37.28439620432392], [118.74021257020247, 37.28439620432392], [118.74021257020247, 37.28457586738074], [118.74003290714565, 37.28457586738074], [118.74003290714565, 37.284935193494384], [118.74021257020247, 37.284935193494384], [118.74021257020247, 37.28529451960804], [118.73931425491836, 37.28529451960804], [118.73931425491836, 37.285474182664856], [118.73913459186153, 37.285474182664856], [118.73913459186153, 37.28529451960804], [118.73931425491836, 37.28529451960804], [118.73931425491836, 37.28511485655121], [118.73913459186153, 37.28511485655121], [118.73913459186153, 37.284935193494384], [118.73931425491836, 37.284935193494384], [118.73931425491836, 37.283857215153446], [118.73949391797517, 37.283857215153446], [118.73949391797517, 37.28367755209662], [118.7389549288047, 37.28367755209662], [118.7389549288047, 37.28349788903979], [118.73823627657741, 37.28349788903979], [118.73823627657741, 37.28367755209662], [118.73769728740693, 37.28367755209662], [118.73769728740693, 37.28349788903979], [118.73715829823647, 37.28349788903979], [118.73715829823647, 37.284036878210266], [118.73697863517964, 37.284036878210266], [118.73697863517964, 37.28457586738074], [118.73661930906599, 37.28457586738074], [118.73661930906599, 37.28511485655121], [118.73679897212281, 37.28511485655121], [118.73679897212281, 37.28529451960804], [118.73697863517964, 37.28529451960804], [118.73697863517964, 37.28565384572168], [118.73679897212281, 37.28565384572168], [118.73679897212281, 37.28583350877851], [118.73661930906599, 37.28583350877851], [118.73661930906599, 37.28565384572168], [118.73643964600917, 37.28565384572168], [118.73643964600917, 37.286192834892155], [118.73661930906599, 37.286192834892155], [118.73661930906599, 37.28601317183533], [118.73679897212281, 37.28601317183533], [118.73679897212281, 37.286192834892155], [118.73697863517964, 37.286192834892155], [118.73697863517964, 37.28637249794898], [118.73679897212281, 37.28637249794898], [118.73679897212281, 37.28673182406263], [118.73625998295235, 37.28673182406263], [118.73625998295235, 37.28691148711945], [118.7359006568387, 37.28691148711945], [118.7359006568387, 37.28673182406263], [118.73572099378187, 37.28673182406263], [118.73572099378187, 37.2865521610058], [118.73536166766823, 37.2865521610058], [118.73536166766823, 37.28673182406263], [118.73554133072504, 37.28673182406263], [118.73554133072504, 37.28691148711945], [118.73428368932728, 37.28691148711945], [118.73428368932728, 37.28673182406263], [118.73446335238411, 37.28673182406263], [118.73446335238411, 37.28637249794898], [118.73428368932728, 37.28637249794898], [118.73428368932728, 37.2865521610058], [118.73410402627046, 37.2865521610058], [118.73410402627046, 37.28637249794898], [118.73338537404317, 37.28637249794898], [118.73338537404317, 37.2865521610058], [118.73356503709998, 37.2865521610058], [118.73356503709998, 37.28691148711945], [118.73338537404317, 37.28691148711945], [118.73338537404317, 37.28709115017627], [118.73284638487269, 37.28709115017627]], [[118.72512087342926, 37.28170125847156], [118.72476154731561, 37.28170125847156], [118.72476154731561, 37.28152159541473], [118.72512087342926, 37.28152159541473], [118.72512087342926, 37.28170125847156]], [[118.72494121037244, 37.2827792368125], [118.7245818842588, 37.2827792368125], [118.7245818842588, 37.28241991069885], [118.72440222120197, 37.28241991069885], [118.72440222120197, 37.28224024764203], [118.72512087342926, 37.28224024764203], [118.72512087342926, 37.28241991069885], [118.72494121037244, 37.28241991069885], [118.72494121037244, 37.2827792368125]], [[118.72494121037244, 37.28349788903979], [118.72440222120197, 37.28349788903979], [118.72440222120197, 37.283318225982974], [118.7245818842588, 37.283318225982974], [118.7245818842588, 37.28313856292615], [118.72476154731561, 37.28313856292615], [118.72476154731561, 37.283318225982974], [118.72494121037244, 37.283318225982974], [118.72494121037244, 37.28349788903979]], [[118.72565986259973, 37.284036878210266], [118.72548019954291, 37.284036878210266], [118.72548019954291, 37.283857215153446], [118.72530053648609, 37.283857215153446], [118.72530053648609, 37.28367755209662], [118.72565986259973, 37.28367755209662], [118.72565986259973, 37.284036878210266]], [[118.7283548084521, 37.283857215153446], [118.72817514539527, 37.283857215153446], [118.72817514539527, 37.28367755209662], [118.7283548084521, 37.28367755209662], [118.7283548084521, 37.283857215153446]], [[118.72853447150892, 37.284036878210266], [118.7283548084521, 37.284036878210266], [118.7283548084521, 37.283857215153446], [118.72853447150892, 37.283857215153446], [118.72853447150892, 37.284036878210266]], [[118.72727683011115, 37.28439620432392], [118.72709716705432, 37.28439620432392], [118.72709716705432, 37.28421654126709], [118.72727683011115, 37.28421654126709], [118.72727683011115, 37.28439620432392]], [[118.73428368932728, 37.282599573755675], [118.73410402627046, 37.282599573755675], [118.73410402627046, 37.28241991069885], [118.73428368932728, 37.28241991069885], [118.73428368932728, 37.282599573755675]], [[118.74093122242977, 37.282599573755675], [118.74075155937294, 37.282599573755675], [118.74075155937294, 37.28241991069885], [118.74093122242977, 37.28241991069885], [118.74093122242977, 37.282599573755675]], [[118.7403922332593, 37.2827792368125], [118.73985324408882, 37.2827792368125], [118.73985324408882, 37.28224024764203], [118.74003290714565, 37.28224024764203], [118.74003290714565, 37.28241991069885], [118.74057189631611, 37.28241991069885], [118.74057189631611, 37.282599573755675], [118.7403922332593, 37.282599573755675], [118.7403922332593, 37.2827792368125]], [[118.74075155937294, 37.2827792368125], [118.74057189631611, 37.2827792368125], [118.74057189631611, 37.282599573755675], [118.74075155937294, 37.282599573755675], [118.74075155937294, 37.2827792368125]], [[118.73320571098634, 37.283857215153446], [118.73302604792951, 37.283857215153446], [118.73302604792951, 37.28367755209662], [118.73320571098634, 37.28367755209662], [118.73320571098634, 37.283857215153446]], [[118.73410402627046, 37.284036878210266], [118.7337447001568, 37.284036878210266], [118.7337447001568, 37.283857215153446], [118.73410402627046, 37.283857215153446], [118.73410402627046, 37.284036878210266]], [[118.73554133072504, 37.284036878210266], [118.73536166766823, 37.284036878210266], [118.73536166766823, 37.28367755209662], [118.73554133072504, 37.28367755209662], [118.73554133072504, 37.284036878210266]], [[118.73410402627046, 37.28439620432392], [118.73392436321363, 37.28439620432392], [118.73392436321363, 37.28421654126709], [118.73410402627046, 37.28421654126709], [118.73410402627046, 37.28439620432392]], [[118.73536166766823, 37.28457586738074], [118.7351820046114, 37.28457586738074], [118.7351820046114, 37.28439620432392], [118.73536166766823, 37.28439620432392], [118.73536166766823, 37.28457586738074]], [[118.7306904281908, 37.28529451960804], [118.73051076513399, 37.28529451960804], [118.73051076513399, 37.284755530437565], [118.7306904281908, 37.284755530437565], [118.7306904281908, 37.28529451960804]], [[118.7245818842588, 37.285474182664856], [118.72440222120197, 37.285474182664856], [118.72440222120197, 37.28529451960804], [118.72422255814514, 37.28529451960804], [118.72422255814514, 37.284935193494384], [118.72440222120197, 37.284935193494384], [118.72440222120197, 37.284755530437565], [118.7245818842588, 37.284755530437565], [118.7245818842588, 37.284935193494384], [118.72476154731561, 37.284935193494384], [118.72476154731561, 37.28529451960804], [118.7245818842588, 37.28529451960804], [118.7245818842588, 37.285474182664856]], [[118.7351820046114, 37.28565384572168], [118.73500234155458, 37.28565384572168], [118.73500234155458, 37.28511485655121], [118.7351820046114, 37.28511485655121], [118.7351820046114, 37.28529451960804], [118.73536166766823, 37.28529451960804], [118.73536166766823, 37.285474182664856], [118.7351820046114, 37.285474182664856], [118.7351820046114, 37.28565384572168]], [[118.73033110207716, 37.28601317183533], [118.7299717759635, 37.28601317183533], [118.7299717759635, 37.28583350877851], [118.72961244984985, 37.28583350877851], [118.72961244984985, 37.28601317183533], [118.72925312373621, 37.28601317183533], [118.72925312373621, 37.28583350877851], [118.72907346067939, 37.28583350877851], [118.72907346067939, 37.28565384572168], [118.72961244984985, 37.28565384572168], [118.72961244984985, 37.285474182664856], [118.73015143902033, 37.285474182664856], [118.73015143902033, 37.28565384572168], [118.73051076513399, 37.28565384572168], [118.73051076513399, 37.28583350877851], [118.73033110207716, 37.28583350877851], [118.73033110207716, 37.28601317183533]], [[118.7351820046114, 37.28637249794898], [118.73500234155458, 37.28637249794898], [118.73500234155458, 37.28601317183533], [118.7351820046114, 37.28601317183533], [118.7351820046114, 37.28637249794898]], [[118.73643964600917, 37.28637249794898], [118.73625998295235, 37.28637249794898], [118.73625998295235, 37.286192834892155], [118.73643964600917, 37.286192834892155], [118.73643964600917, 37.28637249794898]], [[118.73500234155458, 37.2865521610058], [118.73482267849775, 37.2865521610058], [118.73482267849775, 37.28637249794898], [118.73500234155458, 37.28637249794898], [118.73500234155458, 37.2865521610058]], [[118.73625998295235, 37.28673182406263], [118.73608031989552, 37.28673182406263], [118.73608031989552, 37.2865521610058], [118.73625998295235, 37.2865521610058], [118.73625998295235, 37.28673182406263]]]}, "properties": {"name": "cand01", "ptype": "hall", "confidence": "low", "rank": 1, "area_ha": 87.8, "rise_db": 10.6, "digitised_from": "Sentinel-1 VV rise 2022->2026, orbit 69"}}, {"type": "Feature", "geometry": {"geodesic": false, "type": "Polygon", "coordinates": [[[118.7359006568387, 37.30020655332442], [118.7359006568387, 37.300026890267596], [118.73572099378187, 37.300026890267596], [118.73572099378187, 37.29984722721077], [118.73536166766823, 37.29984722721077], [118.73536166766823, 37.29966756415395], [118.7351820046114, 37.29966756415395], [118.7351820046114, 37.300026890267596], [118.73464301544092, 37.300026890267596], [118.73464301544092, 37.30020655332442], [118.73428368932728, 37.30020655332442], [118.73428368932728, 37.29823025969936], [118.73446335238411, 37.29823025969936], [118.73446335238411, 37.29805059664253], [118.73464301544092, 37.29805059664253], [118.73464301544092, 37.297870933585706], [118.73482267849775, 37.297870933585706], [118.73482267849775, 37.297331944415234], [118.7351820046114, 37.297331944415234], [118.7351820046114, 37.29751160747206], [118.73554133072504, 37.29751160747206], [118.73554133072504, 37.297870933585706], [118.73625998295235, 37.297870933585706], [118.73625998295235, 37.29805059664253], [118.73643964600917, 37.29805059664253], [118.73643964600917, 37.29823025969936], [118.73661930906599, 37.29823025969936], [118.73661930906599, 37.298589585813005], [118.73643964600917, 37.298589585813005], [118.73643964600917, 37.29894891192665], [118.73625998295235, 37.29894891192665], [118.73625998295235, 37.29912857498348], [118.73608031989552, 37.29912857498348], [118.73608031989552, 37.29894891192665], [118.7359006568387, 37.29894891192665], [118.7359006568387, 37.298769248869824], [118.73500234155458, 37.298769248869824], [118.73500234155458, 37.2993082380403], [118.7351820046114, 37.2993082380403], [118.7351820046114, 37.29948790109712], [118.73554133072504, 37.29948790109712], [118.73554133072504, 37.29966756415395], [118.7359006568387, 37.29966756415395], [118.7359006568387, 37.29948790109712], [118.73625998295235, 37.29948790109712], [118.73625998295235, 37.2993082380403], [118.73643964600917, 37.2993082380403], [118.73643964600917, 37.300026890267596], [118.73625998295235, 37.300026890267596], [118.73625998295235, 37.30020655332442], [118.7359006568387, 37.30020655332442]], [[118.73554133072504, 37.29823025969936], [118.7351820046114, 37.29823025969936], [118.7351820046114, 37.29805059664253], [118.73554133072504, 37.29805059664253], [118.73554133072504, 37.29823025969936]], [[118.7359006568387, 37.29823025969936], [118.73572099378187, 37.29823025969936], [118.73572099378187, 37.29805059664253], [118.7359006568387, 37.29805059664253], [118.7359006568387, 37.29823025969936]]]}, "properties": {"name": "cand02", "ptype": "hall", "confidence": "low", "rank": 2, "area_ha": 4.8, "rise_db": 7.2, "digitised_from": "Sentinel-1 VV rise 2022->2026, orbit 69"}}, {"type": "Feature", "geometry": {"geodesic": false, "type": "Polygon", "coordinates": [[[118.75296864723697, 37.28349788903979], [118.75296864723697, 37.283318225982974], [118.75207033195285, 37.283318225982974], [118.75207033195285, 37.28349788903979], [118.75153134278237, 37.28349788903979], [118.75153134278237, 37.283318225982974], [118.75135167972554, 37.283318225982974], [118.75135167972554, 37.28295889986932], [118.75117201666873, 37.28295889986932], [118.75117201666873, 37.28313856292615], [118.7509923536119, 37.28313856292615], [118.7509923536119, 37.2827792368125], [118.75153134278237, 37.2827792368125], [118.75153134278237, 37.282599573755675], [118.75135167972554, 37.282599573755675], [118.75135167972554, 37.28241991069885], [118.75081269055508, 37.28241991069885], [118.75081269055508, 37.28224024764203], [118.75063302749825, 37.28224024764203], [118.75063302749825, 37.28188092152838], [118.75045336444143, 37.28188092152838], [118.75045336444143, 37.28170125847156], [118.7509923536119, 37.28170125847156], [118.7509923536119, 37.2820605845852], [118.75135167972554, 37.2820605845852], [118.75135167972554, 37.28224024764203], [118.75153134278237, 37.28224024764203], [118.75153134278237, 37.2820605845852], [118.75242965806649, 37.2820605845852], [118.75242965806649, 37.28188092152838], [118.75224999500968, 37.28188092152838], [118.75224999500968, 37.28152159541473], [118.75242965806649, 37.28152159541473], [118.75242965806649, 37.28134193235791], [118.75296864723697, 37.28134193235791], [118.75296864723697, 37.28188092152838], [118.7531483102938, 37.28188092152838], [118.7531483102938, 37.2820605845852], [118.75350763640743, 37.2820605845852], [118.75350763640743, 37.28224024764203], [118.75368729946426, 37.28224024764203], [118.75368729946426, 37.28241991069885], [118.75350763640743, 37.28241991069885], [118.75350763640743, 37.282599573755675], [118.75332797335061, 37.282599573755675], [118.75332797335061, 37.2827792368125], [118.75350763640743, 37.2827792368125], [118.75350763640743, 37.283318225982974], [118.75332797335061, 37.283318225982974], [118.75332797335061, 37.28349788903979], [118.75296864723697, 37.28349788903979]]]}, "properties": {"name": "cand03", "ptype": "hall", "confidence": "low", "rank": 3, "area_ha": 4.7, "rise_db": 9.4, "digitised_from": "Sentinel-1 VV rise 2022->2026, orbit 69"}}, {"type": "Feature", "geometry": {"geodesic": false, "type": "Polygon", "coordinates": [[[118.75386696252109, 37.292840367994636], [118.75386696252109, 37.292660704937816], [118.75278898418014, 37.292660704937816], [118.75278898418014, 37.29248104188099], [118.75260932112332, 37.29248104188099], [118.75260932112332, 37.292660704937816], [118.75242965806649, 37.292660704937816], [118.75242965806649, 37.292121715767344], [118.75260932112332, 37.292121715767344], [118.75260932112332, 37.29194205271052], [118.75242965806649, 37.29194205271052], [118.75242965806649, 37.2917623896537], [118.75224999500968, 37.2917623896537], [118.75224999500968, 37.291223400483226], [118.75242965806649, 37.291223400483226], [118.75242965806649, 37.29050474825593], [118.75260932112332, 37.29050474825593], [118.75260932112332, 37.29032508519911], [118.75296864723697, 37.29032508519911], [118.75296864723697, 37.29050474825593], [118.75332797335061, 37.29050474825593], [118.75332797335061, 37.29068441131275], [118.75404662557791, 37.29068441131275], [118.75404662557791, 37.29086407436957], [118.75422628863474, 37.29086407436957], [118.75422628863474, 37.291223400483226], [118.75404662557791, 37.291223400483226], [118.75404662557791, 37.291403063540045], [118.75440595169155, 37.291403063540045], [118.75440595169155, 37.29194205271052], [118.75422628863474, 37.29194205271052], [118.75422628863474, 37.292121715767344], [118.75440595169155, 37.292121715767344], [118.75440595169155, 37.29230137882417], [118.75404662557791, 37.29230137882417], [118.75404662557791, 37.292840367994636], [118.75386696252109, 37.292840367994636]], [[118.7531483102938, 37.292121715767344], [118.75278898418014, 37.292121715767344], [118.75278898418014, 37.29194205271052], [118.7531483102938, 37.29194205271052], [118.7531483102938, 37.292121715767344]]]}, "properties": {"name": "cand04", "ptype": "hall", "confidence": "low", "rank": 4, "area_ha": 4.7, "rise_db": 10.6, "digitised_from": "Sentinel-1 VV rise 2022->2026, orbit 69"}}, {"type": "Feature", "geometry": {"geodesic": false, "type": "Polygon", "coordinates": [[[118.73284638487269, 37.28008429096014], [118.73284638487269, 37.27990462790332], [118.73266672181586, 37.27990462790332], [118.73266672181586, 37.279724964846494], [118.73248705875905, 37.279724964846494], [118.73248705875905, 37.27936563873285], [118.73266672181586, 37.27936563873285], [118.73266672181586, 37.27918597567602], [118.73248705875905, 37.27918597567602], [118.73248705875905, 37.279006312619195], [118.73230739570222, 37.279006312619195], [118.73230739570222, 37.27846732344872], [118.73248705875905, 37.27846732344872], [118.73248705875905, 37.27864698650555], [118.73284638487269, 37.27864698650555], [118.73284638487269, 37.27846732344872], [118.73266672181586, 37.27846732344872], [118.73266672181586, 37.27810799733508], [118.73284638487269, 37.27810799733508], [118.73284638487269, 37.27774867122143], [118.73248705875905, 37.27774867122143], [118.73248705875905, 37.27720968205096], [118.73176840653174, 37.27720968205096], [118.73176840653174, 37.27703001899413], [118.73194806958857, 37.27703001899413], [118.73194806958857, 37.276131703710014], [118.73176840653174, 37.276131703710014], [118.73176840653174, 37.275952040653195], [118.7321277326454, 37.275952040653195], [118.7321277326454, 37.27577237759637], [118.73230739570222, 37.27577237759637], [118.73230739570222, 37.275233388425896], [118.73248705875905, 37.275233388425896], [118.73248705875905, 37.27505372536907], [118.73284638487269, 37.27505372536907], [118.73284638487269, 37.275233388425896], [118.73302604792951, 37.275233388425896], [118.73302604792951, 37.27577237759637], [118.73284638487269, 37.27577237759637], [118.73284638487269, 37.275952040653195], [118.73266672181586, 37.275952040653195], [118.73266672181586, 37.276131703710014], [118.73248705875905, 37.276131703710014], [118.73248705875905, 37.27631136676684], [118.73266672181586, 37.27631136676684], [118.73266672181586, 37.27649102982366], [118.73230739570222, 37.27649102982366], [118.73230739570222, 37.27667069288049], [118.73248705875905, 37.27667069288049], [118.73248705875905, 37.27685035593731], [118.73302604792951, 37.27685035593731], [118.73302604792951, 37.27703001899413], [118.73320571098634, 37.27703001899413], [118.73320571098634, 37.277389345107785], [118.73338537404317, 37.277389345107785], [118.73338537404317, 37.277569008164605], [118.73356503709998, 37.277569008164605], [118.73356503709998, 37.27774867122143], [118.73320571098634, 37.27774867122143], [118.73320571098634, 37.27792833427826], [118.73356503709998, 37.27792833427826], [118.73356503709998, 37.27810799733508], [118.73320571098634, 37.27810799733508], [118.73320571098634, 37.278287660391904], [118.73302604792951, 37.278287660391904], [118.73302604792951, 37.27864698650555], [118.73320571098634, 37.27864698650555], [118.73320571098634, 37.278826649562376], [118.73302604792951, 37.278826649562376], [118.73302604792951, 37.279006312619195], [118.73284638487269, 37.279006312619195], [118.73284638487269, 37.27936563873285], [118.73302604792951, 37.27936563873285], [118.73302604792951, 37.279724964846494], [118.73338537404317, 37.279724964846494], [118.73338537404317, 37.28008429096014], [118.73284638487269, 37.28008429096014]]]}, "properties": {"name": "cand05", "ptype": "hall", "confidence": "low", "rank": 5, "area_ha": 4.1, "rise_db": 6.7, "digitised_from": "Sentinel-1 VV rise 2022->2026, orbit 69"}}, {"type": "Feature", "geometry": {"geodesic": false, "type": "Polygon", "coordinates": [[[118.7599755064531, 37.26157899610728], [118.7599755064531, 37.261399333050456], [118.75979584339628, 37.261399333050456], [118.75979584339628, 37.26104000693681], [118.75961618033945, 37.26104000693681], [118.75961618033945, 37.26086034387998], [118.75943651728262, 37.26086034387998], [118.75943651728262, 37.26068068082316], [118.7592568542258, 37.26068068082316], [118.7592568542258, 37.26014169165269], [118.75979584339628, 37.26014169165269], [118.75979584339628, 37.259962028595865], [118.76015516950993, 37.259962028595865], [118.76015516950993, 37.25978236553904], [118.75979584339628, 37.25978236553904], [118.75979584339628, 37.259243376368566], [118.7599755064531, 37.259243376368566], [118.7599755064531, 37.25906371331175], [118.76105348479405, 37.25906371331175], [118.76105348479405, 37.259243376368566], [118.76123314785086, 37.259243376368566], [118.76123314785086, 37.25942303942539], [118.76105348479405, 37.25942303942539], [118.76105348479405, 37.259962028595865], [118.76087382173722, 37.259962028595865], [118.76087382173722, 37.26121966999363], [118.7606941586804, 37.26121966999363], [118.7606941586804, 37.261399333050456], [118.76033483256674, 37.261399333050456], [118.76033483256674, 37.26157899610728], [118.7599755064531, 37.26157899610728]]]}, "properties": {"name": "cand06", "ptype": "hall", "confidence": "low", "rank": 6, "area_ha": 3.8, "rise_db": 14.4, "digitised_from": "Sentinel-1 VV rise 2022->2026, orbit 69"}}, {"type": "Feature", "geometry": {"geodesic": false, "type": "Polygon", "coordinates": [[[118.73608031989552, 37.27631136676684], [118.73608031989552, 37.276131703710014], [118.7359006568387, 37.276131703710014], [118.7359006568387, 37.27631136676684], [118.73572099378187, 37.27631136676684], [118.73572099378187, 37.276131703710014], [118.73554133072504, 37.276131703710014], [118.73554133072504, 37.27631136676684], [118.73536166766823, 37.27631136676684], [118.73536166766823, 37.276131703710014], [118.7351820046114, 37.276131703710014], [118.7351820046114, 37.27631136676684], [118.73446335238411, 37.27631136676684], [118.73446335238411, 37.276131703710014], [118.73410402627046, 37.276131703710014], [118.73410402627046, 37.27631136676684], [118.73392436321363, 37.27631136676684], [118.73392436321363, 37.27577237759637], [118.73410402627046, 37.27577237759637], [118.73410402627046, 37.27559271453954], [118.73428368932728, 37.27559271453954], [118.73428368932728, 37.27541305148272], [118.73482267849775, 37.27541305148272], [118.73482267849775, 37.275233388425896], [118.73536166766823, 37.275233388425896], [118.73536166766823, 37.27505372536907], [118.73554133072504, 37.27505372536907], [118.73554133072504, 37.275233388425896], [118.7359006568387, 37.275233388425896], [118.7359006568387, 37.27541305148272], [118.73715829823647, 37.27541305148272], [118.73715829823647, 37.27559271453954], [118.73733796129329, 37.27559271453954], [118.73733796129329, 37.275952040653195], [118.73715829823647, 37.275952040653195], [118.73715829823647, 37.276131703710014], [118.73697863517964, 37.276131703710014], [118.73697863517964, 37.27631136676684], [118.73608031989552, 37.27631136676684]]]}, "properties": {"name": "cand07", "ptype": "hall", "confidence": "low", "rank": 7, "area_ha": 3.6, "rise_db": 11.2, "digitised_from": "Sentinel-1 VV rise 2022->2026, orbit 69"}}, {"type": "Feature", "geometry": {"geodesic": false, "type": "Polygon", "coordinates": [[[118.73158874347492, 37.29014542214228], [118.73158874347492, 37.289965759085455], [118.7314090804181, 37.289965759085455], [118.7314090804181, 37.289786096028635], [118.73122941736128, 37.289786096028635], [118.73122941736128, 37.28960643297181], [118.7314090804181, 37.28960643297181], [118.7314090804181, 37.28942676991498], [118.73158874347492, 37.28942676991498], [118.73158874347492, 37.289067443801336], [118.73176840653174, 37.289067443801336], [118.73176840653174, 37.28888778074451], [118.7321277326454, 37.28888778074451], [118.7321277326454, 37.289067443801336], [118.73230739570222, 37.289067443801336], [118.73230739570222, 37.28888778074451], [118.73266672181586, 37.28888778074451], [118.73266672181586, 37.28870811768769], [118.73284638487269, 37.28870811768769], [118.73284638487269, 37.28888778074451], [118.73320571098634, 37.28888778074451], [118.73320571098634, 37.289067443801336], [118.73338537404317, 37.289067443801336], [118.73338537404317, 37.28888778074451], [118.73392436321363, 37.28888778074451], [118.73392436321363, 37.28924710685816], [118.73410402627046, 37.28924710685816], [118.73410402627046, 37.28942676991498], [118.73392436321363, 37.28942676991498], [118.73392436321363, 37.28960643297181], [118.73338537404317, 37.28960643297181], [118.73338537404317, 37.28942676991498], [118.7321277326454, 37.28942676991498], [118.7321277326454, 37.289786096028635], [118.73194806958857, 37.289786096028635], [118.73194806958857, 37.289965759085455], [118.73176840653174, 37.289965759085455], [118.73176840653174, 37.29014542214228], [118.73158874347492, 37.29014542214228]]]}, "properties": {"name": "cand08", "ptype": "hall", "confidence": "low", "rank": 8, "area_ha": 2.2, "rise_db": 6.8, "digitised_from": "Sentinel-1 VV rise 2022->2026, orbit 69"}}, {"type": "Feature", "geometry": {"geodesic": false, "type": "Polygon", "coordinates": [[[118.74775841858907, 37.3113456628475], [118.74775841858907, 37.311165999790674], [118.74757875553225, 37.311165999790674], [118.74757875553225, 37.31080667367703], [118.74739909247542, 37.31080667367703], [118.74739909247542, 37.3106270106202], [118.7472194294186, 37.3106270106202], [118.7472194294186, 37.310267684506556], [118.74739909247542, 37.310267684506556], [118.74739909247542, 37.3106270106202], [118.74757875553225, 37.3106270106202], [118.74757875553225, 37.31008802144974], [118.74775841858907, 37.31008802144974], [118.74775841858907, 37.30990835839291], [118.74757875553225, 37.30990835839291], [118.74757875553225, 37.309728695336084], [118.74775841858907, 37.309728695336084], [118.74775841858907, 37.30936936922244], [118.74811774470272, 37.30936936922244], [118.74811774470272, 37.30918970616561], [118.74883639693002, 37.30918970616561], [118.74883639693002, 37.30936936922244], [118.74901605998684, 37.30936936922244], [118.74901605998684, 37.309728695336084], [118.74865673387319, 37.309728695336084], [118.74865673387319, 37.31008802144974], [118.74901605998684, 37.31008802144974], [118.74901605998684, 37.310267684506556], [118.74811774470272, 37.310267684506556], [118.74811774470272, 37.31044734756338], [118.7479380816459, 37.31044734756338], [118.7479380816459, 37.31080667367703], [118.74811774470272, 37.31080667367703], [118.74811774470272, 37.311165999790674], [118.7479380816459, 37.311165999790674], [118.7479380816459, 37.3113456628475], [118.74775841858907, 37.3113456628475]]]}, "properties": {"name": "cand09", "ptype": "hall", "confidence": "low", "rank": 9, "area_ha": 2.2, "rise_db": 9.3, "digitised_from": "Sentinel-1 VV rise 2022->2026, orbit 69"}}, {"type": "Feature", "geometry": {"geodesic": false, "type": "Polygon", "coordinates": [[[118.74901605998684, 37.30649476031326], [118.74901605998684, 37.30631509725643], [118.74811774470272, 37.30631509725643], [118.74811774470272, 37.305955771142784], [118.7479380816459, 37.305955771142784], [118.7479380816459, 37.30577610808596], [118.74775841858907, 37.30577610808596], [118.74775841858907, 37.30541678197231], [118.74829740775955, 37.30541678197231], [118.74829740775955, 37.30559644502914], [118.74847707081636, 37.30559644502914], [118.74847707081636, 37.30577610808596], [118.74829740775955, 37.30577610808596], [118.74829740775955, 37.305955771142784], [118.74919572304367, 37.305955771142784], [118.74919572304367, 37.30559644502914], [118.74901605998684, 37.30559644502914], [118.74901605998684, 37.30541678197231], [118.74919572304367, 37.30541678197231], [118.74919572304367, 37.305237118915485], [118.74973471221413, 37.305237118915485], [118.74973471221413, 37.30541678197231], [118.74991437527096, 37.30541678197231], [118.74991437527096, 37.30577610808596], [118.74955504915731, 37.30577610808596], [118.74955504915731, 37.305955771142784], [118.74991437527096, 37.305955771142784], [118.74991437527096, 37.30631509725643], [118.74955504915731, 37.30631509725643], [118.74955504915731, 37.30649476031326], [118.74901605998684, 37.30649476031326]]]}, "properties": {"name": "cand10", "ptype": "hall", "confidence": "low", "rank": 10, "area_ha": 1.8, "rise_db": 10.0, "digitised_from": "Sentinel-1 VV rise 2022->2026, orbit 69"}}, {"type": "Feature", "geometry": {"geodesic": false, "type": "Polygon", "coordinates": [[[118.75530426697567, 37.28924710685816], [118.75530426697567, 37.28888778074451], [118.7554839300325, 37.28888778074451], [118.7554839300325, 37.28870811768769], [118.75530426697567, 37.28870811768769], [118.75530426697567, 37.288348791574045], [118.7554839300325, 37.288348791574045], [118.7554839300325, 37.28745047628992], [118.75566359308932, 37.28745047628992], [118.75566359308932, 37.28691148711945], [118.75584325614615, 37.28691148711945], [118.75584325614615, 37.28637249794898], [118.75602291920298, 37.28637249794898], [118.75602291920298, 37.286192834892155], [118.7562025822598, 37.286192834892155], [118.7562025822598, 37.2872708132331], [118.75602291920298, 37.2872708132331], [118.75602291920298, 37.28798946546039], [118.75584325614615, 37.28798946546039], [118.75584325614615, 37.288528454630864], [118.75566359308932, 37.288528454630864], [118.75566359308932, 37.28924710685816], [118.75530426697567, 37.28924710685816]]]}, "properties": {"name": "cand11", "ptype": "hall", "confidence": "low", "rank": 11, "area_ha": 1.5, "rise_db": 7.8, "digitised_from": "Sentinel-1 VV rise 2022->2026, orbit 69"}}, {"type": "Feature", "geometry": {"geodesic": false, "type": "Polygon", "coordinates": [[[118.7231445798042, 37.29948790109712], [118.7231445798042, 37.2993082380403], [118.72206660146325, 37.2993082380403], [118.72206660146325, 37.298769248869824], [118.72242592757691, 37.298769248869824], [118.72242592757691, 37.29894891192665], [118.72278525369055, 37.29894891192665], [118.72278525369055, 37.298769248869824], [118.72332424286103, 37.298769248869824], [118.72332424286103, 37.29840992275618], [118.72296491674737, 37.29840992275618], [118.72296491674737, 37.29805059664253], [118.72368356897466, 37.29805059664253], [118.72368356897466, 37.29823025969936], [118.72386323203149, 37.29823025969936], [118.72386323203149, 37.29840992275618], [118.72368356897466, 37.29840992275618], [118.72368356897466, 37.298769248869824], [118.72350390591785, 37.298769248869824], [118.72350390591785, 37.29894891192665], [118.72386323203149, 37.29894891192665], [118.72386323203149, 37.29912857498348], [118.72404289508832, 37.29912857498348], [118.72404289508832, 37.2993082380403], [118.72368356897466, 37.2993082380403], [118.72368356897466, 37.29912857498348], [118.7231445798042, 37.29912857498348], [118.7231445798042, 37.2993082380403], [118.72332424286103, 37.2993082380403], [118.72332424286103, 37.29948790109712], [118.7231445798042, 37.29948790109712]]]}, "properties": {"name": "cand12", "ptype": "hall", "confidence": "low", "rank": 12, "area_ha": 1.5, "rise_db": 9.9, "digitised_from": "Sentinel-1 VV rise 2022->2026, orbit 69"}}, {"type": "Feature", "geometry": {"geodesic": false, "type": "Polygon", "coordinates": [[[118.74578212496401, 37.302182846949485], [118.74578212496401, 37.30200318389266], [118.74632111413449, 37.30200318389266], [118.74632111413449, 37.30164385777901], [118.74614145107766, 37.30164385777901], [118.74614145107766, 37.30182352083583], [118.74578212496401, 37.30182352083583], [118.74578212496401, 37.30128453166536], [118.74560246190718, 37.30128453166536], [118.74560246190718, 37.300925205551714], [118.74578212496401, 37.300925205551714], [118.74578212496401, 37.30056587943807], [118.74596178802084, 37.30056587943807], [118.74596178802084, 37.30074554249489], [118.74668044024813, 37.30074554249489], [118.74668044024813, 37.30110486860854], [118.74614145107766, 37.30110486860854], [118.74614145107766, 37.301464194722186], [118.7465007771913, 37.301464194722186], [118.7465007771913, 37.30128453166536], [118.74686010330495, 37.30128453166536], [118.74686010330495, 37.30200318389266], [118.74632111413449, 37.30200318389266], [118.74632111413449, 37.302182846949485], [118.74578212496401, 37.302182846949485]]]}, "properties": {"name": "cand13", "ptype": "hall", "confidence": "low", "rank": 13, "area_ha": 1.4, "rise_db": 7.6, "digitised_from": "Sentinel-1 VV rise 2022->2026, orbit 69"}}, {"type": "Feature", "geometry": {"geodesic": false, "type": "Polygon", "coordinates": [[[118.74703976636178, 37.30793206476785], [118.74703976636178, 37.3075727386542], [118.7472194294186, 37.3075727386542], [118.7472194294186, 37.307393075597375], [118.74703976636178, 37.307393075597375], [118.74703976636178, 37.30631509725643], [118.7465007771913, 37.30631509725643], [118.7465007771913, 37.30577610808596], [118.74632111413449, 37.30577610808596], [118.74632111413449, 37.30559644502914], [118.74614145107766, 37.30559644502914], [118.74614145107766, 37.30541678197231], [118.74632111413449, 37.30541678197231], [118.74632111413449, 37.305237118915485], [118.74668044024813, 37.305237118915485], [118.74668044024813, 37.30541678197231], [118.74739909247542, 37.30541678197231], [118.74739909247542, 37.30577610808596], [118.74703976636178, 37.30577610808596], [118.74703976636178, 37.30559644502914], [118.74686010330495, 37.30559644502914], [118.74686010330495, 37.30613543419961], [118.7472194294186, 37.30613543419961], [118.7472194294186, 37.306674423370076], [118.74739909247542, 37.306674423370076], [118.74739909247542, 37.30721341254055], [118.7472194294186, 37.30721341254055], [118.7472194294186, 37.307393075597375], [118.74739909247542, 37.307393075597375], [118.74739909247542, 37.30793206476785], [118.74703976636178, 37.30793206476785]]]}, "properties": {"name": "cand14", "ptype": "hall", "confidence": "low", "rank": 14, "area_ha": 1.4, "rise_db": 5.5, "digitised_from": "Sentinel-1 VV rise 2022->2026, orbit 69"}}, {"type": "Feature", "geometry": {"geodesic": false, "type": "Polygon", "coordinates": [[[118.75207033195285, 37.30721341254055], [118.75207033195285, 37.3068540864269], [118.75189066889602, 37.3068540864269], [118.75189066889602, 37.306674423370076], [118.7517110058392, 37.306674423370076], [118.7517110058392, 37.30631509725643], [118.75224999500968, 37.30631509725643], [118.75224999500968, 37.30613543419961], [118.75207033195285, 37.30613543419961], [118.75207033195285, 37.30577610808596], [118.75260932112332, 37.30577610808596], [118.75260932112332, 37.30613543419961], [118.75278898418014, 37.30613543419961], [118.75278898418014, 37.30721341254055], [118.75207033195285, 37.30721341254055]]]}, "properties": {"name": "cand15", "ptype": "hall", "confidence": "low", "rank": 15, "area_ha": 1.4, "rise_db": 8.8, "digitised_from": "Sentinel-1 VV rise 2022->2026, orbit 69"}}, {"type": "Feature", "geometry": {"geodesic": false, "type": "Polygon", "coordinates": [[[118.73104975430445, 37.29840992275618], [118.73104975430445, 37.29805059664253], [118.73087009124762, 37.29805059664253], [118.73087009124762, 37.297870933585706], [118.73176840653174, 37.297870933585706], [118.73176840653174, 37.29769127052889], [118.73230739570222, 37.29769127052889], [118.73230739570222, 37.297870933585706], [118.73320571098634, 37.297870933585706], [118.73320571098634, 37.29823025969936], [118.73158874347492, 37.29823025969936], [118.73158874347492, 37.29840992275618], [118.73104975430445, 37.29840992275618]]]}, "properties": {"name": "cand16", "ptype": "hall", "confidence": "low", "rank": 16, "area_ha": 1.2, "rise_db": 8.9, "digitised_from": "Sentinel-1 VV rise 2022->2026, orbit 69"}}]}