{"type": "FeatureCollection", "features": [{"type": "Feature", "geometry": {"geodesic": false, "type": "Polygon", "coordinates": [[[104.84848535352137, 28.76243842999566], [104.84848535352137, 28.76225876693884], [104.84776670129406, 28.76225876693884], [104.84776670129406, 28.762079103882016], [104.84758703823725, 28.762079103882016], [104.84758703823725, 28.76189944082519], [104.84740737518042, 28.76189944082519], [104.84740737518042, 28.761719777768366], [104.8472277121236, 28.761719777768366], [104.8472277121236, 28.761540114711543], [104.84704804906677, 28.761540114711543], [104.84704804906677, 28.761180788597894], [104.8472277121236, 28.761180788597894], [104.8472277121236, 28.76100112554107], [104.84686838600994, 28.76100112554107], [104.84686838600994, 28.760821462484248], [104.84668872295313, 28.760821462484248], [104.84668872295313, 28.760641799427425], [104.84686838600994, 28.760641799427425], [104.84686838600994, 28.7604621363706], [104.84704804906677, 28.7604621363706], [104.84704804906677, 28.760282473313776], [104.8465090598963, 28.760282473313776], [104.8465090598963, 28.7604621363706], [104.845790407669, 28.7604621363706], [104.845790407669, 28.760282473313776], [104.84543108155536, 28.760282473313776], [104.84543108155536, 28.760102810256953], [104.84525141849853, 28.760102810256953], [104.84525141849853, 28.759923147200126], [104.84507175544171, 28.759923147200126], [104.84507175544171, 28.760102810256953], [104.84453276627124, 28.760102810256953], [104.84453276627124, 28.759923147200126], [104.84417344015759, 28.759923147200126], [104.84417344015759, 28.759743484143304], [104.84363445098712, 28.759743484143304], [104.84363445098712, 28.759923147200126], [104.8434547879303, 28.759923147200126], [104.8434547879303, 28.759743484143304], [104.84327512487347, 28.759743484143304], [104.84327512487347, 28.759384158029658], [104.84309546181665, 28.759384158029658], [104.84309546181665, 28.75920449497283], [104.84327512487347, 28.75920449497283], [104.84327512487347, 28.75902483191601], [104.8434547879303, 28.75902483191601], [104.8434547879303, 28.758665505802362], [104.84363445098712, 28.758665505802362], [104.84363445098712, 28.758485842745536], [104.84381411404394, 28.758485842745536], [104.84381411404394, 28.758306179688713], [104.84417344015759, 28.758306179688713], [104.84417344015759, 28.757946853575064], [104.84399377710076, 28.757946853575064], [104.84399377710076, 28.757407864404595], [104.84417344015759, 28.757407864404595], [104.84417344015759, 28.75722820134777], [104.84435310321442, 28.75722820134777], [104.84435310321442, 28.757048538290945], [104.84507175544171, 28.757048538290945], [104.84507175544171, 28.75722820134777], [104.84543108155536, 28.75722820134777], [104.84543108155536, 28.757407864404595], [104.8465090598963, 28.757407864404595], [104.8465090598963, 28.757587527461418], [104.84668872295313, 28.757587527461418], [104.84668872295313, 28.75776719051824], [104.84776670129406, 28.75776719051824], [104.84776670129406, 28.757048538290945], [104.84794636435089, 28.757048538290945], [104.84794636435089, 28.756868875234122], [104.84776670129406, 28.756868875234122], [104.84776670129406, 28.7566892121773], [104.84794636435089, 28.7566892121773], [104.84794636435089, 28.756509549120473], [104.84776670129406, 28.756509549120473], [104.84776670129406, 28.75632988606365], [104.84740737518042, 28.75632988606365], [104.84740737518042, 28.756509549120473], [104.8472277121236, 28.756509549120473], [104.8472277121236, 28.75632988606365], [104.84686838600994, 28.75632988606365], [104.84686838600994, 28.756150223006827], [104.84668872295313, 28.756150223006827], [104.84668872295313, 28.75632988606365], [104.8465090598963, 28.75632988606365], [104.8465090598963, 28.756509549120473], [104.84632939683948, 28.756509549120473], [104.84632939683948, 28.7566892121773], [104.84614973378265, 28.7566892121773], [104.84614973378265, 28.756868875234122], [104.84597007072583, 28.756868875234122], [104.84597007072583, 28.757048538290945], [104.84561074461219, 28.757048538290945], [104.84561074461219, 28.756868875234122], [104.84543108155536, 28.756868875234122], [104.84543108155536, 28.7566892121773], [104.84561074461219, 28.7566892121773], [104.84561074461219, 28.756509549120473], [104.84614973378265, 28.756509549120473], [104.84614973378265, 28.75597055995], [104.84543108155536, 28.75597055995], [104.84543108155536, 28.755790896893178], [104.84525141849853, 28.755790896893178], [104.84525141849853, 28.755251907722705], [104.84543108155536, 28.755251907722705], [104.84543108155536, 28.75489258160906], [104.84561074461219, 28.75489258160906], [104.84561074461219, 28.754353592438587], [104.84507175544171, 28.754353592438587], [104.84507175544171, 28.75453325549541], [104.84489209238488, 28.75453325549541], [104.84489209238488, 28.75489258160906], [104.84471242932807, 28.75489258160906], [104.84471242932807, 28.755072244665882], [104.84453276627124, 28.755072244665882], [104.84453276627124, 28.755251907722705], [104.84435310321442, 28.755251907722705], [104.84435310321442, 28.755431570779532], [104.84327512487347, 28.755431570779532], [104.84327512487347, 28.755251907722705], [104.84291579875982, 28.755251907722705], [104.84291579875982, 28.755072244665882], [104.84237680958935, 28.755072244665882], [104.84237680958935, 28.75489258160906], [104.8420174834757, 28.75489258160906], [104.8420174834757, 28.753634940211292], [104.84183782041887, 28.753634940211292], [104.84183782041887, 28.753814603268115], [104.84165815736206, 28.753814603268115], [104.84165815736206, 28.753994266324938], [104.84147849430524, 28.753994266324938], [104.84147849430524, 28.753814603268115], [104.84129883124841, 28.753814603268115], [104.84129883124841, 28.753634940211292], [104.84147849430524, 28.753634940211292], [104.84147849430524, 28.75309595104082], [104.84165815736206, 28.75309595104082], [104.84165815736206, 28.752556961870347], [104.84183782041887, 28.752556961870347], [104.84183782041887, 28.752377298813524], [104.8420174834757, 28.752377298813524], [104.8420174834757, 28.752556961870347], [104.84219714653253, 28.752556961870347], [104.84219714653253, 28.752736624927174], [104.8420174834757, 28.752736624927174], [104.8420174834757, 28.753634940211292], [104.84219714653253, 28.753634940211292], [104.84219714653253, 28.75345527715447], [104.84237680958935, 28.75345527715447], [104.84237680958935, 28.75309595104082], [104.84255647264618, 28.75309595104082], [104.84255647264618, 28.752556961870347], [104.842736135703, 28.752556961870347], [104.842736135703, 28.7521976357567], [104.84309546181665, 28.7521976357567], [104.84309546181665, 28.75165864658623], [104.84291579875982, 28.75165864658623], [104.84291579875982, 28.751478983529406], [104.84255647264618, 28.751478983529406], [104.84255647264618, 28.75129932047258], [104.84219714653253, 28.75129932047258], [104.84219714653253, 28.751478983529406], [104.8420174834757, 28.751478983529406], [104.8420174834757, 28.75165864658623], [104.84183782041887, 28.75165864658623], [104.84183782041887, 28.752017972699875], [104.84165815736206, 28.752017972699875], [104.84165815736206, 28.7521976357567], [104.84147849430524, 28.7521976357567], [104.84147849430524, 28.752017972699875], [104.84129883124841, 28.752017972699875], [104.84129883124841, 28.751838309643052], [104.84075984207794, 28.751838309643052], [104.84075984207794, 28.75165864658623], [104.84058017902112, 28.75165864658623], [104.84058017902112, 28.751478983529406], [104.84040051596429, 28.751478983529406], [104.84040051596429, 28.75129932047258], [104.84022085290746, 28.75129932047258], [104.84022085290746, 28.751119657415757], [104.84040051596429, 28.751119657415757], [104.84040051596429, 28.750939994358934], [104.84111916819158, 28.750939994358934], [104.84111916819158, 28.75076033130211], [104.84129883124841, 28.75076033130211], [104.84129883124841, 28.75022134213164], [104.84058017902112, 28.75022134213164], [104.84058017902112, 28.749323026847517], [104.84075984207794, 28.749323026847517], [104.84075984207794, 28.749502689904343], [104.84093950513476, 28.749502689904343], [104.84093950513476, 28.749682352961166], [104.84147849430524, 28.749682352961166], [104.84147849430524, 28.749502689904343], [104.84129883124841, 28.749502689904343], [104.84129883124841, 28.748784037677044], [104.84111916819158, 28.748784037677044], [104.84111916819158, 28.747885722392926], [104.84129883124841, 28.747885722392926], [104.84129883124841, 28.747706059336103], [104.84147849430524, 28.747706059336103], [104.84147849430524, 28.74752639627928], [104.84165815736206, 28.74752639627928], [104.84165815736206, 28.747706059336103], [104.84183782041887, 28.747706059336103], [104.84183782041887, 28.74752639627928], [104.84219714653253, 28.74752639627928], [104.84219714653253, 28.747346733222454], [104.84255647264618, 28.747346733222454], [104.84255647264618, 28.74752639627928], [104.84291579875982, 28.74752639627928], [104.84291579875982, 28.746987407108808], [104.842736135703, 28.746987407108808], [104.842736135703, 28.74716707016563], [104.84255647264618, 28.74716707016563], [104.84255647264618, 28.746987407108808], [104.84237680958935, 28.746987407108808], [104.84237680958935, 28.746448417938335], [104.84255647264618, 28.746448417938335], [104.84255647264618, 28.746268754881513], [104.842736135703, 28.746268754881513], [104.842736135703, 28.746089091824686], [104.84291579875982, 28.746089091824686], [104.84291579875982, 28.745011113483745], [104.842736135703, 28.745011113483745], [104.842736135703, 28.74483145042692], [104.84255647264618, 28.74483145042692], [104.84255647264618, 28.74429246125645], [104.842736135703, 28.74429246125645], [104.842736135703, 28.744112798199623], [104.84291579875982, 28.744112798199623], [104.84291579875982, 28.74429246125645], [104.84327512487347, 28.74429246125645], [104.84327512487347, 28.745190776540568], [104.8434547879303, 28.745190776540568], [104.8434547879303, 28.74537043959739], [104.84363445098712, 28.74537043959739], [104.84363445098712, 28.745190776540568], [104.84381411404394, 28.745190776540568], [104.84381411404394, 28.744651787370096], [104.84399377710076, 28.744651787370096], [104.84399377710076, 28.744472124313273], [104.84417344015759, 28.744472124313273], [104.84417344015759, 28.74429246125645], [104.84435310321442, 28.74429246125645], [104.84435310321442, 28.7439331351428], [104.84417344015759, 28.7439331351428], [104.84417344015759, 28.743753472085977], [104.84381411404394, 28.743753472085977], [104.84381411404394, 28.7439331351428], [104.8434547879303, 28.7439331351428], [104.8434547879303, 28.743394145972328], [104.84363445098712, 28.743394145972328], [104.84363445098712, 28.743214482915505], [104.84381411404394, 28.743214482915505], [104.84381411404394, 28.742855156801856], [104.84417344015759, 28.742855156801856], [104.84417344015759, 28.743394145972328], [104.84435310321442, 28.743394145972328], [104.84435310321442, 28.742855156801856], [104.84453276627124, 28.742855156801856], [104.84453276627124, 28.742675493745033], [104.84489209238488, 28.742675493745033], [104.84489209238488, 28.742855156801856], [104.84507175544171, 28.742855156801856], [104.84507175544171, 28.743034819858682], [104.84525141849853, 28.743034819858682], [104.84525141849853, 28.743214482915505], [104.84543108155536, 28.743214482915505], [104.84543108155536, 28.743573809029154], [104.845790407669, 28.743573809029154], [104.845790407669, 28.743214482915505], [104.84614973378265, 28.743214482915505], [104.84614973378265, 28.743394145972328], [104.84632939683948, 28.743394145972328], [104.84632939683948, 28.743573809029154], [104.8465090598963, 28.743573809029154], [104.8465090598963, 28.743214482915505], [104.84704804906677, 28.743214482915505], [104.84704804906677, 28.743394145972328], [104.8472277121236, 28.743394145972328], [104.8472277121236, 28.744112798199623], [104.84704804906677, 28.744112798199623], [104.84704804906677, 28.744651787370096], [104.84686838600994, 28.744651787370096], [104.84686838600994, 28.74483145042692], [104.84668872295313, 28.74483145042692], [104.84668872295313, 28.745011113483745], [104.84614973378265, 28.745011113483745], [104.84614973378265, 28.745190776540568], [104.84597007072583, 28.745190776540568], [104.84597007072583, 28.74537043959739], [104.84614973378265, 28.74537043959739], [104.84614973378265, 28.74572976571104], [104.84597007072583, 28.74572976571104], [104.84597007072583, 28.745909428767863], [104.845790407669, 28.745909428767863], [104.845790407669, 28.746448417938335], [104.84561074461219, 28.746448417938335], [104.84561074461219, 28.746987407108808], [104.845790407669, 28.746987407108808], [104.845790407669, 28.74716707016563], [104.84597007072583, 28.74716707016563], [104.84597007072583, 28.747346733222454], [104.845790407669, 28.747346733222454], [104.845790407669, 28.74752639627928], [104.84543108155536, 28.74752639627928], [104.84543108155536, 28.748245048506575], [104.84525141849853, 28.748245048506575], [104.84525141849853, 28.74860437462022], [104.84507175544171, 28.74860437462022], [104.84507175544171, 28.748784037677044], [104.84471242932807, 28.748784037677044], [104.84471242932807, 28.74896370073387], [104.84489209238488, 28.74896370073387], [104.84489209238488, 28.749143363790694], [104.84507175544171, 28.749143363790694], [104.84507175544171, 28.749323026847517], [104.84543108155536, 28.749323026847517], [104.84543108155536, 28.749682352961166], [104.84471242932807, 28.749682352961166], [104.84471242932807, 28.74986201601799], [104.84453276627124, 28.74986201601799], [104.84453276627124, 28.750041679074812], [104.84435310321442, 28.750041679074812], [104.84435310321442, 28.75022134213164], [104.84453276627124, 28.75022134213164], [104.84453276627124, 28.75040100518846], [104.84471242932807, 28.75040100518846], [104.84471242932807, 28.750580668245284], [104.84453276627124, 28.750580668245284], [104.84453276627124, 28.751119657415757], [104.84435310321442, 28.751119657415757], [104.84435310321442, 28.751478983529406], [104.84399377710076, 28.751478983529406], [104.84399377710076, 28.751838309643052], [104.84381411404394, 28.751838309643052], [104.84381411404394, 28.752377298813524], [104.8434547879303, 28.752377298813524], [104.8434547879303, 28.752556961870347], [104.84327512487347, 28.752556961870347], [104.84327512487347, 28.752736624927174], [104.8434547879303, 28.752736624927174], [104.8434547879303, 28.752916287983997], [104.84381411404394, 28.752916287983997], [104.84381411404394, 28.75345527715447], [104.84363445098712, 28.75345527715447], [104.84363445098712, 28.753814603268115], [104.84399377710076, 28.753814603268115], [104.84399377710076, 28.753275614097642], [104.84471242932807, 28.753275614097642], [104.84471242932807, 28.75309595104082], [104.84489209238488, 28.75309595104082], [104.84489209238488, 28.752736624927174], [104.84525141849853, 28.752736624927174], [104.84525141849853, 28.752916287983997], [104.84561074461219, 28.752916287983997], [104.84561074461219, 28.752377298813524], [104.84543108155536, 28.752377298813524], [104.84543108155536, 28.7521976357567], [104.84507175544171, 28.7521976357567], [104.84507175544171, 28.751838309643052], [104.84614973378265, 28.751838309643052], [104.84614973378265, 28.75165864658623], [104.8465090598963, 28.75165864658623], [104.8465090598963, 28.751478983529406], [104.84668872295313, 28.751478983529406], [104.84668872295313, 28.751119657415757], [104.8465090598963, 28.751119657415757], [104.8465090598963, 28.75040100518846], [104.84668872295313, 28.75040100518846], [104.84668872295313, 28.75022134213164], [104.84686838600994, 28.75022134213164], [104.84686838600994, 28.74986201601799], [104.84668872295313, 28.74986201601799], [104.84668872295313, 28.749682352961166], [104.8465090598963, 28.749682352961166], [104.8465090598963, 28.749323026847517], [104.84668872295313, 28.749323026847517], [104.84668872295313, 28.749143363790694], [104.84686838600994, 28.749143363790694], [104.84686838600994, 28.749323026847517], [104.84704804906677, 28.749323026847517], [104.84704804906677, 28.749143363790694], [104.8472277121236, 28.749143363790694], [104.8472277121236, 28.748784037677044], [104.84668872295313, 28.748784037677044], [104.84668872295313, 28.748245048506575], [104.8465090598963, 28.748245048506575], [104.8465090598963, 28.74806538544975], [104.8472277121236, 28.74806538544975], [104.8472277121236, 28.74860437462022], [104.84758703823725, 28.74860437462022], [104.84758703823725, 28.7484247115634], [104.84776670129406, 28.7484247115634], [104.84776670129406, 28.74806538544975], [104.8486650165782, 28.74806538544975], [104.8486650165782, 28.748245048506575], [104.84884467963501, 28.748245048506575], [104.84884467963501, 28.7484247115634], [104.84902434269183, 28.7484247115634], [104.84902434269183, 28.74860437462022], [104.84920400574866, 28.74860437462022], [104.84920400574866, 28.748784037677044], [104.8486650165782, 28.748784037677044], [104.8486650165782, 28.74860437462022], [104.84812602740772, 28.74860437462022], [104.84812602740772, 28.7484247115634], [104.84794636435089, 28.7484247115634], [104.84794636435089, 28.74860437462022], [104.84776670129406, 28.74860437462022], [104.84776670129406, 28.74896370073387], [104.84758703823725, 28.74896370073387], [104.84758703823725, 28.749143363790694], [104.84776670129406, 28.749143363790694], [104.84776670129406, 28.749323026847517], [104.84794636435089, 28.749323026847517], [104.84794636435089, 28.74986201601799], [104.84812602740772, 28.74986201601799], [104.84812602740772, 28.75022134213164], [104.8486650165782, 28.75022134213164], [104.8486650165782, 28.75040100518846], [104.84884467963501, 28.75040100518846], [104.84884467963501, 28.75076033130211], [104.8486650165782, 28.75076033130211], [104.8486650165782, 28.750939994358934], [104.84884467963501, 28.750939994358934], [104.84884467963501, 28.751119657415757], [104.84902434269183, 28.751119657415757], [104.84902434269183, 28.750939994358934], [104.84920400574866, 28.750939994358934], [104.84920400574866, 28.750580668245284], [104.84938366880549, 28.750580668245284], [104.84938366880549, 28.751119657415757], [104.84920400574866, 28.751119657415757], [104.84920400574866, 28.75129932047258], [104.84938366880549, 28.75129932047258], [104.84938366880549, 28.75165864658623], [104.84902434269183, 28.75165864658623], [104.84902434269183, 28.751478983529406], [104.8486650165782, 28.751478983529406], [104.8486650165782, 28.75165864658623], [104.84830569046454, 28.75165864658623], [104.84830569046454, 28.75129932047258], [104.84812602740772, 28.75129932047258], [104.84812602740772, 28.751119657415757], [104.84776670129406, 28.751119657415757], [104.84776670129406, 28.750939994358934], [104.84794636435089, 28.750939994358934], [104.84794636435089, 28.75076033130211], [104.84758703823725, 28.75076033130211], [104.84758703823725, 28.750580668245284], [104.84704804906677, 28.750580668245284], [104.84704804906677, 28.750939994358934], [104.8472277121236, 28.750939994358934], [104.8472277121236, 28.751478983529406], [104.84740737518042, 28.751478983529406], [104.84740737518042, 28.75165864658623], [104.84794636435089, 28.75165864658623], [104.84794636435089, 28.752017972699875], [104.84776670129406, 28.752017972699875], [104.84776670129406, 28.752377298813524], [104.84794636435089, 28.752377298813524], [104.84794636435089, 28.7521976357567], [104.84812602740772, 28.7521976357567], [104.84812602740772, 28.751838309643052], [104.84830569046454, 28.751838309643052], [104.84830569046454, 28.752017972699875], [104.84848535352137, 28.752017972699875], [104.84848535352137, 28.7521976357567], [104.84902434269183, 28.7521976357567], [104.84902434269183, 28.752556961870347], [104.84920400574866, 28.752556961870347], [104.84920400574866, 28.752736624927174], [104.8502819840896, 28.752736624927174], [104.8502819840896, 28.752916287983997], [104.85118029937372, 28.752916287983997], [104.85118029937372, 28.752736624927174], [104.85135996243055, 28.752736624927174], [104.85135996243055, 28.752916287983997], [104.85153962548738, 28.752916287983997], [104.85153962548738, 28.753275614097642], [104.85171928854419, 28.753275614097642], [104.85171928854419, 28.75345527715447], [104.85279726688513, 28.75345527715447], [104.85279726688513, 28.753634940211292], [104.85315659299879, 28.753634940211292], [104.85315659299879, 28.75345527715447], [104.85333625605561, 28.75345527715447], [104.85333625605561, 28.753275614097642], [104.85315659299879, 28.753275614097642], [104.85315659299879, 28.75309595104082], [104.85351591911244, 28.75309595104082], [104.85351591911244, 28.752736624927174], [104.85333625605561, 28.752736624927174], [104.85333625605561, 28.752377298813524], [104.85297692994196, 28.752377298813524], [104.85297692994196, 28.752556961870347], [104.85261760382832, 28.752556961870347], [104.85261760382832, 28.752377298813524], [104.85225827771467, 28.752377298813524], [104.85225827771467, 28.7521976357567], [104.85189895160102, 28.7521976357567], [104.85189895160102, 28.752017972699875], [104.85171928854419, 28.752017972699875], [104.85171928854419, 28.751478983529406], [104.85207861465784, 28.751478983529406], [104.85207861465784, 28.75129932047258], [104.85225827771467, 28.75129932047258], [104.85225827771467, 28.751119657415757], [104.8524379407715, 28.751119657415757], [104.8524379407715, 28.750939994358934], [104.85261760382832, 28.750939994358934], [104.85261760382832, 28.75040100518846], [104.85297692994196, 28.75040100518846], [104.85297692994196, 28.75076033130211], [104.85279726688513, 28.75076033130211], [104.85279726688513, 28.751119657415757], [104.85297692994196, 28.751119657415757], [104.85297692994196, 28.750939994358934], [104.85315659299879, 28.750939994358934], [104.85315659299879, 28.75076033130211], [104.85333625605561, 28.75076033130211], [104.85333625605561, 28.750580668245284], [104.85315659299879, 28.750580668245284], [104.85315659299879, 28.75040100518846], [104.85351591911244, 28.75040100518846], [104.85351591911244, 28.750580668245284], [104.85369558216925, 28.750580668245284], [104.85369558216925, 28.75076033130211], [104.8540549082829, 28.75076033130211], [104.8540549082829, 28.750939994358934], [104.85423457133973, 28.750939994358934], [104.85423457133973, 28.751119657415757], [104.85369558216925, 28.751119657415757], [104.85369558216925, 28.750939994358934], [104.85351591911244, 28.750939994358934], [104.85351591911244, 28.751119657415757], [104.85333625605561, 28.751119657415757], [104.85333625605561, 28.751838309643052], [104.85387524522608, 28.751838309643052], [104.85387524522608, 28.752017972699875], [104.85423457133973, 28.752017972699875], [104.85423457133973, 28.7521976357567], [104.85459389745338, 28.7521976357567], [104.85459389745338, 28.752017972699875], [104.8547735605102, 28.752017972699875], [104.8547735605102, 28.75129932047258], [104.85513288662385, 28.75129932047258], [104.85513288662385, 28.751119657415757], [104.8554922127375, 28.751119657415757], [104.8554922127375, 28.750939994358934], [104.85603120190797, 28.750939994358934], [104.85603120190797, 28.751119657415757], [104.85657019107845, 28.751119657415757], [104.85657019107845, 28.750939994358934], [104.85674985413526, 28.750939994358934], [104.85674985413526, 28.751119657415757], [104.85692951719209, 28.751119657415757], [104.85692951719209, 28.75165864658623], [104.85657019107845, 28.75165864658623], [104.85657019107845, 28.751838309643052], [104.85639052802162, 28.751838309643052], [104.85639052802162, 28.752556961870347], [104.85657019107845, 28.752556961870347], [104.85657019107845, 28.752916287983997], [104.85710918024891, 28.752916287983997], [104.85710918024891, 28.752736624927174], [104.85728884330574, 28.752736624927174], [104.85728884330574, 28.752556961870347], [104.85710918024891, 28.752556961870347], [104.85710918024891, 28.7521976357567], [104.85728884330574, 28.7521976357567], [104.85728884330574, 28.752017972699875], [104.85746850636257, 28.752017972699875], [104.85746850636257, 28.751838309643052], [104.85764816941938, 28.751838309643052], [104.85764816941938, 28.75165864658623], [104.85800749553303, 28.75165864658623], [104.85800749553303, 28.751838309643052], [104.85818715858986, 28.751838309643052], [104.85818715858986, 28.752017972699875], [104.85800749553303, 28.752017972699875], [104.85800749553303, 28.752377298813524], [104.8578278324762, 28.752377298813524], [104.8578278324762, 28.752556961870347], [104.85764816941938, 28.752556961870347], [104.85764816941938, 28.752736624927174], [104.85746850636257, 28.752736624927174], [104.85746850636257, 28.752916287983997], [104.85764816941938, 28.752916287983997], [104.85764816941938, 28.753275614097642], [104.8578278324762, 28.753275614097642], [104.8578278324762, 28.75345527715447], [104.85764816941938, 28.75345527715447], [104.85764816941938, 28.753814603268115], [104.85746850636257, 28.753814603268115], [104.85746850636257, 28.75453325549541], [104.85728884330574, 28.75453325549541], [104.85728884330574, 28.755251907722705], [104.85710918024891, 28.755251907722705], [104.85710918024891, 28.755431570779532], [104.85674985413526, 28.755431570779532], [104.85674985413526, 28.755790896893178], [104.85710918024891, 28.755790896893178], [104.85710918024891, 28.756150223006827], [104.85692951719209, 28.756150223006827], [104.85692951719209, 28.75632988606365], [104.85674985413526, 28.75632988606365], [104.85674985413526, 28.756150223006827], [104.85657019107845, 28.756150223006827], [104.85657019107845, 28.75597055995], [104.85639052802162, 28.75597055995], [104.85639052802162, 28.75632988606365], [104.85657019107845, 28.75632988606365], [104.85657019107845, 28.75722820134777], [104.85639052802162, 28.75722820134777], [104.85639052802162, 28.757946853575064], [104.85692951719209, 28.757946853575064], [104.85692951719209, 28.75812651663189], [104.85728884330574, 28.75812651663189], [104.85728884330574, 28.758306179688713], [104.8592651369308, 28.758306179688713], [104.8592651369308, 28.758485842745536], [104.85962446304444, 28.758485842745536], [104.85962446304444, 28.758665505802362], [104.85980412610127, 28.758665505802362], [104.85980412610127, 28.758845168859185], [104.85908547387398, 28.758845168859185], [104.85908547387398, 28.75902483191601], [104.85872614776032, 28.75902483191601], [104.85872614776032, 28.758845168859185], [104.85836682164668, 28.758845168859185], [104.85836682164668, 28.75902483191601], [104.85764816941938, 28.75902483191601], [104.85764816941938, 28.758845168859185], [104.85692951719209, 28.758845168859185], [104.85692951719209, 28.75902483191601], [104.85639052802162, 28.75902483191601], [104.85639052802162, 28.758306179688713], [104.8562108649648, 28.758306179688713], [104.8562108649648, 28.758485842745536], [104.85603120190797, 28.758485842745536], [104.85603120190797, 28.758665505802362], [104.8554922127375, 28.758665505802362], [104.8554922127375, 28.758845168859185], [104.85567187579431, 28.758845168859185], [104.85567187579431, 28.75920449497283], [104.85495322356702, 28.75920449497283], [104.85495322356702, 28.75902483191601], [104.8547735605102, 28.75902483191601], [104.8547735605102, 28.758306179688713], [104.85459389745338, 28.758306179688713], [104.85459389745338, 28.75812651663189], [104.85423457133973, 28.75812651663189], [104.85423457133973, 28.757946853575064], [104.85333625605561, 28.757946853575064], [104.85333625605561, 28.75776719051824], [104.85279726688513, 28.75776719051824], [104.85279726688513, 28.757587527461418], [104.85171928854419, 28.757587527461418], [104.85171928854419, 28.757407864404595], [104.85135996243055, 28.757407864404595], [104.85135996243055, 28.75722820134777], [104.85082097326007, 28.75722820134777], [104.85082097326007, 28.757407864404595], [104.85064131020326, 28.757407864404595], [104.85064131020326, 28.75722820134777], [104.85046164714643, 28.75722820134777], [104.85046164714643, 28.757048538290945], [104.84938366880549, 28.757048538290945], [104.84938366880549, 28.756868875234122], [104.84920400574866, 28.756868875234122], [104.84920400574866, 28.7566892121773], [104.84884467963501, 28.7566892121773], [104.84884467963501, 28.756868875234122], [104.84848535352137, 28.756868875234122], [104.84848535352137, 28.757048538290945], [104.84830569046454, 28.757048538290945], [104.84830569046454, 28.75776719051824], [104.84812602740772, 28.75776719051824], [104.84812602740772, 28.758485842745536], [104.8472277121236, 28.758485842745536], [104.8472277121236, 28.758665505802362], [104.84686838600994, 28.758665505802362], [104.84686838600994, 28.75902483191601], [104.8465090598963, 28.75902483191601], [104.8465090598963, 28.75920449497283], [104.84614973378265, 28.75920449497283], [104.84614973378265, 28.75956382108648], [104.84632939683948, 28.75956382108648], [104.84632939683948, 28.759743484143304], [104.84668872295313, 28.759743484143304], [104.84668872295313, 28.75956382108648], [104.84686838600994, 28.75956382108648], [104.84686838600994, 28.75920449497283], [104.8472277121236, 28.75920449497283], [104.8472277121236, 28.759384158029658], [104.84848535352137, 28.759384158029658], [104.84848535352137, 28.75920449497283], [104.84884467963501, 28.75920449497283], [104.84884467963501, 28.759384158029658], [104.84956333186231, 28.759384158029658], [104.84956333186231, 28.75920449497283], [104.84974299491913, 28.75920449497283], [104.84974299491913, 28.75956382108648], [104.84956333186231, 28.75956382108648], [104.84956333186231, 28.759743484143304], [104.84938366880549, 28.759743484143304], [104.84938366880549, 28.7604621363706], [104.84956333186231, 28.7604621363706], [104.84956333186231, 28.760282473313776], [104.84992265797595, 28.760282473313776], [104.84992265797595, 28.760641799427425], [104.84956333186231, 28.760641799427425], [104.84956333186231, 28.761180788597894], [104.84938366880549, 28.761180788597894], [104.84938366880549, 28.76225876693884], [104.84902434269183, 28.76225876693884], [104.84902434269183, 28.76243842999566], [104.84848535352137, 28.76243842999566]], [[104.84632939683948, 28.744112798199623], [104.84614973378265, 28.744112798199623], [104.84614973378265, 28.7439331351428], [104.84632939683948, 28.7439331351428], [104.84632939683948, 28.744112798199623]], [[104.84525141849853, 28.744651787370096], [104.84471242932807, 28.744651787370096], [104.84471242932807, 28.74429246125645], [104.84489209238488, 28.74429246125645], [104.84489209238488, 28.744112798199623], [104.845790407669, 28.744112798199623], [104.845790407669, 28.744472124313273], [104.84525141849853, 28.744472124313273], [104.84525141849853, 28.744651787370096]], [[104.84327512487347, 28.75076033130211], [104.84309546181665, 28.75076033130211], [104.84309546181665, 28.750580668245284], [104.84291579875982, 28.750580668245284], [104.84291579875982, 28.74986201601799], [104.842736135703, 28.74986201601799], [104.842736135703, 28.749502689904343], [104.84291579875982, 28.749502689904343], [104.84291579875982, 28.749143363790694], [104.84309546181665, 28.749143363790694], [104.84309546181665, 28.74896370073387], [104.84291579875982, 28.74896370073387], [104.84291579875982, 28.748784037677044], [104.84327512487347, 28.748784037677044], [104.84327512487347, 28.74860437462022], [104.8434547879303, 28.74860437462022], [104.8434547879303, 28.747706059336103], [104.84363445098712, 28.747706059336103], [104.84363445098712, 28.74752639627928], [104.84399377710076, 28.74752639627928], [104.84399377710076, 28.747346733222454], [104.84381411404394, 28.747346733222454], [104.84381411404394, 28.74716707016563], [104.84399377710076, 28.74716707016563], [104.84399377710076, 28.746987407108808], [104.84417344015759, 28.746987407108808], [104.84417344015759, 28.745909428767863], [104.84453276627124, 28.745909428767863], [104.84453276627124, 28.74537043959739], [104.84489209238488, 28.74537043959739], [104.84489209238488, 28.746268754881513], [104.84471242932807, 28.746268754881513], [104.84471242932807, 28.74662808099516], [104.84453276627124, 28.74662808099516], [104.84453276627124, 28.74680774405198], [104.84435310321442, 28.74680774405198], [104.84435310321442, 28.747346733222454], [104.84417344015759, 28.747346733222454], [104.84417344015759, 28.747885722392926], [104.84435310321442, 28.747885722392926], [104.84435310321442, 28.74806538544975], [104.84417344015759, 28.74806538544975], [104.84417344015759, 28.749323026847517], [104.8434547879303, 28.749323026847517], [104.8434547879303, 28.749682352961166], [104.84327512487347, 28.749682352961166], [104.84327512487347, 28.75076033130211]], [[104.84381411404394, 28.750939994358934], [104.84363445098712, 28.750939994358934], [104.84363445098712, 28.750580668245284], [104.84381411404394, 28.750580668245284], [104.84381411404394, 28.750939994358934]], [[104.84830569046454, 28.750580668245284], [104.84794636435089, 28.750580668245284], [104.84794636435089, 28.75040100518846], [104.84830569046454, 28.75040100518846], [104.84830569046454, 28.750580668245284]], [[104.85010232103278, 28.75345527715447], [104.84992265797595, 28.75345527715447], [104.84992265797595, 28.753275614097642], [104.85010232103278, 28.753275614097642], [104.85010232103278, 28.75345527715447]], [[104.85674985413526, 28.75129932047258], [104.85657019107845, 28.75129932047258], [104.85657019107845, 28.751119657415757], [104.85674985413526, 28.751119657415757], [104.85674985413526, 28.75129932047258]], [[104.8554922127375, 28.752377298813524], [104.85531254968068, 28.752377298813524], [104.85531254968068, 28.752017972699875], [104.8554922127375, 28.752017972699875], [104.8554922127375, 28.75165864658623], [104.85567187579431, 28.75165864658623], [104.85567187579431, 28.751478983529406], [104.85585153885114, 28.751478983529406], [104.85585153885114, 28.75129932047258], [104.85603120190797, 28.75129932047258], [104.85603120190797, 28.75165864658623], [104.85585153885114, 28.75165864658623], [104.85585153885114, 28.751838309643052], [104.85567187579431, 28.751838309643052], [104.85567187579431, 28.7521976357567], [104.8554922127375, 28.7521976357567], [104.8554922127375, 28.752377298813524]], [[104.8502819840896, 28.753634940211292], [104.85010232103278, 28.753634940211292], [104.85010232103278, 28.75345527715447], [104.8502819840896, 28.75345527715447], [104.8502819840896, 28.753634940211292]], [[104.845790407669, 28.753814603268115], [104.84561074461219, 28.753814603268115], [104.84561074461219, 28.753634940211292], [104.84525141849853, 28.753634940211292], [104.84525141849853, 28.753275614097642], [104.84543108155536, 28.753275614097642], [104.84543108155536, 28.75345527715447], [104.84561074461219, 28.75345527715447], [104.84561074461219, 28.753275614097642], [104.84614973378265, 28.753275614097642], [104.84614973378265, 28.75345527715447], [104.84597007072583, 28.75345527715447], [104.84597007072583, 28.753634940211292], [104.845790407669, 28.753634940211292], [104.845790407669, 28.753814603268115]], [[104.85387524522608, 28.753814603268115], [104.85351591911244, 28.753814603268115], [104.85351591911244, 28.753275614097642], [104.85369558216925, 28.753275614097642], [104.85369558216925, 28.75309595104082], [104.85423457133973, 28.75309595104082], [104.85423457133973, 28.753275614097642], [104.8540549082829, 28.753275614097642], [104.8540549082829, 28.753634940211292], [104.85387524522608, 28.753634940211292], [104.85387524522608, 28.753814603268115]], [[104.84902434269183, 28.754353592438587], [104.84884467963501, 28.754353592438587], [104.84884467963501, 28.754173929381764], [104.8486650165782, 28.754173929381764], [104.8486650165782, 28.753994266324938], [104.84884467963501, 28.753994266324938], [104.84884467963501, 28.753814603268115], [104.84920400574866, 28.753814603268115], [104.84920400574866, 28.754173929381764], [104.84902434269183, 28.754173929381764], [104.84902434269183, 28.754353592438587]], [[104.85064131020326, 28.754353592438587], [104.85046164714643, 28.754353592438587], [104.85046164714643, 28.754173929381764], [104.85010232103278, 28.754173929381764], [104.85010232103278, 28.754353592438587], [104.84974299491913, 28.754353592438587], [104.84974299491913, 28.753994266324938], [104.85064131020326, 28.753994266324938], [104.85064131020326, 28.754353592438587]], [[104.8465090598963, 28.75453325549541], [104.84614973378265, 28.75453325549541], [104.84614973378265, 28.754353592438587], [104.84632939683948, 28.754353592438587], [104.84632939683948, 28.754173929381764], [104.8465090598963, 28.754173929381764], [104.8465090598963, 28.75453325549541]], [[104.85710918024891, 28.75453325549541], [104.85692951719209, 28.75453325549541], [104.85692951719209, 28.754353592438587], [104.85710918024891, 28.754353592438587], [104.85710918024891, 28.75453325549541]], [[104.84902434269183, 28.754712918552237], [104.84884467963501, 28.754712918552237], [104.84884467963501, 28.75453325549541], [104.84902434269183, 28.75453325549541], [104.84902434269183, 28.754712918552237]], [[104.85674985413526, 28.754712918552237], [104.8562108649648, 28.754712918552237], [104.8562108649648, 28.75453325549541], [104.85603120190797, 28.75453325549541], [104.85603120190797, 28.753994266324938], [104.8562108649648, 28.753994266324938], [104.8562108649648, 28.753634940211292], [104.85603120190797, 28.753634940211292], [104.85603120190797, 28.75345527715447], [104.85585153885114, 28.75345527715447], [104.85585153885114, 28.753275614097642], [104.85603120190797, 28.753275614097642], [104.85603120190797, 28.75309595104082], [104.8562108649648, 28.75309595104082], [104.8562108649648, 28.753275614097642], [104.85657019107845, 28.753275614097642], [104.85657019107845, 28.75345527715447], [104.85674985413526, 28.75345527715447], [104.85674985413526, 28.754712918552237]], [[104.85189895160102, 28.755072244665882], [104.85135996243055, 28.755072244665882], [104.85135996243055, 28.75489258160906], [104.85118029937372, 28.75489258160906], [104.85118029937372, 28.75453325549541], [104.85135996243055, 28.75453325549541], [104.85135996243055, 28.754173929381764], [104.85171928854419, 28.754173929381764], [104.85171928854419, 28.753994266324938], [104.85261760382832, 28.753994266324938], [104.85261760382832, 28.754173929381764], [104.85351591911244, 28.754173929381764], [104.85351591911244, 28.754353592438587], [104.85315659299879, 28.754353592438587], [104.85315659299879, 28.75453325549541], [104.85225827771467, 28.75453325549541], [104.85225827771467, 28.754353592438587], [104.85207861465784, 28.754353592438587], [104.85207861465784, 28.75453325549541], [104.85189895160102, 28.75453325549541], [104.85189895160102, 28.755072244665882]], [[104.85333625605561, 28.755251907722705], [104.85315659299879, 28.755251907722705], [104.85315659299879, 28.755072244665882], [104.85333625605561, 28.755072244665882], [104.85333625605561, 28.755251907722705]], [[104.85459389745338, 28.755431570779532], [104.8540549082829, 28.755431570779532], [104.8540549082829, 28.75489258160906], [104.85441423439656, 28.75489258160906], [104.85441423439656, 28.755072244665882], [104.85459389745338, 28.755072244665882], [104.85459389745338, 28.755431570779532]], [[104.85495322356702, 28.755431570779532], [104.8547735605102, 28.755431570779532], [104.8547735605102, 28.755251907722705], [104.85495322356702, 28.755251907722705], [104.85495322356702, 28.755431570779532]], [[104.84848535352137, 28.755790896893178], [104.84794636435089, 28.755790896893178], [104.84794636435089, 28.75489258160906], [104.84830569046454, 28.75489258160906], [104.84830569046454, 28.755072244665882], [104.84848535352137, 28.755072244665882], [104.84848535352137, 28.755251907722705], [104.8486650165782, 28.755251907722705], [104.8486650165782, 28.755611233836355], [104.84848535352137, 28.755611233836355], [104.84848535352137, 28.755790896893178]], [[104.85010232103278, 28.755790896893178], [104.84938366880549, 28.755790896893178], [104.84938366880549, 28.755251907722705], [104.84974299491913, 28.755251907722705], [104.84974299491913, 28.755431570779532], [104.84992265797595, 28.755431570779532], [104.84992265797595, 28.755611233836355], [104.85010232103278, 28.755611233836355], [104.85010232103278, 28.755790896893178]], [[104.85297692994196, 28.757048538290945], [104.85261760382832, 28.757048538290945], [104.85261760382832, 28.756868875234122], [104.8524379407715, 28.756868875234122], [104.8524379407715, 28.75632988606365], [104.85261760382832, 28.75632988606365], [104.85261760382832, 28.7566892121773], [104.85297692994196, 28.7566892121773], [104.85297692994196, 28.757048538290945]], [[104.85423457133973, 28.757048538290945], [104.85387524522608, 28.757048538290945], [104.85387524522608, 28.756868875234122], [104.85369558216925, 28.756868875234122], [104.85369558216925, 28.7566892121773], [104.8540549082829, 28.7566892121773], [104.8540549082829, 28.756868875234122], [104.85423457133973, 28.756868875234122], [104.85423457133973, 28.757048538290945]], [[104.85459389745338, 28.757048538290945], [104.85441423439656, 28.757048538290945], [104.85441423439656, 28.7566892121773], [104.8547735605102, 28.7566892121773], [104.8547735605102, 28.756868875234122], [104.85459389745338, 28.756868875234122], [104.85459389745338, 28.757048538290945]], [[104.85531254968068, 28.75722820134777], [104.85513288662385, 28.75722820134777], [104.85513288662385, 28.7566892121773], [104.85531254968068, 28.7566892121773], [104.85531254968068, 28.755431570779532], [104.8554922127375, 28.755431570779532], [104.8554922127375, 28.755251907722705], [104.85585153885114, 28.755251907722705], [104.85585153885114, 28.755790896893178], [104.85603120190797, 28.755790896893178], [104.85603120190797, 28.7566892121773], [104.8562108649648, 28.7566892121773], [104.8562108649648, 28.756868875234122], [104.85603120190797, 28.756868875234122], [104.85603120190797, 28.757048538290945], [104.85531254968068, 28.757048538290945], [104.85531254968068, 28.75722820134777]], [[104.85513288662385, 28.75776719051824], [104.85495322356702, 28.75776719051824], [104.85495322356702, 28.75722820134777], [104.85513288662385, 28.75722820134777], [104.85513288662385, 28.75776719051824]], [[104.84471242932807, 28.75956382108648], [104.84435310321442, 28.75956382108648], [104.84435310321442, 28.759384158029658], [104.84417344015759, 28.759384158029658], [104.84417344015759, 28.75920449497283], [104.84399377710076, 28.75920449497283], [104.84399377710076, 28.758845168859185], [104.84453276627124, 28.758845168859185], [104.84453276627124, 28.75902483191601], [104.84471242932807, 28.75902483191601], [104.84471242932807, 28.75920449497283], [104.84489209238488, 28.75920449497283], [104.84489209238488, 28.759384158029658], [104.84471242932807, 28.759384158029658], [104.84471242932807, 28.75956382108648]], [[104.84614973378265, 28.760102810256953], [104.84597007072583, 28.760102810256953], [104.84597007072583, 28.759923147200126], [104.845790407669, 28.759923147200126], [104.845790407669, 28.759743484143304], [104.84614973378265, 28.759743484143304], [104.84614973378265, 28.760102810256953]], [[104.84740737518042, 28.760102810256953], [104.8472277121236, 28.760102810256953], [104.8472277121236, 28.759923147200126], [104.84704804906677, 28.759923147200126], [104.84704804906677, 28.75956382108648], [104.84758703823725, 28.75956382108648], [104.84758703823725, 28.759923147200126], [104.84740737518042, 28.759923147200126], [104.84740737518042, 28.760102810256953]], [[104.84902434269183, 28.76100112554107], [104.84884467963501, 28.76100112554107], [104.84884467963501, 28.760821462484248], [104.84902434269183, 28.760821462484248], [104.84902434269183, 28.76100112554107]], [[104.84812602740772, 28.761180788597894], [104.84794636435089, 28.761180788597894], [104.84794636435089, 28.760641799427425], [104.84812602740772, 28.760641799427425], [104.84812602740772, 28.761180788597894]]]}, "properties": {"name": "cand01", "ptype": "hall", "confidence": "low", "rank": 1, "area_ha": 143.3, "rise_db": 8.7, "digitised_from": "Sentinel-1 VV rise 2022->2026, orbit 128"}}, {"type": "Feature", "geometry": {"geodesic": false, "type": "Polygon", "coordinates": [[[104.82638679753202, 28.74662808099516], [104.82638679753202, 28.746448417938335], [104.82602747141837, 28.746448417938335], [104.82602747141837, 28.746268754881513], [104.82566814530473, 28.746268754881513], [104.82566814530473, 28.746089091824686], [104.82512915613425, 28.746089091824686], [104.82512915613425, 28.745909428767863], [104.82476983002061, 28.745909428767863], [104.82476983002061, 28.74572976571104], [104.82441050390696, 28.74572976571104], [104.82441050390696, 28.745550102654217], [104.82423084085013, 28.745550102654217], [104.82423084085013, 28.745190776540568], [104.82441050390696, 28.745190776540568], [104.82441050390696, 28.744651787370096], [104.82459016696379, 28.744651787370096], [104.82459016696379, 28.744472124313273], [104.82476983002061, 28.744472124313273], [104.82476983002061, 28.74429246125645], [104.82512915613425, 28.74429246125645], [104.82512915613425, 28.7439331351428], [104.82530881919108, 28.7439331351428], [104.82530881919108, 28.743753472085977], [104.8254884822479, 28.743753472085977], [104.8254884822479, 28.744472124313273], [104.82530881919108, 28.744472124313273], [104.82530881919108, 28.74483145042692], [104.82512915613425, 28.74483145042692], [104.82512915613425, 28.745011113483745], [104.82494949307744, 28.745011113483745], [104.82494949307744, 28.74537043959739], [104.8254884822479, 28.74537043959739], [104.8254884822479, 28.74483145042692], [104.82566814530473, 28.74483145042692], [104.82566814530473, 28.744651787370096], [104.82584780836156, 28.744651787370096], [104.82584780836156, 28.744472124313273], [104.82602747141837, 28.744472124313273], [104.82602747141837, 28.74429246125645], [104.82638679753202, 28.74429246125645], [104.82638679753202, 28.744112798199623], [104.82656646058885, 28.744112798199623], [104.82656646058885, 28.743753472085977], [104.82638679753202, 28.743753472085977], [104.82638679753202, 28.7439331351428], [104.8262071344752, 28.7439331351428], [104.8262071344752, 28.743573809029154], [104.82602747141837, 28.743573809029154], [104.82602747141837, 28.743394145972328], [104.82566814530473, 28.743394145972328], [104.82566814530473, 28.743034819858682], [104.82602747141837, 28.743034819858682], [104.82602747141837, 28.742855156801856], [104.8262071344752, 28.742855156801856], [104.8262071344752, 28.742316167631387], [104.82638679753202, 28.742316167631387], [104.82638679753202, 28.741956841517737], [104.82656646058885, 28.741956841517737], [104.82656646058885, 28.741777178460914], [104.82638679753202, 28.741777178460914], [104.82638679753202, 28.74159751540409], [104.82566814530473, 28.74159751540409], [104.82566814530473, 28.741417852347265], [104.8254884822479, 28.741417852347265], [104.8254884822479, 28.741238189290442], [104.82494949307744, 28.741238189290442], [104.82494949307744, 28.73980088483585], [104.82512915613425, 28.73980088483585], [104.82512915613425, 28.73962122177903], [104.82530881919108, 28.73962122177903], [104.82530881919108, 28.73926189566538], [104.8254884822479, 28.73926189566538], [104.8254884822479, 28.73890256955173], [104.82584780836156, 28.73890256955173], [104.82584780836156, 28.739441558722202], [104.82566814530473, 28.739441558722202], [104.82566814530473, 28.73962122177903], [104.82602747141837, 28.73962122177903], [104.82602747141837, 28.73980088483585], [104.82638679753202, 28.73980088483585], [104.82638679753202, 28.739980547892674], [104.8269257867025, 28.739980547892674], [104.8269257867025, 28.740160210949497], [104.82746477587297, 28.740160210949497], [104.82746477587297, 28.740339874006324], [104.82818342810026, 28.740339874006324], [104.82818342810026, 28.740519537063147], [104.82836309115709, 28.740519537063147], [104.82836309115709, 28.740339874006324], [104.82854275421391, 28.740339874006324], [104.82854275421391, 28.740160210949497], [104.82872241727074, 28.740160210949497], [104.82872241727074, 28.739980547892674], [104.82908174338438, 28.739980547892674], [104.82908174338438, 28.73962122177903], [104.82890208032757, 28.73962122177903], [104.82890208032757, 28.739441558722202], [104.82872241727074, 28.739441558722202], [104.82872241727074, 28.73926189566538], [104.82818342810026, 28.73926189566538], [104.82818342810026, 28.739082232608556], [104.82782410198662, 28.739082232608556], [104.82782410198662, 28.73890256955173], [104.8276444389298, 28.73890256955173], [104.8276444389298, 28.738183917324434], [104.82782410198662, 28.738183917324434], [104.82782410198662, 28.73800425426761], [104.8276444389298, 28.73800425426761], [104.8276444389298, 28.73782459121079], [104.82746477587297, 28.73782459121079], [104.82746477587297, 28.737644928153966], [104.8269257867025, 28.737644928153966], [104.8269257867025, 28.73782459121079], [104.82656646058885, 28.73782459121079], [104.82656646058885, 28.73746526509714], [104.82674612364568, 28.73746526509714], [104.82674612364568, 28.737285602040316], [104.8269257867025, 28.737285602040316], [104.8269257867025, 28.737105938983493], [104.82710544975932, 28.737105938983493], [104.82710544975932, 28.736926275926667], [104.82728511281614, 28.736926275926667], [104.82728511281614, 28.736387286756198], [104.82746477587297, 28.736387286756198], [104.82746477587297, 28.735668634528903], [104.82782410198662, 28.735668634528903], [104.82782410198662, 28.735488971472076], [104.82890208032757, 28.735488971472076], [104.82890208032757, 28.735668634528903], [104.82908174338438, 28.735668634528903], [104.82908174338438, 28.735848297585726], [104.8292614064412, 28.735848297585726], [104.8292614064412, 28.73602796064255], [104.82980039561168, 28.73602796064255], [104.82980039561168, 28.73620762369937], [104.8299800586685, 28.73620762369937], [104.8299800586685, 28.736387286756198], [104.83015972172532, 28.736387286756198], [104.83015972172532, 28.73656694981302], [104.83033938478215, 28.73656694981302], [104.83033938478215, 28.736387286756198], [104.83087837395263, 28.736387286756198], [104.83087837395263, 28.73656694981302], [104.83123770006627, 28.73656694981302], [104.83123770006627, 28.736746612869844], [104.83159702617992, 28.736746612869844], [104.83159702617992, 28.73656694981302], [104.83213601535039, 28.73656694981302], [104.83213601535039, 28.736746612869844], [104.83231567840721, 28.736746612869844], [104.83231567840721, 28.736926275926667], [104.83267500452087, 28.736926275926667], [104.83267500452087, 28.737105938983493], [104.83285466757769, 28.737105938983493], [104.83285466757769, 28.73782459121079], [104.83393264591862, 28.73782459121079], [104.83393264591862, 28.73800425426761], [104.83411230897545, 28.73800425426761], [104.83411230897545, 28.738183917324434], [104.83393264591862, 28.738183917324434], [104.83393264591862, 28.73836358038126], [104.83357331980498, 28.73836358038126], [104.83357331980498, 28.738543243438084], [104.83339365674816, 28.738543243438084], [104.83339365674816, 28.738722906494907], [104.8330343306345, 28.738722906494907], [104.8330343306345, 28.738543243438084], [104.83285466757769, 28.738543243438084], [104.83285466757769, 28.73782459121079], [104.83267500452087, 28.73782459121079], [104.83267500452087, 28.73800425426761], [104.83249534146404, 28.73800425426761], [104.83249534146404, 28.738183917324434], [104.83231567840721, 28.738183917324434], [104.83231567840721, 28.738722906494907], [104.83249534146404, 28.738722906494907], [104.83249534146404, 28.739082232608556], [104.83195635229356, 28.739082232608556], [104.83195635229356, 28.73926189566538], [104.83159702617992, 28.73926189566538], [104.83159702617992, 28.739441558722202], [104.83123770006627, 28.739441558722202], [104.83123770006627, 28.73962122177903], [104.82980039561168, 28.73962122177903], [104.82980039561168, 28.740160210949497], [104.8299800586685, 28.740160210949497], [104.8299800586685, 28.740519537063147], [104.82980039561168, 28.740519537063147], [104.82980039561168, 28.74069920011997], [104.82962073255486, 28.74069920011997], [104.82962073255486, 28.74105852623362], [104.83015972172532, 28.74105852623362], [104.83015972172532, 28.740878863176793], [104.83087837395263, 28.740878863176793], [104.83087837395263, 28.741238189290442], [104.83051904783898, 28.741238189290442], [104.83051904783898, 28.741777178460914], [104.8306987108958, 28.741777178460914], [104.8306987108958, 28.74213650457456], [104.83051904783898, 28.74213650457456], [104.83051904783898, 28.742316167631387], [104.8299800586685, 28.742316167631387], [104.8299800586685, 28.742675493745033], [104.82980039561168, 28.742675493745033], [104.82980039561168, 28.742855156801856], [104.8292614064412, 28.742855156801856], [104.8292614064412, 28.742675493745033], [104.82890208032757, 28.742675493745033], [104.82890208032757, 28.74249583068821], [104.82854275421391, 28.74249583068821], [104.82854275421391, 28.742316167631387], [104.8276444389298, 28.742316167631387], [104.8276444389298, 28.74249583068821], [104.82728511281614, 28.74249583068821], [104.82728511281614, 28.742675493745033], [104.82710544975932, 28.742675493745033], [104.82710544975932, 28.743034819858682], [104.8269257867025, 28.743034819858682], [104.8269257867025, 28.743214482915505], [104.82674612364568, 28.743214482915505], [104.82674612364568, 28.743573809029154], [104.8269257867025, 28.743573809029154], [104.8269257867025, 28.743753472085977], [104.82710544975932, 28.743753472085977], [104.82710544975932, 28.7439331351428], [104.82728511281614, 28.7439331351428], [104.82728511281614, 28.744112798199623], [104.82818342810026, 28.744112798199623], [104.82818342810026, 28.74429246125645], [104.82836309115709, 28.74429246125645], [104.82836309115709, 28.744472124313273], [104.82818342810026, 28.744472124313273], [104.82818342810026, 28.745011113483745], [104.82800376504343, 28.745011113483745], [104.82800376504343, 28.745190776540568], [104.82782410198662, 28.745190776540568], [104.82782410198662, 28.745550102654217], [104.8276444389298, 28.745550102654217], [104.8276444389298, 28.745909428767863], [104.82746477587297, 28.745909428767863], [104.82746477587297, 28.746089091824686], [104.82728511281614, 28.746089091824686], [104.82728511281614, 28.746268754881513], [104.82710544975932, 28.746268754881513], [104.82710544975932, 28.746448417938335], [104.82674612364568, 28.746448417938335], [104.82674612364568, 28.74662808099516], [104.82638679753202, 28.74662808099516]], [[104.82836309115709, 28.73836358038126], [104.82818342810026, 28.73836358038126], [104.82818342810026, 28.738183917324434], [104.82836309115709, 28.738183917324434], [104.82836309115709, 28.73836358038126]], [[104.82962073255486, 28.73926189566538], [104.82890208032757, 28.73926189566538], [104.82890208032757, 28.739082232608556], [104.82872241727074, 28.739082232608556], [104.82872241727074, 28.738722906494907], [104.82908174338438, 28.738722906494907], [104.82908174338438, 28.738543243438084], [104.8292614064412, 28.738543243438084], [104.8292614064412, 28.738183917324434], [104.82944106949803, 28.738183917324434], [104.82944106949803, 28.73800425426761], [104.82962073255486, 28.73800425426761], [104.82962073255486, 28.73746526509714], [104.82980039561168, 28.73746526509714], [104.82980039561168, 28.737105938983493], [104.8299800586685, 28.737105938983493], [104.8299800586685, 28.736746612869844], [104.83015972172532, 28.736746612869844], [104.83015972172532, 28.736926275926667], [104.83033938478215, 28.736926275926667], [104.83033938478215, 28.737285602040316], [104.83015972172532, 28.737285602040316], [104.83015972172532, 28.73746526509714], [104.8299800586685, 28.73746526509714], [104.8299800586685, 28.73800425426761], [104.82980039561168, 28.73800425426761], [104.82980039561168, 28.738543243438084], [104.8299800586685, 28.738543243438084], [104.8299800586685, 28.738722906494907], [104.83015972172532, 28.738722906494907], [104.83015972172532, 28.73890256955173], [104.82980039561168, 28.73890256955173], [104.82980039561168, 28.739082232608556], [104.82962073255486, 28.739082232608556], [104.82962073255486, 28.73926189566538]], [[104.83051904783898, 28.73926189566538], [104.83033938478215, 28.73926189566538], [104.83033938478215, 28.739082232608556], [104.83051904783898, 28.739082232608556], [104.83051904783898, 28.73926189566538]], [[104.82584780836156, 28.740519537063147], [104.8254884822479, 28.740519537063147], [104.8254884822479, 28.739980547892674], [104.82602747141837, 28.739980547892674], [104.82602747141837, 28.740160210949497], [104.82638679753202, 28.740160210949497], [104.82638679753202, 28.740339874006324], [104.82584780836156, 28.740339874006324], [104.82584780836156, 28.740519537063147]], [[104.82908174338438, 28.740519537063147], [104.82890208032757, 28.740519537063147], [104.82890208032757, 28.740339874006324], [104.82908174338438, 28.740339874006324], [104.82908174338438, 28.740519537063147]], [[104.8292614064412, 28.74069920011997], [104.82908174338438, 28.74069920011997], [104.82908174338438, 28.740519537063147], [104.8292614064412, 28.740519537063147], [104.8292614064412, 28.74069920011997]], [[104.82710544975932, 28.74213650457456], [104.8269257867025, 28.74213650457456], [104.8269257867025, 28.741777178460914], [104.82656646058885, 28.741777178460914], [104.82656646058885, 28.741417852347265], [104.82674612364568, 28.741417852347265], [104.82674612364568, 28.741238189290442], [104.8269257867025, 28.741238189290442], [104.8269257867025, 28.74105852623362], [104.82710544975932, 28.74105852623362], [104.82710544975932, 28.74069920011997], [104.82728511281614, 28.74069920011997], [104.82728511281614, 28.740519537063147], [104.8276444389298, 28.740519537063147], [104.8276444389298, 28.74069920011997], [104.82782410198662, 28.74069920011997], [104.82782410198662, 28.740878863176793], [104.82800376504343, 28.740878863176793], [104.82800376504343, 28.741238189290442], [104.8276444389298, 28.741238189290442], [104.8276444389298, 28.741417852347265], [104.82728511281614, 28.741417852347265], [104.82728511281614, 28.741956841517737], [104.82710544975932, 28.741956841517737], [104.82710544975932, 28.74213650457456]], [[104.8276444389298, 28.74213650457456], [104.82746477587297, 28.74213650457456], [104.82746477587297, 28.741956841517737], [104.8276444389298, 28.741956841517737], [104.8276444389298, 28.74213650457456]], [[104.82674612364568, 28.743753472085977], [104.82656646058885, 28.743753472085977], [104.82656646058885, 28.743573809029154], [104.82674612364568, 28.743573809029154], [104.82674612364568, 28.743753472085977]], [[104.82674612364568, 28.74537043959739], [104.82638679753202, 28.74537043959739], [104.82638679753202, 28.745190776540568], [104.82674612364568, 28.745190776540568], [104.82674612364568, 28.74537043959739]], [[104.82728511281614, 28.745550102654217], [104.8269257867025, 28.745550102654217], [104.8269257867025, 28.74537043959739], [104.82728511281614, 28.74537043959739], [104.82728511281614, 28.745550102654217]]]}, "properties": {"name": "cand02", "ptype": "hall", "confidence": "low", "rank": 2, "area_ha": 43.5, "rise_db": 9.3, "digitised_from": "Sentinel-1 VV rise 2022->2026, orbit 128"}}, {"type": "Feature", "geometry": {"geodesic": false, "type": "Polygon", "coordinates": [[[104.83698691788463, 28.761180788597894], [104.83698691788463, 28.76100112554107], [104.83626826565734, 28.76100112554107], [104.83626826565734, 28.760821462484248], [104.83572927648687, 28.760821462484248], [104.83572927648687, 28.760641799427425], [104.8351902873164, 28.760641799427425], [104.8351902873164, 28.7604621363706], [104.83501062425957, 28.7604621363706], [104.83501062425957, 28.760282473313776], [104.8351902873164, 28.760282473313776], [104.8351902873164, 28.760102810256953], [104.83572927648687, 28.760102810256953], [104.83572927648687, 28.759923147200126], [104.83536995037322, 28.759923147200126], [104.83536995037322, 28.759743484143304], [104.83483096120275, 28.759743484143304], [104.83483096120275, 28.759923147200126], [104.83465129814593, 28.759923147200126], [104.83465129814593, 28.760102810256953], [104.8344716350891, 28.760102810256953], [104.8344716350891, 28.760282473313776], [104.83393264591862, 28.760282473313776], [104.83393264591862, 28.760102810256953], [104.83339365674816, 28.760102810256953], [104.83339365674816, 28.759743484143304], [104.83357331980498, 28.759743484143304], [104.83357331980498, 28.75956382108648], [104.83375298286181, 28.75956382108648], [104.83375298286181, 28.759384158029658], [104.83393264591862, 28.759384158029658], [104.83393264591862, 28.75902483191601], [104.83357331980498, 28.75902483191601], [104.83357331980498, 28.758845168859185], [104.83285466757769, 28.758845168859185], [104.83285466757769, 28.759384158029658], [104.8330343306345, 28.759384158029658], [104.8330343306345, 28.75956382108648], [104.83285466757769, 28.75956382108648], [104.83285466757769, 28.759743484143304], [104.83249534146404, 28.759743484143304], [104.83249534146404, 28.75956382108648], [104.83231567840721, 28.75956382108648], [104.83231567840721, 28.758665505802362], [104.83249534146404, 28.758665505802362], [104.83249534146404, 28.758485842745536], [104.8330343306345, 28.758485842745536], [104.8330343306345, 28.757946853575064], [104.83285466757769, 28.757946853575064], [104.83285466757769, 28.757587527461418], [104.8330343306345, 28.757587527461418], [104.8330343306345, 28.757048538290945], [104.83321399369133, 28.757048538290945], [104.83321399369133, 28.756868875234122], [104.83375298286181, 28.756868875234122], [104.83375298286181, 28.757407864404595], [104.83339365674816, 28.757407864404595], [104.83339365674816, 28.75776719051824], [104.83357331980498, 28.75776719051824], [104.83357331980498, 28.757946853575064], [104.83411230897545, 28.757946853575064], [104.83411230897545, 28.75812651663189], [104.83465129814593, 28.75812651663189], [104.83465129814593, 28.757946853575064], [104.83536995037322, 28.757946853575064], [104.83536995037322, 28.75812651663189], [104.83554961343005, 28.75812651663189], [104.83554961343005, 28.758306179688713], [104.83572927648687, 28.758306179688713], [104.83572927648687, 28.758665505802362], [104.83608860260051, 28.758665505802362], [104.83608860260051, 28.758485842745536], [104.83644792871416, 28.758485842745536], [104.83644792871416, 28.758665505802362], [104.83680725482782, 28.758665505802362], [104.83680725482782, 28.75920449497283], [104.83662759177099, 28.75920449497283], [104.83662759177099, 28.759743484143304], [104.83644792871416, 28.759743484143304], [104.83644792871416, 28.759923147200126], [104.83626826565734, 28.759923147200126], [104.83626826565734, 28.760102810256953], [104.83608860260051, 28.760102810256953], [104.83608860260051, 28.759743484143304], [104.83590893954369, 28.759743484143304], [104.83590893954369, 28.760282473313776], [104.83626826565734, 28.760282473313776], [104.83626826565734, 28.7604621363706], [104.83644792871416, 28.7604621363706], [104.83644792871416, 28.760641799427425], [104.83716658094146, 28.760641799427425], [104.83716658094146, 28.760821462484248], [104.83734624399828, 28.760821462484248], [104.83734624399828, 28.761180788597894], [104.83698691788463, 28.761180788597894]], [[104.83536995037322, 28.758306179688713], [104.8351902873164, 28.758306179688713], [104.8351902873164, 28.75812651663189], [104.83536995037322, 28.75812651663189], [104.83536995037322, 28.758306179688713]], [[104.83662759177099, 28.75902483191601], [104.83644792871416, 28.75902483191601], [104.83644792871416, 28.758845168859185], [104.83662759177099, 28.758845168859185], [104.83662759177099, 28.75902483191601]], [[104.83626826565734, 28.759743484143304], [104.83608860260051, 28.759743484143304], [104.83608860260051, 28.75956382108648], [104.83590893954369, 28.75956382108648], [104.83590893954369, 28.759384158029658], [104.83608860260051, 28.759384158029658], [104.83608860260051, 28.75920449497283], [104.83626826565734, 28.75920449497283], [104.83626826565734, 28.759743484143304]]]}, "properties": {"name": "cand03", "ptype": "hall", "confidence": "low", "rank": 3, "area_ha": 10.2, "rise_db": 7.9, "digitised_from": "Sentinel-1 VV rise 2022->2026, orbit 128"}}, {"type": "Feature", "geometry": {"geodesic": false, "type": "Polygon", "coordinates": [[[104.84471242932807, 28.765852028075315], [104.84471242932807, 28.765672365018492], [104.84453276627124, 28.765672365018492], [104.84453276627124, 28.76549270196167], [104.84363445098712, 28.76549270196167], [104.84363445098712, 28.765313038904846], [104.8434547879303, 28.765313038904846], [104.8434547879303, 28.764953712791197], [104.84363445098712, 28.764953712791197], [104.84363445098712, 28.764774049734374], [104.84327512487347, 28.764774049734374], [104.84327512487347, 28.764953712791197], [104.84291579875982, 28.764953712791197], [104.84291579875982, 28.76459438667755], [104.842736135703, 28.76459438667755], [104.842736135703, 28.764414723620725], [104.84147849430524, 28.764414723620725], [104.84147849430524, 28.7642350605639], [104.84129883124841, 28.7642350605639], [104.84129883124841, 28.76405539750708], [104.84111916819158, 28.76405539750708], [104.84111916819158, 28.763875734450252], [104.84129883124841, 28.763875734450252], [104.84129883124841, 28.763157082222957], [104.84147849430524, 28.763157082222957], [104.84147849430524, 28.762977419166134], [104.84183782041887, 28.762977419166134], [104.84183782041887, 28.763157082222957], [104.84219714653253, 28.763157082222957], [104.84219714653253, 28.762977419166134], [104.842736135703, 28.762977419166134], [104.842736135703, 28.763157082222957], [104.84309546181665, 28.763157082222957], [104.84309546181665, 28.763336745279783], [104.84327512487347, 28.763336745279783], [104.84327512487347, 28.76369607139343], [104.84381411404394, 28.76369607139343], [104.84381411404394, 28.763875734450252], [104.84399377710076, 28.763875734450252], [104.84399377710076, 28.76405539750708], [104.84435310321442, 28.76405539750708], [104.84435310321442, 28.763516408336606], [104.84453276627124, 28.763516408336606], [104.84453276627124, 28.763336745279783], [104.84489209238488, 28.763336745279783], [104.84489209238488, 28.763516408336606], [104.84507175544171, 28.763516408336606], [104.84507175544171, 28.763875734450252], [104.84525141849853, 28.763875734450252], [104.84525141849853, 28.76405539750708], [104.84543108155536, 28.76405539750708], [104.84543108155536, 28.7642350605639], [104.845790407669, 28.7642350605639], [104.845790407669, 28.76405539750708], [104.84632939683948, 28.76405539750708], [104.84632939683948, 28.7642350605639], [104.84614973378265, 28.7642350605639], [104.84614973378265, 28.76459438667755], [104.84597007072583, 28.76459438667755], [104.84597007072583, 28.764774049734374], [104.845790407669, 28.764774049734374], [104.845790407669, 28.765313038904846], [104.84561074461219, 28.765313038904846], [104.84561074461219, 28.76549270196167], [104.84543108155536, 28.76549270196167], [104.84543108155536, 28.765672365018492], [104.84525141849853, 28.765672365018492], [104.84525141849853, 28.765852028075315], [104.84471242932807, 28.765852028075315]]]}, "properties": {"name": "cand04", "ptype": "hall", "confidence": "low", "rank": 4, "area_ha": 9.2, "rise_db": 8.8, "digitised_from": "Sentinel-1 VV rise 2022->2026, orbit 128"}}, {"type": "Feature", "geometry": {"geodesic": false, "type": "Polygon", "coordinates": [[[104.82081724277049, 28.744651787370096], [104.82081724277049, 28.744472124313273], [104.82063757971366, 28.744472124313273], [104.82063757971366, 28.744112798199623], [104.82027825360001, 28.744112798199623], [104.82027825360001, 28.7439331351428], [104.81991892748637, 28.7439331351428], [104.81991892748637, 28.743753472085977], [104.81955960137272, 28.743753472085977], [104.81955960137272, 28.743394145972328], [104.81973926442954, 28.743394145972328], [104.81973926442954, 28.743214482915505], [104.81991892748637, 28.743214482915505], [104.81991892748637, 28.743394145972328], [104.82045791665684, 28.743394145972328], [104.82045791665684, 28.743573809029154], [104.82063757971366, 28.743573809029154], [104.82063757971366, 28.743394145972328], [104.82117656888413, 28.743394145972328], [104.82117656888413, 28.743214482915505], [104.82135623194095, 28.743214482915505], [104.82135623194095, 28.743034819858682], [104.82117656888413, 28.743034819858682], [104.82117656888413, 28.742855156801856], [104.82045791665684, 28.742855156801856], [104.82045791665684, 28.742675493745033], [104.82027825360001, 28.742675493745033], [104.82027825360001, 28.74249583068821], [104.81937993831589, 28.74249583068821], [104.81937993831589, 28.742316167631387], [104.81955960137272, 28.742316167631387], [104.81955960137272, 28.74213650457456], [104.81973926442954, 28.74213650457456], [104.81973926442954, 28.741956841517737], [104.81991892748637, 28.741956841517737], [104.81991892748637, 28.741777178460914], [104.82045791665684, 28.741777178460914], [104.82045791665684, 28.741956841517737], [104.82081724277049, 28.741956841517737], [104.82081724277049, 28.74213650457456], [104.82135623194095, 28.74213650457456], [104.82135623194095, 28.742316167631387], [104.8217155580546, 28.742316167631387], [104.8217155580546, 28.74249583068821], [104.82207488416825, 28.74249583068821], [104.82207488416825, 28.742675493745033], [104.82225454722507, 28.742675493745033], [104.82225454722507, 28.743394145972328], [104.82207488416825, 28.743394145972328], [104.82207488416825, 28.743753472085977], [104.82189522111143, 28.743753472085977], [104.82189522111143, 28.7439331351428], [104.8217155580546, 28.7439331351428], [104.8217155580546, 28.744112798199623], [104.82153589499778, 28.744112798199623], [104.82153589499778, 28.74429246125645], [104.82117656888413, 28.74429246125645], [104.82117656888413, 28.744472124313273], [104.82099690582731, 28.744472124313273], [104.82099690582731, 28.744651787370096], [104.82081724277049, 28.744651787370096]]]}, "properties": {"name": "cand05", "ptype": "hall", "confidence": "low", "rank": 5, "area_ha": 5.0, "rise_db": 10.4, "digitised_from": "Sentinel-1 VV rise 2022->2026, orbit 128"}}, {"type": "Feature", "geometry": {"geodesic": false, "type": "Polygon", "coordinates": [[[104.81902061220225, 28.747706059336103], [104.81902061220225, 28.74752639627928], [104.8186612860886, 28.74752639627928], [104.8186612860886, 28.746987407108808], [104.81884094914543, 28.746987407108808], [104.81884094914543, 28.74680774405198], [104.81902061220225, 28.74680774405198], [104.81902061220225, 28.74662808099516], [104.81920027525906, 28.74662808099516], [104.81920027525906, 28.746448417938335], [104.81902061220225, 28.746448417938335], [104.81902061220225, 28.746268754881513], [104.8186612860886, 28.746268754881513], [104.8186612860886, 28.746089091824686], [104.81848162303177, 28.746089091824686], [104.81848162303177, 28.745550102654217], [104.8186612860886, 28.745550102654217], [104.8186612860886, 28.74537043959739], [104.81902061220225, 28.74537043959739], [104.81902061220225, 28.745550102654217], [104.81955960137272, 28.745550102654217], [104.81955960137272, 28.745190776540568], [104.81973926442954, 28.745190776540568], [104.81973926442954, 28.745011113483745], [104.81991892748637, 28.745011113483745], [104.81991892748637, 28.74483145042692], [104.82063757971366, 28.74483145042692], [104.82063757971366, 28.745550102654217], [104.82045791665684, 28.745550102654217], [104.82045791665684, 28.74572976571104], [104.82027825360001, 28.74572976571104], [104.82027825360001, 28.746089091824686], [104.82009859054318, 28.746089091824686], [104.82009859054318, 28.74680774405198], [104.81991892748637, 28.74680774405198], [104.81991892748637, 28.74662808099516], [104.81937993831589, 28.74662808099516], [104.81937993831589, 28.74680774405198], [104.81955960137272, 28.74680774405198], [104.81955960137272, 28.74716707016563], [104.81937993831589, 28.74716707016563], [104.81937993831589, 28.74752639627928], [104.81920027525906, 28.74752639627928], [104.81920027525906, 28.747706059336103], [104.81902061220225, 28.747706059336103]]]}, "properties": {"name": "cand06", "ptype": "hall", "confidence": "low", "rank": 6, "area_ha": 3.8, "rise_db": 10.2, "digitised_from": "Sentinel-1 VV rise 2022->2026, orbit 128"}}, {"type": "Feature", "geometry": {"geodesic": false, "type": "Polygon", "coordinates": [[[104.83770557011194, 28.74806538544975], [104.83770557011194, 28.747885722392926], [104.83698691788463, 28.747885722392926], [104.83698691788463, 28.74752639627928], [104.83716658094146, 28.74752639627928], [104.83716658094146, 28.747346733222454], [104.83770557011194, 28.747346733222454], [104.83770557011194, 28.74716707016563], [104.83806489622557, 28.74716707016563], [104.83806489622557, 28.74680774405198], [104.83842422233923, 28.74680774405198], [104.83842422233923, 28.746089091824686], [104.839681863737, 28.746089091824686], [104.839681863737, 28.746268754881513], [104.84004118985064, 28.746268754881513], [104.84004118985064, 28.746089091824686], [104.84058017902112, 28.746089091824686], [104.84058017902112, 28.74662808099516], [104.83914287456652, 28.74662808099516], [104.83914287456652, 28.746448417938335], [104.83878354845288, 28.746448417938335], [104.83878354845288, 28.74662808099516], [104.83860388539605, 28.74662808099516], [104.83860388539605, 28.746987407108808], [104.83878354845288, 28.746987407108808], [104.83878354845288, 28.74716707016563], [104.83860388539605, 28.74716707016563], [104.83860388539605, 28.747885722392926], [104.83842422233923, 28.747885722392926], [104.83842422233923, 28.74806538544975], [104.83770557011194, 28.74806538544975]]]}, "properties": {"name": "cand07", "ptype": "hall", "confidence": "low", "rank": 7, "area_ha": 3.0, "rise_db": 5.7, "digitised_from": "Sentinel-1 VV rise 2022->2026, orbit 128"}}, {"type": "Feature", "geometry": {"geodesic": false, "type": "Polygon", "coordinates": [[[104.86411603946505, 28.75309595104082], [104.86411603946505, 28.752736624927174], [104.86429570252187, 28.752736624927174], [104.86429570252187, 28.752377298813524], [104.86411603946505, 28.752377298813524], [104.86411603946505, 28.7521976357567], [104.86393637640822, 28.7521976357567], [104.86393637640822, 28.75165864658623], [104.86411603946505, 28.75165864658623], [104.86411603946505, 28.75129932047258], [104.86429570252187, 28.75129932047258], [104.86429570252187, 28.750939994358934], [104.8644753655787, 28.750939994358934], [104.8644753655787, 28.75076033130211], [104.86465502863551, 28.75076033130211], [104.86465502863551, 28.75040100518846], [104.86483469169234, 28.75040100518846], [104.86483469169234, 28.75022134213164], [104.86519401780599, 28.75022134213164], [104.86519401780599, 28.75040100518846], [104.86537368086282, 28.75040100518846], [104.86537368086282, 28.750939994358934], [104.86519401780599, 28.750939994358934], [104.86519401780599, 28.751478983529406], [104.86501435474916, 28.751478983529406], [104.86501435474916, 28.751838309643052], [104.86519401780599, 28.751838309643052], [104.86519401780599, 28.752377298813524], [104.86501435474916, 28.752377298813524], [104.86501435474916, 28.752556961870347], [104.86465502863551, 28.752556961870347], [104.86465502863551, 28.752916287983997], [104.8644753655787, 28.752916287983997], [104.8644753655787, 28.75309595104082], [104.86411603946505, 28.75309595104082]]]}, "properties": {"name": "cand08", "ptype": "hall", "confidence": "low", "rank": 8, "area_ha": 2.9, "rise_db": 8.4, "digitised_from": "Sentinel-1 VV rise 2022->2026, orbit 128"}}, {"type": "Feature", "geometry": {"geodesic": false, "type": "Polygon", "coordinates": [[[104.82225454722507, 28.7439331351428], [104.82225454722507, 28.743573809029154], [104.8224342102819, 28.743573809029154], [104.8224342102819, 28.743214482915505], [104.82261387333872, 28.743214482915505], [104.82261387333872, 28.743034819858682], [104.82279353639555, 28.743034819858682], [104.82279353639555, 28.742855156801856], [104.82297319945238, 28.742855156801856], [104.82297319945238, 28.742316167631387], [104.82315286250919, 28.742316167631387], [104.82315286250919, 28.74213650457456], [104.82333252556602, 28.74213650457456], [104.82333252556602, 28.741777178460914], [104.82351218862284, 28.741777178460914], [104.82351218862284, 28.74159751540409], [104.82369185167967, 28.74159751540409], [104.82369185167967, 28.741417852347265], [104.8238715147365, 28.741417852347265], [104.8238715147365, 28.74105852623362], [104.82405117779331, 28.74105852623362], [104.82405117779331, 28.740878863176793], [104.82441050390696, 28.740878863176793], [104.82441050390696, 28.74105852623362], [104.82459016696379, 28.74105852623362], [104.82459016696379, 28.741238189290442], [104.82441050390696, 28.741238189290442], [104.82441050390696, 28.741417852347265], [104.82423084085013, 28.741417852347265], [104.82423084085013, 28.74159751540409], [104.82405117779331, 28.74159751540409], [104.82405117779331, 28.741956841517737], [104.8238715147365, 28.741956841517737], [104.8238715147365, 28.74213650457456], [104.82369185167967, 28.74213650457456], [104.82369185167967, 28.742316167631387], [104.82351218862284, 28.742316167631387], [104.82351218862284, 28.742855156801856], [104.82315286250919, 28.742855156801856], [104.82315286250919, 28.743214482915505], [104.82297319945238, 28.743214482915505], [104.82297319945238, 28.743573809029154], [104.82279353639555, 28.743573809029154], [104.82279353639555, 28.743753472085977], [104.82261387333872, 28.743753472085977], [104.82261387333872, 28.7439331351428], [104.82225454722507, 28.7439331351428]]]}, "properties": {"name": "cand09", "ptype": "hall", "confidence": "low", "rank": 9, "area_ha": 2.0, "rise_db": 6.3, "digitised_from": "Sentinel-1 VV rise 2022->2026, orbit 128"}}, {"type": "Feature", "geometry": {"geodesic": false, "type": "Polygon", "coordinates": [[[104.85261760382832, 28.74662808099516], [104.85261760382832, 28.746448417938335], [104.8524379407715, 28.746448417938335], [104.8524379407715, 28.746089091824686], [104.85261760382832, 28.746089091824686], [104.85261760382832, 28.745909428767863], [104.85279726688513, 28.745909428767863], [104.85279726688513, 28.74572976571104], [104.85297692994196, 28.74572976571104], [104.85297692994196, 28.745550102654217], [104.85351591911244, 28.745550102654217], [104.85351591911244, 28.74537043959739], [104.85369558216925, 28.74537043959739], [104.85369558216925, 28.745190776540568], [104.85387524522608, 28.745190776540568], [104.85387524522608, 28.74537043959739], [104.85423457133973, 28.74537043959739], [104.85423457133973, 28.745550102654217], [104.85459389745338, 28.745550102654217], [104.85459389745338, 28.74572976571104], [104.8547735605102, 28.74572976571104], [104.8547735605102, 28.745909428767863], [104.85459389745338, 28.745909428767863], [104.85459389745338, 28.746089091824686], [104.8540549082829, 28.746089091824686], [104.8540549082829, 28.745909428767863], [104.85369558216925, 28.745909428767863], [104.85369558216925, 28.746089091824686], [104.85351591911244, 28.746089091824686], [104.85351591911244, 28.746268754881513], [104.85315659299879, 28.746268754881513], [104.85315659299879, 28.746448417938335], [104.85279726688513, 28.746448417938335], [104.85279726688513, 28.74662808099516], [104.85261760382832, 28.74662808099516]]]}, "properties": {"name": "cand10", "ptype": "hall", "confidence": "low", "rank": 10, "area_ha": 1.8, "rise_db": 5.8, "digitised_from": "Sentinel-1 VV rise 2022->2026, orbit 128"}}, {"type": "Feature", "geometry": {"geodesic": false, "type": "Polygon", "coordinates": [[[104.85297692994196, 28.7604621363706], [104.85297692994196, 28.760282473313776], [104.85279726688513, 28.760282473313776], [104.85279726688513, 28.760102810256953], [104.85261760382832, 28.760102810256953], [104.85261760382832, 28.759743484143304], [104.8524379407715, 28.759743484143304], [104.8524379407715, 28.759923147200126], [104.85225827771467, 28.759923147200126], [104.85225827771467, 28.760102810256953], [104.85189895160102, 28.760102810256953], [104.85189895160102, 28.759923147200126], [104.85171928854419, 28.759923147200126], [104.85171928854419, 28.75956382108648], [104.85153962548738, 28.75956382108648], [104.85153962548738, 28.759384158029658], [104.85171928854419, 28.759384158029658], [104.85171928854419, 28.75920449497283], [104.85225827771467, 28.75920449497283], [104.85225827771467, 28.759384158029658], [104.85261760382832, 28.759384158029658], [104.85261760382832, 28.759743484143304], [104.85297692994196, 28.759743484143304], [104.85297692994196, 28.75956382108648], [104.85315659299879, 28.75956382108648], [104.85315659299879, 28.759743484143304], [104.85387524522608, 28.759743484143304], [104.85387524522608, 28.759923147200126], [104.8540549082829, 28.759923147200126], [104.8540549082829, 28.760282473313776], [104.85315659299879, 28.760282473313776], [104.85315659299879, 28.7604621363706], [104.85297692994196, 28.7604621363706]]]}, "properties": {"name": "cand11", "ptype": "hall", "confidence": "low", "rank": 11, "area_ha": 1.8, "rise_db": 8.6, "digitised_from": "Sentinel-1 VV rise 2022->2026, orbit 128"}}, {"type": "Feature", "geometry": {"geodesic": false, "type": "Polygon", "coordinates": [[[104.84776670129406, 28.745011113483745], [104.84776670129406, 28.74483145042692], [104.84758703823725, 28.74483145042692], [104.84758703823725, 28.744651787370096], [104.84776670129406, 28.744651787370096], [104.84776670129406, 28.7439331351428], [104.84758703823725, 28.7439331351428], [104.84758703823725, 28.743573809029154], [104.84812602740772, 28.743573809029154], [104.84812602740772, 28.743753472085977], [104.84848535352137, 28.743753472085977], [104.84848535352137, 28.7439331351428], [104.8486650165782, 28.7439331351428], [104.8486650165782, 28.744651787370096], [104.84848535352137, 28.744651787370096], [104.84848535352137, 28.74483145042692], [104.84830569046454, 28.74483145042692], [104.84830569046454, 28.744651787370096], [104.84812602740772, 28.744651787370096], [104.84812602740772, 28.745011113483745], [104.84776670129406, 28.745011113483745]]]}, "properties": {"name": "cand12", "ptype": "hall", "confidence": "low", "rank": 12, "area_ha": 1.4, "rise_db": 9.4, "digitised_from": "Sentinel-1 VV rise 2022->2026, orbit 128"}}]}