{"type": "FeatureCollection", "features": [{"type": "Feature", "geometry": {"geodesic": false, "type": "Polygon", "coordinates": [[[121.34586588331955, 32.42325287583954], [121.34586588331955, 32.42307321278271], [121.34568622026273, 32.42307321278271], [121.34568622026273, 32.42289354972589], [121.34550655720591, 32.42289354972589], [121.34550655720591, 32.422713886669065], [121.34532689414908, 32.422713886669065], [121.34532689414908, 32.42235456055542], [121.34514723109226, 32.42235456055542], [121.34514723109226, 32.421995234441766], [121.34496756803543, 32.421995234441766], [121.34496756803543, 32.42181557138495], [121.34442857886496, 32.42181557138495], [121.34442857886496, 32.42163590832812], [121.34424891580814, 32.42163590832812], [121.34424891580814, 32.42109691915765], [121.34406925275131, 32.42109691915765], [121.34406925275131, 32.42091725610083], [121.34388958969448, 32.42091725610083], [121.34388958969448, 32.420737593044], [121.34370992663767, 32.420737593044], [121.34370992663767, 32.420557929987176], [121.34353026358085, 32.420557929987176], [121.34353026358085, 32.420378266930356], [121.34335060052402, 32.420378266930356], [121.34335060052402, 32.42019860387353], [121.34353026358085, 32.42019860387353], [121.34353026358085, 32.4200189408167], [121.34388958969448, 32.4200189408167], [121.34388958969448, 32.419839277759884], [121.34406925275131, 32.419839277759884], [121.34406925275131, 32.41965961470306], [121.34460824192179, 32.41965961470306], [121.34460824192179, 32.41947995164624], [121.34496756803543, 32.41947995164624], [121.34496756803543, 32.419120625532585], [121.34532689414908, 32.419120625532585], [121.34532689414908, 32.41947995164624], [121.34514723109226, 32.41947995164624], [121.34514723109226, 32.41965961470306], [121.34496756803543, 32.41965961470306], [121.34496756803543, 32.419839277759884], [121.34604554637637, 32.419839277759884], [121.34604554637637, 32.41947995164624], [121.3462252094332, 32.41947995164624], [121.3462252094332, 32.41930028858941], [121.34640487249003, 32.41930028858941], [121.34640487249003, 32.419120625532585], [121.34658453554685, 32.419120625532585], [121.34658453554685, 32.418940962475766], [121.34676419860368, 32.418940962475766], [121.34676419860368, 32.41876129941894], [121.34694386166049, 32.41876129941894], [121.34694386166049, 32.418940962475766], [121.34712352471732, 32.418940962475766], [121.34712352471732, 32.41858163636211], [121.34676419860368, 32.41858163636211], [121.34676419860368, 32.41840197330529], [121.34694386166049, 32.41840197330529], [121.34694386166049, 32.41822231024847], [121.34730318777414, 32.41822231024847], [121.34730318777414, 32.41804264719164], [121.34784217694461, 32.41804264719164], [121.34784217694461, 32.41786298413482], [121.34856082917192, 32.41786298413482], [121.34856082917192, 32.417683321077995], [121.34892015528555, 32.417683321077995], [121.34892015528555, 32.41714433190752], [121.34874049222874, 32.41714433190752], [121.34874049222874, 32.4169646688507], [121.3499981336265, 32.4169646688507], [121.3499981336265, 32.41714433190752], [121.35017779668333, 32.41714433190752], [121.35017779668333, 32.41732399496435], [121.35035745974015, 32.41732399496435], [121.35035745974015, 32.417503658021175], [121.35053712279698, 32.417503658021175], [121.35053712279698, 32.41786298413482], [121.3507167858538, 32.41786298413482], [121.3507167858538, 32.41804264719164], [121.35053712279698, 32.41804264719164], [121.35053712279698, 32.41840197330529], [121.3507167858538, 32.41840197330529], [121.3507167858538, 32.41876129941894], [121.35089644891062, 32.41876129941894], [121.35089644891062, 32.418940962475766], [121.35107611196744, 32.418940962475766], [121.35107611196744, 32.419120625532585], [121.35125577502427, 32.419120625532585], [121.35125577502427, 32.4200189408167], [121.3514354380811, 32.4200189408167], [121.3514354380811, 32.42019860387353], [121.35161510113792, 32.42019860387353], [121.35161510113792, 32.4200189408167], [121.35179476419474, 32.4200189408167], [121.35179476419474, 32.420378266930356], [121.35161510113792, 32.420378266930356], [121.35161510113792, 32.420737593044], [121.35107611196744, 32.420737593044], [121.35107611196744, 32.42091725610083], [121.3507167858538, 32.42091725610083], [121.3507167858538, 32.42109691915765], [121.35053712279698, 32.42109691915765], [121.35053712279698, 32.421276582214475], [121.35017779668333, 32.421276582214475], [121.35017779668333, 32.42109691915765], [121.3499981336265, 32.42109691915765], [121.3499981336265, 32.42091725610083], [121.34981847056967, 32.42091725610083], [121.34981847056967, 32.421276582214475], [121.34963880751286, 32.421276582214475], [121.34963880751286, 32.4214562452713], [121.34945914445603, 32.4214562452713], [121.34945914445603, 32.42163590832812], [121.34874049222874, 32.42163590832812], [121.34874049222874, 32.42181557138495], [121.34856082917192, 32.42181557138495], [121.34856082917192, 32.421995234441766], [121.34838116611509, 32.421995234441766], [121.34838116611509, 32.42217489749859], [121.34784217694461, 32.42217489749859], [121.34784217694461, 32.42235456055542], [121.3476625138878, 32.42235456055542], [121.3476625138878, 32.42253422361224], [121.34730318777414, 32.42253422361224], [121.34730318777414, 32.42235456055542], [121.34712352471732, 32.42235456055542], [121.34712352471732, 32.42289354972589], [121.34694386166049, 32.42289354972589], [121.34694386166049, 32.42307321278271], [121.34676419860368, 32.42307321278271], [121.34676419860368, 32.42253422361224], [121.34658453554685, 32.42253422361224], [121.34658453554685, 32.42235456055542], [121.34640487249003, 32.42235456055542], [121.34640487249003, 32.42307321278271], [121.3462252094332, 32.42307321278271], [121.3462252094332, 32.42325287583954], [121.34586588331955, 32.42325287583954]], [[121.34784217694461, 32.41876129941894], [121.34748285083097, 32.41876129941894], [121.34748285083097, 32.41858163636211], [121.3476625138878, 32.41858163636211], [121.3476625138878, 32.41840197330529], [121.34784217694461, 32.41840197330529], [121.34784217694461, 32.41822231024847], [121.34802184000144, 32.41822231024847], [121.34802184000144, 32.41840197330529], [121.34820150305826, 32.41840197330529], [121.34820150305826, 32.41858163636211], [121.34784217694461, 32.41858163636211], [121.34784217694461, 32.41876129941894]], [[121.35017779668333, 32.418940962475766], [121.3499981336265, 32.418940962475766], [121.3499981336265, 32.41876129941894], [121.35017779668333, 32.41876129941894], [121.35017779668333, 32.418940962475766]], [[121.34496756803543, 32.4200189408167], [121.34460824192179, 32.4200189408167], [121.34460824192179, 32.419839277759884], [121.34496756803543, 32.419839277759884], [121.34496756803543, 32.4200189408167]], [[121.35089644891062, 32.4200189408167], [121.35035745974015, 32.4200189408167], [121.35035745974015, 32.419839277759884], [121.35053712279698, 32.419839277759884], [121.35053712279698, 32.41965961470306], [121.3507167858538, 32.41965961470306], [121.3507167858538, 32.419839277759884], [121.35089644891062, 32.419839277759884], [121.35089644891062, 32.4200189408167]], [[121.34460824192179, 32.42019860387353], [121.34442857886496, 32.42019860387353], [121.34442857886496, 32.4200189408167], [121.34460824192179, 32.4200189408167], [121.34460824192179, 32.42019860387353]], [[121.34945914445603, 32.420378266930356], [121.34927948139921, 32.420378266930356], [121.34927948139921, 32.42019860387353], [121.34945914445603, 32.42019860387353], [121.34945914445603, 32.420378266930356]], [[121.34963880751286, 32.420557929987176], [121.34945914445603, 32.420557929987176], [121.34945914445603, 32.420378266930356], [121.34963880751286, 32.420378266930356], [121.34963880751286, 32.420557929987176]], [[121.34981847056967, 32.42091725610083], [121.34963880751286, 32.42091725610083], [121.34963880751286, 32.420737593044], [121.34981847056967, 32.420737593044], [121.34981847056967, 32.42091725610083]], [[121.34568622026273, 32.42181557138495], [121.34550655720591, 32.42181557138495], [121.34550655720591, 32.42163590832812], [121.34532689414908, 32.42163590832812], [121.34532689414908, 32.421276582214475], [121.34514723109226, 32.421276582214475], [121.34514723109226, 32.42109691915765], [121.34496756803543, 32.42109691915765], [121.34496756803543, 32.42091725610083], [121.34478790497862, 32.42091725610083], [121.34478790497862, 32.420557929987176], [121.34514723109226, 32.420557929987176], [121.34514723109226, 32.420737593044], [121.34532689414908, 32.420737593044], [121.34532689414908, 32.42091725610083], [121.34550655720591, 32.42091725610083], [121.34550655720591, 32.42109691915765], [121.34568622026273, 32.42109691915765], [121.34568622026273, 32.42181557138495]], [[121.34604554637637, 32.42217489749859], [121.34568622026273, 32.42217489749859], [121.34568622026273, 32.421995234441766], [121.34604554637637, 32.421995234441766], [121.34604554637637, 32.42217489749859]], [[121.34694386166049, 32.42217489749859], [121.34676419860368, 32.42217489749859], [121.34676419860368, 32.421995234441766], [121.34658453554685, 32.421995234441766], [121.34658453554685, 32.42181557138495], [121.34640487249003, 32.42181557138495], [121.34640487249003, 32.4214562452713], [121.3462252094332, 32.4214562452713], [121.3462252094332, 32.421276582214475], [121.34604554637637, 32.421276582214475], [121.34604554637637, 32.42109691915765], [121.34586588331955, 32.42109691915765], [121.34586588331955, 32.42091725610083], [121.34568622026273, 32.42091725610083], [121.34568622026273, 32.420557929987176], [121.34550655720591, 32.420557929987176], [121.34550655720591, 32.42019860387353], [121.34604554637637, 32.42019860387353], [121.34604554637637, 32.420378266930356], [121.3462252094332, 32.420378266930356], [121.3462252094332, 32.42091725610083], [121.34640487249003, 32.42091725610083], [121.34640487249003, 32.42109691915765], [121.34658453554685, 32.42109691915765], [121.34658453554685, 32.421276582214475], [121.34694386166049, 32.421276582214475], [121.34694386166049, 32.4214562452713], [121.34730318777414, 32.4214562452713], [121.34730318777414, 32.42181557138495], [121.34712352471732, 32.42181557138495], [121.34712352471732, 32.421995234441766], [121.34694386166049, 32.421995234441766], [121.34694386166049, 32.42217489749859]], [[121.34676419860368, 32.42235456055542], [121.34658453554685, 32.42235456055542], [121.34658453554685, 32.42217489749859], [121.34676419860368, 32.42217489749859], [121.34676419860368, 32.42235456055542]]]}, "properties": {"name": "cand01", "ptype": "hall", "confidence": "low", "rank": 1, "area_ha": 29.5, "rise_db": 9.8, "digitised_from": "Sentinel-1 VV rise 2022->2026, orbit 171"}}, {"type": "Feature", "geometry": {"geodesic": false, "type": "Polygon", "coordinates": [[[121.34909981834238, 32.42810377837378], [121.34909981834238, 32.427924115316955], [121.34892015528555, 32.427924115316955], [121.34892015528555, 32.42738512614649], [121.34874049222874, 32.42738512614649], [121.34874049222874, 32.42720546308966], [121.34856082917192, 32.42720546308966], [121.34856082917192, 32.42702580003284], [121.34838116611509, 32.42702580003284], [121.34838116611509, 32.42666647391919], [121.34820150305826, 32.42666647391919], [121.34820150305826, 32.426486810862365], [121.34802184000144, 32.426486810862365], [121.34802184000144, 32.42612748474872], [121.34784217694461, 32.42612748474872], [121.34784217694461, 32.42594782169189], [121.3476625138878, 32.42594782169189], [121.3476625138878, 32.42576815863507], [121.34748285083097, 32.42576815863507], [121.34748285083097, 32.42540883252143], [121.34730318777414, 32.42540883252143], [121.34730318777414, 32.425049506407774], [121.34712352471732, 32.425049506407774], [121.34712352471732, 32.42469018029413], [121.34694386166049, 32.42469018029413], [121.34694386166049, 32.4245105172373], [121.34730318777414, 32.4245105172373], [121.34730318777414, 32.42433085418048], [121.34748285083097, 32.42433085418048], [121.34748285083097, 32.424151191123656], [121.3476625138878, 32.424151191123656], [121.3476625138878, 32.42397152806683], [121.34784217694461, 32.42397152806683], [121.34784217694461, 32.42379186501001], [121.34856082917192, 32.42379186501001], [121.34856082917192, 32.42361220195318], [121.34874049222874, 32.42361220195318], [121.34874049222874, 32.423432538896364], [121.34927948139921, 32.423432538896364], [121.34927948139921, 32.42325287583954], [121.34945914445603, 32.42325287583954], [121.34945914445603, 32.423432538896364], [121.34981847056967, 32.423432538896364], [121.34981847056967, 32.42361220195318], [121.3499981336265, 32.42361220195318], [121.3499981336265, 32.42379186501001], [121.35017779668333, 32.42379186501001], [121.35017779668333, 32.42397152806683], [121.35035745974015, 32.42397152806683], [121.35035745974015, 32.4245105172373], [121.35053712279698, 32.4245105172373], [121.35053712279698, 32.425049506407774], [121.35035745974015, 32.425049506407774], [121.35035745974015, 32.4252291694646], [121.35017779668333, 32.4252291694646], [121.35017779668333, 32.42540883252143], [121.35035745974015, 32.42540883252143], [121.35035745974015, 32.42594782169189], [121.35053712279698, 32.42594782169189], [121.35053712279698, 32.42612748474872], [121.35089644891062, 32.42612748474872], [121.35089644891062, 32.426486810862365], [121.3514354380811, 32.426486810862365], [121.3514354380811, 32.426307147805545], [121.35161510113792, 32.426307147805545], [121.35161510113792, 32.42612748474872], [121.35215409030839, 32.42612748474872], [121.35215409030839, 32.426307147805545], [121.35251341642204, 32.426307147805545], [121.35251341642204, 32.426486810862365], [121.35269307947887, 32.426486810862365], [121.35269307947887, 32.426307147805545], [121.3530524055925, 32.426307147805545], [121.3530524055925, 32.42684613697602], [121.35287274253568, 32.42684613697602], [121.35287274253568, 32.42702580003284], [121.35269307947887, 32.42702580003284], [121.35269307947887, 32.42720546308966], [121.35251341642204, 32.42720546308966], [121.35251341642204, 32.42666647391919], [121.35233375336522, 32.42666647391919], [121.35233375336522, 32.42702580003284], [121.35215409030839, 32.42702580003284], [121.35215409030839, 32.42720546308966], [121.35161510113792, 32.42720546308966], [121.35161510113792, 32.42738512614649], [121.35125577502427, 32.42738512614649], [121.35125577502427, 32.42756478920331], [121.35089644891062, 32.42756478920331], [121.35089644891062, 32.427744452260136], [121.35035745974015, 32.427744452260136], [121.35035745974015, 32.42756478920331], [121.35017779668333, 32.42756478920331], [121.35017779668333, 32.42738512614649], [121.3499981336265, 32.42738512614649], [121.3499981336265, 32.42720546308966], [121.34981847056967, 32.42720546308966], [121.34981847056967, 32.42756478920331], [121.3499981336265, 32.42756478920331], [121.3499981336265, 32.427924115316955], [121.34981847056967, 32.427924115316955], [121.34981847056967, 32.42810377837378], [121.34909981834238, 32.42810377837378]], [[121.34909981834238, 32.4245105172373], [121.34874049222874, 32.4245105172373], [121.34874049222874, 32.42433085418048], [121.34909981834238, 32.42433085418048], [121.34909981834238, 32.4245105172373]], [[121.34927948139921, 32.425588495578246], [121.34909981834238, 32.425588495578246], [121.34909981834238, 32.42540883252143], [121.34927948139921, 32.42540883252143], [121.34927948139921, 32.425588495578246]], [[121.34945914445603, 32.42576815863507], [121.34927948139921, 32.42576815863507], [121.34927948139921, 32.425588495578246], [121.34945914445603, 32.425588495578246], [121.34945914445603, 32.42576815863507]], [[121.35053712279698, 32.42684613697602], [121.3499981336265, 32.42684613697602], [121.3499981336265, 32.42666647391919], [121.34981847056967, 32.42666647391919], [121.34981847056967, 32.426307147805545], [121.34963880751286, 32.426307147805545], [121.34963880751286, 32.425588495578246], [121.3499981336265, 32.425588495578246], [121.3499981336265, 32.42612748474872], [121.35017779668333, 32.42612748474872], [121.35017779668333, 32.42594782169189], [121.35035745974015, 32.42594782169189], [121.35035745974015, 32.426307147805545], [121.35053712279698, 32.426307147805545], [121.35053712279698, 32.42684613697602]], [[121.35053712279698, 32.42756478920331], [121.35035745974015, 32.42756478920331], [121.35035745974015, 32.42738512614649], [121.35053712279698, 32.42738512614649], [121.35053712279698, 32.42756478920331]]]}, "properties": {"name": "cand02", "ptype": "hall", "confidence": "low", "rank": 2, "area_ha": 15.5, "rise_db": 9.4, "digitised_from": "Sentinel-1 VV rise 2022->2026, orbit 171"}}, {"type": "Feature", "geometry": {"geodesic": false, "type": "Polygon", "coordinates": [[[121.35754398201311, 32.431337713396616], [121.35754398201311, 32.43097838728296], [121.35736431895629, 32.43097838728296], [121.35736431895629, 32.43115805033979], [121.35700499284263, 32.43115805033979], [121.35700499284263, 32.431337713396616], [121.35610667755851, 32.431337713396616], [121.35610667755851, 32.43115805033979], [121.35592701450169, 32.43115805033979], [121.35592701450169, 32.43061906116932], [121.35556768838805, 32.43061906116932], [121.35556768838805, 32.430080071998844], [121.35538802533122, 32.430080071998844], [121.35538802533122, 32.4297207458852], [121.3552083622744, 32.4297207458852], [121.3552083622744, 32.42954108282837], [121.35502869921757, 32.42954108282837], [121.35502869921757, 32.42936141977155], [121.35484903616074, 32.42936141977155], [121.35484903616074, 32.429181756714726], [121.35466937310393, 32.429181756714726], [121.35466937310393, 32.428642767544254], [121.3544897100471, 32.428642767544254], [121.3544897100471, 32.42882243060108], [121.35431004699028, 32.42882243060108], [121.35431004699028, 32.428642767544254], [121.35413038393345, 32.428642767544254], [121.35413038393345, 32.42828344143061], [121.35395072087663, 32.42828344143061], [121.35395072087663, 32.427924115316955], [121.3537710578198, 32.427924115316955], [121.3537710578198, 32.427744452260136], [121.35359139476299, 32.427744452260136], [121.35359139476299, 32.42720546308966], [121.3537710578198, 32.42720546308966], [121.3537710578198, 32.42702580003284], [121.35395072087663, 32.42702580003284], [121.35395072087663, 32.42684613697602], [121.35413038393345, 32.42684613697602], [121.35413038393345, 32.42666647391919], [121.35484903616074, 32.42666647391919], [121.35484903616074, 32.42684613697602], [121.3552083622744, 32.42684613697602], [121.3552083622744, 32.42666647391919], [121.35538802533122, 32.42666647391919], [121.35538802533122, 32.42684613697602], [121.35556768838805, 32.42684613697602], [121.35556768838805, 32.42720546308966], [121.35538802533122, 32.42720546308966], [121.35538802533122, 32.42738512614649], [121.3552083622744, 32.42738512614649], [121.3552083622744, 32.42720546308966], [121.35502869921757, 32.42720546308966], [121.35502869921757, 32.42756478920331], [121.3552083622744, 32.42756478920331], [121.3552083622744, 32.427744452260136], [121.35592701450169, 32.427744452260136], [121.35592701450169, 32.427924115316955], [121.35610667755851, 32.427924115316955], [121.35610667755851, 32.42810377837378], [121.35628634061534, 32.42810377837378], [121.35628634061534, 32.42846310448743], [121.35646600367217, 32.42846310448743], [121.35646600367217, 32.42882243060108], [121.356645666729, 32.42882243060108], [121.356645666729, 32.4290020936579], [121.3568253297858, 32.4290020936579], [121.3568253297858, 32.429181756714726], [121.35700499284263, 32.429181756714726], [121.35700499284263, 32.42936141977155], [121.35718465589946, 32.42936141977155], [121.35718465589946, 32.42954108282837], [121.35736431895629, 32.42954108282837], [121.35736431895629, 32.4297207458852], [121.35772364506992, 32.4297207458852], [121.35772364506992, 32.42954108282837], [121.35790330812675, 32.42954108282837], [121.35790330812675, 32.42936141977155], [121.3582626342404, 32.42936141977155], [121.3582626342404, 32.429181756714726], [121.35844229729723, 32.429181756714726], [121.35844229729723, 32.4290020936579], [121.35916094952452, 32.4290020936579], [121.35916094952452, 32.429181756714726], [121.35934061258135, 32.429181756714726], [121.35934061258135, 32.4290020936579], [121.35987960175181, 32.4290020936579], [121.35987960175181, 32.429181756714726], [121.36005926480864, 32.429181756714726], [121.36005926480864, 32.42990040894202], [121.35934061258135, 32.42990040894202], [121.35934061258135, 32.4297207458852], [121.35916094952452, 32.4297207458852], [121.35916094952452, 32.42954108282837], [121.3589812864677, 32.42954108282837], [121.3589812864677, 32.42936141977155], [121.35862196035406, 32.42936141977155], [121.35862196035406, 32.4297207458852], [121.35880162341087, 32.4297207458852], [121.35880162341087, 32.42990040894202], [121.3589812864677, 32.42990040894202], [121.3589812864677, 32.43025973505567], [121.35862196035406, 32.43025973505567], [121.35862196035406, 32.43061906116932], [121.35916094952452, 32.43061906116932], [121.35916094952452, 32.43097838728296], [121.35808297118358, 32.43097838728296], [121.35808297118358, 32.43115805033979], [121.35772364506992, 32.43115805033979], [121.35772364506992, 32.431337713396616], [121.35754398201311, 32.431337713396616]], [[121.3552083622744, 32.428642767544254], [121.35484903616074, 32.428642767544254], [121.35484903616074, 32.42828344143061], [121.35466937310393, 32.42828344143061], [121.35466937310393, 32.42810377837378], [121.3544897100471, 32.42810377837378], [121.3544897100471, 32.427924115316955], [121.35502869921757, 32.427924115316955], [121.35502869921757, 32.42846310448743], [121.3552083622744, 32.42846310448743], [121.3552083622744, 32.428642767544254]], [[121.35574735144486, 32.429181756714726], [121.35556768838805, 32.429181756714726], [121.35556768838805, 32.4290020936579], [121.35538802533122, 32.4290020936579], [121.35538802533122, 32.42882243060108], [121.35556768838805, 32.42882243060108], [121.35556768838805, 32.42828344143061], [121.35538802533122, 32.42828344143061], [121.35538802533122, 32.42810377837378], [121.3552083622744, 32.42810377837378], [121.3552083622744, 32.427924115316955], [121.35556768838805, 32.427924115316955], [121.35556768838805, 32.42810377837378], [121.35574735144486, 32.42810377837378], [121.35574735144486, 32.42846310448743], [121.35592701450169, 32.42846310448743], [121.35592701450169, 32.42882243060108], [121.35574735144486, 32.42882243060108], [121.35574735144486, 32.429181756714726]], [[121.356645666729, 32.430080071998844], [121.35646600367217, 32.430080071998844], [121.35646600367217, 32.4297207458852], [121.356645666729, 32.4297207458852], [121.356645666729, 32.430080071998844]], [[121.35628634061534, 32.43025973505567], [121.35592701450169, 32.43025973505567], [121.35592701450169, 32.4297207458852], [121.35538802533122, 32.4297207458852], [121.35538802533122, 32.42954108282837], [121.35574735144486, 32.42954108282837], [121.35574735144486, 32.42936141977155], [121.35610667755851, 32.42936141977155], [121.35610667755851, 32.429181756714726], [121.35592701450169, 32.429181756714726], [121.35592701450169, 32.4290020936579], [121.35628634061534, 32.4290020936579], [121.35628634061534, 32.42936141977155], [121.35646600367217, 32.42936141977155], [121.35646600367217, 32.4297207458852], [121.35628634061534, 32.4297207458852], [121.35628634061534, 32.42954108282837], [121.35610667755851, 32.42954108282837], [121.35610667755851, 32.4297207458852], [121.35628634061534, 32.4297207458852], [121.35628634061534, 32.43025973505567]], [[121.35754398201311, 32.43043939811249], [121.35736431895629, 32.43043939811249], [121.35736431895629, 32.42990040894202], [121.35754398201311, 32.42990040894202], [121.35754398201311, 32.430080071998844], [121.35772364506992, 32.430080071998844], [121.35772364506992, 32.43025973505567], [121.35754398201311, 32.43025973505567], [121.35754398201311, 32.43043939811249]], [[121.35646600367217, 32.43079872422614], [121.35628634061534, 32.43079872422614], [121.35628634061534, 32.43043939811249], [121.35646600367217, 32.43043939811249], [121.35646600367217, 32.43079872422614]]]}, "properties": {"name": "cand03", "ptype": "hall", "confidence": "low", "rank": 3, "area_ha": 12.9, "rise_db": 9.6, "digitised_from": "Sentinel-1 VV rise 2022->2026, orbit 171"}}, {"type": "Feature", "geometry": {"geodesic": false, "type": "Polygon", "coordinates": [[[121.35987960175181, 32.4011543198502], [121.35987960175181, 32.40097465679337], [121.35969993869499, 32.40097465679337], [121.35969993869499, 32.400256004566074], [121.35987960175181, 32.400256004566074], [121.35987960175181, 32.399357689281956], [121.35969993869499, 32.399357689281956], [121.35969993869499, 32.398639037054664], [121.35987960175181, 32.398639037054664], [121.35987960175181, 32.39684240648642], [121.36005926480864, 32.39684240648642], [121.36005926480864, 32.3966627434296], [121.36023892786547, 32.3966627434296], [121.36023892786547, 32.39630341731595], [121.36077791703593, 32.39630341731595], [121.36077791703593, 32.396483080372775], [121.36095758009276, 32.396483080372775], [121.36095758009276, 32.39630341731595], [121.36113724314959, 32.39630341731595], [121.36113724314959, 32.39612375425913], [121.36131690620641, 32.39612375425913], [121.36131690620641, 32.39630341731595], [121.3620355584337, 32.39630341731595], [121.3620355584337, 32.396483080372775], [121.36185589537688, 32.396483080372775], [121.36185589537688, 32.39702206954325], [121.3620355584337, 32.39702206954325], [121.3620355584337, 32.39756105871372], [121.36185589537688, 32.39756105871372], [121.36185589537688, 32.39774072177054], [121.36149656926324, 32.39774072177054], [121.36149656926324, 32.39702206954325], [121.36113724314959, 32.39702206954325], [121.36113724314959, 32.397201732600074], [121.36095758009276, 32.397201732600074], [121.36095758009276, 32.39738139565689], [121.36113724314959, 32.39738139565689], [121.36113724314959, 32.39756105871372], [121.36077791703593, 32.39756105871372], [121.36077791703593, 32.39738139565689], [121.36059825397912, 32.39738139565689], [121.36059825397912, 32.39756105871372], [121.3604185909223, 32.39756105871372], [121.3604185909223, 32.39810004788419], [121.36095758009276, 32.39810004788419], [121.36095758009276, 32.39827971094101], [121.36113724314959, 32.39827971094101], [121.36113724314959, 32.39899836316831], [121.36095758009276, 32.39899836316831], [121.36095758009276, 32.399357689281956], [121.36113724314959, 32.399357689281956], [121.36113724314959, 32.3997170153956], [121.36095758009276, 32.3997170153956], [121.36095758009276, 32.400256004566074], [121.36077791703593, 32.400256004566074], [121.36077791703593, 32.4004356676229], [121.36059825397912, 32.4004356676229], [121.36059825397912, 32.40079499373655], [121.3604185909223, 32.40079499373655], [121.3604185909223, 32.40097465679337], [121.36023892786547, 32.40097465679337], [121.36023892786547, 32.4011543198502], [121.35987960175181, 32.4011543198502]], [[121.36077791703593, 32.39702206954325], [121.3604185909223, 32.39702206954325], [121.3604185909223, 32.3966627434296], [121.36059825397912, 32.3966627434296], [121.36059825397912, 32.396483080372775], [121.36077791703593, 32.396483080372775], [121.36077791703593, 32.39702206954325]], [[121.36059825397912, 32.39899836316831], [121.36023892786547, 32.39899836316831], [121.36023892786547, 32.398818700111484], [121.3604185909223, 32.398818700111484], [121.3604185909223, 32.398639037054664], [121.36059825397912, 32.398639037054664], [121.36059825397912, 32.39899836316831]], [[121.36059825397912, 32.400076341509255], [121.3604185909223, 32.400076341509255], [121.3604185909223, 32.39989667845243], [121.36059825397912, 32.39989667845243], [121.36059825397912, 32.400076341509255]]]}, "properties": {"name": "cand04", "ptype": "hall", "confidence": "low", "rank": 4, "area_ha": 7.0, "rise_db": 5.1, "digitised_from": "Sentinel-1 VV rise 2022->2026, orbit 171"}}, {"type": "Feature", "geometry": {"geodesic": false, "type": "Polygon", "coordinates": [[[121.36293387371782, 32.42540883252143], [121.36293387371782, 32.425049506407774], [121.362754210661, 32.425049506407774], [121.362754210661, 32.424869843350955], [121.36257454760418, 32.424869843350955], [121.36257454760418, 32.42469018029413], [121.36239488454736, 32.42469018029413], [121.36239488454736, 32.42433085418048], [121.3620355584337, 32.42433085418048], [121.3620355584337, 32.425049506407774], [121.36149656926324, 32.425049506407774], [121.36149656926324, 32.42469018029413], [121.36131690620641, 32.42469018029413], [121.36131690620641, 32.4245105172373], [121.36113724314959, 32.4245105172373], [121.36113724314959, 32.42469018029413], [121.36077791703593, 32.42469018029413], [121.36077791703593, 32.4245105172373], [121.3604185909223, 32.4245105172373], [121.3604185909223, 32.42469018029413], [121.36059825397912, 32.42469018029413], [121.36059825397912, 32.424869843350955], [121.3604185909223, 32.424869843350955], [121.3604185909223, 32.42469018029413], [121.36023892786547, 32.42469018029413], [121.36023892786547, 32.42433085418048], [121.36005926480864, 32.42433085418048], [121.36005926480864, 32.42397152806683], [121.35952027563818, 32.42397152806683], [121.35952027563818, 32.42379186501001], [121.35987960175181, 32.42379186501001], [121.35987960175181, 32.42361220195318], [121.36023892786547, 32.42361220195318], [121.36023892786547, 32.423432538896364], [121.36095758009276, 32.423432538896364], [121.36095758009276, 32.42361220195318], [121.36113724314959, 32.42361220195318], [121.36113724314959, 32.423432538896364], [121.36149656926324, 32.423432538896364], [121.36149656926324, 32.42325287583954], [121.36167623232005, 32.42325287583954], [121.36167623232005, 32.42307321278271], [121.36185589537688, 32.42307321278271], [121.36185589537688, 32.42289354972589], [121.36239488454736, 32.42289354972589], [121.36239488454736, 32.42325287583954], [121.36257454760418, 32.42325287583954], [121.36257454760418, 32.423432538896364], [121.362754210661, 32.423432538896364], [121.362754210661, 32.42361220195318], [121.36293387371782, 32.42361220195318], [121.36293387371782, 32.42379186501001], [121.362754210661, 32.42379186501001], [121.362754210661, 32.42397152806683], [121.36293387371782, 32.42397152806683], [121.36293387371782, 32.424151191123656], [121.36311353677465, 32.424151191123656], [121.36311353677465, 32.4245105172373], [121.36329319983147, 32.4245105172373], [121.36329319983147, 32.42469018029413], [121.36311353677465, 32.42469018029413], [121.36311353677465, 32.42540883252143], [121.36293387371782, 32.42540883252143]], [[121.36185589537688, 32.42397152806683], [121.36149656926324, 32.42397152806683], [121.36149656926324, 32.42379186501001], [121.36185589537688, 32.42379186501001], [121.36185589537688, 32.42397152806683]]]}, "properties": {"name": "cand05", "ptype": "hall", "confidence": "low", "rank": 5, "area_ha": 5.3, "rise_db": 11.4, "digitised_from": "Sentinel-1 VV rise 2022->2026, orbit 171"}}, {"type": "Feature", "geometry": {"geodesic": false, "type": "Polygon", "coordinates": [[[121.36455084122925, 32.431337713396616], [121.36455084122925, 32.43097838728296], [121.36473050428606, 32.43097838728296], [121.36473050428606, 32.43061906116932], [121.36455084122925, 32.43061906116932], [121.36455084122925, 32.43025973505567], [121.36508983039971, 32.43025973505567], [121.36508983039971, 32.43043939811249], [121.36544915651336, 32.43043939811249], [121.36544915651336, 32.43025973505567], [121.365808482627, 32.43025973505567], [121.365808482627, 32.42990040894202], [121.36562881957018, 32.42990040894202], [121.36562881957018, 32.4297207458852], [121.36634747179748, 32.4297207458852], [121.36634747179748, 32.42954108282837], [121.36670679791112, 32.42954108282837], [121.36670679791112, 32.42936141977155], [121.36742545013843, 32.42936141977155], [121.36742545013843, 32.429181756714726], [121.36760511319524, 32.429181756714726], [121.36760511319524, 32.4290020936579], [121.36850342847937, 32.4290020936579], [121.36850342847937, 32.428642767544254], [121.36868309153618, 32.428642767544254], [121.36868309153618, 32.42846310448743], [121.36904241764984, 32.42846310448743], [121.36904241764984, 32.4290020936579], [121.36886275459301, 32.4290020936579], [121.36886275459301, 32.42936141977155], [121.36796443930889, 32.42936141977155], [121.36796443930889, 32.42954108282837], [121.36814410236572, 32.42954108282837], [121.36814410236572, 32.4297207458852], [121.36796443930889, 32.4297207458852], [121.36796443930889, 32.42990040894202], [121.36778477625207, 32.42990040894202], [121.36778477625207, 32.430080071998844], [121.36670679791112, 32.430080071998844], [121.36670679791112, 32.42990040894202], [121.36634747179748, 32.42990040894202], [121.36634747179748, 32.430080071998844], [121.36616780874066, 32.430080071998844], [121.36616780874066, 32.43043939811249], [121.36634747179748, 32.43043939811249], [121.36634747179748, 32.43061906116932], [121.36616780874066, 32.43061906116932], [121.36616780874066, 32.43079872422614], [121.36562881957018, 32.43079872422614], [121.36562881957018, 32.43097838728296], [121.36544915651336, 32.43097838728296], [121.36544915651336, 32.43115805033979], [121.36491016734288, 32.43115805033979], [121.36491016734288, 32.43097838728296], [121.36473050428606, 32.43097838728296], [121.36473050428606, 32.431337713396616], [121.36455084122925, 32.431337713396616]]]}, "properties": {"name": "cand06", "ptype": "hall", "confidence": "low", "rank": 6, "area_ha": 4.0, "rise_db": 11.9, "digitised_from": "Sentinel-1 VV rise 2022->2026, orbit 171"}}, {"type": "Feature", "geometry": {"geodesic": false, "type": "Polygon", "coordinates": [[[121.32340800121656, 32.434391985362616], [121.32340800121656, 32.433852996192144], [121.32250968593245, 32.433852996192144], [121.32250968593245, 32.433673333135324], [121.32233002287562, 32.433673333135324], [121.32233002287562, 32.4334936700785], [121.32215035981879, 32.4334936700785], [121.32215035981879, 32.432775017851206], [121.32197069676198, 32.432775017851206], [121.32197069676198, 32.43259535479438], [121.32179103370515, 32.43259535479438], [121.32179103370515, 32.43205636562391], [121.32197069676198, 32.43205636562391], [121.32197069676198, 32.432236028680734], [121.32233002287562, 32.432236028680734], [121.32233002287562, 32.43169703951026], [121.32340800121656, 32.43169703951026], [121.32340800121656, 32.43205636562391], [121.32322833815974, 32.43205636562391], [121.32322833815974, 32.43241569173755], [121.32340800121656, 32.43241569173755], [121.32340800121656, 32.43259535479438], [121.32358766427339, 32.43259535479438], [121.32358766427339, 32.4334936700785], [121.32340800121656, 32.4334936700785], [121.32340800121656, 32.433673333135324], [121.32412665344386, 32.433673333135324], [121.32412665344386, 32.433852996192144], [121.32430631650068, 32.433852996192144], [121.32430631650068, 32.43403265924897], [121.32394699038704, 32.43403265924897], [121.32394699038704, 32.4342123223058], [121.32376732733022, 32.4342123223058], [121.32376732733022, 32.434391985362616], [121.32340800121656, 32.434391985362616]], [[121.3228690120461, 32.43313434396485], [121.32250968593245, 32.43313434396485], [121.32250968593245, 32.432954680908026], [121.3228690120461, 32.432954680908026], [121.3228690120461, 32.43313434396485]]]}, "properties": {"name": "cand07", "ptype": "hall", "confidence": "low", "rank": 7, "area_ha": 4.0, "rise_db": 6.8, "digitised_from": "Sentinel-1 VV rise 2022->2026, orbit 171"}}, {"type": "Feature", "geometry": {"geodesic": false, "type": "Polygon", "coordinates": [[[121.34945914445603, 32.4334936700785], [121.34945914445603, 32.43241569173755], [121.34927948139921, 32.43241569173755], [121.34927948139921, 32.43259535479438], [121.34909981834238, 32.43259535479438], [121.34909981834238, 32.43241569173755], [121.34892015528555, 32.43241569173755], [121.34892015528555, 32.432236028680734], [121.34909981834238, 32.432236028680734], [121.34909981834238, 32.43205636562391], [121.34927948139921, 32.43205636562391], [121.34927948139921, 32.43187670256708], [121.34909981834238, 32.43187670256708], [121.34909981834238, 32.43169703951026], [121.34892015528555, 32.43169703951026], [121.34892015528555, 32.43115805033979], [121.34909981834238, 32.43115805033979], [121.34909981834238, 32.43097838728296], [121.34981847056967, 32.43097838728296], [121.34981847056967, 32.43115805033979], [121.3499981336265, 32.43115805033979], [121.3499981336265, 32.431337713396616], [121.35017779668333, 32.431337713396616], [121.35017779668333, 32.431517376453435], [121.35035745974015, 32.431517376453435], [121.35035745974015, 32.43187670256708], [121.35017779668333, 32.43187670256708], [121.35017779668333, 32.43205636562391], [121.35053712279698, 32.43205636562391], [121.35053712279698, 32.43241569173755], [121.35035745974015, 32.43241569173755], [121.35035745974015, 32.43259535479438], [121.35017779668333, 32.43259535479438], [121.35017779668333, 32.432775017851206], [121.35035745974015, 32.432775017851206], [121.35035745974015, 32.43313434396485], [121.3499981336265, 32.43313434396485], [121.3499981336265, 32.43331400702168], [121.34981847056967, 32.43331400702168], [121.34981847056967, 32.4334936700785], [121.34945914445603, 32.4334936700785]], [[121.35017779668333, 32.43259535479438], [121.3499981336265, 32.43259535479438], [121.3499981336265, 32.43241569173755], [121.35017779668333, 32.43241569173755], [121.35017779668333, 32.43259535479438]]]}, "properties": {"name": "cand08", "ptype": "hall", "confidence": "low", "rank": 8, "area_ha": 3.1, "rise_db": 10.0, "digitised_from": "Sentinel-1 VV rise 2022->2026, orbit 171"}}, {"type": "Feature", "geometry": {"geodesic": false, "type": "Polygon", "coordinates": [[[121.32430631650068, 32.402950950418436], [121.32430631650068, 32.401513645963846], [121.32448597955751, 32.401513645963846], [121.32448597955751, 32.40061533067973], [121.3252046317848, 32.40061533067973], [121.3252046317848, 32.4004356676229], [121.32538429484163, 32.4004356676229], [121.32538429484163, 32.40061533067973], [121.32556395789845, 32.40061533067973], [121.32556395789845, 32.40097465679337], [121.3259232840121, 32.40097465679337], [121.3259232840121, 32.40079499373655], [121.32610294706892, 32.40079499373655], [121.32610294706892, 32.4011543198502], [121.32574362095528, 32.4011543198502], [121.32574362095528, 32.401513645963846], [121.32538429484163, 32.401513645963846], [121.32538429484163, 32.401693309020665], [121.3252046317848, 32.401693309020665], [121.3252046317848, 32.40187297207749], [121.32538429484163, 32.40187297207749], [121.32538429484163, 32.402411961247964], [121.3252046317848, 32.402411961247964], [121.3252046317848, 32.40259162430479], [121.32466564261433, 32.40259162430479], [121.32466564261433, 32.402950950418436], [121.32430631650068, 32.402950950418436]]]}, "properties": {"name": "cand09", "ptype": "hall", "confidence": "low", "rank": 9, "area_ha": 3.0, "rise_db": 6.0, "digitised_from": "Sentinel-1 VV rise 2022->2026, orbit 171"}}, {"type": "Feature", "geometry": {"geodesic": false, "type": "Polygon", "coordinates": [[[121.35808297118358, 32.42433085418048], [121.35808297118358, 32.424151191123656], [121.35790330812675, 32.424151191123656], [121.35790330812675, 32.42397152806683], [121.35772364506992, 32.42397152806683], [121.35772364506992, 32.42379186501001], [121.35754398201311, 32.42379186501001], [121.35754398201311, 32.42361220195318], [121.35736431895629, 32.42361220195318], [121.35736431895629, 32.42325287583954], [121.35700499284263, 32.42325287583954], [121.35700499284263, 32.42289354972589], [121.35718465589946, 32.42289354972589], [121.35718465589946, 32.422713886669065], [121.35736431895629, 32.422713886669065], [121.35736431895629, 32.42289354972589], [121.35754398201311, 32.42289354972589], [121.35754398201311, 32.422713886669065], [121.35790330812675, 32.422713886669065], [121.35790330812675, 32.42217489749859], [121.35844229729723, 32.42217489749859], [121.35844229729723, 32.42289354972589], [121.35862196035406, 32.42289354972589], [121.35862196035406, 32.42307321278271], [121.35844229729723, 32.42307321278271], [121.35844229729723, 32.42325287583954], [121.35790330812675, 32.42325287583954], [121.35790330812675, 32.42379186501001], [121.3582626342404, 32.42379186501001], [121.3582626342404, 32.42361220195318], [121.35862196035406, 32.42361220195318], [121.35862196035406, 32.423432538896364], [121.35880162341087, 32.423432538896364], [121.35880162341087, 32.42325287583954], [121.3589812864677, 32.42325287583954], [121.3589812864677, 32.423432538896364], [121.35916094952452, 32.423432538896364], [121.35916094952452, 32.42379186501001], [121.35880162341087, 32.42379186501001], [121.35880162341087, 32.42397152806683], [121.3582626342404, 32.42397152806683], [121.3582626342404, 32.42433085418048], [121.35808297118358, 32.42433085418048]], [[121.35808297118358, 32.42289354972589], [121.35790330812675, 32.42289354972589], [121.35790330812675, 32.422713886669065], [121.35808297118358, 32.422713886669065], [121.35808297118358, 32.42289354972589]]]}, "properties": {"name": "cand10", "ptype": "hall", "confidence": "low", "rank": 10, "area_ha": 2.3, "rise_db": 8.1, "digitised_from": "Sentinel-1 VV rise 2022->2026, orbit 171"}}, {"type": "Feature", "geometry": {"geodesic": false, "type": "Polygon", "coordinates": [[[121.33239115405776, 32.41085612491869], [121.33239115405776, 32.41013747269139], [121.33221149100093, 32.41013747269139], [121.33221149100093, 32.40995780963457], [121.3318521648873, 32.40995780963457], [121.3318521648873, 32.40959848352092], [121.33167250183047, 32.40959848352092], [121.33167250183047, 32.40923915740727], [121.33149283877364, 32.40923915740727], [121.33149283877364, 32.40834084212315], [121.33221149100093, 32.40834084212315], [121.33221149100093, 32.40852050517998], [121.33239115405776, 32.40852050517998], [121.33239115405776, 32.408879831293625], [121.33221149100093, 32.408879831293625], [121.33221149100093, 32.40923915740727], [121.3320318279441, 32.40923915740727], [121.3320318279441, 32.4094188204641], [121.33221149100093, 32.4094188204641], [121.33221149100093, 32.40959848352092], [121.33239115405776, 32.40959848352092], [121.33239115405776, 32.4094188204641], [121.33275048017141, 32.4094188204641], [121.33275048017141, 32.41085612491869], [121.33239115405776, 32.41085612491869]]]}, "properties": {"name": "cand11", "ptype": "hall", "confidence": "low", "rank": 11, "area_ha": 2.0, "rise_db": 4.9, "digitised_from": "Sentinel-1 VV rise 2022->2026, orbit 171"}}, {"type": "Feature", "geometry": {"geodesic": false, "type": "Polygon", "coordinates": [[[121.34676419860368, 32.41570702745293], [121.34676419860368, 32.415527364396105], [121.34658453554685, 32.415527364396105], [121.34658453554685, 32.41498837522564], [121.34676419860368, 32.41498837522564], [121.34676419860368, 32.41516803828246], [121.34748285083097, 32.41516803828246], [121.34748285083097, 32.41498837522564], [121.3476625138878, 32.41498837522564], [121.3476625138878, 32.41480871216881], [121.34784217694461, 32.41480871216881], [121.34784217694461, 32.41426972299834], [121.34820150305826, 32.41426972299834], [121.34820150305826, 32.41444938605517], [121.34838116611509, 32.41444938605517], [121.34838116611509, 32.41462904911199], [121.34856082917192, 32.41462904911199], [121.34856082917192, 32.41480871216881], [121.34874049222874, 32.41480871216881], [121.34874049222874, 32.415347701339286], [121.34838116611509, 32.415347701339286], [121.34838116611509, 32.415527364396105], [121.34748285083097, 32.415527364396105], [121.34748285083097, 32.41570702745293], [121.34676419860368, 32.41570702745293]]]}, "properties": {"name": "cand12", "ptype": "hall", "confidence": "low", "rank": 12, "area_ha": 2.0, "rise_db": 8.5, "digitised_from": "Sentinel-1 VV rise 2022->2026, orbit 171"}}, {"type": "Feature", "geometry": {"geodesic": false, "type": "Polygon", "coordinates": [[[121.36257454760418, 32.43457164841944], [121.36257454760418, 32.434391985362616], [121.36239488454736, 32.434391985362616], [121.36239488454736, 32.4342123223058], [121.36221522149053, 32.4342123223058], [121.36221522149053, 32.43403265924897], [121.3620355584337, 32.43403265924897], [121.3620355584337, 32.433852996192144], [121.36257454760418, 32.433852996192144], [121.36257454760418, 32.43403265924897], [121.36293387371782, 32.43403265924897], [121.36293387371782, 32.433852996192144], [121.36311353677465, 32.433852996192144], [121.36311353677465, 32.43331400702168], [121.36329319983147, 32.43331400702168], [121.36329319983147, 32.43313434396485], [121.3634728628883, 32.43313434396485], [121.3634728628883, 32.432954680908026], [121.36365252594511, 32.432954680908026], [121.36365252594511, 32.43313434396485], [121.36401185205877, 32.43313434396485], [121.36401185205877, 32.43331400702168], [121.36419151511559, 32.43331400702168], [121.36419151511559, 32.43403265924897], [121.36383218900194, 32.43403265924897], [121.36383218900194, 32.433852996192144], [121.36365252594511, 32.433852996192144], [121.36365252594511, 32.43403265924897], [121.36329319983147, 32.43403265924897], [121.36329319983147, 32.4342123223058], [121.36311353677465, 32.4342123223058], [121.36311353677465, 32.434391985362616], [121.36293387371782, 32.434391985362616], [121.36293387371782, 32.43457164841944], [121.36257454760418, 32.43457164841944]]]}, "properties": {"name": "cand13", "ptype": "hall", "confidence": "low", "rank": 13, "area_ha": 1.8, "rise_db": 10.2, "digitised_from": "Sentinel-1 VV rise 2022->2026, orbit 171"}}, {"type": "Feature", "geometry": {"geodesic": false, "type": "Polygon", "coordinates": [[[121.36544915651336, 32.4131917446574], [121.36544915651336, 32.41301208160058], [121.36526949345654, 32.41301208160058], [121.36526949345654, 32.412652755486924], [121.36508983039971, 32.412652755486924], [121.36508983039971, 32.41211376631645], [121.36526949345654, 32.41211376631645], [121.36526949345654, 32.41193410325963], [121.36562881957018, 32.41193410325963], [121.36562881957018, 32.41157477714598], [121.36598814568383, 32.41157477714598], [121.36598814568383, 32.411754440202806], [121.36616780874066, 32.411754440202806], [121.36616780874066, 32.41211376631645], [121.36598814568383, 32.41211376631645], [121.36598814568383, 32.41229342937328], [121.36634747179748, 32.41229342937328], [121.36634747179748, 32.412473092430105], [121.36670679791112, 32.412473092430105], [121.36670679791112, 32.41283241854375], [121.36634747179748, 32.41283241854375], [121.36634747179748, 32.412652755486924], [121.36598814568383, 32.412652755486924], [121.36598814568383, 32.41301208160058], [121.365808482627, 32.41301208160058], [121.365808482627, 32.4131917446574], [121.36544915651336, 32.4131917446574]]]}, "properties": {"name": "cand14", "ptype": "hall", "confidence": "low", "rank": 14, "area_ha": 1.7, "rise_db": 9.6, "digitised_from": "Sentinel-1 VV rise 2022->2026, orbit 171"}}, {"type": "Feature", "geometry": {"geodesic": false, "type": "Polygon", "coordinates": [[[121.32394699038704, 32.418940962475766], [121.32394699038704, 32.41876129941894], [121.32358766427339, 32.41876129941894], [121.32358766427339, 32.418940962475766], [121.32340800121656, 32.418940962475766], [121.32340800121656, 32.41876129941894], [121.32322833815974, 32.41876129941894], [121.32322833815974, 32.41804264719164], [121.32340800121656, 32.41804264719164], [121.32340800121656, 32.417683321077995], [121.32358766427339, 32.417683321077995], [121.32358766427339, 32.41714433190752], [121.32394699038704, 32.41714433190752], [121.32394699038704, 32.41732399496435], [121.32412665344386, 32.41732399496435], [121.32412665344386, 32.41804264719164], [121.32394699038704, 32.41804264719164], [121.32394699038704, 32.41822231024847], [121.32412665344386, 32.41822231024847], [121.32412665344386, 32.41840197330529], [121.32448597955751, 32.41840197330529], [121.32448597955751, 32.418940962475766], [121.32394699038704, 32.418940962475766]]]}, "properties": {"name": "cand15", "ptype": "hall", "confidence": "low", "rank": 15, "area_ha": 1.7, "rise_db": 6.2, "digitised_from": "Sentinel-1 VV rise 2022->2026, orbit 171"}}, {"type": "Feature", "geometry": {"geodesic": false, "type": "Polygon", "coordinates": [[[121.35987960175181, 32.42325287583954], [121.35987960175181, 32.422713886669065], [121.35969993869499, 32.422713886669065], [121.35969993869499, 32.42289354972589], [121.35916094952452, 32.42289354972589], [121.35916094952452, 32.42307321278271], [121.35880162341087, 32.42307321278271], [121.35880162341087, 32.422713886669065], [121.35934061258135, 32.422713886669065], [121.35934061258135, 32.42253422361224], [121.35952027563818, 32.42253422361224], [121.35952027563818, 32.422713886669065], [121.35969993869499, 32.422713886669065], [121.35969993869499, 32.42253422361224], [121.36005926480864, 32.42253422361224], [121.36005926480864, 32.42235456055542], [121.35987960175181, 32.42235456055542], [121.35987960175181, 32.421995234441766], [121.35969993869499, 32.421995234441766], [121.35969993869499, 32.42217489749859], [121.35934061258135, 32.42217489749859], [121.35934061258135, 32.421995234441766], [121.35952027563818, 32.421995234441766], [121.35952027563818, 32.42163590832812], [121.35969993869499, 32.42163590832812], [121.35969993869499, 32.4214562452713], [121.36005926480864, 32.4214562452713], [121.36005926480864, 32.421995234441766], [121.3604185909223, 32.421995234441766], [121.3604185909223, 32.42235456055542], [121.36059825397912, 32.42235456055542], [121.36059825397912, 32.42253422361224], [121.36077791703593, 32.42253422361224], [121.36077791703593, 32.422713886669065], [121.36023892786547, 32.422713886669065], [121.36023892786547, 32.42289354972589], [121.36005926480864, 32.42289354972589], [121.36005926480864, 32.42307321278271], [121.36023892786547, 32.42307321278271], [121.36023892786547, 32.42325287583954], [121.35987960175181, 32.42325287583954]]]}, "properties": {"name": "cand16", "ptype": "hall", "confidence": "low", "rank": 16, "area_ha": 1.5, "rise_db": 5.2, "digitised_from": "Sentinel-1 VV rise 2022->2026, orbit 171"}}, {"type": "Feature", "geometry": {"geodesic": false, "type": "Polygon", "coordinates": [[[121.35574735144486, 32.41714433190752], [121.35574735144486, 32.41678500579388], [121.35592701450169, 32.41678500579388], [121.35592701450169, 32.41660534273705], [121.35610667755851, 32.41660534273705], [121.35610667755851, 32.41642567968023], [121.35628634061534, 32.41642567968023], [121.35628634061534, 32.41606635356658], [121.35610667755851, 32.41606635356658], [121.35610667755851, 32.41588669050976], [121.35592701450169, 32.41588669050976], [121.35592701450169, 32.415347701339286], [121.35610667755851, 32.415347701339286], [121.35610667755851, 32.415527364396105], [121.35628634061534, 32.415527364396105], [121.35628634061534, 32.41570702745293], [121.35646600367217, 32.41570702745293], [121.35646600367217, 32.41588669050976], [121.356645666729, 32.41588669050976], [121.356645666729, 32.41606635356658], [121.3568253297858, 32.41606635356658], [121.3568253297858, 32.416246016623404], [121.35700499284263, 32.416246016623404], [121.35700499284263, 32.41660534273705], [121.35718465589946, 32.41660534273705], [121.35718465589946, 32.41678500579388], [121.35700499284263, 32.41678500579388], [121.35700499284263, 32.4169646688507], [121.356645666729, 32.4169646688507], [121.356645666729, 32.41678500579388], [121.35646600367217, 32.41678500579388], [121.35646600367217, 32.4169646688507], [121.35610667755851, 32.4169646688507], [121.35610667755851, 32.41714433190752], [121.35574735144486, 32.41714433190752]]]}, "properties": {"name": "cand17", "ptype": "hall", "confidence": "low", "rank": 17, "area_ha": 1.4, "rise_db": 6.5, "digitised_from": "Sentinel-1 VV rise 2022->2026, orbit 171"}}, {"type": "Feature", "geometry": {"geodesic": false, "type": "Polygon", "coordinates": [[[121.34820150305826, 32.431337713396616], [121.34820150305826, 32.43115805033979], [121.34802184000144, 32.43115805033979], [121.34802184000144, 32.43097838728296], [121.34784217694461, 32.43097838728296], [121.34784217694461, 32.43061906116932], [121.3476625138878, 32.43061906116932], [121.3476625138878, 32.43025973505567], [121.34784217694461, 32.43025973505567], [121.34784217694461, 32.430080071998844], [121.34820150305826, 32.430080071998844], [121.34820150305826, 32.42990040894202], [121.34856082917192, 32.42990040894202], [121.34856082917192, 32.43025973505567], [121.34838116611509, 32.43025973505567], [121.34838116611509, 32.43061906116932], [121.34874049222874, 32.43061906116932], [121.34874049222874, 32.43043939811249], [121.34892015528555, 32.43043939811249], [121.34892015528555, 32.43079872422614], [121.34874049222874, 32.43079872422614], [121.34874049222874, 32.43097838728296], [121.34856082917192, 32.43097838728296], [121.34856082917192, 32.431337713396616], [121.34820150305826, 32.431337713396616]]]}, "properties": {"name": "cand18", "ptype": "hall", "confidence": "low", "rank": 18, "area_ha": 1.2, "rise_db": 8.7, "digitised_from": "Sentinel-1 VV rise 2022->2026, orbit 171"}}, {"type": "Feature", "geometry": {"geodesic": false, "type": "Polygon", "coordinates": [[[121.34532689414908, 32.43169703951026], [121.34532689414908, 32.431517376453435], [121.34514723109226, 32.431517376453435], [121.34514723109226, 32.43115805033979], [121.34496756803543, 32.43115805033979], [121.34496756803543, 32.43079872422614], [121.34478790497862, 32.43079872422614], [121.34478790497862, 32.43043939811249], [121.34496756803543, 32.43043939811249], [121.34496756803543, 32.43079872422614], [121.34514723109226, 32.43079872422614], [121.34514723109226, 32.43097838728296], [121.34550655720591, 32.43097838728296], [121.34550655720591, 32.43079872422614], [121.34568622026273, 32.43079872422614], [121.34568622026273, 32.43061906116932], [121.34586588331955, 32.43061906116932], [121.34586588331955, 32.43043939811249], [121.34640487249003, 32.43043939811249], [121.34640487249003, 32.43025973505567], [121.34676419860368, 32.43025973505567], [121.34676419860368, 32.43061906116932], [121.34658453554685, 32.43061906116932], [121.34658453554685, 32.43079872422614], [121.3462252094332, 32.43079872422614], [121.3462252094332, 32.43097838728296], [121.34586588331955, 32.43097838728296], [121.34586588331955, 32.43115805033979], [121.34550655720591, 32.43115805033979], [121.34550655720591, 32.431337713396616], [121.34568622026273, 32.431337713396616], [121.34568622026273, 32.431517376453435], [121.34550655720591, 32.431517376453435], [121.34550655720591, 32.43169703951026], [121.34532689414908, 32.43169703951026]]]}, "properties": {"name": "cand19", "ptype": "hall", "confidence": "low", "rank": 19, "area_ha": 1.2, "rise_db": 7.5, "digitised_from": "Sentinel-1 VV rise 2022->2026, orbit 171"}}, {"type": "Feature", "geometry": {"geodesic": false, "type": "Polygon", "coordinates": [[[121.34748285083097, 32.43493097453309], [121.34748285083097, 32.43457164841944], [121.34730318777414, 32.43457164841944], [121.34730318777414, 32.4342123223058], [121.34712352471732, 32.4342123223058], [121.34712352471732, 32.43403265924897], [121.34694386166049, 32.43403265924897], [121.34694386166049, 32.4334936700785], [121.34712352471732, 32.4334936700785], [121.34712352471732, 32.433673333135324], [121.34730318777414, 32.433673333135324], [121.34730318777414, 32.4342123223058], [121.34748285083097, 32.4342123223058], [121.34748285083097, 32.43403265924897], [121.34784217694461, 32.43403265924897], [121.34784217694461, 32.433673333135324], [121.34856082917192, 32.433673333135324], [121.34856082917192, 32.4334936700785], [121.34892015528555, 32.4334936700785], [121.34892015528555, 32.433673333135324], [121.34856082917192, 32.433673333135324], [121.34856082917192, 32.43403265924897], [121.34802184000144, 32.43403265924897], [121.34802184000144, 32.4342123223058], [121.34784217694461, 32.4342123223058], [121.34784217694461, 32.434391985362616], [121.3476625138878, 32.434391985362616], [121.3476625138878, 32.43457164841944], [121.34784217694461, 32.43457164841944], [121.34784217694461, 32.43493097453309], [121.34748285083097, 32.43493097453309]]]}, "properties": {"name": "cand20", "ptype": "hall", "confidence": "low", "rank": 20, "area_ha": 1.1, "rise_db": 6.7, "digitised_from": "Sentinel-1 VV rise 2022->2026, orbit 171"}}, {"type": "Feature", "geometry": {"geodesic": false, "type": "Polygon", "coordinates": [[[121.34263194829673, 32.39342880840677], [121.34263194829673, 32.39324914534995], [121.3424522852399, 32.39324914534995], [121.3424522852399, 32.392710156179476], [121.34263194829673, 32.392710156179476], [121.34263194829673, 32.39199150395218], [121.34281161135355, 32.39199150395218], [121.34281161135355, 32.391272851724885], [121.34299127441037, 32.391272851724885], [121.34299127441037, 32.39163217783853], [121.34317093746719, 32.39163217783853], [121.34317093746719, 32.39253049312265], [121.34299127441037, 32.39253049312265], [121.34299127441037, 32.39324914534995], [121.34281161135355, 32.39324914534995], [121.34281161135355, 32.39342880840677], [121.34263194829673, 32.39342880840677]]]}, "properties": {"name": "cand21", "ptype": "hall", "confidence": "low", "rank": 21, "area_ha": 1.1, "rise_db": 5.7, "digitised_from": "Sentinel-1 VV rise 2022->2026, orbit 171"}}, {"type": "Feature", "geometry": {"geodesic": false, "type": "Polygon", "coordinates": [[[121.36652713485431, 32.394327123690886], [121.36652713485431, 32.394147460634066], [121.36634747179748, 32.394147460634066], [121.36634747179748, 32.39378813452041], [121.36616780874066, 32.39378813452041], [121.36616780874066, 32.393608471463594], [121.36634747179748, 32.393608471463594], [121.36634747179748, 32.39306948229312], [121.36652713485431, 32.39306948229312], [121.36652713485431, 32.392889819236295], [121.36670679791112, 32.392889819236295], [121.36670679791112, 32.39306948229312], [121.36706612402477, 32.39306948229312], [121.36706612402477, 32.39342880840677], [121.3672457870816, 32.39342880840677], [121.3672457870816, 32.393608471463594], [121.36706612402477, 32.393608471463594], [121.36706612402477, 32.394147460634066], [121.36688646096795, 32.394147460634066], [121.36688646096795, 32.394327123690886], [121.36652713485431, 32.394327123690886]], [[121.36688646096795, 32.39396779757724], [121.36670679791112, 32.39396779757724], [121.36670679791112, 32.39342880840677], [121.36688646096795, 32.39342880840677], [121.36688646096795, 32.39396779757724]]]}, "properties": {"name": "cand22", "ptype": "hall", "confidence": "low", "rank": 22, "area_ha": 1.0, "rise_db": 4.9, "digitised_from": "Sentinel-1 VV rise 2022->2026, orbit 171"}}, {"type": "Feature", "geometry": {"geodesic": false, "type": "Polygon", "coordinates": [[[121.31945541396644, 32.41876129941894], [121.31945541396644, 32.41858163636211], [121.31927575090961, 32.41858163636211], [121.31927575090961, 32.41822231024847], [121.31945541396644, 32.41822231024847], [121.31945541396644, 32.41786298413482], [121.31927575090961, 32.41786298413482], [121.31927575090961, 32.417503658021175], [121.31945541396644, 32.417503658021175], [121.31945541396644, 32.41732399496435], [121.31963507702326, 32.41732399496435], [121.31963507702326, 32.417503658021175], [121.31981474008009, 32.417503658021175], [121.31981474008009, 32.41786298413482], [121.31999440313692, 32.41786298413482], [121.31999440313692, 32.41840197330529], [121.32017406619373, 32.41840197330529], [121.32017406619373, 32.41876129941894], [121.31945541396644, 32.41876129941894]]]}, "properties": {"name": "cand23", "ptype": "hall", "confidence": "low", "rank": 23, "area_ha": 1.0, "rise_db": 6.9, "digitised_from": "Sentinel-1 VV rise 2022->2026, orbit 171"}}, {"type": "Feature", "geometry": {"geodesic": false, "type": "Polygon", "coordinates": [[[121.3266419362394, 32.4131917446574], [121.3266419362394, 32.41283241854375], [121.32646227318257, 32.41283241854375], [121.32646227318257, 32.412652755486924], [121.32628261012574, 32.412652755486924], [121.32628261012574, 32.412473092430105], [121.32610294706892, 32.412473092430105], [121.32610294706892, 32.41229342937328], [121.32628261012574, 32.41229342937328], [121.32628261012574, 32.41157477714598], [121.3266419362394, 32.41157477714598], [121.3266419362394, 32.41193410325963], [121.32682159929622, 32.41193410325963], [121.32682159929622, 32.41211376631645], [121.32700126235304, 32.41211376631645], [121.32700126235304, 32.412473092430105], [121.32682159929622, 32.412473092430105], [121.32682159929622, 32.41283241854375], [121.32700126235304, 32.41283241854375], [121.32700126235304, 32.4131917446574], [121.3266419362394, 32.4131917446574]]]}, "properties": {"name": "cand24", "ptype": "hall", "confidence": "low", "rank": 24, "area_ha": 1.0, "rise_db": 4.7, "digitised_from": "Sentinel-1 VV rise 2022->2026, orbit 171"}}, {"type": "Feature", "geometry": {"geodesic": false, "type": "Polygon", "coordinates": [[[121.36383218900194, 32.4297207458852], [121.36383218900194, 32.42954108282837], [121.36419151511559, 32.42954108282837], [121.36419151511559, 32.429181756714726], [121.36473050428606, 32.429181756714726], [121.36473050428606, 32.4290020936579], [121.36491016734288, 32.4290020936579], [121.36491016734288, 32.428642767544254], [121.36508983039971, 32.428642767544254], [121.36508983039971, 32.42846310448743], [121.36526949345654, 32.42846310448743], [121.36526949345654, 32.428642767544254], [121.36508983039971, 32.428642767544254], [121.36508983039971, 32.42882243060108], [121.36526949345654, 32.42882243060108], [121.36526949345654, 32.4290020936579], [121.36544915651336, 32.4290020936579], [121.36544915651336, 32.42846310448743], [121.36616780874066, 32.42846310448743], [121.36616780874066, 32.428642767544254], [121.365808482627, 32.428642767544254], [121.365808482627, 32.42882243060108], [121.36562881957018, 32.42882243060108], [121.36562881957018, 32.4290020936579], [121.36544915651336, 32.4290020936579], [121.36544915651336, 32.429181756714726], [121.36562881957018, 32.429181756714726], [121.36562881957018, 32.42936141977155], [121.365808482627, 32.42936141977155], [121.365808482627, 32.42954108282837], [121.36544915651336, 32.42954108282837], [121.36544915651336, 32.42936141977155], [121.36526949345654, 32.42936141977155], [121.36526949345654, 32.429181756714726], [121.36473050428606, 32.429181756714726], [121.36473050428606, 32.42936141977155], [121.36437117817242, 32.42936141977155], [121.36437117817242, 32.42954108282837], [121.36419151511559, 32.42954108282837], [121.36419151511559, 32.4297207458852], [121.36383218900194, 32.4297207458852]]]}, "properties": {"name": "cand25", "ptype": "hall", "confidence": "low", "rank": 25, "area_ha": 1.0, "rise_db": 7.8, "digitised_from": "Sentinel-1 VV rise 2022->2026, orbit 171"}}, {"type": "Feature", "geometry": {"geodesic": false, "type": "Polygon", "coordinates": [[[121.34640487249003, 32.43313434396485], [121.34640487249003, 32.432954680908026], [121.3462252094332, 32.432954680908026], [121.3462252094332, 32.43259535479438], [121.34604554637637, 32.43259535479438], [121.34604554637637, 32.43241569173755], [121.34586588331955, 32.43241569173755], [121.34586588331955, 32.432236028680734], [121.34568622026273, 32.432236028680734], [121.34568622026273, 32.43205636562391], [121.34604554637637, 32.43205636562391], [121.34604554637637, 32.43241569173755], [121.3462252094332, 32.43241569173755], [121.3462252094332, 32.43259535479438], [121.34658453554685, 32.43259535479438], [121.34658453554685, 32.43241569173755], [121.34676419860368, 32.43241569173755], [121.34676419860368, 32.432236028680734], [121.34712352471732, 32.432236028680734], [121.34712352471732, 32.43205636562391], [121.34730318777414, 32.43205636562391], [121.34730318777414, 32.43187670256708], [121.34784217694461, 32.43187670256708], [121.34784217694461, 32.432236028680734], [121.34748285083097, 32.432236028680734], [121.34748285083097, 32.43241569173755], [121.34730318777414, 32.43241569173755], [121.34730318777414, 32.432236028680734], [121.34712352471732, 32.432236028680734], [121.34712352471732, 32.43259535479438], [121.34694386166049, 32.43259535479438], [121.34694386166049, 32.432775017851206], [121.34676419860368, 32.432775017851206], [121.34676419860368, 32.432954680908026], [121.34658453554685, 32.432954680908026], [121.34658453554685, 32.43313434396485], [121.34640487249003, 32.43313434396485]]]}, "properties": {"name": "cand26", "ptype": "hall", "confidence": "low", "rank": 26, "area_ha": 1.0, "rise_db": 7.4, "digitised_from": "Sentinel-1 VV rise 2022->2026, orbit 171"}}, {"type": "Feature", "geometry": {"geodesic": false, "type": "Polygon", "coordinates": [[[121.36365252594511, 32.43546996370356], [121.36365252594511, 32.435110637589915], [121.36401185205877, 32.435110637589915], [121.36401185205877, 32.43529030064674], [121.36419151511559, 32.43529030064674], [121.36419151511559, 32.4342123223058], [121.36455084122925, 32.4342123223058], [121.36455084122925, 32.434391985362616], [121.36491016734288, 32.434391985362616], [121.36491016734288, 32.43457164841944], [121.36508983039971, 32.43457164841944], [121.36508983039971, 32.43475131147627], [121.36491016734288, 32.43475131147627], [121.36491016734288, 32.43493097453309], [121.36508983039971, 32.43493097453309], [121.36508983039971, 32.435110637589915], [121.36491016734288, 32.435110637589915], [121.36491016734288, 32.43493097453309], [121.36473050428606, 32.43493097453309], [121.36473050428606, 32.435110637589915], [121.36437117817242, 32.435110637589915], [121.36437117817242, 32.43529030064674], [121.36419151511559, 32.43529030064674], [121.36419151511559, 32.43546996370356], [121.36365252594511, 32.43546996370356]]]}, "properties": {"name": "cand27", "ptype": "hall", "confidence": "low", "rank": 27, "area_ha": 1.0, "rise_db": 7.0, "digitised_from": "Sentinel-1 VV rise 2022->2026, orbit 171"}}, {"type": "Feature", "geometry": {"geodesic": false, "type": "Polygon", "coordinates": [[[121.34011666550118, 32.45720919357925], [121.34011666550118, 32.45702953052243], [121.33993700244436, 32.45702953052243], [121.33993700244436, 32.45684986746561], [121.33975733938755, 32.45684986746561], [121.33975733938755, 32.45667020440878], [121.33957767633072, 32.45667020440878], [121.33957767633072, 32.45649054135196], [121.3393980132739, 32.45649054135196], [121.3393980132739, 32.456310878295135], [121.33921835021707, 32.456310878295135], [121.33921835021707, 32.45595155218149], [121.33903868716024, 32.45595155218149], [121.33903868716024, 32.45559222606784], [121.3393980132739, 32.45559222606784], [121.3393980132739, 32.45577188912466], [121.33957767633072, 32.45577188912466], [121.33957767633072, 32.45595155218149], [121.33975733938755, 32.45595155218149], [121.33975733938755, 32.45613121523831], [121.33993700244436, 32.45613121523831], [121.33993700244436, 32.456310878295135], [121.34011666550118, 32.456310878295135], [121.34011666550118, 32.45667020440878], [121.34029632855801, 32.45667020440878], [121.34029632855801, 32.45720919357925], [121.34011666550118, 32.45720919357925]]]}, "properties": {"name": "cand28", "ptype": "hall", "confidence": "low", "rank": 28, "area_ha": 1.0, "rise_db": 5.5, "digitised_from": "Sentinel-1 VV rise 2022->2026, orbit 171"}}]}