{"type": "FeatureCollection", "features": [{"type": "Feature", "geometry": {"geodesic": false, "type": "Polygon", "coordinates": [[[103.13270316085308, 41.509532311651675], [103.13270316085308, 41.50935264859485], [103.13234383473943, 41.50935264859485], [103.13234383473943, 41.50917298553802], [103.13198450862578, 41.50917298553802], [103.13198450862578, 41.5089933224812], [103.13126585639849, 41.5089933224812], [103.13126585639849, 41.508813659424376], [103.13108619334166, 41.508813659424376], [103.13108619334166, 41.50845433331073], [103.13162518251214, 41.50845433331073], [103.13162518251214, 41.508095007197085], [103.13180484556896, 41.508095007197085], [103.13180484556896, 41.50791534414026], [103.13198450862578, 41.50791534414026], [103.13198450862578, 41.50773568108343], [103.1321641716826, 41.50773568108343], [103.1321641716826, 41.507376354969786], [103.13252349779626, 41.507376354969786], [103.13252349779626, 41.50719669191296], [103.13270316085308, 41.50719669191296], [103.13270316085308, 41.50701702885614], [103.13288282390991, 41.50701702885614], [103.13288282390991, 41.50683736579931], [103.13306248696672, 41.50683736579931], [103.13306248696672, 41.50647803968567], [103.13324215002355, 41.50647803968567], [103.13324215002355, 41.50629837662884], [103.13288282390991, 41.50629837662884], [103.13288282390991, 41.50557972440155], [103.13252349779626, 41.50557972440155], [103.13252349779626, 41.50540006134472], [103.1321641716826, 41.50540006134472], [103.1321641716826, 41.505220398287896], [103.13180484556896, 41.505220398287896], [103.13180484556896, 41.50504073523108], [103.13162518251214, 41.50504073523108], [103.13162518251214, 41.505220398287896], [103.13144551945531, 41.505220398287896], [103.13144551945531, 41.50540006134472], [103.13108619334166, 41.50540006134472], [103.13108619334166, 41.50557972440155], [103.13126585639849, 41.50557972440155], [103.13126585639849, 41.50575938745837], [103.13108619334166, 41.50575938745837], [103.13108619334166, 41.505939050515195], [103.13126585639849, 41.505939050515195], [103.13126585639849, 41.50611871357202], [103.13144551945531, 41.50611871357202], [103.13144551945531, 41.50629837662884], [103.13180484556896, 41.50629837662884], [103.13180484556896, 41.50647803968567], [103.1321641716826, 41.50647803968567], [103.1321641716826, 41.50665770274249], [103.13234383473943, 41.50665770274249], [103.13234383473943, 41.50701702885614], [103.1321641716826, 41.50701702885614], [103.1321641716826, 41.50719669191296], [103.13198450862578, 41.50719669191296], [103.13198450862578, 41.507376354969786], [103.13144551945531, 41.507376354969786], [103.13144551945531, 41.50719669191296], [103.13108619334166, 41.50719669191296], [103.13108619334166, 41.50701702885614], [103.1305472041712, 41.50701702885614], [103.1305472041712, 41.50719669191296], [103.13018787805754, 41.50719669191296], [103.13018787805754, 41.50665770274249], [103.13000821500071, 41.50665770274249], [103.13000821500071, 41.50683736579931], [103.1298285519439, 41.50683736579931], [103.1298285519439, 41.50665770274249], [103.12946922583025, 41.50665770274249], [103.12946922583025, 41.50647803968567], [103.12928956277342, 41.50647803968567], [103.12928956277342, 41.50629837662884], [103.12893023665978, 41.50629837662884], [103.12893023665978, 41.50665770274249], [103.12875057360296, 41.50665770274249], [103.12875057360296, 41.50647803968567], [103.12821158443248, 41.50647803968567], [103.12821158443248, 41.50629837662884], [103.12803192137565, 41.50629837662884], [103.12803192137565, 41.50611871357202], [103.1283912474893, 41.50611871357202], [103.1283912474893, 41.505939050515195], [103.12803192137565, 41.505939050515195], [103.12803192137565, 41.50575938745837], [103.12731326914836, 41.50575938745837], [103.12731326914836, 41.50540006134472], [103.12623529080741, 41.50540006134472], [103.12623529080741, 41.505220398287896], [103.12605562775059, 41.505220398287896], [103.12605562775059, 41.50504073523108], [103.12587596469378, 41.50504073523108], [103.12587596469378, 41.505220398287896], [103.12551663858012, 41.505220398287896], [103.12551663858012, 41.50504073523108], [103.12569630163695, 41.50504073523108], [103.12569630163695, 41.50486107217425], [103.12551663858012, 41.50486107217425], [103.12551663858012, 41.504681409117424], [103.12515731246647, 41.504681409117424], [103.12515731246647, 41.50486107217425], [103.12497764940966, 41.50486107217425], [103.12497764940966, 41.504681409117424], [103.12515731246647, 41.504681409117424], [103.12515731246647, 41.504501746060605], [103.12497764940966, 41.504501746060605], [103.12497764940966, 41.50432208300378], [103.12479798635283, 41.50432208300378], [103.12479798635283, 41.50396275689013], [103.124618323296, 41.50396275689013], [103.124618323296, 41.50432208300378], [103.12443866023918, 41.50432208300378], [103.12443866023918, 41.503783093833306], [103.12425899718235, 41.503783093833306], [103.12425899718235, 41.50396275689013], [103.12372000801189, 41.50396275689013], [103.12372000801189, 41.50414241994696], [103.12354034495506, 41.50414241994696], [103.12354034495506, 41.50396275689013], [103.12336068189823, 41.50396275689013], [103.12336068189823, 41.50432208300378], [103.12318101884141, 41.50432208300378], [103.12318101884141, 41.504501746060605], [103.1230013557846, 41.504501746060605], [103.1230013557846, 41.50432208300378], [103.12282169272777, 41.50432208300378], [103.12282169272777, 41.504501746060605], [103.12264202967094, 41.504501746060605], [103.12264202967094, 41.504681409117424], [103.12282169272777, 41.504681409117424], [103.12282169272777, 41.50486107217425], [103.1230013557846, 41.50486107217425], [103.1230013557846, 41.50504073523108], [103.12354034495506, 41.50504073523108], [103.12354034495506, 41.50540006134472], [103.12407933412553, 41.50540006134472], [103.12407933412553, 41.50557972440155], [103.12425899718235, 41.50557972440155], [103.12425899718235, 41.50540006134472], [103.12443866023918, 41.50540006134472], [103.12443866023918, 41.505220398287896], [103.12479798635283, 41.505220398287896], [103.12479798635283, 41.50557972440155], [103.124618323296, 41.50557972440155], [103.124618323296, 41.50575938745837], [103.12497764940966, 41.50575938745837], [103.12497764940966, 41.505939050515195], [103.12515731246647, 41.505939050515195], [103.12515731246647, 41.50611871357202], [103.1253369755233, 41.50611871357202], [103.1253369755233, 41.50629837662884], [103.12587596469378, 41.50629837662884], [103.12587596469378, 41.50647803968567], [103.12641495386424, 41.50647803968567], [103.12641495386424, 41.50665770274249], [103.12659461692107, 41.50665770274249], [103.12659461692107, 41.50683736579931], [103.1267742799779, 41.50683736579931], [103.1267742799779, 41.50701702885614], [103.12731326914836, 41.50701702885614], [103.12731326914836, 41.50719669191296], [103.12785225831884, 41.50719669191296], [103.12785225831884, 41.507376354969786], [103.12803192137565, 41.507376354969786], [103.12803192137565, 41.50755601802661], [103.1283912474893, 41.50755601802661], [103.1283912474893, 41.50773568108343], [103.12857091054613, 41.50773568108343], [103.12857091054613, 41.50791534414026], [103.12803192137565, 41.50791534414026], [103.12803192137565, 41.508095007197085], [103.12785225831884, 41.508095007197085], [103.12785225831884, 41.508274670253904], [103.12803192137565, 41.508274670253904], [103.12803192137565, 41.50845433331073], [103.12821158443248, 41.50845433331073], [103.12821158443248, 41.50863399636755], [103.12767259526201, 41.50863399636755], [103.12767259526201, 41.50845433331073], [103.12731326914836, 41.50845433331073], [103.12731326914836, 41.508274670253904], [103.12695394303472, 41.508274670253904], [103.12695394303472, 41.508095007197085], [103.12641495386424, 41.508095007197085], [103.12641495386424, 41.50791534414026], [103.12605562775059, 41.50791534414026], [103.12605562775059, 41.50773568108343], [103.12551663858012, 41.50773568108343], [103.12551663858012, 41.50755601802661], [103.12497764940966, 41.50755601802661], [103.12497764940966, 41.50719669191296], [103.124618323296, 41.50719669191296], [103.124618323296, 41.50701702885614], [103.12425899718235, 41.50701702885614], [103.12425899718235, 41.50683736579931], [103.12389967106871, 41.50683736579931], [103.12389967106871, 41.50665770274249], [103.12246236661412, 41.50665770274249], [103.12246236661412, 41.50629837662884], [103.12210304050046, 41.50629837662884], [103.12210304050046, 41.50611871357202], [103.12192337744365, 41.50611871357202], [103.12192337744365, 41.50647803968567], [103.12138438827317, 41.50647803968567], [103.12138438827317, 41.50629837662884], [103.12156405133, 41.50629837662884], [103.12156405133, 41.50611871357202], [103.12174371438682, 41.50611871357202], [103.12174371438682, 41.505939050515195], [103.12210304050046, 41.505939050515195], [103.12210304050046, 41.50611871357202], [103.12246236661412, 41.50611871357202], [103.12246236661412, 41.50629837662884], [103.12264202967094, 41.50629837662884], [103.12264202967094, 41.50647803968567], [103.12318101884141, 41.50647803968567], [103.12318101884141, 41.50629837662884], [103.1230013557846, 41.50629837662884], [103.1230013557846, 41.50611871357202], [103.12282169272777, 41.50611871357202], [103.12282169272777, 41.505939050515195], [103.12246236661412, 41.505939050515195], [103.12246236661412, 41.50575938745837], [103.12192337744365, 41.50575938745837], [103.12192337744365, 41.50540006134472], [103.12138438827317, 41.50540006134472], [103.12138438827317, 41.505220398287896], [103.11976742076176, 41.505220398287896], [103.11976742076176, 41.50504073523108], [103.11994708381859, 41.50504073523108], [103.11994708381859, 41.50486107217425], [103.1201267468754, 41.50486107217425], [103.1201267468754, 41.504681409117424], [103.11976742076176, 41.504681409117424], [103.11976742076176, 41.504501746060605], [103.11958775770493, 41.504501746060605], [103.11958775770493, 41.50486107217425], [103.11922843159128, 41.50486107217425], [103.11922843159128, 41.504501746060605], [103.11850977936399, 41.504501746060605], [103.11850977936399, 41.50414241994696], [103.11868944242082, 41.50414241994696], [103.11868944242082, 41.50396275689013], [103.11833011630716, 41.50396275689013], [103.11833011630716, 41.50414241994696], [103.11815045325034, 41.50414241994696], [103.11815045325034, 41.504501746060605], [103.1177911271367, 41.504501746060605], [103.1177911271367, 41.50414241994696], [103.11797079019352, 41.50414241994696], [103.11797079019352, 41.50396275689013], [103.1177911271367, 41.50396275689013], [103.1177911271367, 41.503783093833306], [103.11797079019352, 41.503783093833306], [103.11797079019352, 41.50342376771966], [103.1177911271367, 41.50342376771966], [103.1177911271367, 41.50360343077649], [103.11761146407987, 41.50360343077649], [103.11761146407987, 41.503783093833306], [103.11743180102305, 41.503783093833306], [103.11743180102305, 41.50324410466283], [103.1170724749094, 41.50324410466283], [103.1170724749094, 41.503064441606014], [103.11689281185258, 41.503064441606014], [103.11689281185258, 41.50288477854919], [103.11671314879575, 41.50288477854919], [103.11671314879575, 41.50324410466283], [103.11653348573893, 41.50324410466283], [103.11653348573893, 41.50270511549236], [103.11599449656846, 41.50270511549236], [103.11599449656846, 41.50252545243554], [103.11581483351164, 41.50252545243554], [103.11581483351164, 41.502345789378715], [103.11563517045481, 41.502345789378715], [103.11563517045481, 41.502166126321896], [103.11581483351164, 41.502166126321896], [103.11581483351164, 41.50198646326507], [103.11527584434116, 41.50198646326507], [103.11527584434116, 41.50180680020824], [103.11491651822752, 41.50180680020824], [103.11491651822752, 41.5014474740946], [103.11509618128434, 41.5014474740946], [103.11509618128434, 41.50126781103777], [103.11527584434116, 41.50126781103777], [103.11527584434116, 41.50108814798095], [103.11545550739798, 41.50108814798095], [103.11545550739798, 41.500908484924125], [103.11563517045481, 41.500908484924125], [103.11563517045481, 41.50018983269683], [103.11599449656846, 41.50018983269683], [103.11599449656846, 41.50001016964001], [103.1163538226821, 41.50001016964001], [103.1163538226821, 41.499471180469534], [103.11599449656846, 41.499471180469534], [103.11599449656846, 41.49929151741271], [103.1163538226821, 41.49929151741271], [103.1163538226821, 41.49911185435589], [103.11653348573893, 41.49911185435589], [103.11653348573893, 41.49929151741271], [103.11689281185258, 41.49929151741271], [103.11689281185258, 41.49911185435589], [103.11743180102305, 41.49911185435589], [103.11743180102305, 41.49893219129906], [103.11725213796622, 41.49893219129906], [103.11725213796622, 41.498752528242235], [103.1163538226821, 41.498752528242235], [103.1163538226821, 41.498572865185416], [103.11671314879575, 41.498572865185416], [103.11671314879575, 41.49821353907177], [103.1163538226821, 41.49821353907177], [103.1163538226821, 41.49785421295812], [103.11617415962527, 41.49785421295812], [103.11617415962527, 41.498033876014944], [103.11581483351164, 41.498033876014944], [103.11581483351164, 41.49785421295812], [103.11563517045481, 41.49785421295812], [103.11563517045481, 41.4976745499013], [103.11599449656846, 41.4976745499013], [103.11599449656846, 41.49749488684447], [103.11617415962527, 41.49749488684447], [103.11617415962527, 41.497135560730825], [103.11599449656846, 41.497135560730825], [103.11599449656846, 41.496955897674], [103.1163538226821, 41.496955897674], [103.1163538226821, 41.49677623461717], [103.11653348573893, 41.49677623461717], [103.11653348573893, 41.49659657156035], [103.11599449656846, 41.49659657156035], [103.11599449656846, 41.49677623461717], [103.11581483351164, 41.49677623461717], [103.11581483351164, 41.49659657156035], [103.11563517045481, 41.49659657156035], [103.11563517045481, 41.49641690850353], [103.11527584434116, 41.49641690850353], [103.11527584434116, 41.49623724544671], [103.11473685517069, 41.49623724544671], [103.11473685517069, 41.49641690850353], [103.11419786600021, 41.49641690850353], [103.11419786600021, 41.49659657156035], [103.11383853988657, 41.49659657156035], [103.11383853988657, 41.49677623461717], [103.1140182029434, 41.49677623461717], [103.1140182029434, 41.496955897674], [103.11437752905704, 41.496955897674], [103.11437752905704, 41.497135560730825], [103.11491651822752, 41.497135560730825], [103.11491651822752, 41.497315223787645], [103.11509618128434, 41.497315223787645], [103.11509618128434, 41.49749488684447], [103.11455719211386, 41.49749488684447], [103.11455719211386, 41.4976745499013], [103.11473685517069, 41.4976745499013], [103.11473685517069, 41.498033876014944], [103.11419786600021, 41.498033876014944], [103.11419786600021, 41.49785421295812], [103.11437752905704, 41.49785421295812], [103.11437752905704, 41.49749488684447], [103.11419786600021, 41.49749488684447], [103.11419786600021, 41.4976745499013], [103.1140182029434, 41.4976745499013], [103.1140182029434, 41.498033876014944], [103.11383853988657, 41.498033876014944], [103.11383853988657, 41.49749488684447], [103.11329955071609, 41.49749488684447], [103.11329955071609, 41.49785421295812], [103.11294022460245, 41.49785421295812], [103.11294022460245, 41.49749488684447], [103.11329955071609, 41.49749488684447], [103.11329955071609, 41.497315223787645], [103.1125808984888, 41.497315223787645], [103.1125808984888, 41.497135560730825], [103.11240123543197, 41.497135560730825], [103.11240123543197, 41.49677623461717], [103.11222157237515, 41.49677623461717], [103.11222157237515, 41.49659657156035], [103.11240123543197, 41.49659657156035], [103.11240123543197, 41.49677623461717], [103.1125808984888, 41.49677623461717], [103.1125808984888, 41.49659657156035], [103.11276056154563, 41.49659657156035], [103.11276056154563, 41.496955897674], [103.11311988765928, 41.496955897674], [103.11311988765928, 41.497135560730825], [103.11347921377292, 41.497135560730825], [103.11347921377292, 41.497315223787645], [103.11365887682975, 41.497315223787645], [103.11365887682975, 41.49677623461717], [103.11347921377292, 41.49677623461717], [103.11347921377292, 41.49659657156035], [103.11365887682975, 41.49659657156035], [103.11365887682975, 41.49641690850353], [103.11347921377292, 41.49641690850353], [103.11347921377292, 41.49605758238988], [103.11329955071609, 41.49605758238988], [103.11329955071609, 41.49623724544671], [103.11294022460245, 41.49623724544671], [103.11294022460245, 41.49605758238988], [103.11311988765928, 41.49605758238988], [103.11311988765928, 41.495877919333054], [103.11329955071609, 41.495877919333054], [103.11329955071609, 41.495698256276235], [103.11347921377292, 41.495698256276235], [103.11347921377292, 41.49605758238988], [103.11419786600021, 41.49605758238988], [103.11419786600021, 41.495877919333054], [103.11437752905704, 41.495877919333054], [103.11437752905704, 41.495698256276235], [103.1140182029434, 41.495698256276235], [103.1140182029434, 41.49533893016258], [103.11437752905704, 41.49533893016258], [103.11437752905704, 41.49551859321941], [103.11455719211386, 41.49551859321941], [103.11455719211386, 41.495698256276235], [103.11491651822752, 41.495698256276235], [103.11491651822752, 41.495877919333054], [103.11509618128434, 41.495877919333054], [103.11509618128434, 41.49515926710576], [103.11527584434116, 41.49515926710576], [103.11527584434116, 41.49533893016258], [103.11581483351164, 41.49533893016258], [103.11581483351164, 41.49551859321941], [103.11599449656846, 41.49551859321941], [103.11599449656846, 41.49515926710576], [103.11581483351164, 41.49515926710576], [103.11581483351164, 41.494979604048936], [103.11617415962527, 41.494979604048936], [103.11617415962527, 41.49479994099211], [103.11599449656846, 41.49479994099211], [103.11599449656846, 41.49426095182164], [103.11581483351164, 41.49426095182164], [103.11581483351164, 41.494440614878464], [103.11563517045481, 41.494440614878464], [103.11563517045481, 41.49462027793529], [103.11545550739798, 41.49462027793529], [103.11545550739798, 41.49479994099211], [103.11491651822752, 41.49479994099211], [103.11491651822752, 41.49462027793529], [103.11473685517069, 41.49462027793529], [103.11473685517069, 41.494979604048936], [103.11437752905704, 41.494979604048936], [103.11437752905704, 41.49515926710576], [103.1140182029434, 41.49515926710576], [103.1140182029434, 41.494979604048936], [103.11383853988657, 41.494979604048936], [103.11383853988657, 41.49479994099211], [103.1140182029434, 41.49479994099211], [103.1140182029434, 41.49462027793529], [103.11473685517069, 41.49462027793529], [103.11473685517069, 41.49426095182164], [103.11455719211386, 41.49426095182164], [103.11455719211386, 41.49390162570799], [103.11473685517069, 41.49390162570799], [103.11473685517069, 41.49372196265117], [103.11509618128434, 41.49372196265117], [103.11509618128434, 41.49390162570799], [103.11545550739798, 41.49390162570799], [103.11545550739798, 41.49408128876482], [103.11599449656846, 41.49408128876482], [103.11599449656846, 41.49390162570799], [103.11617415962527, 41.49390162570799], [103.11617415962527, 41.493542299594345], [103.1163538226821, 41.493542299594345], [103.1163538226821, 41.49336263653752], [103.11671314879575, 41.49336263653752], [103.11671314879575, 41.4931829734807], [103.11653348573893, 41.4931829734807], [103.11653348573893, 41.49300331042387], [103.1163538226821, 41.49300331042387], [103.1163538226821, 41.49264398431023], [103.11689281185258, 41.49264398431023], [103.11689281185258, 41.49282364736705], [103.1170724749094, 41.49282364736705], [103.1170724749094, 41.49264398431023], [103.11725213796622, 41.49264398431023], [103.11725213796622, 41.4924643212534], [103.11743180102305, 41.4924643212534], [103.11743180102305, 41.492284658196574], [103.11797079019352, 41.492284658196574], [103.11797079019352, 41.49192533208293], [103.1177911271367, 41.49192533208293], [103.1177911271367, 41.49174566902611], [103.11743180102305, 41.49174566902611], [103.11743180102305, 41.49156600596928], [103.11761146407987, 41.49156600596928], [103.11761146407987, 41.491386342912456], [103.11797079019352, 41.491386342912456], [103.11797079019352, 41.49156600596928], [103.11815045325034, 41.49156600596928], [103.11815045325034, 41.49174566902611], [103.11850977936399, 41.49174566902611], [103.11850977936399, 41.491386342912456], [103.11904876853447, 41.491386342912456], [103.11904876853447, 41.49102701679881], [103.11994708381859, 41.49102701679881], [103.11994708381859, 41.49120667985564], [103.12030640993223, 41.49120667985564], [103.12030640993223, 41.491386342912456], [103.12048607298905, 41.491386342912456], [103.12048607298905, 41.49156600596928], [103.12120472521634, 41.49156600596928], [103.12120472521634, 41.49174566902611], [103.12138438827317, 41.49174566902611], [103.12138438827317, 41.49192533208293], [103.12228270355729, 41.49192533208293], [103.12228270355729, 41.49174566902611], [103.12192337744365, 41.49174566902611], [103.12192337744365, 41.491386342912456], [103.12210304050046, 41.491386342912456], [103.12210304050046, 41.49120667985564], [103.12282169272777, 41.49120667985564], [103.12282169272777, 41.49156600596928], [103.12318101884141, 41.49156600596928], [103.12318101884141, 41.49174566902611], [103.12264202967094, 41.49174566902611], [103.12264202967094, 41.49192533208293], [103.12282169272777, 41.49192533208293], [103.12282169272777, 41.492284658196574], [103.1230013557846, 41.492284658196574], [103.1230013557846, 41.4924643212534], [103.12318101884141, 41.4924643212534], [103.12318101884141, 41.492104995139755], [103.12354034495506, 41.492104995139755], [103.12354034495506, 41.49174566902611], [103.12372000801189, 41.49174566902611], [103.12372000801189, 41.491386342912456], [103.12354034495506, 41.491386342912456], [103.12354034495506, 41.49102701679881], [103.12372000801189, 41.49102701679881], [103.12372000801189, 41.490847353741984], [103.12389967106871, 41.490847353741984], [103.12389967106871, 41.490667690685164], [103.12407933412553, 41.490667690685164], [103.12407933412553, 41.49048802762834], [103.12425899718235, 41.49048802762834], [103.12425899718235, 41.49030836457151], [103.12443866023918, 41.49030836457151], [103.12443866023918, 41.49012870151469], [103.12479798635283, 41.49012870151469], [103.12479798635283, 41.49048802762834], [103.124618323296, 41.49048802762834], [103.124618323296, 41.490667690685164], [103.12443866023918, 41.490667690685164], [103.12443866023918, 41.490847353741984], [103.12425899718235, 41.490847353741984], [103.12425899718235, 41.49120667985564], [103.12443866023918, 41.49120667985564], [103.12443866023918, 41.491386342912456], [103.124618323296, 41.491386342912456], [103.124618323296, 41.49156600596928], [103.12443866023918, 41.49156600596928], [103.12443866023918, 41.49192533208293], [103.12425899718235, 41.49192533208293], [103.12425899718235, 41.492104995139755], [103.12407933412553, 41.492104995139755], [103.12407933412553, 41.492284658196574], [103.12389967106871, 41.492284658196574], [103.12389967106871, 41.4924643212534], [103.12372000801189, 41.4924643212534], [103.12372000801189, 41.49264398431023], [103.12354034495506, 41.49264398431023], [103.12354034495506, 41.49282364736705], [103.12336068189823, 41.49282364736705], [103.12336068189823, 41.4931829734807], [103.12318101884141, 41.4931829734807], [103.12318101884141, 41.49336263653752], [103.12282169272777, 41.49336263653752], [103.12282169272777, 41.493542299594345], [103.12264202967094, 41.493542299594345], [103.12264202967094, 41.49390162570799], [103.12246236661412, 41.49390162570799], [103.12246236661412, 41.49408128876482], [103.12228270355729, 41.49408128876482], [103.12228270355729, 41.49426095182164], [103.12210304050046, 41.49426095182164], [103.12210304050046, 41.494440614878464], [103.12228270355729, 41.494440614878464], [103.12228270355729, 41.49462027793529], [103.12282169272777, 41.49462027793529], [103.12282169272777, 41.49479994099211], [103.1230013557846, 41.49479994099211], [103.1230013557846, 41.494979604048936], [103.12354034495506, 41.494979604048936], [103.12354034495506, 41.49515926710576], [103.12372000801189, 41.49515926710576], [103.12372000801189, 41.49462027793529], [103.12354034495506, 41.49462027793529], [103.12354034495506, 41.494440614878464], [103.12372000801189, 41.494440614878464], [103.12372000801189, 41.49408128876482], [103.12354034495506, 41.49408128876482], [103.12354034495506, 41.49390162570799], [103.12372000801189, 41.49390162570799], [103.12372000801189, 41.49372196265117], [103.12407933412553, 41.49372196265117], [103.12407933412553, 41.493542299594345], [103.1253369755233, 41.493542299594345], [103.1253369755233, 41.49390162570799], [103.12569630163695, 41.49390162570799], [103.12569630163695, 41.49479994099211], [103.12623529080741, 41.49479994099211], [103.12623529080741, 41.494440614878464], [103.12641495386424, 41.494440614878464], [103.12641495386424, 41.49426095182164], [103.12623529080741, 41.49426095182164], [103.12623529080741, 41.49408128876482], [103.12641495386424, 41.49408128876482], [103.12641495386424, 41.49426095182164], [103.1267742799779, 41.49426095182164], [103.1267742799779, 41.494440614878464], [103.12659461692107, 41.494440614878464], [103.12659461692107, 41.49462027793529], [103.12713360609153, 41.49462027793529], [103.12713360609153, 41.494979604048936], [103.1267742799779, 41.494979604048936], [103.1267742799779, 41.49515926710576], [103.12695394303472, 41.49515926710576], [103.12695394303472, 41.49533893016258], [103.12641495386424, 41.49533893016258], [103.12641495386424, 41.49551859321941], [103.12605562775059, 41.49551859321941], [103.12605562775059, 41.495698256276235], [103.12587596469378, 41.495698256276235], [103.12587596469378, 41.49551859321941], [103.12569630163695, 41.49551859321941], [103.12569630163695, 41.49533893016258], [103.1253369755233, 41.49533893016258], [103.1253369755233, 41.49551859321941], [103.12497764940966, 41.49551859321941], [103.12497764940966, 41.49533893016258], [103.12389967106871, 41.49533893016258], [103.12389967106871, 41.49551859321941], [103.12443866023918, 41.49551859321941], [103.12443866023918, 41.495698256276235], [103.12479798635283, 41.495698256276235], [103.12479798635283, 41.495877919333054], [103.12551663858012, 41.495877919333054], [103.12551663858012, 41.49605758238988], [103.12587596469378, 41.49605758238988], [103.12587596469378, 41.49641690850353], [103.12623529080741, 41.49641690850353], [103.12623529080741, 41.49659657156035], [103.12641495386424, 41.49659657156035], [103.12641495386424, 41.49677623461717], [103.12659461692107, 41.49677623461717], [103.12659461692107, 41.49659657156035], [103.1267742799779, 41.49659657156035], [103.1267742799779, 41.49677623461717], [103.12731326914836, 41.49677623461717], [103.12731326914836, 41.497135560730825], [103.12767259526201, 41.497135560730825], [103.12767259526201, 41.49677623461717], [103.12749293220519, 41.49677623461717], [103.12749293220519, 41.49659657156035], [103.12713360609153, 41.49659657156035], [103.12713360609153, 41.49623724544671], [103.12731326914836, 41.49623724544671], [103.12731326914836, 41.49641690850353], [103.12749293220519, 41.49641690850353], [103.12749293220519, 41.49659657156035], [103.12767259526201, 41.49659657156035], [103.12767259526201, 41.49677623461717], [103.12803192137565, 41.49677623461717], [103.12803192137565, 41.49659657156035], [103.12821158443248, 41.49659657156035], [103.12821158443248, 41.49677623461717], [103.1283912474893, 41.49677623461717], [103.1283912474893, 41.496955897674], [103.12857091054613, 41.496955897674], [103.12857091054613, 41.497315223787645], [103.12821158443248, 41.497315223787645], [103.12821158443248, 41.497135560730825], [103.12785225831884, 41.497135560730825], [103.12785225831884, 41.497315223787645], [103.12767259526201, 41.497315223787645], [103.12767259526201, 41.49749488684447], [103.1283912474893, 41.49749488684447], [103.1283912474893, 41.49785421295812], [103.12928956277342, 41.49785421295812], [103.12928956277342, 41.498033876014944], [103.12875057360296, 41.498033876014944], [103.12875057360296, 41.49821353907177], [103.12821158443248, 41.49821353907177], [103.12821158443248, 41.49839320212859], [103.12803192137565, 41.49839320212859], [103.12803192137565, 41.498752528242235], [103.12785225831884, 41.498752528242235], [103.12785225831884, 41.499471180469534], [103.12767259526201, 41.499471180469534], [103.12767259526201, 41.49965084352636], [103.12803192137565, 41.49965084352636], [103.12803192137565, 41.49983050658318], [103.12821158443248, 41.49983050658318], [103.12821158443248, 41.50001016964001], [103.12875057360296, 41.50001016964001], [103.12875057360296, 41.50018983269683], [103.1291098997166, 41.50018983269683], [103.1291098997166, 41.50036949575365], [103.12928956277342, 41.50036949575365], [103.12928956277342, 41.50001016964001], [103.12893023665978, 41.50001016964001], [103.12893023665978, 41.49965084352636], [103.1291098997166, 41.49965084352636], [103.1291098997166, 41.49911185435589], [103.12893023665978, 41.49911185435589], [103.12893023665978, 41.49893219129906], [103.12875057360296, 41.49893219129906], [103.12875057360296, 41.498752528242235], [103.12893023665978, 41.498752528242235], [103.12893023665978, 41.49893219129906], [103.1291098997166, 41.49893219129906], [103.1291098997166, 41.498572865185416], [103.12928956277342, 41.498572865185416], [103.12928956277342, 41.49893219129906], [103.12946922583025, 41.49893219129906], [103.12946922583025, 41.49929151741271], [103.12964888888708, 41.49929151741271], [103.12964888888708, 41.49965084352636], [103.1298285519439, 41.49965084352636], [103.1298285519439, 41.499471180469534], [103.13000821500071, 41.499471180469534], [103.13000821500071, 41.49929151741271], [103.1305472041712, 41.49929151741271], [103.1305472041712, 41.49911185435589], [103.13108619334166, 41.49911185435589], [103.13108619334166, 41.499471180469534], [103.13144551945531, 41.499471180469534], [103.13144551945531, 41.49965084352636], [103.13162518251214, 41.49965084352636], [103.13162518251214, 41.49983050658318], [103.1321641716826, 41.49983050658318], [103.1321641716826, 41.50001016964001], [103.13270316085308, 41.50001016964001], [103.13270316085308, 41.5007288218673], [103.13288282390991, 41.5007288218673], [103.13288282390991, 41.500908484924125], [103.13306248696672, 41.500908484924125], [103.13306248696672, 41.50108814798095], [103.1336014761372, 41.50108814798095], [103.1336014761372, 41.50126781103777], [103.13414046530767, 41.50126781103777], [103.13414046530767, 41.501627137151424], [103.13378113919403, 41.501627137151424], [103.13378113919403, 41.50180680020824], [103.13324215002355, 41.50180680020824], [103.13324215002355, 41.50198646326507], [103.13306248696672, 41.50198646326507], [103.13306248696672, 41.502166126321896], [103.13288282390991, 41.502166126321896], [103.13288282390991, 41.50252545243554], [103.13252349779626, 41.50252545243554], [103.13252349779626, 41.50270511549236], [103.13234383473943, 41.50270511549236], [103.13234383473943, 41.50324410466283], [103.1321641716826, 41.50324410466283], [103.1321641716826, 41.50342376771966], [103.13198450862578, 41.50342376771966], [103.13198450862578, 41.50360343077649], [103.13162518251214, 41.50360343077649], [103.13162518251214, 41.50342376771966], [103.13108619334166, 41.50342376771966], [103.13108619334166, 41.50360343077649], [103.13090653028485, 41.50360343077649], [103.13090653028485, 41.503783093833306], [103.13162518251214, 41.503783093833306], [103.13162518251214, 41.50414241994696], [103.13180484556896, 41.50414241994696], [103.13180484556896, 41.50432208300378], [103.1321641716826, 41.50432208300378], [103.1321641716826, 41.504501746060605], [103.13252349779626, 41.504501746060605], [103.13252349779626, 41.504681409117424], [103.13270316085308, 41.504681409117424], [103.13270316085308, 41.50486107217425], [103.13306248696672, 41.50486107217425], [103.13306248696672, 41.50504073523108], [103.13342181308037, 41.50504073523108], [103.13342181308037, 41.505220398287896], [103.1336014761372, 41.505220398287896], [103.1336014761372, 41.505939050515195], [103.13342181308037, 41.505939050515195], [103.13342181308037, 41.50611871357202], [103.13378113919403, 41.50611871357202], [103.13378113919403, 41.505939050515195], [103.1343201283645, 41.505939050515195], [103.1343201283645, 41.50611871357202], [103.13414046530767, 41.50611871357202], [103.13414046530767, 41.50629837662884], [103.13396080225084, 41.50629837662884], [103.13396080225084, 41.50647803968567], [103.13378113919403, 41.50647803968567], [103.13378113919403, 41.50665770274249], [103.1336014761372, 41.50665770274249], [103.1336014761372, 41.50683736579931], [103.13342181308037, 41.50683736579931], [103.13342181308037, 41.50701702885614], [103.13324215002355, 41.50701702885614], [103.13324215002355, 41.50719669191296], [103.13306248696672, 41.50719669191296], [103.13306248696672, 41.507376354969786], [103.13288282390991, 41.507376354969786], [103.13288282390991, 41.50755601802661], [103.13270316085308, 41.50755601802661], [103.13270316085308, 41.50773568108343], [103.13252349779626, 41.50773568108343], [103.13252349779626, 41.50791534414026], [103.13234383473943, 41.50791534414026], [103.13234383473943, 41.508095007197085], [103.1321641716826, 41.508095007197085], [103.1321641716826, 41.508274670253904], [103.13198450862578, 41.508274670253904], [103.13198450862578, 41.50845433331073], [103.13180484556896, 41.50845433331073], [103.13180484556896, 41.50863399636755], [103.13198450862578, 41.50863399636755], [103.13198450862578, 41.508813659424376], [103.13234383473943, 41.508813659424376], [103.13234383473943, 41.5089933224812], [103.13252349779626, 41.5089933224812], [103.13252349779626, 41.50917298553802], [103.13288282390991, 41.50917298553802], [103.13288282390991, 41.50935264859485], [103.13306248696672, 41.50935264859485], [103.13306248696672, 41.509532311651675], [103.13270316085308, 41.509532311651675]], [[103.11958775770493, 41.49174566902611], [103.11904876853447, 41.49174566902611], [103.11904876853447, 41.49156600596928], [103.11958775770493, 41.49156600596928], [103.11958775770493, 41.49174566902611]], [[103.1208453991027, 41.49192533208293], [103.12066573604588, 41.49192533208293], [103.12066573604588, 41.49174566902611], [103.1208453991027, 41.49174566902611], [103.1208453991027, 41.49192533208293]], [[103.11886910547764, 41.4924643212534], [103.11868944242082, 41.4924643212534], [103.11868944242082, 41.492284658196574], [103.11886910547764, 41.492284658196574], [103.11886910547764, 41.4924643212534]], [[103.11868944242082, 41.49264398431023], [103.11833011630716, 41.49264398431023], [103.11833011630716, 41.4924643212534], [103.11868944242082, 41.4924643212534], [103.11868944242082, 41.49264398431023]], [[103.12282169272777, 41.49264398431023], [103.12264202967094, 41.49264398431023], [103.12264202967094, 41.4924643212534], [103.12282169272777, 41.4924643212534], [103.12282169272777, 41.49264398431023]], [[103.12120472521634, 41.49372196265117], [103.1208453991027, 41.49372196265117], [103.1208453991027, 41.493542299594345], [103.12120472521634, 41.493542299594345], [103.12120472521634, 41.49372196265117]], [[103.1253369755233, 41.49479994099211], [103.12479798635283, 41.49479994099211], [103.12479798635283, 41.49462027793529], [103.12443866023918, 41.49462027793529], [103.12443866023918, 41.49479994099211], [103.12425899718235, 41.49479994099211], [103.12425899718235, 41.49462027793529], [103.12407933412553, 41.49462027793529], [103.12407933412553, 41.49426095182164], [103.12479798635283, 41.49426095182164], [103.12479798635283, 41.49408128876482], [103.1253369755233, 41.49408128876482], [103.1253369755233, 41.49479994099211]], [[103.11958775770493, 41.49533893016258], [103.11922843159128, 41.49533893016258], [103.11922843159128, 41.49515926710576], [103.11940809464811, 41.49515926710576], [103.11940809464811, 41.494979604048936], [103.11976742076176, 41.494979604048936], [103.11976742076176, 41.49515926710576], [103.11958775770493, 41.49515926710576], [103.11958775770493, 41.49533893016258]], [[103.11563517045481, 41.49605758238988], [103.11545550739798, 41.49605758238988], [103.11545550739798, 41.495877919333054], [103.11527584434116, 41.495877919333054], [103.11527584434116, 41.495698256276235], [103.11581483351164, 41.495698256276235], [103.11581483351164, 41.495877919333054], [103.11563517045481, 41.495877919333054], [103.11563517045481, 41.49605758238988]], [[103.11617415962527, 41.49623724544671], [103.11599449656846, 41.49623724544671], [103.11599449656846, 41.49605758238988], [103.11617415962527, 41.49605758238988], [103.11617415962527, 41.49623724544671]], [[103.12120472521634, 41.49623724544671], [103.1208453991027, 41.49623724544671], [103.1208453991027, 41.49605758238988], [103.12066573604588, 41.49605758238988], [103.12066573604588, 41.495698256276235], [103.12138438827317, 41.495698256276235], [103.12138438827317, 41.495877919333054], [103.12120472521634, 41.495877919333054], [103.12120472521634, 41.49623724544671]], [[103.1170724749094, 41.49641690850353], [103.11689281185258, 41.49641690850353], [103.11689281185258, 41.49623724544671], [103.1170724749094, 41.49623724544671], [103.1170724749094, 41.49641690850353]], [[103.12569630163695, 41.49641690850353], [103.12551663858012, 41.49641690850353], [103.12551663858012, 41.49623724544671], [103.12569630163695, 41.49623724544671], [103.12569630163695, 41.49641690850353]], [[103.11671314879575, 41.49659657156035], [103.11653348573893, 41.49659657156035], [103.11653348573893, 41.49641690850353], [103.11671314879575, 41.49641690850353], [103.11671314879575, 41.49659657156035]], [[103.12713360609153, 41.497135560730825], [103.12695394303472, 41.497135560730825], [103.12695394303472, 41.496955897674], [103.12713360609153, 41.496955897674], [103.12713360609153, 41.497135560730825]], [[103.12389967106871, 41.49785421295812], [103.12354034495506, 41.49785421295812], [103.12354034495506, 41.497135560730825], [103.12336068189823, 41.497135560730825], [103.12336068189823, 41.496955897674], [103.12282169272777, 41.496955897674], [103.12282169272777, 41.49659657156035], [103.12318101884141, 41.49659657156035], [103.12318101884141, 41.49677623461717], [103.12372000801189, 41.49677623461717], [103.12372000801189, 41.496955897674], [103.12389967106871, 41.496955897674], [103.12389967106871, 41.49749488684447], [103.12407933412553, 41.49749488684447], [103.12407933412553, 41.4976745499013], [103.12389967106871, 41.4976745499013], [103.12389967106871, 41.49785421295812]], [[103.1177911271367, 41.49821353907177], [103.11743180102305, 41.49821353907177], [103.11743180102305, 41.498033876014944], [103.1177911271367, 41.498033876014944], [103.1177911271367, 41.49821353907177]], [[103.11815045325034, 41.49821353907177], [103.11797079019352, 41.49821353907177], [103.11797079019352, 41.498033876014944], [103.11815045325034, 41.498033876014944], [103.11815045325034, 41.49821353907177]], [[103.11743180102305, 41.49839320212859], [103.11725213796622, 41.49839320212859], [103.11725213796622, 41.49821353907177], [103.11743180102305, 41.49821353907177], [103.11743180102305, 41.49839320212859]], [[103.12282169272777, 41.50001016964001], [103.12264202967094, 41.50001016964001], [103.12264202967094, 41.49983050658318], [103.12282169272777, 41.49983050658318], [103.12282169272777, 41.50001016964001]], [[103.12407933412553, 41.50001016964001], [103.12372000801189, 41.50001016964001], [103.12372000801189, 41.49965084352636], [103.12407933412553, 41.49965084352636], [103.12407933412553, 41.50001016964001]], [[103.12605562775059, 41.50001016964001], [103.12551663858012, 41.50001016964001], [103.12551663858012, 41.49983050658318], [103.12497764940966, 41.49983050658318], [103.12497764940966, 41.499471180469534], [103.12551663858012, 41.499471180469534], [103.12551663858012, 41.49929151741271], [103.12569630163695, 41.49929151741271], [103.12569630163695, 41.49911185435589], [103.12551663858012, 41.49911185435589], [103.12551663858012, 41.49893219129906], [103.12515731246647, 41.49893219129906], [103.12515731246647, 41.498572865185416], [103.12551663858012, 41.498572865185416], [103.12551663858012, 41.49839320212859], [103.12569630163695, 41.49839320212859], [103.12569630163695, 41.498572865185416], [103.12605562775059, 41.498572865185416], [103.12605562775059, 41.498752528242235], [103.12623529080741, 41.498752528242235], [103.12623529080741, 41.49893219129906], [103.1267742799779, 41.49893219129906], [103.1267742799779, 41.49929151741271], [103.12659461692107, 41.49929151741271], [103.12659461692107, 41.499471180469534], [103.12605562775059, 41.499471180469534], [103.12605562775059, 41.49965084352636], [103.12623529080741, 41.49965084352636], [103.12623529080741, 41.49983050658318], [103.12605562775059, 41.49983050658318], [103.12605562775059, 41.50001016964001]], [[103.13000821500071, 41.50018983269683], [103.1298285519439, 41.50018983269683], [103.1298285519439, 41.49965084352636], [103.13000821500071, 41.49965084352636], [103.13000821500071, 41.499471180469534], [103.13036754111437, 41.499471180469534], [103.13036754111437, 41.49965084352636], [103.13018787805754, 41.49965084352636], [103.13018787805754, 41.49983050658318], [103.13000821500071, 41.49983050658318], [103.13000821500071, 41.50018983269683]], [[103.11904876853447, 41.50036949575365], [103.11868944242082, 41.50036949575365], [103.11868944242082, 41.50018983269683], [103.11850977936399, 41.50018983269683], [103.11850977936399, 41.50001016964001], [103.11886910547764, 41.50001016964001], [103.11886910547764, 41.50018983269683], [103.11904876853447, 41.50018983269683], [103.11904876853447, 41.50036949575365]], [[103.12785225831884, 41.50036949575365], [103.12695394303472, 41.50036949575365], [103.12695394303472, 41.50018983269683], [103.1267742799779, 41.50018983269683], [103.1267742799779, 41.50001016964001], [103.12695394303472, 41.50001016964001], [103.12695394303472, 41.49983050658318], [103.12731326914836, 41.49983050658318], [103.12731326914836, 41.50001016964001], [103.12767259526201, 41.50001016964001], [103.12767259526201, 41.50018983269683], [103.12785225831884, 41.50018983269683], [103.12785225831884, 41.50036949575365]], [[103.11599449656846, 41.50054915881048], [103.11581483351164, 41.50054915881048], [103.11581483351164, 41.50036949575365], [103.11599449656846, 41.50036949575365], [103.11599449656846, 41.50054915881048]], [[103.11994708381859, 41.5007288218673], [103.11940809464811, 41.5007288218673], [103.11940809464811, 41.50054915881048], [103.11922843159128, 41.50054915881048], [103.11922843159128, 41.50018983269683], [103.11904876853447, 41.50018983269683], [103.11904876853447, 41.50001016964001], [103.11940809464811, 41.50001016964001], [103.11940809464811, 41.50018983269683], [103.11976742076176, 41.50018983269683], [103.11976742076176, 41.50036949575365], [103.11994708381859, 41.50036949575365], [103.11994708381859, 41.5007288218673]], [[103.12246236661412, 41.50108814798095], [103.12210304050046, 41.50108814798095], [103.12210304050046, 41.500908484924125], [103.12174371438682, 41.500908484924125], [103.12174371438682, 41.50054915881048], [103.12192337744365, 41.50054915881048], [103.12192337744365, 41.50036949575365], [103.12228270355729, 41.50036949575365], [103.12228270355729, 41.50054915881048], [103.12246236661412, 41.50054915881048], [103.12246236661412, 41.50108814798095]], [[103.11994708381859, 41.50126781103777], [103.11976742076176, 41.50126781103777], [103.11976742076176, 41.50108814798095], [103.11994708381859, 41.50108814798095], [103.11994708381859, 41.50126781103777]], [[103.13180484556896, 41.50126781103777], [103.13144551945531, 41.50126781103777], [103.13144551945531, 41.500908484924125], [103.13180484556896, 41.500908484924125], [103.13180484556896, 41.50126781103777]], [[103.11671314879575, 41.5014474740946], [103.11653348573893, 41.5014474740946], [103.11653348573893, 41.50126781103777], [103.1163538226821, 41.50126781103777], [103.1163538226821, 41.50108814798095], [103.11671314879575, 41.50108814798095], [103.11671314879575, 41.5014474740946]], [[103.12102506215953, 41.5014474740946], [103.12066573604588, 41.5014474740946], [103.12066573604588, 41.50126781103777], [103.12030640993223, 41.50126781103777], [103.12030640993223, 41.50108814798095], [103.12048607298905, 41.50108814798095], [103.12048607298905, 41.5007288218673], [103.12066573604588, 41.5007288218673], [103.12066573604588, 41.500908484924125], [103.1208453991027, 41.500908484924125], [103.1208453991027, 41.50126781103777], [103.12102506215953, 41.50126781103777], [103.12102506215953, 41.5014474740946]], [[103.1336014761372, 41.5014474740946], [103.13342181308037, 41.5014474740946], [103.13342181308037, 41.50126781103777], [103.1336014761372, 41.50126781103777], [103.1336014761372, 41.5014474740946]], [[103.11653348573893, 41.501627137151424], [103.1163538226821, 41.501627137151424], [103.1163538226821, 41.5014474740946], [103.11653348573893, 41.5014474740946], [103.11653348573893, 41.501627137151424]], [[103.12767259526201, 41.501627137151424], [103.12731326914836, 41.501627137151424], [103.12731326914836, 41.50126781103777], [103.12749293220519, 41.50126781103777], [103.12749293220519, 41.5014474740946], [103.12767259526201, 41.5014474740946], [103.12767259526201, 41.501627137151424]], [[103.11797079019352, 41.50180680020824], [103.1177911271367, 41.50180680020824], [103.1177911271367, 41.501627137151424], [103.11743180102305, 41.501627137151424], [103.11743180102305, 41.50126781103777], [103.11797079019352, 41.50126781103777], [103.11797079019352, 41.5014474740946], [103.11833011630716, 41.5014474740946], [103.11833011630716, 41.501627137151424], [103.11797079019352, 41.501627137151424], [103.11797079019352, 41.50180680020824]], [[103.12156405133, 41.50180680020824], [103.12138438827317, 41.50180680020824], [103.12138438827317, 41.501627137151424], [103.12120472521634, 41.501627137151424], [103.12120472521634, 41.50108814798095], [103.12138438827317, 41.50108814798095], [103.12138438827317, 41.50126781103777], [103.12174371438682, 41.50126781103777], [103.12174371438682, 41.501627137151424], [103.12156405133, 41.501627137151424], [103.12156405133, 41.50180680020824]], [[103.12605562775059, 41.50180680020824], [103.12551663858012, 41.50180680020824], [103.12551663858012, 41.501627137151424], [103.1253369755233, 41.501627137151424], [103.1253369755233, 41.5014474740946], [103.12551663858012, 41.5014474740946], [103.12551663858012, 41.50126781103777], [103.12587596469378, 41.50126781103777], [103.12587596469378, 41.5014474740946], [103.12605562775059, 41.5014474740946], [103.12605562775059, 41.50180680020824]], [[103.12479798635283, 41.502345789378715], [103.12443866023918, 41.502345789378715], [103.12443866023918, 41.502166126321896], [103.124618323296, 41.502166126321896], [103.124618323296, 41.50198646326507], [103.12497764940966, 41.50198646326507], [103.12497764940966, 41.502166126321896], [103.12479798635283, 41.502166126321896], [103.12479798635283, 41.502345789378715]], [[103.12569630163695, 41.50270511549236], [103.1253369755233, 41.50270511549236], [103.1253369755233, 41.50252545243554], [103.12569630163695, 41.50252545243554], [103.12569630163695, 41.50270511549236]], [[103.12066573604588, 41.50288477854919], [103.12048607298905, 41.50288477854919], [103.12048607298905, 41.50270511549236], [103.12066573604588, 41.50270511549236], [103.12066573604588, 41.50288477854919]], [[103.12372000801189, 41.50288477854919], [103.12318101884141, 41.50288477854919], [103.12318101884141, 41.50252545243554], [103.12264202967094, 41.50252545243554], [103.12264202967094, 41.502345789378715], [103.12246236661412, 41.502345789378715], [103.12246236661412, 41.50180680020824], [103.12264202967094, 41.50180680020824], [103.12264202967094, 41.50198646326507], [103.12318101884141, 41.50198646326507], [103.12318101884141, 41.502166126321896], [103.12336068189823, 41.502166126321896], [103.12336068189823, 41.502345789378715], [103.12372000801189, 41.502345789378715], [103.12372000801189, 41.50252545243554], [103.12389967106871, 41.50252545243554], [103.12389967106871, 41.50270511549236], [103.12372000801189, 41.50270511549236], [103.12372000801189, 41.50288477854919]], [[103.13036754111437, 41.50288477854919], [103.13000821500071, 41.50288477854919], [103.13000821500071, 41.50252545243554], [103.13018787805754, 41.50252545243554], [103.13018787805754, 41.502166126321896], [103.13036754111437, 41.502166126321896], [103.13036754111437, 41.50198646326507], [103.1305472041712, 41.50198646326507], [103.1305472041712, 41.50180680020824], [103.13072686722802, 41.50180680020824], [103.13072686722802, 41.501627137151424], [103.13090653028485, 41.501627137151424], [103.13090653028485, 41.5014474740946], [103.13126585639849, 41.5014474740946], [103.13126585639849, 41.50198646326507], [103.13090653028485, 41.50198646326507], [103.13090653028485, 41.502166126321896], [103.13072686722802, 41.502166126321896], [103.13072686722802, 41.50252545243554], [103.1305472041712, 41.50252545243554], [103.1305472041712, 41.50270511549236], [103.13036754111437, 41.50270511549236], [103.13036754111437, 41.50288477854919]], [[103.11886910547764, 41.503064441606014], [103.11868944242082, 41.503064441606014], [103.11868944242082, 41.50288477854919], [103.11886910547764, 41.50288477854919], [103.11886910547764, 41.503064441606014]], [[103.13000821500071, 41.503064441606014], [103.1298285519439, 41.503064441606014], [103.1298285519439, 41.50288477854919], [103.13000821500071, 41.50288477854919], [103.13000821500071, 41.503064441606014]], [[103.12354034495506, 41.50342376771966], [103.1230013557846, 41.50342376771966], [103.1230013557846, 41.50324410466283], [103.12354034495506, 41.50324410466283], [103.12354034495506, 41.50342376771966]], [[103.12264202967094, 41.50360343077649], [103.12228270355729, 41.50360343077649], [103.12228270355729, 41.50342376771966], [103.12192337744365, 41.50342376771966], [103.12192337744365, 41.50324410466283], [103.12174371438682, 41.50324410466283], [103.12174371438682, 41.50288477854919], [103.12192337744365, 41.50288477854919], [103.12192337744365, 41.50252545243554], [103.12264202967094, 41.50252545243554], [103.12264202967094, 41.50270511549236], [103.12282169272777, 41.50270511549236], [103.12282169272777, 41.50288477854919], [103.1230013557846, 41.50288477854919], [103.1230013557846, 41.50324410466283], [103.12264202967094, 41.50324410466283], [103.12264202967094, 41.50360343077649]], [[103.12282169272777, 41.50396275689013], [103.12264202967094, 41.50396275689013], [103.12264202967094, 41.503783093833306], [103.12282169272777, 41.503783093833306], [103.12282169272777, 41.50396275689013]], [[103.12336068189823, 41.50396275689013], [103.12318101884141, 41.50396275689013], [103.12318101884141, 41.503783093833306], [103.12336068189823, 41.503783093833306], [103.12336068189823, 41.50396275689013]], [[103.12893023665978, 41.50396275689013], [103.12857091054613, 41.50396275689013], [103.12857091054613, 41.503783093833306], [103.1283912474893, 41.503783093833306], [103.1283912474893, 41.50360343077649], [103.12821158443248, 41.50360343077649], [103.12821158443248, 41.503064441606014], [103.1291098997166, 41.503064441606014], [103.1291098997166, 41.50324410466283], [103.12946922583025, 41.50324410466283], [103.12946922583025, 41.50360343077649], [103.12964888888708, 41.50360343077649], [103.12964888888708, 41.503783093833306], [103.12893023665978, 41.503783093833306], [103.12893023665978, 41.50396275689013]], [[103.13036754111437, 41.50432208300378], [103.13018787805754, 41.50432208300378], [103.13018787805754, 41.50414241994696], [103.13036754111437, 41.50414241994696], [103.13036754111437, 41.50432208300378]], [[103.12605562775059, 41.50486107217425], [103.12587596469378, 41.50486107217425], [103.12587596469378, 41.504681409117424], [103.12605562775059, 41.504681409117424], [103.12605562775059, 41.50486107217425]], [[103.1230013557846, 41.50540006134472], [103.12282169272777, 41.50540006134472], [103.12282169272777, 41.505220398287896], [103.1230013557846, 41.505220398287896], [103.1230013557846, 41.50540006134472]], [[103.13324215002355, 41.505939050515195], [103.13306248696672, 41.505939050515195], [103.13306248696672, 41.50575938745837], [103.13324215002355, 41.50575938745837], [103.13324215002355, 41.505939050515195]], [[103.12875057360296, 41.50629837662884], [103.1283912474893, 41.50629837662884], [103.1283912474893, 41.50611871357202], [103.12875057360296, 41.50611871357202], [103.12875057360296, 41.50629837662884]], [[103.1253369755233, 41.50647803968567], [103.12515731246647, 41.50647803968567], [103.12515731246647, 41.50629837662884], [103.1253369755233, 41.50629837662884], [103.1253369755233, 41.50647803968567]], [[103.13090653028485, 41.50647803968567], [103.13036754111437, 41.50647803968567], [103.13036754111437, 41.50629837662884], [103.1305472041712, 41.50629837662884], [103.1305472041712, 41.50611871357202], [103.13090653028485, 41.50611871357202], [103.13090653028485, 41.50647803968567]], [[103.12641495386424, 41.50701702885614], [103.12623529080741, 41.50701702885614], [103.12623529080741, 41.50683736579931], [103.12641495386424, 41.50683736579931], [103.12641495386424, 41.50701702885614]]]}, "properties": {"name": "cand01", "ptype": "hall", "confidence": "low", "rank": 1, "area_ha": 218.4, "rise_db": 12.4, "digitised_from": "Sentinel-1 VV rise 2022->2026, orbit 33"}}, {"type": "Feature", "geometry": {"geodesic": false, "type": "Polygon", "coordinates": [[[103.13845237867145, 41.50018983269683], [103.13845237867145, 41.50001016964001], [103.13827271561462, 41.50001016964001], [103.13827271561462, 41.49983050658318], [103.13809305255779, 41.49983050658318], [103.13809305255779, 41.49965084352636], [103.1373744003305, 41.49965084352636], [103.1373744003305, 41.49929151741271], [103.13719473727367, 41.49929151741271], [103.13719473727367, 41.499471180469534], [103.13701507421685, 41.499471180469534], [103.13701507421685, 41.49965084352636], [103.13665574810321, 41.49965084352636], [103.13665574810321, 41.499471180469534], [103.13701507421685, 41.499471180469534], [103.13701507421685, 41.49911185435589], [103.13647608504638, 41.49911185435589], [103.13647608504638, 41.49893219129906], [103.13611675893273, 41.49893219129906], [103.13611675893273, 41.49929151741271], [103.13539810670544, 41.49929151741271], [103.13539810670544, 41.49893219129906], [103.13557776976226, 41.49893219129906], [103.13557776976226, 41.498752528242235], [103.13575743281909, 41.498752528242235], [103.13575743281909, 41.49821353907177], [103.13503878059178, 41.49821353907177], [103.13503878059178, 41.498033876014944], [103.13449979142132, 41.498033876014944], [103.13449979142132, 41.49785421295812], [103.13414046530767, 41.49785421295812], [103.13414046530767, 41.4976745499013], [103.13378113919403, 41.4976745499013], [103.13378113919403, 41.497315223787645], [103.13342181308037, 41.497315223787645], [103.13342181308037, 41.4976745499013], [103.13306248696672, 41.4976745499013], [103.13306248696672, 41.49785421295812], [103.13270316085308, 41.49785421295812], [103.13270316085308, 41.498033876014944], [103.13252349779626, 41.498033876014944], [103.13252349779626, 41.49821353907177], [103.13234383473943, 41.49821353907177], [103.13234383473943, 41.49839320212859], [103.1321641716826, 41.49839320212859], [103.1321641716826, 41.498572865185416], [103.13198450862578, 41.498572865185416], [103.13198450862578, 41.498752528242235], [103.13180484556896, 41.498752528242235], [103.13180484556896, 41.49893219129906], [103.13162518251214, 41.49893219129906], [103.13162518251214, 41.498752528242235], [103.13180484556896, 41.498752528242235], [103.13180484556896, 41.49839320212859], [103.13144551945531, 41.49839320212859], [103.13144551945531, 41.498572865185416], [103.13126585639849, 41.498572865185416], [103.13126585639849, 41.498752528242235], [103.13108619334166, 41.498752528242235], [103.13108619334166, 41.498572865185416], [103.13090653028485, 41.498572865185416], [103.13090653028485, 41.49821353907177], [103.13108619334166, 41.49821353907177], [103.13108619334166, 41.49785421295812], [103.13126585639849, 41.49785421295812], [103.13126585639849, 41.49749488684447], [103.13162518251214, 41.49749488684447], [103.13162518251214, 41.497315223787645], [103.13180484556896, 41.497315223787645], [103.13180484556896, 41.497135560730825], [103.1321641716826, 41.497135560730825], [103.1321641716826, 41.49677623461717], [103.13234383473943, 41.49677623461717], [103.13234383473943, 41.49659657156035], [103.13270316085308, 41.49659657156035], [103.13270316085308, 41.49677623461717], [103.13306248696672, 41.49677623461717], [103.13306248696672, 41.496955897674], [103.1336014761372, 41.496955897674], [103.1336014761372, 41.49677623461717], [103.13396080225084, 41.49677623461717], [103.13396080225084, 41.496955897674], [103.13414046530767, 41.496955897674], [103.13414046530767, 41.497135560730825], [103.13449979142132, 41.497135560730825], [103.13449979142132, 41.497315223787645], [103.13467945447815, 41.497315223787645], [103.13467945447815, 41.49749488684447], [103.13503878059178, 41.49749488684447], [103.13503878059178, 41.4976745499013], [103.13557776976226, 41.4976745499013], [103.13557776976226, 41.49785421295812], [103.1359370958759, 41.49785421295812], [103.1359370958759, 41.498033876014944], [103.13647608504638, 41.498033876014944], [103.13647608504638, 41.49821353907177], [103.13665574810321, 41.49821353907177], [103.13665574810321, 41.49839320212859], [103.13683541116004, 41.49839320212859], [103.13683541116004, 41.49893219129906], [103.13701507421685, 41.49893219129906], [103.13701507421685, 41.49911185435589], [103.1373744003305, 41.49911185435589], [103.1373744003305, 41.49893219129906], [103.13791338950097, 41.49893219129906], [103.13791338950097, 41.49911185435589], [103.13827271561462, 41.49911185435589], [103.13827271561462, 41.49929151741271], [103.13863204172827, 41.49929151741271], [103.13863204172827, 41.49965084352636], [103.13917103089874, 41.49965084352636], [103.13917103089874, 41.49983050658318], [103.13935069395556, 41.49983050658318], [103.13935069395556, 41.50001016964001], [103.13917103089874, 41.50001016964001], [103.13917103089874, 41.50018983269683], [103.13845237867145, 41.50018983269683]], [[103.13252349779626, 41.49749488684447], [103.13234383473943, 41.49749488684447], [103.13234383473943, 41.497315223787645], [103.13252349779626, 41.497315223787645], [103.13252349779626, 41.49749488684447]]]}, "properties": {"name": "cand02", "ptype": "hall", "confidence": "low", "rank": 2, "area_ha": 8.5, "rise_db": 12.2, "digitised_from": "Sentinel-1 VV rise 2022->2026, orbit 33"}}, {"type": "Feature", "geometry": {"geodesic": false, "type": "Polygon", "coordinates": [[[103.11042494180691, 41.51923411672016], [103.11042494180691, 41.5179764753224], [103.11024527875009, 41.5179764753224], [103.11024527875009, 41.5172578230951], [103.11042494180691, 41.5172578230951], [103.11042494180691, 41.517078160038274], [103.11024527875009, 41.517078160038274], [103.11024527875009, 41.5165391708678], [103.11006561569327, 41.5165391708678], [103.11006561569327, 41.51528152947004], [103.10988595263645, 41.51528152947004], [103.10988595263645, 41.51420355112909], [103.10970628957962, 41.51420355112909], [103.10970628957962, 41.51402388807227], [103.1095266265228, 41.51402388807227], [103.1095266265228, 41.51366456195862], [103.10970628957962, 41.51366456195862], [103.10970628957962, 41.513305235844975], [103.10934696346597, 41.513305235844975], [103.10934696346597, 41.51312557278815], [103.1088079742955, 41.51312557278815], [103.1088079742955, 41.512586583617676], [103.10916730040914, 41.512586583617676], [103.10916730040914, 41.5127662466745], [103.10934696346597, 41.5127662466745], [103.10934696346597, 41.51294590973133], [103.1095266265228, 41.51294590973133], [103.1095266265228, 41.51204759444721], [103.10934696346597, 41.51204759444721], [103.10934696346597, 41.51007130082215], [103.10916730040914, 41.51007130082215], [103.10916730040914, 41.508274670253904], [103.10934696346597, 41.508274670253904], [103.10934696346597, 41.5089933224812], [103.1095266265228, 41.5089933224812], [103.1095266265228, 41.50989163776532], [103.10970628957962, 41.50989163776532], [103.10970628957962, 41.510969616106266], [103.10988595263645, 41.510969616106266], [103.10988595263645, 41.51222725750403], [103.11006561569327, 41.51222725750403], [103.11006561569327, 41.51312557278815], [103.11024527875009, 41.51312557278815], [103.11024527875009, 41.51402388807227], [103.11042494180691, 41.51402388807227], [103.11042494180691, 41.51528152947004], [103.11060460486374, 41.51528152947004], [103.11060460486374, 41.51671883392463], [103.11078426792056, 41.51671883392463], [103.11078426792056, 41.518335801436045], [103.11096393097739, 41.518335801436045], [103.11096393097739, 41.51923411672016], [103.11042494180691, 41.51923411672016]]]}, "properties": {"name": "cand03", "ptype": "hall", "confidence": "low", "rank": 3, "area_ha": 7.0, "rise_db": 11.3, "digitised_from": "Sentinel-1 VV rise 2022->2026, orbit 33"}}, {"type": "Feature", "geometry": {"geodesic": false, "type": "Polygon", "coordinates": [[[103.1125808984888, 41.53163086764101], [103.1125808984888, 41.530732552356895], [103.11240123543197, 41.530732552356895], [103.11240123543197, 41.53019356318642], [103.11222157237515, 41.53019356318642], [103.11222157237515, 41.52983423707278], [103.11240123543197, 41.52983423707278], [103.11240123543197, 41.52965457401595], [103.11222157237515, 41.52965457401595], [103.11222157237515, 41.52893592178865], [103.11204190931834, 41.52893592178865], [103.11204190931834, 41.528576595675005], [103.11222157237515, 41.528576595675005], [103.11222157237515, 41.52839693261818], [103.11204190931834, 41.52839693261818], [103.11204190931834, 41.527857943447714], [103.11186224626151, 41.527857943447714], [103.11186224626151, 41.52749861733406], [103.11204190931834, 41.52749861733406], [103.11204190931834, 41.52731895427724], [103.11186224626151, 41.52731895427724], [103.11186224626151, 41.527139291220415], [103.11204190931834, 41.527139291220415], [103.11204190931834, 41.52695962816359], [103.11186224626151, 41.52695962816359], [103.11186224626151, 41.52677996510677], [103.11168258320468, 41.52677996510677], [103.11168258320468, 41.52660030204994], [103.11186224626151, 41.52660030204994], [103.11186224626151, 41.526420638993116], [103.11168258320468, 41.526420638993116], [103.11168258320468, 41.5262409759363], [103.11186224626151, 41.5262409759363], [103.11186224626151, 41.52606131287947], [103.11168258320468, 41.52606131287947], [103.11168258320468, 41.52588164982265], [103.11186224626151, 41.52588164982265], [103.11186224626151, 41.525701986765824], [103.11168258320468, 41.525701986765824], [103.11168258320468, 41.524983334538526], [103.11150292014786, 41.524983334538526], [103.11150292014786, 41.52444434536805], [103.11132325709103, 41.52444434536805], [103.11132325709103, 41.52372569314076], [103.1111435940342, 41.52372569314076], [103.1111435940342, 41.52264771479982], [103.11096393097739, 41.52264771479982], [103.11096393097739, 41.52156973645887], [103.11078426792056, 41.52156973645887], [103.11078426792056, 41.521210410345226], [103.11096393097739, 41.521210410345226], [103.11096393097739, 41.5210307472884], [103.11078426792056, 41.5210307472884], [103.11078426792056, 41.519773105890636], [103.11060460486374, 41.519773105890636], [103.11060460486374, 41.51941377977699], [103.11096393097739, 41.51941377977699], [103.11096393097739, 41.519773105890636], [103.1111435940342, 41.519773105890636], [103.1111435940342, 41.52085108423158], [103.11132325709103, 41.52085108423158], [103.11132325709103, 41.5210307472884], [103.1111435940342, 41.5210307472884], [103.1111435940342, 41.52139007340205], [103.11132325709103, 41.52139007340205], [103.11132325709103, 41.522108725629344], [103.11150292014786, 41.522108725629344], [103.11150292014786, 41.52300704091346], [103.11168258320468, 41.52300704091346], [103.11168258320468, 41.52372569314076], [103.11186224626151, 41.52372569314076], [103.11186224626151, 41.525522323709], [103.11204190931834, 41.525522323709], [103.11204190931834, 41.5262409759363], [103.11222157237515, 41.5262409759363], [103.11222157237515, 41.52731895427724], [103.11240123543197, 41.52731895427724], [103.11240123543197, 41.52875625873183], [103.1125808984888, 41.52875625873183], [103.1125808984888, 41.52983423707278], [103.11276056154563, 41.52983423707278], [103.11276056154563, 41.53055288930007], [103.11294022460245, 41.53055288930007], [103.11294022460245, 41.530732552356895], [103.11276056154563, 41.530732552356895], [103.11276056154563, 41.53109187847054], [103.11294022460245, 41.53109187847054], [103.11294022460245, 41.53163086764101], [103.1125808984888, 41.53163086764101]]]}, "properties": {"name": "cand04", "ptype": "hall", "confidence": "low", "rank": 4, "area_ha": 5.8, "rise_db": 8.7, "digitised_from": "Sentinel-1 VV rise 2022->2026, orbit 33"}}, {"type": "Feature", "geometry": {"geodesic": false, "type": "Polygon", "coordinates": [[[103.14366260731934, 41.50647803968567], [103.14366260731934, 41.50629837662884], [103.14276429203522, 41.50629837662884], [103.14276429203522, 41.50611871357202], [103.14240496592157, 41.50611871357202], [103.14240496592157, 41.50629837662884], [103.14204563980792, 41.50629837662884], [103.14204563980792, 41.50575938745837], [103.14294395509204, 41.50575938745837], [103.14294395509204, 41.505939050515195], [103.14312361814886, 41.505939050515195], [103.14312361814886, 41.50611871357202], [103.14348294426252, 41.50611871357202], [103.14348294426252, 41.505939050515195], [103.14366260731934, 41.505939050515195], [103.14366260731934, 41.50575938745837], [103.14348294426252, 41.50575938745837], [103.14348294426252, 41.505220398287896], [103.14366260731934, 41.505220398287896], [103.14366260731934, 41.50504073523108], [103.14348294426252, 41.50504073523108], [103.14348294426252, 41.50486107217425], [103.14312361814886, 41.50486107217425], [103.14312361814886, 41.50504073523108], [103.14240496592157, 41.50504073523108], [103.14240496592157, 41.504681409117424], [103.1425846289784, 41.504681409117424], [103.1425846289784, 41.504501746060605], [103.14294395509204, 41.504501746060605], [103.14294395509204, 41.50414241994696], [103.14312361814886, 41.50414241994696], [103.14312361814886, 41.50396275689013], [103.14330328120569, 41.50396275689013], [103.14330328120569, 41.50432208300378], [103.14402193343298, 41.50432208300378], [103.14402193343298, 41.504501746060605], [103.14438125954663, 41.504501746060605], [103.14438125954663, 41.504681409117424], [103.14456092260346, 41.504681409117424], [103.14456092260346, 41.50486107217425], [103.14474058566029, 41.50486107217425], [103.14474058566029, 41.50504073523108], [103.14509991177393, 41.50504073523108], [103.14509991177393, 41.50540006134472], [103.1449202487171, 41.50540006134472], [103.1449202487171, 41.50557972440155], [103.14456092260346, 41.50557972440155], [103.14456092260346, 41.50540006134472], [103.14420159648981, 41.50540006134472], [103.14420159648981, 41.505220398287896], [103.14402193343298, 41.505220398287896], [103.14402193343298, 41.50557972440155], [103.14384227037615, 41.50557972440155], [103.14384227037615, 41.50647803968567], [103.14366260731934, 41.50647803968567]]]}, "properties": {"name": "cand05", "ptype": "hall", "confidence": "low", "rank": 5, "area_ha": 3.5, "rise_db": 10.9, "digitised_from": "Sentinel-1 VV rise 2022->2026, orbit 33"}}, {"type": "Feature", "geometry": {"geodesic": false, "type": "Polygon", "coordinates": [[[103.14671687928535, 41.51043062693579], [103.14671687928535, 41.51025096387897], [103.14653721622852, 41.51025096387897], [103.14653721622852, 41.50989163776532], [103.14617789011487, 41.50989163776532], [103.14617789011487, 41.51007130082215], [103.14581856400122, 41.51007130082215], [103.14581856400122, 41.50989163776532], [103.1456389009444, 41.50989163776532], [103.1456389009444, 41.509711974708495], [103.14545923788758, 41.509711974708495], [103.14545923788758, 41.509532311651675], [103.14527957483075, 41.509532311651675], [103.14527957483075, 41.50935264859485], [103.1449202487171, 41.50935264859485], [103.1449202487171, 41.50917298553802], [103.14456092260346, 41.50917298553802], [103.14456092260346, 41.50863399636755], [103.14527957483075, 41.50863399636755], [103.14527957483075, 41.50845433331073], [103.14545923788758, 41.50845433331073], [103.14545923788758, 41.50863399636755], [103.14617789011487, 41.50863399636755], [103.14617789011487, 41.508813659424376], [103.14671687928535, 41.508813659424376], [103.14671687928535, 41.50863399636755], [103.14725586845582, 41.50863399636755], [103.14725586845582, 41.508813659424376], [103.14707620539899, 41.508813659424376], [103.14707620539899, 41.5089933224812], [103.14689654234216, 41.5089933224812], [103.14689654234216, 41.50917298553802], [103.14671687928535, 41.50917298553802], [103.14671687928535, 41.509711974708495], [103.14689654234216, 41.509711974708495], [103.14689654234216, 41.50989163776532], [103.14725586845582, 41.50989163776532], [103.14725586845582, 41.51043062693579], [103.14671687928535, 41.51043062693579]], [[103.14653721622852, 41.50935264859485], [103.1463575531717, 41.50935264859485], [103.1463575531717, 41.50917298553802], [103.14617789011487, 41.50917298553802], [103.14617789011487, 41.5089933224812], [103.14653721622852, 41.5089933224812], [103.14653721622852, 41.50935264859485]]]}, "properties": {"name": "cand06", "ptype": "hall", "confidence": "low", "rank": 6, "area_ha": 3.3, "rise_db": 11.2, "digitised_from": "Sentinel-1 VV rise 2022->2026, orbit 33"}}, {"type": "Feature", "geometry": {"geodesic": false, "type": "Polygon", "coordinates": [[[103.13647608504638, 41.502166126321896], [103.13647608504638, 41.50198646326507], [103.13575743281909, 41.50198646326507], [103.13575743281909, 41.50180680020824], [103.13521844364861, 41.50180680020824], [103.13521844364861, 41.501627137151424], [103.13539810670544, 41.501627137151424], [103.13539810670544, 41.50126781103777], [103.13557776976226, 41.50126781103777], [103.13557776976226, 41.50108814798095], [103.13575743281909, 41.50108814798095], [103.13575743281909, 41.500908484924125], [103.1359370958759, 41.500908484924125], [103.1359370958759, 41.5007288218673], [103.13611675893273, 41.5007288218673], [103.13611675893273, 41.50054915881048], [103.13647608504638, 41.50054915881048], [103.13647608504638, 41.5007288218673], [103.13683541116004, 41.5007288218673], [103.13683541116004, 41.50108814798095], [103.13701507421685, 41.50108814798095], [103.13701507421685, 41.500908484924125], [103.13719473727367, 41.500908484924125], [103.13719473727367, 41.5007288218673], [103.1373744003305, 41.5007288218673], [103.1373744003305, 41.500908484924125], [103.13755406338733, 41.500908484924125], [103.13755406338733, 41.50108814798095], [103.13773372644415, 41.50108814798095], [103.13773372644415, 41.5014474740946], [103.13755406338733, 41.5014474740946], [103.13755406338733, 41.501627137151424], [103.1373744003305, 41.501627137151424], [103.1373744003305, 41.50180680020824], [103.13719473727367, 41.50180680020824], [103.13719473727367, 41.50198646326507], [103.13701507421685, 41.50198646326507], [103.13701507421685, 41.502166126321896], [103.13647608504638, 41.502166126321896]]]}, "properties": {"name": "cand07", "ptype": "hall", "confidence": "low", "rank": 7, "area_ha": 3.1, "rise_db": 9.9, "digitised_from": "Sentinel-1 VV rise 2022->2026, orbit 33"}}, {"type": "Feature", "geometry": {"geodesic": false, "type": "Polygon", "coordinates": [[[103.1425846289784, 41.5134848989018], [103.1425846289784, 41.513305235844975], [103.14222530286474, 41.513305235844975], [103.14222530286474, 41.51312557278815], [103.14240496592157, 41.51312557278815], [103.14240496592157, 41.51294590973133], [103.14168631369428, 41.51294590973133], [103.14168631369428, 41.5127662466745], [103.14150665063745, 41.5127662466745], [103.14150665063745, 41.51294590973133], [103.14132698758063, 41.51294590973133], [103.14132698758063, 41.51312557278815], [103.1411473245238, 41.51312557278815], [103.1411473245238, 41.51294590973133], [103.14078799841016, 41.51294590973133], [103.14078799841016, 41.5127662466745], [103.14042867229651, 41.5127662466745], [103.14042867229651, 41.512406920560856], [103.14078799841016, 41.512406920560856], [103.14078799841016, 41.51222725750403], [103.14042867229651, 41.51222725750403], [103.14042867229651, 41.51168826833356], [103.14078799841016, 41.51168826833356], [103.14078799841016, 41.511867931390384], [103.14096766146697, 41.511867931390384], [103.14096766146697, 41.51168826833356], [103.1411473245238, 41.51168826833356], [103.1411473245238, 41.51150860527674], [103.14150665063745, 41.51150860527674], [103.14150665063745, 41.511867931390384], [103.14132698758063, 41.511867931390384], [103.14132698758063, 41.51222725750403], [103.14150665063745, 41.51222725750403], [103.14150665063745, 41.512406920560856], [103.14204563980792, 41.512406920560856], [103.14204563980792, 41.512586583617676], [103.1425846289784, 41.512586583617676], [103.1425846289784, 41.512406920560856], [103.14276429203522, 41.512406920560856], [103.14276429203522, 41.51222725750403], [103.14312361814886, 41.51222725750403], [103.14312361814886, 41.512406920560856], [103.14330328120569, 41.512406920560856], [103.14330328120569, 41.5127662466745], [103.14312361814886, 41.5127662466745], [103.14312361814886, 41.51294590973133], [103.14294395509204, 41.51294590973133], [103.14294395509204, 41.51312557278815], [103.14330328120569, 41.51312557278815], [103.14330328120569, 41.513305235844975], [103.14312361814886, 41.513305235844975], [103.14312361814886, 41.5134848989018], [103.1425846289784, 41.5134848989018]], [[103.14078799841016, 41.51204759444721], [103.14060833535333, 41.51204759444721], [103.14060833535333, 41.511867931390384], [103.14078799841016, 41.511867931390384], [103.14078799841016, 41.51204759444721]], [[103.14276429203522, 41.513305235844975], [103.1425846289784, 41.513305235844975], [103.1425846289784, 41.51312557278815], [103.14276429203522, 41.51312557278815], [103.14276429203522, 41.513305235844975]]]}, "properties": {"name": "cand08", "ptype": "hall", "confidence": "low", "rank": 8, "area_ha": 3.0, "rise_db": 11.5, "digitised_from": "Sentinel-1 VV rise 2022->2026, orbit 33"}}, {"type": "Feature", "geometry": {"geodesic": false, "type": "Polygon", "coordinates": [[[103.15354407544466, 41.5127662466745], [103.15354407544466, 41.512406920560856], [103.15372373850147, 41.512406920560856], [103.15372373850147, 41.51222725750403], [103.153184749331, 41.51222725750403], [103.153184749331, 41.51204759444721], [103.15336441238783, 41.51204759444721], [103.15336441238783, 41.511867931390384], [103.15264576016054, 41.511867931390384], [103.15264576016054, 41.51204759444721], [103.15246609710371, 41.51204759444721], [103.15246609710371, 41.511867931390384], [103.15264576016054, 41.511867931390384], [103.15264576016054, 41.51150860527674], [103.15300508627418, 41.51150860527674], [103.15300508627418, 41.51132894221991], [103.15282542321735, 41.51132894221991], [103.15282542321735, 41.511149279163085], [103.153184749331, 41.511149279163085], [103.153184749331, 41.51132894221991], [103.15354407544466, 41.51132894221991], [103.15354407544466, 41.511149279163085], [103.15372373850147, 41.511149279163085], [103.15372373850147, 41.510969616106266], [103.1539034015583, 41.510969616106266], [103.1539034015583, 41.51078995304944], [103.15354407544466, 41.51078995304944], [103.15354407544466, 41.51061028999261], [103.153184749331, 41.51061028999261], [103.153184749331, 41.509711974708495], [103.15354407544466, 41.509711974708495], [103.15354407544466, 41.51007130082215], [103.1539034015583, 41.51007130082215], [103.1539034015583, 41.50989163776532], [103.15426272767195, 41.50989163776532], [103.15426272767195, 41.51007130082215], [103.1539034015583, 41.51007130082215], [103.1539034015583, 41.51025096387897], [103.15426272767195, 41.51025096387897], [103.15426272767195, 41.51043062693579], [103.15408306461512, 41.51043062693579], [103.15408306461512, 41.51078995304944], [103.15444239072878, 41.51078995304944], [103.15444239072878, 41.510969616106266], [103.1546220537856, 41.510969616106266], [103.1546220537856, 41.511149279163085], [103.15444239072878, 41.511149279163085], [103.15444239072878, 41.51132894221991], [103.1546220537856, 41.51132894221991], [103.1546220537856, 41.51168826833356], [103.15444239072878, 41.51168826833356], [103.15444239072878, 41.51150860527674], [103.15426272767195, 41.51150860527674], [103.15426272767195, 41.511867931390384], [103.1539034015583, 41.511867931390384], [103.1539034015583, 41.51204759444721], [103.15372373850147, 41.51204759444721], [103.15372373850147, 41.51222725750403], [103.1539034015583, 41.51222725750403], [103.1539034015583, 41.512406920560856], [103.15372373850147, 41.512406920560856], [103.15372373850147, 41.5127662466745], [103.15354407544466, 41.5127662466745]], [[103.15372373850147, 41.51043062693579], [103.15354407544466, 41.51043062693579], [103.15354407544466, 41.51025096387897], [103.15372373850147, 41.51025096387897], [103.15372373850147, 41.51043062693579]], [[103.1539034015583, 41.511867931390384], [103.15354407544466, 41.511867931390384], [103.15354407544466, 41.51168826833356], [103.15372373850147, 41.51168826833356], [103.15372373850147, 41.511149279163085], [103.1539034015583, 41.511149279163085], [103.1539034015583, 41.510969616106266], [103.15426272767195, 41.510969616106266], [103.15426272767195, 41.51150860527674], [103.15408306461512, 41.51150860527674], [103.15408306461512, 41.51168826833356], [103.1539034015583, 41.51168826833356], [103.1539034015583, 41.511867931390384]]]}, "properties": {"name": "cand09", "ptype": "hall", "confidence": "low", "rank": 9, "area_ha": 2.6, "rise_db": 7.5, "digitised_from": "Sentinel-1 VV rise 2022->2026, orbit 33"}}, {"type": "Feature", "geometry": {"geodesic": false, "type": "Polygon", "coordinates": [[[103.14456092260346, 41.51294590973133], [103.14456092260346, 41.5127662466745], [103.14438125954663, 41.5127662466745], [103.14438125954663, 41.512586583617676], [103.14402193343298, 41.512586583617676], [103.14402193343298, 41.512406920560856], [103.14348294426252, 41.512406920560856], [103.14348294426252, 41.51222725750403], [103.14330328120569, 41.51222725750403], [103.14330328120569, 41.51204759444721], [103.14294395509204, 41.51204759444721], [103.14294395509204, 41.51168826833356], [103.14240496592157, 41.51168826833356], [103.14240496592157, 41.51150860527674], [103.1425846289784, 41.51150860527674], [103.1425846289784, 41.51132894221991], [103.14330328120569, 41.51132894221991], [103.14330328120569, 41.511149279163085], [103.14312361814886, 41.511149279163085], [103.14312361814886, 41.51078995304944], [103.14348294426252, 41.51078995304944], [103.14348294426252, 41.510969616106266], [103.14384227037615, 41.510969616106266], [103.14384227037615, 41.51078995304944], [103.14420159648981, 41.51078995304944], [103.14420159648981, 41.510969616106266], [103.14402193343298, 41.510969616106266], [103.14402193343298, 41.511149279163085], [103.14384227037615, 41.511149279163085], [103.14384227037615, 41.51132894221991], [103.14348294426252, 41.51132894221991], [103.14348294426252, 41.51168826833356], [103.14402193343298, 41.51168826833356], [103.14402193343298, 41.511867931390384], [103.14420159648981, 41.511867931390384], [103.14420159648981, 41.51204759444721], [103.14456092260346, 41.51204759444721], [103.14456092260346, 41.51222725750403], [103.14474058566029, 41.51222725750403], [103.14474058566029, 41.512406920560856], [103.14527957483075, 41.512406920560856], [103.14527957483075, 41.5127662466745], [103.14509991177393, 41.5127662466745], [103.14509991177393, 41.51294590973133], [103.14456092260346, 41.51294590973133]], [[103.14312361814886, 41.51168826833356], [103.14294395509204, 41.51168826833356], [103.14294395509204, 41.51150860527674], [103.14312361814886, 41.51150860527674], [103.14312361814886, 41.51168826833356]], [[103.14456092260346, 41.512406920560856], [103.14420159648981, 41.512406920560856], [103.14420159648981, 41.51222725750403], [103.14456092260346, 41.51222725750403], [103.14456092260346, 41.512406920560856]]]}, "properties": {"name": "cand10", "ptype": "hall", "confidence": "low", "rank": 10, "area_ha": 2.5, "rise_db": 8.9, "digitised_from": "Sentinel-1 VV rise 2022->2026, orbit 33"}}, {"type": "Feature", "geometry": {"geodesic": false, "type": "Polygon", "coordinates": [[[103.12964888888708, 41.48599645120774], [103.12964888888708, 41.48581678815092], [103.12928956277342, 41.48581678815092], [103.12928956277342, 41.485637125094094], [103.12893023665978, 41.485637125094094], [103.12893023665978, 41.48545746203727], [103.12857091054613, 41.48545746203727], [103.12857091054613, 41.48527779898045], [103.12821158443248, 41.48527779898045], [103.12821158443248, 41.48509813592362], [103.12803192137565, 41.48509813592362], [103.12803192137565, 41.484918472866795], [103.12767259526201, 41.484918472866795], [103.12767259526201, 41.484738809809976], [103.12749293220519, 41.484738809809976], [103.12749293220519, 41.48455914675315], [103.12713360609153, 41.48455914675315], [103.12713360609153, 41.48437948369632], [103.1267742799779, 41.48437948369632], [103.1267742799779, 41.4841998206395], [103.12641495386424, 41.4841998206395], [103.12641495386424, 41.48402015758268], [103.12605562775059, 41.48402015758268], [103.12605562775059, 41.48384049452586], [103.12587596469378, 41.48384049452586], [103.12587596469378, 41.48366083146903], [103.12605562775059, 41.48366083146903], [103.12605562775059, 41.483481168412204], [103.12641495386424, 41.483481168412204], [103.12641495386424, 41.48312184229856], [103.12659461692107, 41.48312184229856], [103.12659461692107, 41.48294217924173], [103.12695394303472, 41.48294217924173], [103.12695394303472, 41.483301505355385], [103.12659461692107, 41.483301505355385], [103.12659461692107, 41.483481168412204], [103.12641495386424, 41.483481168412204], [103.12641495386424, 41.48384049452586], [103.12659461692107, 41.48384049452586], [103.12659461692107, 41.48402015758268], [103.12695394303472, 41.48402015758268], [103.12695394303472, 41.4841998206395], [103.12731326914836, 41.4841998206395], [103.12731326914836, 41.48437948369632], [103.12749293220519, 41.48437948369632], [103.12749293220519, 41.48455914675315], [103.12785225831884, 41.48455914675315], [103.12785225831884, 41.484738809809976], [103.1283912474893, 41.484738809809976], [103.1283912474893, 41.484918472866795], [103.12875057360296, 41.484918472866795], [103.12875057360296, 41.48509813592362], [103.12893023665978, 41.48509813592362], [103.12893023665978, 41.48527779898045], [103.12928956277342, 41.48527779898045], [103.12928956277342, 41.48545746203727], [103.12964888888708, 41.48545746203727], [103.12964888888708, 41.485637125094094], [103.1298285519439, 41.485637125094094], [103.1298285519439, 41.48599645120774], [103.12964888888708, 41.48599645120774]]]}, "properties": {"name": "cand11", "ptype": "hall", "confidence": "low", "rank": 11, "area_ha": 1.9, "rise_db": 9.4, "digitised_from": "Sentinel-1 VV rise 2022->2026, orbit 33"}}, {"type": "Feature", "geometry": {"geodesic": false, "type": "Polygon", "coordinates": [[[103.10898763735233, 41.508095007197085], [103.10898763735233, 41.50755601802661], [103.1088079742955, 41.50755601802661], [103.1088079742955, 41.50719669191296], [103.10862831123868, 41.50719669191296], [103.10862831123868, 41.50701702885614], [103.10844864818185, 41.50701702885614], [103.10844864818185, 41.50683736579931], [103.1088079742955, 41.50683736579931], [103.1088079742955, 41.50647803968567], [103.10862831123868, 41.50647803968567], [103.10862831123868, 41.50557972440155], [103.10844864818185, 41.50557972440155], [103.10844864818185, 41.50504073523108], [103.1088079742955, 41.50504073523108], [103.1088079742955, 41.505220398287896], [103.10898763735233, 41.505220398287896], [103.10898763735233, 41.50557972440155], [103.1088079742955, 41.50557972440155], [103.1088079742955, 41.50575938745837], [103.10898763735233, 41.50575938745837], [103.10898763735233, 41.50629837662884], [103.10916730040914, 41.50629837662884], [103.10916730040914, 41.507376354969786], [103.10934696346597, 41.507376354969786], [103.10934696346597, 41.508095007197085], [103.10898763735233, 41.508095007197085]]]}, "properties": {"name": "cand12", "ptype": "hall", "confidence": "low", "rank": 12, "area_ha": 1.6, "rise_db": 10.4, "digitised_from": "Sentinel-1 VV rise 2022->2026, orbit 33"}}, {"type": "Feature", "geometry": {"geodesic": false, "type": "Polygon", "coordinates": [[[103.1373744003305, 41.513305235844975], [103.1373744003305, 41.51294590973133], [103.13755406338733, 41.51294590973133], [103.13755406338733, 41.512586583617676], [103.13773372644415, 41.512586583617676], [103.13773372644415, 41.512406920560856], [103.13809305255779, 41.512406920560856], [103.13809305255779, 41.51204759444721], [103.13827271561462, 41.51204759444721], [103.13827271561462, 41.511867931390384], [103.13845237867145, 41.511867931390384], [103.13845237867145, 41.51168826833356], [103.13863204172827, 41.51168826833356], [103.13863204172827, 41.51150860527674], [103.13899136784191, 41.51150860527674], [103.13899136784191, 41.511867931390384], [103.13917103089874, 41.511867931390384], [103.13917103089874, 41.51204759444721], [103.1388117047851, 41.51204759444721], [103.1388117047851, 41.51222725750403], [103.13863204172827, 41.51222725750403], [103.13863204172827, 41.512406920560856], [103.1388117047851, 41.512406920560856], [103.1388117047851, 41.512586583617676], [103.13863204172827, 41.512586583617676], [103.13863204172827, 41.5127662466745], [103.13845237867145, 41.5127662466745], [103.13845237867145, 41.51294590973133], [103.13791338950097, 41.51294590973133], [103.13791338950097, 41.51312557278815], [103.13773372644415, 41.51312557278815], [103.13773372644415, 41.513305235844975], [103.1373744003305, 41.513305235844975]]]}, "properties": {"name": "cand13", "ptype": "hall", "confidence": "low", "rank": 13, "area_ha": 1.6, "rise_db": 14.9, "digitised_from": "Sentinel-1 VV rise 2022->2026, orbit 33"}}, {"type": "Feature", "geometry": {"geodesic": false, "type": "Polygon", "coordinates": [[[103.14042867229651, 41.51043062693579], [103.14042867229651, 41.51025096387897], [103.14024900923968, 41.51025096387897], [103.14024900923968, 41.51007130082215], [103.14006934618286, 41.51007130082215], [103.14006934618286, 41.50989163776532], [103.13953035701239, 41.50989163776532], [103.13953035701239, 41.509711974708495], [103.13935069395556, 41.509711974708495], [103.13935069395556, 41.509532311651675], [103.13917103089874, 41.509532311651675], [103.13917103089874, 41.5089933224812], [103.1388117047851, 41.5089933224812], [103.1388117047851, 41.50917298553802], [103.13863204172827, 41.50917298553802], [103.13863204172827, 41.50935264859485], [103.13845237867145, 41.50935264859485], [103.13845237867145, 41.50917298553802], [103.13827271561462, 41.50917298553802], [103.13827271561462, 41.5089933224812], [103.1388117047851, 41.5089933224812], [103.1388117047851, 41.50863399636755], [103.13917103089874, 41.50863399636755], [103.13917103089874, 41.5089933224812], [103.13953035701239, 41.5089933224812], [103.13953035701239, 41.50935264859485], [103.13935069395556, 41.50935264859485], [103.13935069395556, 41.509532311651675], [103.13971002006922, 41.509532311651675], [103.13971002006922, 41.509711974708495], [103.13988968312603, 41.509711974708495], [103.13988968312603, 41.509532311651675], [103.14006934618286, 41.509532311651675], [103.14006934618286, 41.509711974708495], [103.14024900923968, 41.509711974708495], [103.14024900923968, 41.51007130082215], [103.14060833535333, 41.51007130082215], [103.14060833535333, 41.50989163776532], [103.14078799841016, 41.50989163776532], [103.14078799841016, 41.50935264859485], [103.1411473245238, 41.50935264859485], [103.1411473245238, 41.51007130082215], [103.14078799841016, 41.51007130082215], [103.14078799841016, 41.51043062693579], [103.14042867229651, 41.51043062693579]]]}, "properties": {"name": "cand14", "ptype": "hall", "confidence": "low", "rank": 14, "area_ha": 1.4, "rise_db": 9.0, "digitised_from": "Sentinel-1 VV rise 2022->2026, orbit 33"}}, {"type": "Feature", "geometry": {"geodesic": false, "type": "Polygon", "coordinates": [[[103.12731326914836, 41.49048802762834], [103.12731326914836, 41.49030836457151], [103.12695394303472, 41.49030836457151], [103.12695394303472, 41.49012870151469], [103.12659461692107, 41.49012870151469], [103.12659461692107, 41.489949038457866], [103.1267742799779, 41.489949038457866], [103.1267742799779, 41.489769375401046], [103.12749293220519, 41.489769375401046], [103.12749293220519, 41.48958971234422], [103.12767259526201, 41.48958971234422], [103.12767259526201, 41.48941004928739], [103.12821158443248, 41.48941004928739], [103.12821158443248, 41.48958971234422], [103.12857091054613, 41.48958971234422], [103.12857091054613, 41.48941004928739], [103.12893023665978, 41.48941004928739], [103.12893023665978, 41.48958971234422], [103.12875057360296, 41.48958971234422], [103.12875057360296, 41.489949038457866], [103.12857091054613, 41.489949038457866], [103.12857091054613, 41.49012870151469], [103.12821158443248, 41.49012870151469], [103.12821158443248, 41.489949038457866], [103.12785225831884, 41.489949038457866], [103.12785225831884, 41.489769375401046], [103.12749293220519, 41.489769375401046], [103.12749293220519, 41.49048802762834], [103.12731326914836, 41.49048802762834]]]}, "properties": {"name": "cand15", "ptype": "hall", "confidence": "low", "rank": 15, "area_ha": 1.3, "rise_db": 5.8, "digitised_from": "Sentinel-1 VV rise 2022->2026, orbit 33"}}, {"type": "Feature", "geometry": {"geodesic": false, "type": "Polygon", "coordinates": [[[103.14186597675109, 41.50432208300378], [103.14186597675109, 41.50396275689013], [103.14168631369428, 41.50396275689013], [103.14168631369428, 41.50360343077649], [103.14150665063745, 41.50360343077649], [103.14150665063745, 41.50342376771966], [103.14132698758063, 41.50342376771966], [103.14132698758063, 41.50360343077649], [103.14096766146697, 41.50360343077649], [103.14096766146697, 41.50324410466283], [103.14150665063745, 41.50324410466283], [103.14150665063745, 41.503064441606014], [103.14132698758063, 41.503064441606014], [103.14132698758063, 41.50252545243554], [103.14150665063745, 41.50252545243554], [103.14150665063745, 41.50270511549236], [103.14168631369428, 41.50270511549236], [103.14168631369428, 41.50324410466283], [103.14186597675109, 41.50324410466283], [103.14186597675109, 41.503064441606014], [103.14240496592157, 41.503064441606014], [103.14240496592157, 41.50324410466283], [103.14204563980792, 41.50324410466283], [103.14204563980792, 41.503783093833306], [103.1425846289784, 41.503783093833306], [103.1425846289784, 41.50396275689013], [103.14240496592157, 41.50396275689013], [103.14240496592157, 41.50414241994696], [103.14222530286474, 41.50414241994696], [103.14222530286474, 41.50432208300378], [103.14186597675109, 41.50432208300378]], [[103.14168631369428, 41.50342376771966], [103.14150665063745, 41.50342376771966], [103.14150665063745, 41.50324410466283], [103.14168631369428, 41.50324410466283], [103.14168631369428, 41.50342376771966]]]}, "properties": {"name": "cand16", "ptype": "hall", "confidence": "low", "rank": 16, "area_ha": 1.2, "rise_db": 7.3, "digitised_from": "Sentinel-1 VV rise 2022->2026, orbit 33"}}, {"type": "Feature", "geometry": {"geodesic": false, "type": "Polygon", "coordinates": [[[103.13935069395556, 41.504501746060605], [103.13935069395556, 41.50432208300378], [103.13917103089874, 41.50432208300378], [103.13917103089874, 41.50414241994696], [103.1388117047851, 41.50414241994696], [103.1388117047851, 41.50432208300378], [103.13827271561462, 41.50432208300378], [103.13827271561462, 41.50396275689013], [103.13809305255779, 41.50396275689013], [103.13809305255779, 41.503783093833306], [103.13827271561462, 41.503783093833306], [103.13827271561462, 41.50360343077649], [103.1388117047851, 41.50360343077649], [103.1388117047851, 41.503783093833306], [103.13917103089874, 41.503783093833306], [103.13917103089874, 41.50360343077649], [103.13935069395556, 41.50360343077649], [103.13935069395556, 41.503783093833306], [103.13953035701239, 41.503783093833306], [103.13953035701239, 41.50396275689013], [103.13971002006922, 41.50396275689013], [103.13971002006922, 41.503783093833306], [103.13988968312603, 41.503783093833306], [103.13988968312603, 41.50396275689013], [103.13971002006922, 41.50396275689013], [103.13971002006922, 41.50432208300378], [103.13953035701239, 41.50432208300378], [103.13953035701239, 41.504501746060605], [103.13935069395556, 41.504501746060605]]]}, "properties": {"name": "cand17", "ptype": "hall", "confidence": "low", "rank": 17, "area_ha": 1.1, "rise_db": 9.7, "digitised_from": "Sentinel-1 VV rise 2022->2026, orbit 33"}}]}