{"type": "FeatureCollection", "features": [{"type": "Feature", "geometry": {"geodesic": false, "type": "Polygon", "coordinates": [[[115.06574373203998, 30.34994120009168], [115.06574373203998, 30.349581873978032], [115.06556406898315, 30.349581873978032], [115.06556406898315, 30.349222547864386], [115.06574373203998, 30.349222547864386], [115.06574373203998, 30.348863221750737], [115.06556406898315, 30.348863221750737], [115.06556406898315, 30.348324232580264], [115.06538440592632, 30.348324232580264], [115.06538440592632, 30.34814456952344], [115.06502507981268, 30.34814456952344], [115.06502507981268, 30.34796490646662], [115.06484541675586, 30.34796490646662], [115.06484541675586, 30.347785243409795], [115.06376743841491, 30.347785243409795], [115.06376743841491, 30.347425917296146], [115.06394710147174, 30.347425917296146], [115.06394710147174, 30.347246254239323], [115.06502507981268, 30.347246254239323], [115.06502507981268, 30.3470665911825], [115.06538440592632, 30.3470665911825], [115.06538440592632, 30.346886928125674], [115.06556406898315, 30.346886928125674], [115.06556406898315, 30.346527602012028], [115.06574373203998, 30.346527602012028], [115.06574373203998, 30.34616827589838], [115.0659233950968, 30.34616827589838], [115.0659233950968, 30.345988612841555], [115.06610305815363, 30.345988612841555], [115.06610305815363, 30.34526996061426], [115.06628272121046, 30.34526996061426], [115.06628272121046, 30.345090297557437], [115.06646238426727, 30.345090297557437], [115.06646238426727, 30.34526996061426], [115.06628272121046, 30.34526996061426], [115.06628272121046, 30.34616827589838], [115.06646238426727, 30.34616827589838], [115.06646238426727, 30.345629286727906], [115.0666420473241, 30.345629286727906], [115.0666420473241, 30.34491063450061], [115.06700137343775, 30.34491063450061], [115.06700137343775, 30.345449623671083], [115.06682171038092, 30.345449623671083], [115.06682171038092, 30.3463479389552], [115.06700137343775, 30.3463479389552], [115.06700137343775, 30.34670726506885], [115.06718103649457, 30.34670726506885], [115.06718103649457, 30.346886928125674], [115.06700137343775, 30.346886928125674], [115.06700137343775, 30.347425917296146], [115.06718103649457, 30.347425917296146], [115.06718103649457, 30.34760558035297], [115.0673606995514, 30.34760558035297], [115.0673606995514, 30.347785243409795], [115.06754036260821, 30.347785243409795], [115.06754036260821, 30.34796490646662], [115.06843867789233, 30.34796490646662], [115.06843867789233, 30.34814456952344], [115.06861834094916, 30.34814456952344], [115.06861834094916, 30.348324232580264], [115.0666420473241, 30.348324232580264], [115.0666420473241, 30.34850389563709], [115.06646238426727, 30.34850389563709], [115.06646238426727, 30.348863221750737], [115.06628272121046, 30.348863221750737], [115.06628272121046, 30.349222547864386], [115.06646238426727, 30.349222547864386], [115.06646238426727, 30.34940221092121], [115.0666420473241, 30.34940221092121], [115.0666420473241, 30.34976153703486], [115.06610305815363, 30.34976153703486], [115.06610305815363, 30.34994120009168], [115.06574373203998, 30.34994120009168]]]}, "properties": {"name": "cand01", "ptype": "hall", "confidence": "low", "rank": 1, "area_ha": 8.7, "rise_db": 10.6, "digitised_from": "Sentinel-1 VV rise 2022->2026, orbit 40"}}, {"type": "Feature", "geometry": {"geodesic": false, "type": "Polygon", "coordinates": [[[115.04220787159605, 30.364493907694417], [115.04220787159605, 30.364314244637594], [115.04202820853922, 30.364314244637594], [115.04202820853922, 30.363954918523945], [115.04220787159605, 30.363954918523945], [115.04220787159605, 30.36377525546712], [115.04238753465287, 30.36377525546712], [115.04238753465287, 30.363954918523945], [115.04274686076651, 30.363954918523945], [115.04274686076651, 30.363415929353472], [115.0425671977097, 30.363415929353472], [115.0425671977097, 30.36323626629665], [115.04166888242557, 30.36323626629665], [115.04166888242557, 30.362876940183003], [115.04148921936876, 30.362876940183003], [115.04148921936876, 30.36233795101253], [115.04166888242557, 30.36233795101253], [115.04166888242557, 30.36197862489888], [115.04202820853922, 30.36197862489888], [115.04202820853922, 30.362158287955708], [115.04238753465287, 30.362158287955708], [115.04238753465287, 30.36197862489888], [115.04292652382334, 30.36197862489888], [115.04292652382334, 30.362158287955708], [115.04328584993699, 30.362158287955708], [115.04328584993699, 30.36233795101253], [115.04346551299382, 30.36233795101253], [115.04346551299382, 30.3635955924103], [115.04364517605063, 30.3635955924103], [115.04364517605063, 30.36413458158077], [115.04346551299382, 30.36413458158077], [115.04346551299382, 30.364314244637594], [115.04292652382334, 30.364314244637594], [115.04292652382334, 30.364493907694417], [115.04220787159605, 30.364493907694417]]]}, "properties": {"name": "cand02", "ptype": "hall", "confidence": "low", "rank": 2, "area_ha": 4.3, "rise_db": 6.2, "digitised_from": "Sentinel-1 VV rise 2022->2026, orbit 40"}}, {"type": "Feature", "geometry": {"geodesic": false, "type": "Polygon", "coordinates": [[[115.04831641552806, 30.363056603239826], [115.04831641552806, 30.362876940183003], [115.04795708941441, 30.362876940183003], [115.04795708941441, 30.363056603239826], [115.04759776330076, 30.363056603239826], [115.04759776330076, 30.362517614069354], [115.04741810024395, 30.362517614069354], [115.04741810024395, 30.362158287955708], [115.04723843718712, 30.362158287955708], [115.04723843718712, 30.361259972671586], [115.04705877413029, 30.361259972671586], [115.04705877413029, 30.360361657387468], [115.04777742635758, 30.360361657387468], [115.04777742635758, 30.360181994330645], [115.04795708941441, 30.360181994330645], [115.04795708941441, 30.36000233127382], [115.04849607858489, 30.36000233127382], [115.04849607858489, 30.360181994330645], [115.04831641552806, 30.360181994330645], [115.04831641552806, 30.360361657387468], [115.04813675247124, 30.360361657387468], [115.04813675247124, 30.36090064655794], [115.04831641552806, 30.36090064655794], [115.04831641552806, 30.361619298785236], [115.04849607858489, 30.361619298785236], [115.04849607858489, 30.36179896184206], [115.0486757416417, 30.36179896184206], [115.0486757416417, 30.362158287955708], [115.04885540469853, 30.362158287955708], [115.04885540469853, 30.362517614069354], [115.04903506775536, 30.362517614069354], [115.04903506775536, 30.362697277126177], [115.04885540469853, 30.362697277126177], [115.04885540469853, 30.362876940183003], [115.0486757416417, 30.362876940183003], [115.0486757416417, 30.363056603239826], [115.04831641552806, 30.363056603239826]], [[115.04777742635758, 30.36090064655794], [115.04759776330076, 30.36090064655794], [115.04759776330076, 30.360720983501114], [115.04777742635758, 30.360720983501114], [115.04777742635758, 30.36090064655794]], [[115.04795708941441, 30.36179896184206], [115.04777742635758, 30.36179896184206], [115.04777742635758, 30.361259972671586], [115.04795708941441, 30.361259972671586], [115.04795708941441, 30.36179896184206]]]}, "properties": {"name": "cand03", "ptype": "hall", "confidence": "low", "rank": 3, "area_ha": 4.2, "rise_db": 7.9, "digitised_from": "Sentinel-1 VV rise 2022->2026, orbit 40"}}, {"type": "Feature", "geometry": {"geodesic": false, "type": "Polygon", "coordinates": [[[115.04687911107347, 30.359643005160173], [115.04687911107347, 30.359463342103346], [115.04669944801664, 30.359463342103346], [115.04669944801664, 30.358385363762405], [115.04687911107347, 30.358385363762405], [115.04687911107347, 30.358205700705582], [115.04723843718712, 30.358205700705582], [115.04723843718712, 30.357127722364638], [115.04705877413029, 30.357127722364638], [115.04705877413029, 30.356588733194165], [115.04687911107347, 30.356588733194165], [115.04687911107347, 30.356768396250988], [115.04669944801664, 30.356768396250988], [115.04669944801664, 30.356948059307815], [115.04687911107347, 30.356948059307815], [115.04687911107347, 30.357846374591933], [115.04651978495983, 30.357846374591933], [115.04651978495983, 30.357487048478283], [115.04616045884617, 30.357487048478283], [115.04616045884617, 30.35766671153511], [115.04580113273252, 30.35766671153511], [115.04580113273252, 30.357487048478283], [115.04598079578935, 30.357487048478283], [115.04598079578935, 30.35730738542146], [115.04616045884617, 30.35730738542146], [115.04616045884617, 30.357127722364638], [115.046340121903, 30.357127722364638], [115.046340121903, 30.356768396250988], [115.04651978495983, 30.356768396250988], [115.04651978495983, 30.356409070137342], [115.046340121903, 30.356409070137342], [115.046340121903, 30.35551075485322], [115.04687911107347, 30.35551075485322], [115.04687911107347, 30.355690417910047], [115.04669944801664, 30.355690417910047], [115.04669944801664, 30.356049744023693], [115.04723843718712, 30.356049744023693], [115.04723843718712, 30.35622940708052], [115.04759776330076, 30.35622940708052], [115.04759776330076, 30.356768396250988], [115.04741810024395, 30.356768396250988], [115.04741810024395, 30.356948059307815], [115.04759776330076, 30.356948059307815], [115.04759776330076, 30.357487048478283], [115.04795708941441, 30.357487048478283], [115.04795708941441, 30.35766671153511], [115.04813675247124, 30.35766671153511], [115.04813675247124, 30.357846374591933], [115.04831641552806, 30.357846374591933], [115.04831641552806, 30.358026037648756], [115.04813675247124, 30.358026037648756], [115.04813675247124, 30.358205700705582], [115.04795708941441, 30.358205700705582], [115.04795708941441, 30.358385363762405], [115.04777742635758, 30.358385363762405], [115.04777742635758, 30.358205700705582], [115.04759776330076, 30.358205700705582], [115.04759776330076, 30.358385363762405], [115.04741810024395, 30.358385363762405], [115.04741810024395, 30.358205700705582], [115.04723843718712, 30.358205700705582], [115.04723843718712, 30.358385363762405], [115.04705877413029, 30.358385363762405], [115.04705877413029, 30.358565026819228], [115.04723843718712, 30.358565026819228], [115.04723843718712, 30.359463342103346], [115.04705877413029, 30.359463342103346], [115.04705877413029, 30.359643005160173], [115.04687911107347, 30.359643005160173]]]}, "properties": {"name": "cand04", "ptype": "hall", "confidence": "low", "rank": 4, "area_ha": 4.0, "rise_db": 6.3, "digitised_from": "Sentinel-1 VV rise 2022->2026, orbit 40"}}, {"type": "Feature", "geometry": {"geodesic": false, "type": "Polygon", "coordinates": [[[115.03699764294815, 30.355690417910047], [115.03699764294815, 30.35551075485322], [115.03681797989132, 30.35551075485322], [115.03681797989132, 30.354253113455457], [115.03699764294815, 30.354253113455457], [115.03699764294815, 30.35407345039863], [115.03789595823227, 30.35407345039863], [115.03789595823227, 30.354253113455457], [115.03825528434592, 30.354253113455457], [115.03825528434592, 30.35407345039863], [115.03879427351639, 30.35407345039863], [115.03879427351639, 30.354253113455457], [115.03915359963004, 30.354253113455457], [115.03915359963004, 30.35443277651228], [115.03933326268687, 30.35443277651228], [115.03933326268687, 30.354612439569102], [115.03897393657321, 30.354612439569102], [115.03897393657321, 30.355151428739575], [115.03915359963004, 30.355151428739575], [115.03915359963004, 30.355331091796398], [115.03897393657321, 30.355331091796398], [115.03897393657321, 30.35551075485322], [115.03753663211863, 30.35551075485322], [115.03753663211863, 30.355690417910047], [115.03699764294815, 30.355690417910047]], [[115.03789595823227, 30.354971765682752], [115.03771629517544, 30.354971765682752], [115.03771629517544, 30.354792102625925], [115.03789595823227, 30.354792102625925], [115.03789595823227, 30.354971765682752]], [[115.03771629517544, 30.355151428739575], [115.03753663211863, 30.355151428739575], [115.03753663211863, 30.354971765682752], [115.03771629517544, 30.354971765682752], [115.03771629517544, 30.355151428739575]], [[115.03717730600498, 30.355331091796398], [115.03699764294815, 30.355331091796398], [115.03699764294815, 30.355151428739575], [115.03717730600498, 30.355151428739575], [115.03717730600498, 30.355331091796398]]]}, "properties": {"name": "cand05", "ptype": "hall", "confidence": "low", "rank": 5, "area_ha": 3.8, "rise_db": 8.2, "digitised_from": "Sentinel-1 VV rise 2022->2026, orbit 40"}}, {"type": "Feature", "geometry": {"geodesic": false, "type": "Polygon", "coordinates": [[[115.01974998949306, 30.29891689195369], [115.01974998949306, 30.293886326362625], [115.02028897866353, 30.293886326362625], [115.02028897866353, 30.294784641646743], [115.02064830477718, 30.294784641646743], [115.02064830477718, 30.294964304703566], [115.02082796783401, 30.294964304703566], [115.02082796783401, 30.29514396776039], [115.02064830477718, 30.29514396776039], [115.02064830477718, 30.295323630817215], [115.02028897866353, 30.295323630817215], [115.02028897866353, 30.295503293874038], [115.0201093156067, 30.295503293874038], [115.0201093156067, 30.296401609158156], [115.02064830477718, 30.296401609158156], [115.02064830477718, 30.29694059832863], [115.0201093156067, 30.29694059832863], [115.0201093156067, 30.298018576669573], [115.02064830477718, 30.298018576669573], [115.02064830477718, 30.298557565840046], [115.0201093156067, 30.298557565840046], [115.0201093156067, 30.29891689195369], [115.01974998949306, 30.29891689195369]]]}, "properties": {"name": "cand06", "ptype": "hall", "confidence": "low", "rank": 6, "area_ha": 3.6, "rise_db": 16.9, "digitised_from": "Sentinel-1 VV rise 2022->2026, orbit 40"}}, {"type": "Feature", "geometry": {"geodesic": false, "type": "Polygon", "coordinates": [[[114.99657345516277, 30.365931212149007], [114.99657345516277, 30.365751549092185], [114.99639379210595, 30.365751549092185], [114.99639379210595, 30.36557188603536], [114.99603446599231, 30.36557188603536], [114.99603446599231, 30.365751549092185], [114.99585480293548, 30.365751549092185], [114.99585480293548, 30.365931212149007], [114.99567513987866, 30.365931212149007], [114.99567513987866, 30.36557188603536], [114.99549547682183, 30.36557188603536], [114.99549547682183, 30.365392222978535], [114.99567513987866, 30.365392222978535], [114.99567513987866, 30.365212559921712], [114.99585480293548, 30.365212559921712], [114.99585480293548, 30.36503289686489], [114.99603446599231, 30.36503289686489], [114.99603446599231, 30.36467357075124], [114.99621412904912, 30.36467357075124], [114.99621412904912, 30.364314244637594], [114.9967531182196, 30.364314244637594], [114.9967531182196, 30.364493907694417], [114.99729210739007, 30.364493907694417], [114.99729210739007, 30.36467357075124], [114.99765143350372, 30.36467357075124], [114.99765143350372, 30.364853233808066], [114.99783109656055, 30.364853233808066], [114.99783109656055, 30.36503289686489], [114.99801075961737, 30.36503289686489], [114.99801075961737, 30.365392222978535], [114.99783109656055, 30.365392222978535], [114.99783109656055, 30.36557188603536], [114.99765143350372, 30.36557188603536], [114.99765143350372, 30.365931212149007], [114.99657345516277, 30.365931212149007]]]}, "properties": {"name": "cand07", "ptype": "hall", "confidence": "low", "rank": 7, "area_ha": 3.3, "rise_db": 8.3, "digitised_from": "Sentinel-1 VV rise 2022->2026, orbit 40"}}, {"type": "Feature", "geometry": {"geodesic": false, "type": "Polygon", "coordinates": [[[115.0425671977097, 30.365931212149007], [115.0425671977097, 30.365751549092185], [115.04238753465287, 30.365751549092185], [115.04238753465287, 30.365931212149007], [115.04220787159605, 30.365931212149007], [115.04220787159605, 30.365751549092185], [115.0418485454824, 30.365751549092185], [115.0418485454824, 30.36557188603536], [115.04148921936876, 30.36557188603536], [115.04148921936876, 30.365751549092185], [115.04130955631193, 30.365751549092185], [115.04130955631193, 30.365931212149007], [115.03825528434592, 30.365931212149007], [115.03825528434592, 30.365751549092185], [115.03843494740275, 30.365751549092185], [115.03843494740275, 30.36557188603536], [115.03987225185733, 30.36557188603536], [115.03987225185733, 30.365392222978535], [115.0411298932551, 30.365392222978535], [115.0411298932551, 30.365212559921712], [115.04274686076651, 30.365212559921712], [115.04274686076651, 30.365751549092185], [115.04292652382334, 30.365751549092185], [115.04292652382334, 30.365931212149007], [115.0425671977097, 30.365931212149007]]]}, "properties": {"name": "cand08", "ptype": "hall", "confidence": "low", "rank": 8, "area_ha": 2.7, "rise_db": 7.3, "digitised_from": "Sentinel-1 VV rise 2022->2026, orbit 40"}}, {"type": "Feature", "geometry": {"geodesic": false, "type": "Polygon", "coordinates": [[[115.04580113273252, 30.36467357075124], [115.04580113273252, 30.3635955924103], [115.04526214356206, 30.3635955924103], [115.04526214356206, 30.36377525546712], [115.04508248050523, 30.36377525546712], [115.04508248050523, 30.363954918523945], [115.0449028174484, 30.363954918523945], [115.0449028174484, 30.36413458158077], [115.04472315439158, 30.36413458158077], [115.04472315439158, 30.363954918523945], [115.04454349133476, 30.363954918523945], [115.04454349133476, 30.36377525546712], [115.04436382827794, 30.36377525546712], [115.04436382827794, 30.3635955924103], [115.04454349133476, 30.3635955924103], [115.04454349133476, 30.363415929353472], [115.04472315439158, 30.363415929353472], [115.04472315439158, 30.36323626629665], [115.04544180661888, 30.36323626629665], [115.04544180661888, 30.363056603239826], [115.04598079578935, 30.363056603239826], [115.04598079578935, 30.362876940183003], [115.046340121903, 30.362876940183003], [115.046340121903, 30.363056603239826], [115.04651978495983, 30.363056603239826], [115.04651978495983, 30.3635955924103], [115.04669944801664, 30.3635955924103], [115.04669944801664, 30.36377525546712], [115.04651978495983, 30.36377525546712], [115.04651978495983, 30.363954918523945], [115.04616045884617, 30.363954918523945], [115.04616045884617, 30.364314244637594], [115.046340121903, 30.364314244637594], [115.046340121903, 30.364493907694417], [115.04651978495983, 30.364493907694417], [115.04651978495983, 30.364314244637594], [115.04669944801664, 30.364314244637594], [115.04669944801664, 30.36467357075124], [115.04580113273252, 30.36467357075124]]]}, "properties": {"name": "cand09", "ptype": "hall", "confidence": "low", "rank": 9, "area_ha": 2.4, "rise_db": 6.9, "digitised_from": "Sentinel-1 VV rise 2022->2026, orbit 40"}}, {"type": "Feature", "geometry": {"geodesic": false, "type": "Polygon", "coordinates": [[[115.01076683665187, 30.351019178432626], [115.01076683665187, 30.350659852318977], [115.01040751053822, 30.350659852318977], [115.01040751053822, 30.350480189262154], [115.01004818442456, 30.350480189262154], [115.01004818442456, 30.350659852318977], [115.00932953219727, 30.350659852318977], [115.00932953219727, 30.34994120009168], [115.0095091952541, 30.34994120009168], [115.0095091952541, 30.34940221092121], [115.00968885831092, 30.34940221092121], [115.00968885831092, 30.349222547864386], [115.01004818442456, 30.349222547864386], [115.01004818442456, 30.34940221092121], [115.00986852136775, 30.34940221092121], [115.00986852136775, 30.34976153703486], [115.00968885831092, 30.34976153703486], [115.00968885831092, 30.350120863148504], [115.0095091952541, 30.350120863148504], [115.0095091952541, 30.350300526205327], [115.01004818442456, 30.350300526205327], [115.01004818442456, 30.350120863148504], [115.01022784748139, 30.350120863148504], [115.01022784748139, 30.34994120009168], [115.01040751053822, 30.34994120009168], [115.01040751053822, 30.34976153703486], [115.0111261627655, 30.34976153703486], [115.0111261627655, 30.34994120009168], [115.01130582582233, 30.34994120009168], [115.01130582582233, 30.350120863148504], [115.01148548887916, 30.350120863148504], [115.01148548887916, 30.350659852318977], [115.01130582582233, 30.350659852318977], [115.01130582582233, 30.351019178432626], [115.01076683665187, 30.351019178432626]]]}, "properties": {"name": "cand10", "ptype": "hall", "confidence": "low", "rank": 10, "area_ha": 2.2, "rise_db": 6.5, "digitised_from": "Sentinel-1 VV rise 2022->2026, orbit 40"}}, {"type": "Feature", "geometry": {"geodesic": false, "type": "Polygon", "coordinates": [[[115.04238753465287, 30.35407345039863], [115.04238753465287, 30.353893787341807], [115.0425671977097, 30.353893787341807], [115.0425671977097, 30.353714124284984], [115.04274686076651, 30.353714124284984], [115.04274686076651, 30.353534461228158], [115.04292652382334, 30.353534461228158], [115.04292652382334, 30.353354798171335], [115.04508248050523, 30.353354798171335], [115.04508248050523, 30.353175135114512], [115.04544180661888, 30.353175135114512], [115.04544180661888, 30.35299547205769], [115.0456214696757, 30.35299547205769], [115.0456214696757, 30.353175135114512], [115.04598079578935, 30.353175135114512], [115.04598079578935, 30.353534461228158], [115.04544180661888, 30.353534461228158], [115.04544180661888, 30.353893787341807], [115.0449028174484, 30.353893787341807], [115.0449028174484, 30.353714124284984], [115.04382483910746, 30.353714124284984], [115.04382483910746, 30.353893787341807], [115.04274686076651, 30.353893787341807], [115.04274686076651, 30.35407345039863], [115.04238753465287, 30.35407345039863]]]}, "properties": {"name": "cand11", "ptype": "hall", "confidence": "low", "rank": 11, "area_ha": 2.0, "rise_db": 6.9, "digitised_from": "Sentinel-1 VV rise 2022->2026, orbit 40"}}, {"type": "Feature", "geometry": {"geodesic": false, "type": "Polygon", "coordinates": [[[115.04292652382334, 30.35622940708052], [115.04292652382334, 30.356049744023693], [115.04274686076651, 30.356049744023693], [115.04274686076651, 30.35587008096687], [115.0425671977097, 30.35587008096687], [115.0425671977097, 30.35551075485322], [115.04238753465287, 30.35551075485322], [115.04238753465287, 30.354971765682752], [115.0425671977097, 30.354971765682752], [115.0425671977097, 30.354612439569102], [115.04274686076651, 30.354612439569102], [115.04274686076651, 30.35443277651228], [115.04346551299382, 30.35443277651228], [115.04346551299382, 30.354253113455457], [115.04364517605063, 30.354253113455457], [115.04364517605063, 30.35443277651228], [115.04418416522111, 30.35443277651228], [115.04418416522111, 30.354792102625925], [115.04328584993699, 30.354792102625925], [115.04328584993699, 30.354971765682752], [115.04310618688017, 30.354971765682752], [115.04310618688017, 30.35551075485322], [115.04328584993699, 30.35551075485322], [115.04328584993699, 30.35622940708052], [115.04292652382334, 30.35622940708052]]]}, "properties": {"name": "cand12", "ptype": "hall", "confidence": "low", "rank": 12, "area_ha": 1.9, "rise_db": 7.2, "digitised_from": "Sentinel-1 VV rise 2022->2026, orbit 40"}}, {"type": "Feature", "geometry": {"geodesic": false, "type": "Polygon", "coordinates": [[[115.0449028174484, 30.365931212149007], [115.0449028174484, 30.36557188603536], [115.04472315439158, 30.36557188603536], [115.04472315439158, 30.365212559921712], [115.04544180661888, 30.365212559921712], [115.04544180661888, 30.36503289686489], [115.046340121903, 30.36503289686489], [115.046340121903, 30.36557188603536], [115.04651978495983, 30.36557188603536], [115.04651978495983, 30.365751549092185], [115.04687911107347, 30.365751549092185], [115.04687911107347, 30.365931212149007], [115.0449028174484, 30.365931212149007]]]}, "properties": {"name": "cand13", "ptype": "hall", "confidence": "low", "rank": 13, "area_ha": 1.7, "rise_db": 14.8, "digitised_from": "Sentinel-1 VV rise 2022->2026, orbit 40"}}, {"type": "Feature", "geometry": {"geodesic": false, "type": "Polygon", "coordinates": [[[115.04346551299382, 30.358385363762405], [115.04346551299382, 30.35766671153511], [115.04328584993699, 30.35766671153511], [115.04328584993699, 30.35730738542146], [115.04310618688017, 30.35730738542146], [115.04310618688017, 30.356948059307815], [115.04328584993699, 30.356948059307815], [115.04328584993699, 30.356768396250988], [115.04364517605063, 30.356768396250988], [115.04364517605063, 30.356588733194165], [115.04400450216428, 30.356588733194165], [115.04400450216428, 30.356768396250988], [115.04436382827794, 30.356768396250988], [115.04436382827794, 30.357127722364638], [115.04382483910746, 30.357127722364638], [115.04382483910746, 30.357487048478283], [115.04400450216428, 30.357487048478283], [115.04400450216428, 30.358385363762405], [115.04346551299382, 30.358385363762405]]]}, "properties": {"name": "cand14", "ptype": "hall", "confidence": "low", "rank": 14, "area_ha": 1.5, "rise_db": 8.5, "digitised_from": "Sentinel-1 VV rise 2022->2026, orbit 40"}}, {"type": "Feature", "geometry": {"geodesic": false, "type": "Polygon", "coordinates": [[[115.01723470669752, 30.32047645877256], [115.01723470669752, 30.320296795715738], [115.01741436975435, 30.320296795715738], [115.01741436975435, 30.31993746960209], [115.01759403281117, 30.31993746960209], [115.01759403281117, 30.319578143488442], [115.017773695868, 30.319578143488442], [115.017773695868, 30.319398480431616], [115.01795335892481, 30.319398480431616], [115.01795335892481, 30.31903915431797], [115.01813302198164, 30.31903915431797], [115.01813302198164, 30.318140839033852], [115.01831268503847, 30.318140839033852], [115.01831268503847, 30.317961175977025], [115.0184923480953, 30.317961175977025], [115.0184923480953, 30.317781512920202], [115.01867201115212, 30.317781512920202], [115.01867201115212, 30.31760184986338], [115.01885167420895, 30.31760184986338], [115.01885167420895, 30.318140839033852], [115.01867201115212, 30.318140839033852], [115.01867201115212, 30.318320502090675], [115.0184923480953, 30.318320502090675], [115.0184923480953, 30.31903915431797], [115.01831268503847, 30.31903915431797], [115.01831268503847, 30.319218817374793], [115.01813302198164, 30.319218817374793], [115.01813302198164, 30.319757806545265], [115.01795335892481, 30.319757806545265], [115.01795335892481, 30.31993746960209], [115.017773695868, 30.31993746960209], [115.017773695868, 30.320296795715738], [115.01759403281117, 30.320296795715738], [115.01759403281117, 30.32047645877256], [115.01723470669752, 30.32047645877256]]]}, "properties": {"name": "cand15", "ptype": "hall", "confidence": "low", "rank": 15, "area_ha": 1.3, "rise_db": 6.2, "digitised_from": "Sentinel-1 VV rise 2022->2026, orbit 40"}}, {"type": "Feature", "geometry": {"geodesic": false, "type": "Polygon", "coordinates": [[[115.04526214356206, 30.35587008096687], [115.04526214356206, 30.354792102625925], [115.0449028174484, 30.354792102625925], [115.0449028174484, 30.354612439569102], [115.04436382827794, 30.354612439569102], [115.04436382827794, 30.35443277651228], [115.04454349133476, 30.35443277651228], [115.04454349133476, 30.354253113455457], [115.04526214356206, 30.354253113455457], [115.04526214356206, 30.35443277651228], [115.0456214696757, 30.35443277651228], [115.0456214696757, 30.354612439569102], [115.04580113273252, 30.354612439569102], [115.04580113273252, 30.354971765682752], [115.0456214696757, 30.354971765682752], [115.0456214696757, 30.355331091796398], [115.04580113273252, 30.355331091796398], [115.04580113273252, 30.35587008096687], [115.04526214356206, 30.35587008096687]]]}, "properties": {"name": "cand16", "ptype": "hall", "confidence": "low", "rank": 16, "area_ha": 1.3, "rise_db": 8.5, "digitised_from": "Sentinel-1 VV rise 2022->2026, orbit 40"}}, {"type": "Feature", "geometry": {"geodesic": false, "type": "Polygon", "coordinates": [[[115.03502134932309, 30.328561296329635], [115.03502134932309, 30.328381633272812], [115.03484168626626, 30.328381633272812], [115.03484168626626, 30.328022307159166], [115.03466202320945, 30.328022307159166], [115.03466202320945, 30.32784264410234], [115.03484168626626, 30.32784264410234], [115.03484168626626, 30.327662981045517], [115.03556033849357, 30.327662981045517], [115.03556033849357, 30.32784264410234], [115.03574000155038, 30.32784264410234], [115.03574000155038, 30.327483317988694], [115.0359196646072, 30.327483317988694], [115.0359196646072, 30.327662981045517], [115.03609932766403, 30.327662981045517], [115.03609932766403, 30.32820197021599], [115.0359196646072, 30.32820197021599], [115.0359196646072, 30.328381633272812], [115.03520101237991, 30.328381633272812], [115.03520101237991, 30.328561296329635], [115.03502134932309, 30.328561296329635]]]}, "properties": {"name": "cand17", "ptype": "hall", "confidence": "low", "rank": 17, "area_ha": 1.2, "rise_db": 7.4, "digitised_from": "Sentinel-1 VV rise 2022->2026, orbit 40"}}, {"type": "Feature", "geometry": {"geodesic": false, "type": "Polygon", "coordinates": [[[115.00178368381067, 30.35874468987605], [115.00178368381067, 30.358385363762405], [115.00160402075385, 30.358385363762405], [115.00160402075385, 30.358205700705582], [115.00142435769702, 30.358205700705582], [115.00142435769702, 30.358026037648756], [115.00124469464019, 30.358026037648756], [115.00124469464019, 30.357846374591933], [115.00106503158338, 30.357846374591933], [115.00106503158338, 30.357487048478283], [115.00142435769702, 30.357487048478283], [115.00142435769702, 30.35766671153511], [115.00160402075385, 30.35766671153511], [115.00160402075385, 30.357846374591933], [115.0019633468675, 30.357846374591933], [115.0019633468675, 30.35766671153511], [115.00250233603796, 30.35766671153511], [115.00250233603796, 30.358026037648756], [115.00232267298114, 30.358026037648756], [115.00232267298114, 30.358565026819228], [115.00214300992431, 30.358565026819228], [115.00214300992431, 30.35874468987605], [115.00178368381067, 30.35874468987605]]]}, "properties": {"name": "cand18", "ptype": "hall", "confidence": "low", "rank": 18, "area_ha": 1.2, "rise_db": 6.0, "digitised_from": "Sentinel-1 VV rise 2022->2026, orbit 40"}}, {"type": "Feature", "geometry": {"geodesic": false, "type": "Polygon", "coordinates": [[[115.03304505569803, 30.33700546000036], [115.03304505569803, 30.336646133886713], [115.0328653926412, 30.336646133886713], [115.0328653926412, 30.336286807773064], [115.03304505569803, 30.336286807773064], [115.03304505569803, 30.33610714471624], [115.03322471875485, 30.33610714471624], [115.03322471875485, 30.336286807773064], [115.0335840448685, 30.336286807773064], [115.0335840448685, 30.33610714471624], [115.03394337098214, 30.33610714471624], [115.03394337098214, 30.336286807773064], [115.03376370792532, 30.336286807773064], [115.03376370792532, 30.336466470829887], [115.03412303403897, 30.336466470829887], [115.03412303403897, 30.336825796943536], [115.03394337098214, 30.336825796943536], [115.03394337098214, 30.33700546000036], [115.03304505569803, 30.33700546000036]]]}, "properties": {"name": "cand19", "ptype": "hall", "confidence": "low", "rank": 19, "area_ha": 1.0, "rise_db": 7.1, "digitised_from": "Sentinel-1 VV rise 2022->2026, orbit 40"}}, {"type": "Feature", "geometry": {"geodesic": false, "type": "Polygon", "coordinates": [[[115.02478055508413, 30.35730738542146], [115.02478055508413, 30.355331091796398], [115.02496021814095, 30.355331091796398], [115.02496021814095, 30.355151428739575], [115.02513988119777, 30.355151428739575], [115.02513988119777, 30.354971765682752], [115.0253195442546, 30.354971765682752], [115.0253195442546, 30.35551075485322], [115.02513988119777, 30.35551075485322], [115.02513988119777, 30.357127722364638], [115.02496021814095, 30.357127722364638], [115.02496021814095, 30.35730738542146], [115.02478055508413, 30.35730738542146]]]}, "properties": {"name": "cand20", "ptype": "hall", "confidence": "low", "rank": 20, "area_ha": 1.0, "rise_db": 6.0, "digitised_from": "Sentinel-1 VV rise 2022->2026, orbit 40"}}]}