{"type": "FeatureCollection", "features": [{"type": "Feature", "geometry": {"geodesic": false, "type": "Polygon", "coordinates": [[[118.56791569870835, 40.46982220181174], [118.56791569870835, 40.46964253875491], [118.5675563725947, 40.46964253875491], [118.5675563725947, 40.469283212641265], [118.56773603565152, 40.469283212641265], [118.56773603565152, 40.469103549584446], [118.56791569870835, 40.469103549584446], [118.56791569870835, 40.46838489735715], [118.56773603565152, 40.46838489735715], [118.56773603565152, 40.46820523430032], [118.56809536176517, 40.46820523430032], [118.56809536176517, 40.4680255712435], [118.56791569870835, 40.4680255712435], [118.56791569870835, 40.46766624512985], [118.56845468787881, 40.46766624512985], [118.56845468787881, 40.46748658207303], [118.56863435093564, 40.46748658207303], [118.56863435093564, 40.4673069190162], [118.56881401399247, 40.4673069190162], [118.56881401399247, 40.46712725595938], [118.56863435093564, 40.46712725595938], [118.56863435093564, 40.46694759290256], [118.56827502482199, 40.46694759290256], [118.56827502482199, 40.46676792984573], [118.56809536176517, 40.46676792984573], [118.56809536176517, 40.46658826678891], [118.56791569870835, 40.46658826678891], [118.56791569870835, 40.46604927761844], [118.56809536176517, 40.46604927761844], [118.56809536176517, 40.46586961456161], [118.56827502482199, 40.46586961456161], [118.56827502482199, 40.465510288447966], [118.56809536176517, 40.465510288447966], [118.56809536176517, 40.464971299277494], [118.56827502482199, 40.464971299277494], [118.56827502482199, 40.464252647050195], [118.56845468787881, 40.464252647050195], [118.56845468787881, 40.464072983993375], [118.56863435093564, 40.464072983993375], [118.56863435093564, 40.46389332093655], [118.56881401399247, 40.46389332093655], [118.56881401399247, 40.46371365787972], [118.56899367704929, 40.46371365787972], [118.56899367704929, 40.46443231010702], [118.56881401399247, 40.46443231010702], [118.56881401399247, 40.46515096233432], [118.56863435093564, 40.46515096233432], [118.56863435093564, 40.465510288447966], [118.56881401399247, 40.465510288447966], [118.56881401399247, 40.46622894067526], [118.56899367704929, 40.46622894067526], [118.56899367704929, 40.46712725595938], [118.56917334010612, 40.46712725595938], [118.56917334010612, 40.46748658207303], [118.56935300316293, 40.46748658207303], [118.56935300316293, 40.4680255712435], [118.56953266621976, 40.4680255712435], [118.56953266621976, 40.46820523430032], [118.56971232927658, 40.46820523430032], [118.56971232927658, 40.46892388652762], [118.56953266621976, 40.46892388652762], [118.56953266621976, 40.469103549584446], [118.56917334010612, 40.469103549584446], [118.56917334010612, 40.469283212641265], [118.56899367704929, 40.469283212641265], [118.56899367704929, 40.46946287569809], [118.56845468787881, 40.46946287569809], [118.56845468787881, 40.46964253875491], [118.56827502482199, 40.46964253875491], [118.56827502482199, 40.46982220181174], [118.56791569870835, 40.46982220181174]], [[118.56845468787881, 40.469283212641265], [118.56809536176517, 40.469283212641265], [118.56809536176517, 40.469103549584446], [118.56827502482199, 40.469103549584446], [118.56827502482199, 40.46874422347079], [118.56863435093564, 40.46874422347079], [118.56863435093564, 40.469103549584446], [118.56845468787881, 40.469103549584446], [118.56845468787881, 40.469283212641265]]]}, "properties": {"name": "cand01", "ptype": "hall", "confidence": "low", "rank": 1, "area_ha": 6.7, "rise_db": 6.2, "digitised_from": "Sentinel-1 VV rise 2022->2026, orbit 69"}}, {"type": "Feature", "geometry": {"geodesic": false, "type": "Polygon", "coordinates": [[[118.57168862290165, 40.43460824267425], [118.57168862290165, 40.434248916560605], [118.57150895984482, 40.434248916560605], [118.57150895984482, 40.43406925350378], [118.571329296788, 40.43406925350378], [118.571329296788, 40.43335060127649], [118.57114963373118, 40.43335060127649], [118.57114963373118, 40.43317093821966], [118.5706106445607, 40.43317093821966], [118.5706106445607, 40.43335060127649], [118.57043098150388, 40.43335060127649], [118.57043098150388, 40.43370992739013], [118.57079030761753, 40.43370992739013], [118.57079030761753, 40.43388959044696], [118.57096997067435, 40.43388959044696], [118.57096997067435, 40.43406925350378], [118.57079030761753, 40.43406925350378], [118.57079030761753, 40.434248916560605], [118.57025131844705, 40.434248916560605], [118.57025131844705, 40.43406925350378], [118.57007165539024, 40.43406925350378], [118.57007165539024, 40.43388959044696], [118.56989199233341, 40.43388959044696], [118.56989199233341, 40.43370992739013], [118.56971232927658, 40.43370992739013], [118.56971232927658, 40.43335060127649], [118.56989199233341, 40.43335060127649], [118.56989199233341, 40.43317093821966], [118.57025131844705, 40.43317093821966], [118.57025131844705, 40.432811612106015], [118.57007165539024, 40.432811612106015], [118.57007165539024, 40.43263194904919], [118.56989199233341, 40.43263194904919], [118.56989199233341, 40.432811612106015], [118.56971232927658, 40.432811612106015], [118.56971232927658, 40.43299127516284], [118.56953266621976, 40.43299127516284], [118.56953266621976, 40.432811612106015], [118.56935300316293, 40.432811612106015], [118.56935300316293, 40.43227262293554], [118.56971232927658, 40.43227262293554], [118.56971232927658, 40.432092959878716], [118.57007165539024, 40.432092959878716], [118.57007165539024, 40.4319132968219], [118.57025131844705, 40.4319132968219], [118.57025131844705, 40.43173363376507], [118.57007165539024, 40.43173363376507], [118.57007165539024, 40.431374307651424], [118.57043098150388, 40.431374307651424], [118.57043098150388, 40.4311946445946], [118.57096997067435, 40.4311946445946], [118.57096997067435, 40.431374307651424], [118.57114963373118, 40.431374307651424], [118.57114963373118, 40.431553970708244], [118.571329296788, 40.431553970708244], [118.571329296788, 40.4319132968219], [118.57114963373118, 40.4319132968219], [118.57114963373118, 40.432092959878716], [118.5706106445607, 40.432092959878716], [118.5706106445607, 40.43227262293554], [118.57079030761753, 40.43227262293554], [118.57079030761753, 40.43263194904919], [118.57114963373118, 40.43263194904919], [118.57114963373118, 40.432811612106015], [118.571329296788, 40.432811612106015], [118.571329296788, 40.43299127516284], [118.57150895984482, 40.43299127516284], [118.57150895984482, 40.43335060127649], [118.57168862290165, 40.43335060127649], [118.57168862290165, 40.43353026433331], [118.57186828595847, 40.43353026433331], [118.57186828595847, 40.43388959044696], [118.57168862290165, 40.43388959044696], [118.57168862290165, 40.434248916560605], [118.57222761207211, 40.434248916560605], [118.57222761207211, 40.43442857961743], [118.57240727512894, 40.43442857961743], [118.57240727512894, 40.43406925350378], [118.57258693818576, 40.43406925350378], [118.57258693818576, 40.43388959044696], [118.57240727512894, 40.43388959044696], [118.57240727512894, 40.43353026433331], [118.57294626429942, 40.43353026433331], [118.57294626429942, 40.43370992739013], [118.57312592735624, 40.43370992739013], [118.57312592735624, 40.43388959044696], [118.57294626429942, 40.43388959044696], [118.57294626429942, 40.43406925350378], [118.57276660124259, 40.43406925350378], [118.57276660124259, 40.434248916560605], [118.57258693818576, 40.434248916560605], [118.57258693818576, 40.43460824267425], [118.57168862290165, 40.43460824267425]]]}, "properties": {"name": "cand02", "ptype": "hall", "confidence": "low", "rank": 2, "area_ha": 5.2, "rise_db": 6.2, "digitised_from": "Sentinel-1 VV rise 2022->2026, orbit 69"}}, {"type": "Feature", "geometry": {"geodesic": false, "type": "Polygon", "coordinates": [[[118.56827502482199, 40.47575108268693], [118.56827502482199, 40.4755714196301], [118.56809536176517, 40.4755714196301], [118.56809536176517, 40.475212093516454], [118.56827502482199, 40.475212093516454], [118.56827502482199, 40.47485276740281], [118.56845468787881, 40.47485276740281], [118.56845468787881, 40.47449344128916], [118.56809536176517, 40.47449344128916], [118.56809536176517, 40.474313778232336], [118.56863435093564, 40.474313778232336], [118.56863435093564, 40.47377478906186], [118.56845468787881, 40.47377478906186], [118.56845468787881, 40.47359512600504], [118.56863435093564, 40.47359512600504], [118.56863435093564, 40.472876473777745], [118.56917334010612, 40.472876473777745], [118.56917334010612, 40.47269681072092], [118.56971232927658, 40.47269681072092], [118.56971232927658, 40.472876473777745], [118.56989199233341, 40.472876473777745], [118.56989199233341, 40.47305613683457], [118.57025131844705, 40.47305613683457], [118.57025131844705, 40.47341546294822], [118.56989199233341, 40.47341546294822], [118.56989199233341, 40.47377478906186], [118.57007165539024, 40.47377478906186], [118.57007165539024, 40.47413411517551], [118.57025131844705, 40.47413411517551], [118.57025131844705, 40.474313778232336], [118.57043098150388, 40.474313778232336], [118.57043098150388, 40.47449344128916], [118.57025131844705, 40.47449344128916], [118.57025131844705, 40.474313778232336], [118.56989199233341, 40.474313778232336], [118.56989199233341, 40.47449344128916], [118.56971232927658, 40.47449344128916], [118.56971232927658, 40.475212093516454], [118.56953266621976, 40.475212093516454], [118.56953266621976, 40.47539175657328], [118.56899367704929, 40.47539175657328], [118.56899367704929, 40.4755714196301], [118.56881401399247, 40.4755714196301], [118.56881401399247, 40.47575108268693], [118.56827502482199, 40.47575108268693]], [[118.56971232927658, 40.47305613683457], [118.56953266621976, 40.47305613683457], [118.56953266621976, 40.472876473777745], [118.56971232927658, 40.472876473777745], [118.56971232927658, 40.47305613683457]], [[118.56953266621976, 40.47323579989139], [118.56935300316293, 40.47323579989139], [118.56935300316293, 40.47305613683457], [118.56953266621976, 40.47305613683457], [118.56953266621976, 40.47323579989139]], [[118.56935300316293, 40.47413411517551], [118.56917334010612, 40.47413411517551], [118.56917334010612, 40.47341546294822], [118.56953266621976, 40.47341546294822], [118.56953266621976, 40.47359512600504], [118.56971232927658, 40.47359512600504], [118.56971232927658, 40.47377478906186], [118.56935300316293, 40.47377478906186], [118.56935300316293, 40.47413411517551]], [[118.56917334010612, 40.47485276740281], [118.56899367704929, 40.47485276740281], [118.56899367704929, 40.47467310434598], [118.56917334010612, 40.47467310434598], [118.56917334010612, 40.47485276740281]]]}, "properties": {"name": "cand03", "ptype": "hall", "confidence": "low", "rank": 3, "area_ha": 4.6, "rise_db": 6.7, "digitised_from": "Sentinel-1 VV rise 2022->2026, orbit 69"}}, {"type": "Feature", "geometry": {"geodesic": false, "type": "Polygon", "coordinates": [[[118.56360378534457, 40.47215782155045], [118.56360378534457, 40.47197815849363], [118.56342412228774, 40.47197815849363], [118.56342412228774, 40.4717984954368], [118.56360378534457, 40.4717984954368], [118.56360378534457, 40.471439169323155], [118.56342412228774, 40.471439169323155], [118.56342412228774, 40.47107984320951], [118.56324445923093, 40.47107984320951], [118.56324445923093, 40.47090018015268], [118.5630647961741, 40.47090018015268], [118.5630647961741, 40.47054085403904], [118.56324445923093, 40.47054085403904], [118.56324445923093, 40.47036119098221], [118.56360378534457, 40.47036119098221], [118.56360378534457, 40.470181527925384], [118.56414277451505, 40.470181527925384], [118.56414277451505, 40.47036119098221], [118.56432243757186, 40.47036119098221], [118.56432243757186, 40.470001864868564], [118.56396311145822, 40.470001864868564], [118.56396311145822, 40.46982220181174], [118.5637834484014, 40.46982220181174], [118.5637834484014, 40.46946287569809], [118.56396311145822, 40.46946287569809], [118.56396311145822, 40.469283212641265], [118.56432243757186, 40.469283212641265], [118.56432243757186, 40.469103549584446], [118.56468176368551, 40.469103549584446], [118.56468176368551, 40.46946287569809], [118.56432243757186, 40.46946287569809], [118.56432243757186, 40.470001864868564], [118.56468176368551, 40.470001864868564], [118.56468176368551, 40.46982220181174], [118.56486142674234, 40.46982220181174], [118.56486142674234, 40.46964253875491], [118.5654004159128, 40.46964253875491], [118.5654004159128, 40.46946287569809], [118.56558007896963, 40.46946287569809], [118.56558007896963, 40.469103549584446], [118.56575974202646, 40.469103549584446], [118.56575974202646, 40.46964253875491], [118.56558007896963, 40.46964253875491], [118.56558007896963, 40.46982220181174], [118.56575974202646, 40.46982220181174], [118.56575974202646, 40.470001864868564], [118.56558007896963, 40.470001864868564], [118.56558007896963, 40.470181527925384], [118.5654004159128, 40.470181527925384], [118.5654004159128, 40.47036119098221], [118.56522075285599, 40.47036119098221], [118.56522075285599, 40.47054085403904], [118.56504108979917, 40.47054085403904], [118.56504108979917, 40.47125950626633], [118.56486142674234, 40.47125950626633], [118.56486142674234, 40.471439169323155], [118.56468176368551, 40.471439169323155], [118.56468176368551, 40.471618832379974], [118.56432243757186, 40.471618832379974], [118.56432243757186, 40.47197815849363], [118.56396311145822, 40.47197815849363], [118.56396311145822, 40.47215782155045], [118.56360378534457, 40.47215782155045]], [[118.56450210062869, 40.47125950626633], [118.56432243757186, 40.47125950626633], [118.56432243757186, 40.47107984320951], [118.56414277451505, 40.47107984320951], [118.56414277451505, 40.47090018015268], [118.56432243757186, 40.47090018015268], [118.56432243757186, 40.470720517095856], [118.56450210062869, 40.470720517095856], [118.56450210062869, 40.47054085403904], [118.56486142674234, 40.47054085403904], [118.56486142674234, 40.470720517095856], [118.56468176368551, 40.470720517095856], [118.56468176368551, 40.47107984320951], [118.56450210062869, 40.47107984320951], [118.56450210062869, 40.47125950626633]]]}, "properties": {"name": "cand04", "ptype": "hall", "confidence": "low", "rank": 4, "area_ha": 4.5, "rise_db": 5.3, "digitised_from": "Sentinel-1 VV rise 2022->2026, orbit 69"}}, {"type": "Feature", "geometry": {"geodesic": false, "type": "Polygon", "coordinates": [[[118.56072917643539, 40.4425134171745], [118.56072917643539, 40.44233375411768], [118.56036985032173, 40.44233375411768], [118.56036985032173, 40.4425134171745], [118.55947153503762, 40.4425134171745], [118.55947153503762, 40.44233375411768], [118.5592918719808, 40.44233375411768], [118.5592918719808, 40.44215409106086], [118.55947153503762, 40.44215409106086], [118.55947153503762, 40.44143543883356], [118.5592918719808, 40.44143543883356], [118.5592918719808, 40.44107611271991], [118.55947153503762, 40.44107611271991], [118.55947153503762, 40.44071678660627], [118.55983086115127, 40.44071678660627], [118.55983086115127, 40.44089644966309], [118.5600105242081, 40.44089644966309], [118.5600105242081, 40.44107611271991], [118.56019018726492, 40.44107611271991], [118.56019018726492, 40.44125577577674], [118.56090883949221, 40.44125577577674], [118.56090883949221, 40.44143543883356], [118.5616274917195, 40.44143543883356], [118.5616274917195, 40.44215409106086], [118.56198681783316, 40.44215409106086], [118.56198681783316, 40.4425134171745], [118.56072917643539, 40.4425134171745]], [[118.55983086115127, 40.44107611271991], [118.55965119809444, 40.44107611271991], [118.55965119809444, 40.44089644966309], [118.55983086115127, 40.44089644966309], [118.55983086115127, 40.44107611271991]]]}, "properties": {"name": "cand05", "ptype": "hall", "confidence": "low", "rank": 5, "area_ha": 3.7, "rise_db": 10.3, "digitised_from": "Sentinel-1 VV rise 2022->2026, orbit 69"}}, {"type": "Feature", "geometry": {"geodesic": false, "type": "Polygon", "coordinates": [[[118.57294626429942, 40.43335060127649], [118.57294626429942, 40.43317093821966], [118.57276660124259, 40.43317093821966], [118.57276660124259, 40.43245228599237], [118.57294626429942, 40.43245228599237], [118.57294626429942, 40.43227262293554], [118.57312592735624, 40.43227262293554], [118.57312592735624, 40.431553970708244], [118.57330559041306, 40.431553970708244], [118.57330559041306, 40.431374307651424], [118.57348525346988, 40.431374307651424], [118.57348525346988, 40.431553970708244], [118.57384457958354, 40.431553970708244], [118.57384457958354, 40.431374307651424], [118.57402424264036, 40.431374307651424], [118.57402424264036, 40.4311946445946], [118.57420390569717, 40.4311946445946], [118.57420390569717, 40.43101498153778], [118.57456323181083, 40.43101498153778], [118.57456323181083, 40.43083531848095], [118.57474289486765, 40.43083531848095], [118.57474289486765, 40.430655655424125], [118.57492255792448, 40.430655655424125], [118.57492255792448, 40.430475992367306], [118.57564121015177, 40.430475992367306], [118.57564121015177, 40.43101498153778], [118.57546154709495, 40.43101498153778], [118.57546154709495, 40.4311946445946], [118.57528188403812, 40.4311946445946], [118.57528188403812, 40.431374307651424], [118.57510222098131, 40.431374307651424], [118.57510222098131, 40.431553970708244], [118.57492255792448, 40.431553970708244], [118.57492255792448, 40.4319132968219], [118.57474289486765, 40.4319132968219], [118.57474289486765, 40.432092959878716], [118.574383568754, 40.432092959878716], [118.574383568754, 40.4319132968219], [118.57384457958354, 40.4319132968219], [118.57384457958354, 40.432092959878716], [118.57366491652671, 40.432092959878716], [118.57366491652671, 40.43227262293554], [118.57384457958354, 40.43227262293554], [118.57384457958354, 40.43263194904919], [118.57366491652671, 40.43263194904919], [118.57366491652671, 40.43299127516284], [118.57348525346988, 40.43299127516284], [118.57348525346988, 40.43317093821966], [118.57312592735624, 40.43317093821966], [118.57312592735624, 40.43335060127649], [118.57294626429942, 40.43335060127649]]]}, "properties": {"name": "cand06", "ptype": "hall", "confidence": "low", "rank": 6, "area_ha": 3.7, "rise_db": 9.3, "digitised_from": "Sentinel-1 VV rise 2022->2026, orbit 69"}}, {"type": "Feature", "geometry": {"geodesic": false, "type": "Polygon", "coordinates": [[[118.5654004159128, 40.47611040880057], [118.5654004159128, 40.475212093516454], [118.56558007896963, 40.475212093516454], [118.56558007896963, 40.475032430459635], [118.56575974202646, 40.475032430459635], [118.56575974202646, 40.47395445211869], [118.56558007896963, 40.47395445211869], [118.56558007896963, 40.47413411517551], [118.56522075285599, 40.47413411517551], [118.56522075285599, 40.47395445211869], [118.56504108979917, 40.47395445211869], [118.56504108979917, 40.47377478906186], [118.56468176368551, 40.47377478906186], [118.56468176368551, 40.47323579989139], [118.56486142674234, 40.47323579989139], [118.56486142674234, 40.47305613683457], [118.56522075285599, 40.47305613683457], [118.56522075285599, 40.472876473777745], [118.56558007896963, 40.472876473777745], [118.56558007896963, 40.47323579989139], [118.56593940508328, 40.47323579989139], [118.56593940508328, 40.47341546294822], [118.56629873119692, 40.47341546294822], [118.56629873119692, 40.47323579989139], [118.56647839425375, 40.47323579989139], [118.56647839425375, 40.47377478906186], [118.5668377203674, 40.47377478906186], [118.5668377203674, 40.47413411517551], [118.56665805731058, 40.47413411517551], [118.56665805731058, 40.47449344128916], [118.56647839425375, 40.47449344128916], [118.56647839425375, 40.47485276740281], [118.56629873119692, 40.47485276740281], [118.56629873119692, 40.475032430459635], [118.56611906814011, 40.475032430459635], [118.56611906814011, 40.475212093516454], [118.56593940508328, 40.475212093516454], [118.56593940508328, 40.47539175657328], [118.56575974202646, 40.47539175657328], [118.56575974202646, 40.47593074574375], [118.56558007896963, 40.47593074574375], [118.56558007896963, 40.47611040880057], [118.5654004159128, 40.47611040880057]]]}, "properties": {"name": "cand07", "ptype": "hall", "confidence": "low", "rank": 7, "area_ha": 3.4, "rise_db": 9.2, "digitised_from": "Sentinel-1 VV rise 2022->2026, orbit 69"}}, {"type": "Feature", "geometry": {"geodesic": false, "type": "Polygon", "coordinates": [[[118.56863435093564, 40.46030005980007], [118.56863435093564, 40.46012039674325], [118.56845468787881, 40.46012039674325], [118.56845468787881, 40.45994073368642], [118.56827502482199, 40.45994073368642], [118.56827502482199, 40.45958140757278], [118.5675563725947, 40.45958140757278], [118.5675563725947, 40.45940174451595], [118.56737670953787, 40.45940174451595], [118.56737670953787, 40.45958140757278], [118.56701738342423, 40.45958140757278], [118.56701738342423, 40.45940174451595], [118.5668377203674, 40.45940174451595], [118.5668377203674, 40.45922208145913], [118.5675563725947, 40.45922208145913], [118.5675563725947, 40.45886275534548], [118.56737670953787, 40.45886275534548], [118.56737670953787, 40.45850342923183], [118.56719704648106, 40.45850342923183], [118.56719704648106, 40.457605113947714], [118.56773603565152, 40.457605113947714], [118.56773603565152, 40.459042418402305], [118.56791569870835, 40.459042418402305], [118.56791569870835, 40.45922208145913], [118.56863435093564, 40.45922208145913], [118.56863435093564, 40.459042418402305], [118.56881401399247, 40.459042418402305], [118.56881401399247, 40.45886275534548], [118.56917334010612, 40.45886275534548], [118.56917334010612, 40.459042418402305], [118.56935300316293, 40.459042418402305], [118.56935300316293, 40.45940174451595], [118.56953266621976, 40.45940174451595], [118.56953266621976, 40.4597610706296], [118.56935300316293, 40.4597610706296], [118.56935300316293, 40.45994073368642], [118.56917334010612, 40.45994073368642], [118.56917334010612, 40.46012039674325], [118.56899367704929, 40.46012039674325], [118.56899367704929, 40.46030005980007], [118.56863435093564, 40.46030005980007]]]}, "properties": {"name": "cand08", "ptype": "hall", "confidence": "low", "rank": 8, "area_ha": 3.0, "rise_db": 8.8, "digitised_from": "Sentinel-1 VV rise 2022->2026, orbit 69"}}, {"type": "Feature", "geometry": {"geodesic": false, "type": "Polygon", "coordinates": [[[118.59055324386816, 40.479344343823406], [118.59055324386816, 40.47844602853929], [118.59037358081133, 40.47844602853929], [118.59037358081133, 40.47826636548246], [118.5901939177545, 40.47826636548246], [118.5901939177545, 40.477907039368816], [118.58983459164087, 40.477907039368816], [118.58983459164087, 40.47772737631199], [118.58947526552721, 40.47772737631199], [118.58947526552721, 40.47754771325516], [118.58929560247039, 40.47754771325516], [118.58929560247039, 40.4770087240847], [118.58947526552721, 40.4770087240847], [118.58947526552721, 40.47736805019834], [118.58965492858404, 40.47736805019834], [118.58965492858404, 40.47754771325516], [118.58983459164087, 40.47754771325516], [118.58983459164087, 40.4770087240847], [118.58965492858404, 40.4770087240847], [118.58965492858404, 40.476649397971045], [118.59037358081133, 40.476649397971045], [118.59037358081133, 40.47682906102787], [118.59055324386816, 40.47682906102787], [118.59055324386816, 40.4770087240847], [118.59073290692498, 40.4770087240847], [118.59073290692498, 40.47736805019834], [118.59037358081133, 40.47736805019834], [118.59037358081133, 40.47754771325516], [118.59073290692498, 40.47754771325516], [118.59073290692498, 40.47772737631199], [118.59091256998181, 40.47772737631199], [118.59091256998181, 40.477907039368816], [118.59109223303862, 40.477907039368816], [118.59109223303862, 40.478086702425635], [118.59127189609545, 40.478086702425635], [118.59127189609545, 40.47844602853929], [118.59109223303862, 40.47844602853929], [118.59109223303862, 40.47862569159611], [118.59127189609545, 40.47862569159611], [118.59127189609545, 40.47898501770976], [118.59109223303862, 40.47898501770976], [118.59109223303862, 40.479344343823406], [118.59055324386816, 40.479344343823406]], [[118.59001425469768, 40.4770087240847], [118.58983459164087, 40.4770087240847], [118.58983459164087, 40.47682906102787], [118.59001425469768, 40.47682906102787], [118.59001425469768, 40.4770087240847]], [[118.5901939177545, 40.47718838714152], [118.59001425469768, 40.47718838714152], [118.59001425469768, 40.4770087240847], [118.5901939177545, 40.4770087240847], [118.5901939177545, 40.47718838714152]], [[118.5901939177545, 40.47772737631199], [118.59001425469768, 40.47772737631199], [118.59001425469768, 40.47754771325516], [118.5901939177545, 40.47754771325516], [118.5901939177545, 40.47772737631199]]]}, "properties": {"name": "cand09", "ptype": "hall", "confidence": "low", "rank": 9, "area_ha": 2.8, "rise_db": 8.4, "digitised_from": "Sentinel-1 VV rise 2022->2026, orbit 69"}}, {"type": "Feature", "geometry": {"geodesic": false, "type": "Polygon", "coordinates": [[[118.5585732197535, 40.44466937385639], [118.5585732197535, 40.444489710799566], [118.55803423058303, 40.444489710799566], [118.55803423058303, 40.444310047742746], [118.5578545675262, 40.444310047742746], [118.5578545675262, 40.44341173245862], [118.55767490446938, 40.44341173245862], [118.55767490446938, 40.442872743288156], [118.5578545675262, 40.442872743288156], [118.5578545675262, 40.44269308023133], [118.55803423058303, 40.44269308023133], [118.55803423058303, 40.442872743288156], [118.55839355669667, 40.442872743288156], [118.55839355669667, 40.443052406344975], [118.55875288281032, 40.443052406344975], [118.55875288281032, 40.442872743288156], [118.55893254586715, 40.442872743288156], [118.55893254586715, 40.443052406344975], [118.55911220892398, 40.443052406344975], [118.55911220892398, 40.4432320694018], [118.5585732197535, 40.4432320694018], [118.5585732197535, 40.44341173245862], [118.55911220892398, 40.44341173245862], [118.55911220892398, 40.44359139551545], [118.55947153503762, 40.44359139551545], [118.55947153503762, 40.443771058572274], [118.55983086115127, 40.443771058572274], [118.55983086115127, 40.44413038468592], [118.55965119809444, 40.44413038468592], [118.55965119809444, 40.44395072162909], [118.55947153503762, 40.44395072162909], [118.55947153503762, 40.44413038468592], [118.55893254586715, 40.44413038468592], [118.55893254586715, 40.444310047742746], [118.55875288281032, 40.444310047742746], [118.55875288281032, 40.44466937385639], [118.5585732197535, 40.44466937385639]]]}, "properties": {"name": "cand10", "ptype": "hall", "confidence": "low", "rank": 10, "area_ha": 2.7, "rise_db": 10.0, "digitised_from": "Sentinel-1 VV rise 2022->2026, orbit 69"}}, {"type": "Feature", "geometry": {"geodesic": false, "type": "Polygon", "coordinates": [[[118.53503735930957, 40.459042418402305], [118.53503735930957, 40.45886275534548], [118.53467803319592, 40.45886275534548], [118.53467803319592, 40.45868309228866], [118.5344983701391, 40.45868309228866], [118.5344983701391, 40.45850342923183], [118.53431870708228, 40.45850342923183], [118.53431870708228, 40.458323766175006], [118.53413904402545, 40.458323766175006], [118.53413904402545, 40.45814410311819], [118.5337797179118, 40.45814410311819], [118.5337797179118, 40.457784777004534], [118.53395938096862, 40.457784777004534], [118.53395938096862, 40.457605113947714], [118.53413904402545, 40.457605113947714], [118.53413904402545, 40.457784777004534], [118.5344983701391, 40.457784777004534], [118.5344983701391, 40.45796444006136], [118.53485769625274, 40.45796444006136], [118.53485769625274, 40.45814410311819], [118.53539668542322, 40.45814410311819], [118.53539668542322, 40.457784777004534], [118.53611533765051, 40.457784777004534], [118.53611533765051, 40.457605113947714], [118.53665432682098, 40.457605113947714], [118.53665432682098, 40.45742545089089], [118.53701365293463, 40.45742545089089], [118.53701365293463, 40.457605113947714], [118.53665432682098, 40.457605113947714], [118.53665432682098, 40.45796444006136], [118.53647466376417, 40.45796444006136], [118.53647466376417, 40.45814410311819], [118.53629500070734, 40.45814410311819], [118.53629500070734, 40.458323766175006], [118.53611533765051, 40.458323766175006], [118.53611533765051, 40.45850342923183], [118.53593567459369, 40.45850342923183], [118.53593567459369, 40.45868309228866], [118.53557634848005, 40.45868309228866], [118.53557634848005, 40.45886275534548], [118.53539668542322, 40.45886275534548], [118.53539668542322, 40.459042418402305], [118.53503735930957, 40.459042418402305]]]}, "properties": {"name": "cand11", "ptype": "hall", "confidence": "low", "rank": 11, "area_ha": 2.6, "rise_db": 7.9, "digitised_from": "Sentinel-1 VV rise 2022->2026, orbit 69"}}, {"type": "Feature", "geometry": {"geodesic": false, "type": "Polygon", "coordinates": [[[118.59845841836841, 40.43856082992438], [118.59845841836841, 40.43838116686756], [118.59791942919794, 40.43838116686756], [118.59791942919794, 40.438021840753905], [118.59827875531158, 40.438021840753905], [118.59827875531158, 40.437842177697085], [118.59845841836841, 40.437842177697085], [118.59845841836841, 40.43766251464026], [118.59863808142524, 40.43766251464026], [118.59863808142524, 40.43748285158343], [118.5991770705957, 40.43748285158343], [118.5991770705957, 40.43730318852661], [118.59935673365253, 40.43730318852661], [118.59935673365253, 40.43712352546979], [118.59953639670935, 40.43712352546979], [118.59953639670935, 40.43694386241297], [118.59971605976618, 40.43694386241297], [118.59971605976618, 40.43676419935614], [118.599895722823, 40.43676419935614], [118.599895722823, 40.436584536299314], [118.60025504893665, 40.436584536299314], [118.60025504893665, 40.43712352546979], [118.60043471199347, 40.43712352546979], [118.60043471199347, 40.43730318852661], [118.6006143750503, 40.43730318852661], [118.6006143750503, 40.43748285158343], [118.60043471199347, 40.43748285158343], [118.60043471199347, 40.437842177697085], [118.60025504893665, 40.437842177697085], [118.60025504893665, 40.438021840753905], [118.60007538587982, 40.438021840753905], [118.60007538587982, 40.43820150381073], [118.599895722823, 40.43820150381073], [118.599895722823, 40.43838116686756], [118.59953639670935, 40.43838116686756], [118.59953639670935, 40.438021840753905], [118.59971605976618, 40.438021840753905], [118.59971605976618, 40.43748285158343], [118.59935673365253, 40.43748285158343], [118.59935673365253, 40.43766251464026], [118.5991770705957, 40.43766251464026], [118.5991770705957, 40.437842177697085], [118.59899740753887, 40.437842177697085], [118.59899740753887, 40.438021840753905], [118.59881774448206, 40.438021840753905], [118.59881774448206, 40.43838116686756], [118.59863808142524, 40.43838116686756], [118.59863808142524, 40.43856082992438], [118.59845841836841, 40.43856082992438]]]}, "properties": {"name": "cand12", "ptype": "hall", "confidence": "low", "rank": 12, "area_ha": 2.5, "rise_db": 7.0, "digitised_from": "Sentinel-1 VV rise 2022->2026, orbit 69"}}, {"type": "Feature", "geometry": {"geodesic": false, "type": "Polygon", "coordinates": [[[118.59756010308429, 40.43748285158343], [118.59756010308429, 40.43730318852661], [118.59738044002746, 40.43730318852661], [118.59738044002746, 40.43694386241297], [118.59756010308429, 40.43694386241297], [118.59756010308429, 40.43676419935614], [118.59791942919794, 40.43676419935614], [118.59791942919794, 40.436584536299314], [118.59827875531158, 40.436584536299314], [118.59827875531158, 40.43622521018567], [118.59773976614112, 40.43622521018567], [118.59773976614112, 40.43604554712884], [118.59738044002746, 40.43604554712884], [118.59738044002746, 40.43550655795837], [118.59773976614112, 40.43550655795837], [118.59773976614112, 40.435686221015196], [118.59791942919794, 40.435686221015196], [118.59791942919794, 40.43586588407202], [118.59845841836841, 40.43586588407202], [118.59845841836841, 40.43622521018567], [118.59899740753887, 40.43622521018567], [118.59899740753887, 40.436404873242495], [118.5991770705957, 40.436404873242495], [118.5991770705957, 40.436584536299314], [118.59935673365253, 40.436584536299314], [118.59935673365253, 40.43676419935614], [118.5991770705957, 40.43676419935614], [118.5991770705957, 40.43694386241297], [118.59899740753887, 40.43694386241297], [118.59899740753887, 40.43712352546979], [118.59863808142524, 40.43712352546979], [118.59863808142524, 40.43730318852661], [118.59827875531158, 40.43730318852661], [118.59827875531158, 40.43748285158343], [118.59756010308429, 40.43748285158343]]]}, "properties": {"name": "cand13", "ptype": "hall", "confidence": "low", "rank": 13, "area_ha": 2.4, "rise_db": 7.4, "digitised_from": "Sentinel-1 VV rise 2022->2026, orbit 69"}}, {"type": "Feature", "geometry": {"geodesic": false, "type": "Polygon", "coordinates": [[[118.55587827390114, 40.464252647050195], [118.55587827390114, 40.464072983993375], [118.55569861084432, 40.464072983993375], [118.55569861084432, 40.4635339948229], [118.55551894778749, 40.4635339948229], [118.55551894778749, 40.46335433176608], [118.55533928473068, 40.46335433176608], [118.55533928473068, 40.46317466870926], [118.55515962167385, 40.46317466870926], [118.55515962167385, 40.462635679538785], [118.55533928473068, 40.462635679538785], [118.55533928473068, 40.46245601648196], [118.55515962167385, 40.46245601648196], [118.55515962167385, 40.46227635342513], [118.55551894778749, 40.46227635342513], [118.55551894778749, 40.46209669036831], [118.55497995861703, 40.46209669036831], [118.55497995861703, 40.461917027311486], [118.55551894778749, 40.461917027311486], [118.55551894778749, 40.46173736425466], [118.55497995861703, 40.46173736425466], [118.55497995861703, 40.46155770119784], [118.55533928473068, 40.46155770119784], [118.55533928473068, 40.461198375084194], [118.55569861084432, 40.461198375084194], [118.55569861084432, 40.461378038141014], [118.55587827390114, 40.461378038141014], [118.55587827390114, 40.46209669036831], [118.55569861084432, 40.46209669036831], [118.55569861084432, 40.46227635342513], [118.55587827390114, 40.46227635342513], [118.55587827390114, 40.4635339948229], [118.55605793695797, 40.4635339948229], [118.55605793695797, 40.46371365787972], [118.5562376000148, 40.46371365787972], [118.5562376000148, 40.464252647050195], [118.55587827390114, 40.464252647050195]]]}, "properties": {"name": "cand14", "ptype": "hall", "confidence": "low", "rank": 14, "area_ha": 2.1, "rise_db": 5.9, "digitised_from": "Sentinel-1 VV rise 2022->2026, orbit 69"}}, {"type": "Feature", "geometry": {"geodesic": false, "type": "Polygon", "coordinates": [[[118.53970859878699, 40.44646600442463], [118.53970859878699, 40.44628634136781], [118.53952893573017, 40.44628634136781], [118.53952893573017, 40.44610667831098], [118.53934927267335, 40.44610667831098], [118.53934927267335, 40.445927015254156], [118.53881028350287, 40.445927015254156], [118.53881028350287, 40.44556768914051], [118.53916960961652, 40.44556768914051], [118.53916960961652, 40.445388026083684], [118.53934927267335, 40.445388026083684], [118.53934927267335, 40.445208363026865], [118.54006792490064, 40.445208363026865], [118.54006792490064, 40.44466937385639], [118.54024758795747, 40.44466937385639], [118.54024758795747, 40.445388026083684], [118.5404272510143, 40.445388026083684], [118.5404272510143, 40.44556768914051], [118.54024758795747, 40.44556768914051], [118.54024758795747, 40.44574735219734], [118.54078657712793, 40.44574735219734], [118.54078657712793, 40.44610667831098], [118.54006792490064, 40.44610667831098], [118.54006792490064, 40.44646600442463], [118.53970859878699, 40.44646600442463]]]}, "properties": {"name": "cand15", "ptype": "hall", "confidence": "low", "rank": 15, "area_ha": 1.9, "rise_db": 9.2, "digitised_from": "Sentinel-1 VV rise 2022->2026, orbit 69"}}, {"type": "Feature", "geometry": {"geodesic": false, "type": "Polygon", "coordinates": [[[118.55947153503762, 40.451676233072526], [118.55947153503762, 40.4514965700157], [118.5592918719808, 40.4514965700157], [118.5592918719808, 40.45131690695888], [118.55875288281032, 40.45131690695888], [118.55875288281032, 40.4514965700157], [118.55839355669667, 40.4514965700157], [118.55839355669667, 40.451676233072526], [118.55821389363986, 40.451676233072526], [118.55821389363986, 40.4514965700157], [118.5578545675262, 40.4514965700157], [118.5578545675262, 40.45113724390205], [118.55767490446938, 40.45113724390205], [118.55767490446938, 40.45095758084523], [118.5578545675262, 40.45095758084523], [118.5578545675262, 40.45077791778841], [118.55803423058303, 40.45077791778841], [118.55803423058303, 40.45095758084523], [118.55821389363986, 40.45095758084523], [118.55821389363986, 40.45113724390205], [118.55839355669667, 40.45113724390205], [118.55839355669667, 40.45095758084523], [118.5585732197535, 40.45095758084523], [118.5585732197535, 40.45077791778841], [118.55893254586715, 40.45077791778841], [118.55893254586715, 40.45095758084523], [118.55965119809444, 40.45095758084523], [118.55965119809444, 40.45113724390205], [118.5600105242081, 40.45113724390205], [118.5600105242081, 40.4514965700157], [118.55983086115127, 40.4514965700157], [118.55983086115127, 40.451676233072526], [118.55947153503762, 40.451676233072526]]]}, "properties": {"name": "cand16", "ptype": "hall", "confidence": "low", "rank": 16, "area_ha": 1.5, "rise_db": 5.8, "digitised_from": "Sentinel-1 VV rise 2022->2026, orbit 69"}}, {"type": "Feature", "geometry": {"geodesic": false, "type": "Polygon", "coordinates": [[[118.54599680577583, 40.464072983993375], [118.54599680577583, 40.46371365787972], [118.54617646883266, 40.46371365787972], [118.54617646883266, 40.46299500565243], [118.54599680577583, 40.46299500565243], [118.54599680577583, 40.462815342595604], [118.545817142719, 40.462815342595604], [118.545817142719, 40.46227635342513], [118.54599680577583, 40.46227635342513], [118.54599680577583, 40.461378038141014], [118.54635613188948, 40.461378038141014], [118.54635613188948, 40.46155770119784], [118.5465357949463, 40.46155770119784], [118.5465357949463, 40.46173736425466], [118.54671545800312, 40.46173736425466], [118.54671545800312, 40.46209669036831], [118.5465357949463, 40.46209669036831], [118.5465357949463, 40.46227635342513], [118.54635613188948, 40.46227635342513], [118.54635613188948, 40.46245601648196], [118.54617646883266, 40.46245601648196], [118.54617646883266, 40.46299500565243], [118.54635613188948, 40.46299500565243], [118.54635613188948, 40.46317466870926], [118.5465357949463, 40.46317466870926], [118.5465357949463, 40.46371365787972], [118.54671545800312, 40.46371365787972], [118.54671545800312, 40.46389332093655], [118.54635613188948, 40.46389332093655], [118.54635613188948, 40.464072983993375], [118.54599680577583, 40.464072983993375]]]}, "properties": {"name": "cand17", "ptype": "hall", "confidence": "low", "rank": 17, "area_ha": 1.5, "rise_db": 8.3, "digitised_from": "Sentinel-1 VV rise 2022->2026, orbit 69"}}, {"type": "Feature", "geometry": {"geodesic": false, "type": "Polygon", "coordinates": [[[118.57564121015177, 40.46748658207303], [118.57564121015177, 40.4673069190162], [118.57546154709495, 40.4673069190162], [118.57546154709495, 40.46712725595938], [118.57528188403812, 40.46712725595938], [118.57528188403812, 40.46676792984573], [118.57546154709495, 40.46676792984573], [118.57546154709495, 40.46658826678891], [118.57564121015177, 40.46658826678891], [118.57564121015177, 40.466408603732084], [118.5758208732086, 40.466408603732084], [118.5758208732086, 40.46622894067526], [118.57618019932224, 40.46622894067526], [118.57618019932224, 40.466408603732084], [118.57600053626543, 40.466408603732084], [118.57600053626543, 40.46658826678891], [118.57635986237906, 40.46658826678891], [118.57635986237906, 40.46676792984573], [118.57653952543589, 40.46676792984573], [118.57653952543589, 40.4673069190162], [118.57618019932224, 40.4673069190162], [118.57618019932224, 40.46748658207303], [118.57564121015177, 40.46748658207303]]]}, "properties": {"name": "cand18", "ptype": "hall", "confidence": "low", "rank": 18, "area_ha": 1.3, "rise_db": 10.2, "digitised_from": "Sentinel-1 VV rise 2022->2026, orbit 69"}}, {"type": "Feature", "geometry": {"geodesic": false, "type": "Polygon", "coordinates": [[[118.55965119809444, 40.46766624512985], [118.55965119809444, 40.4673069190162], [118.5592918719808, 40.4673069190162], [118.5592918719808, 40.46694759290256], [118.55911220892398, 40.46694759290256], [118.55911220892398, 40.46676792984573], [118.5592918719808, 40.46676792984573], [118.5592918719808, 40.46658826678891], [118.55911220892398, 40.46658826678891], [118.55911220892398, 40.466408603732084], [118.55893254586715, 40.466408603732084], [118.55893254586715, 40.46604927761844], [118.55911220892398, 40.46604927761844], [118.55911220892398, 40.46586961456161], [118.5592918719808, 40.46586961456161], [118.5592918719808, 40.46604927761844], [118.55965119809444, 40.46604927761844], [118.55965119809444, 40.46586961456161], [118.5600105242081, 40.46586961456161], [118.5600105242081, 40.46604927761844], [118.55983086115127, 40.46604927761844], [118.55983086115127, 40.46622894067526], [118.55965119809444, 40.46622894067526], [118.55965119809444, 40.466408603732084], [118.5600105242081, 40.466408603732084], [118.5600105242081, 40.46658826678891], [118.55965119809444, 40.46658826678891], [118.55965119809444, 40.466408603732084], [118.55947153503762, 40.466408603732084], [118.55947153503762, 40.46694759290256], [118.55965119809444, 40.46694759290256], [118.55965119809444, 40.46712725595938], [118.55983086115127, 40.46712725595938], [118.55983086115127, 40.4673069190162], [118.5600105242081, 40.4673069190162], [118.5600105242081, 40.46712725595938], [118.56019018726492, 40.46712725595938], [118.56019018726492, 40.4673069190162], [118.56036985032173, 40.4673069190162], [118.56036985032173, 40.46748658207303], [118.56019018726492, 40.46748658207303], [118.56019018726492, 40.46766624512985], [118.55965119809444, 40.46766624512985]]]}, "properties": {"name": "cand19", "ptype": "hall", "confidence": "low", "rank": 19, "area_ha": 1.3, "rise_db": 7.5, "digitised_from": "Sentinel-1 VV rise 2022->2026, orbit 69"}}, {"type": "Feature", "geometry": {"geodesic": false, "type": "Polygon", "coordinates": [[[118.54437983826442, 40.46083904897054], [118.54437983826442, 40.46065938591372], [118.54420017520759, 40.46065938591372], [118.54420017520759, 40.460479722856896], [118.54402051215077, 40.460479722856896], [118.54402051215077, 40.46030005980007], [118.54384084909394, 40.46030005980007], [118.54384084909394, 40.45994073368642], [118.54366118603711, 40.45994073368642], [118.54366118603711, 40.45958140757278], [118.5434815229803, 40.45958140757278], [118.5434815229803, 40.45886275534548], [118.54402051215077, 40.45886275534548], [118.54402051215077, 40.45958140757278], [118.54420017520759, 40.45958140757278], [118.54420017520759, 40.46012039674325], [118.54437983826442, 40.46012039674325], [118.54437983826442, 40.46030005980007], [118.54455950132123, 40.46030005980007], [118.54455950132123, 40.460479722856896], [118.54473916437806, 40.460479722856896], [118.54473916437806, 40.46083904897054], [118.54437983826442, 40.46083904897054]]]}, "properties": {"name": "cand20", "ptype": "hall", "confidence": "low", "rank": 20, "area_ha": 1.2, "rise_db": 5.7, "digitised_from": "Sentinel-1 VV rise 2022->2026, orbit 69"}}, {"type": "Feature", "geometry": {"geodesic": false, "type": "Polygon", "coordinates": [[[118.59127189609545, 40.42310980703753], [118.59127189609545, 40.4229301439807], [118.59109223303862, 40.4229301439807], [118.59109223303862, 40.422750480923874], [118.59091256998181, 40.422750480923874], [118.59091256998181, 40.422570817867054], [118.59127189609545, 40.422570817867054], [118.59127189609545, 40.42239115481023], [118.59091256998181, 40.42239115481023], [118.59091256998181, 40.42203182869658], [118.5916312222091, 40.42203182869658], [118.5916312222091, 40.421852165639756], [118.59217021137957, 40.421852165639756], [118.59217021137957, 40.42203182869658], [118.5923498744364, 40.42203182869658], [118.5923498744364, 40.4222114917534], [118.5916312222091, 40.4222114917534], [118.5916312222091, 40.42239115481023], [118.59199054832274, 40.42239115481023], [118.59199054832274, 40.422750480923874], [118.5916312222091, 40.422750480923874], [118.5916312222091, 40.4229301439807], [118.59181088526593, 40.4229301439807], [118.59181088526593, 40.42310980703753], [118.59127189609545, 40.42310980703753]], [[118.5916312222091, 40.422750480923874], [118.59127189609545, 40.422750480923874], [118.59127189609545, 40.422570817867054], [118.5916312222091, 40.422570817867054], [118.5916312222091, 40.422750480923874]]]}, "properties": {"name": "cand21", "ptype": "hall", "confidence": "low", "rank": 21, "area_ha": 1.2, "rise_db": 7.5, "digitised_from": "Sentinel-1 VV rise 2022->2026, orbit 69"}}, {"type": "Feature", "geometry": {"geodesic": false, "type": "Polygon", "coordinates": [[[118.5623461439468, 40.4319132968219], [118.5623461439468, 40.431553970708244], [118.56252580700362, 40.431553970708244], [118.56252580700362, 40.43101498153778], [118.56270547006045, 40.43101498153778], [118.56270547006045, 40.43083531848095], [118.56360378534457, 40.43083531848095], [118.56360378534457, 40.43101498153778], [118.5637834484014, 40.43101498153778], [118.5637834484014, 40.431553970708244], [118.56342412228774, 40.431553970708244], [118.56342412228774, 40.431374307651424], [118.5630647961741, 40.431374307651424], [118.5630647961741, 40.431553970708244], [118.56288513311728, 40.431553970708244], [118.56288513311728, 40.43173363376507], [118.56270547006045, 40.43173363376507], [118.56270547006045, 40.4319132968219], [118.5623461439468, 40.4319132968219]]]}, "properties": {"name": "cand22", "ptype": "hall", "confidence": "low", "rank": 22, "area_ha": 1.2, "rise_db": 8.8, "digitised_from": "Sentinel-1 VV rise 2022->2026, orbit 69"}}, {"type": "Feature", "geometry": {"geodesic": false, "type": "Polygon", "coordinates": [[[118.56126816560587, 40.451855896129345], [118.56126816560587, 40.451676233072526], [118.56108850254904, 40.451676233072526], [118.56108850254904, 40.45131690695888], [118.5616274917195, 40.45131690695888], [118.5616274917195, 40.45095758084523], [118.56198681783316, 40.45095758084523], [118.56198681783316, 40.45077791778841], [118.56216648088999, 40.45077791778841], [118.56216648088999, 40.45113724390205], [118.5623461439468, 40.45113724390205], [118.5623461439468, 40.4514965700157], [118.56216648088999, 40.4514965700157], [118.56216648088999, 40.451676233072526], [118.56198681783316, 40.451676233072526], [118.56198681783316, 40.451855896129345], [118.56126816560587, 40.451855896129345]]]}, "properties": {"name": "cand23", "ptype": "hall", "confidence": "low", "rank": 23, "area_ha": 1.0, "rise_db": 6.5, "digitised_from": "Sentinel-1 VV rise 2022->2026, orbit 69"}}, {"type": "Feature", "geometry": {"geodesic": false, "type": "Polygon", "coordinates": [[[118.5864209935612, 40.477907039368816], [118.5864209935612, 40.47754771325516], [118.58660065661803, 40.47754771325516], [118.58660065661803, 40.47718838714152], [118.58749897190215, 40.47718838714152], [118.58749897190215, 40.4770087240847], [118.58767863495898, 40.4770087240847], [118.58767863495898, 40.47718838714152], [118.5878582980158, 40.47718838714152], [118.5878582980158, 40.47736805019834], [118.58803796107262, 40.47736805019834], [118.58803796107262, 40.47754771325516], [118.58821762412944, 40.47754771325516], [118.58821762412944, 40.47772737631199], [118.5878582980158, 40.47772737631199], [118.5878582980158, 40.47754771325516], [118.58731930884532, 40.47754771325516], [118.58731930884532, 40.47772737631199], [118.58678031967486, 40.47772737631199], [118.58678031967486, 40.477907039368816], [118.5864209935612, 40.477907039368816]]]}, "properties": {"name": "cand24", "ptype": "hall", "confidence": "low", "rank": 24, "area_ha": 1.0, "rise_db": 5.7, "digitised_from": "Sentinel-1 VV rise 2022->2026, orbit 69"}}]}