{"type": "FeatureCollection", "features": [{"type": "Feature", "geometry": {"geodesic": false, "type": "Polygon", "coordinates": [[[107.36592410573792, 34.359122313117105], [107.36592410573792, 34.35858332394663], [107.36574444268109, 34.35858332394663], [107.36574444268109, 34.35840366088981], [107.36466646434015, 34.35840366088981], [107.36466646434015, 34.35822399783299], [107.3643071382265, 34.35822399783299], [107.3643071382265, 34.35804433477616], [107.36412747516967, 34.35804433477616], [107.36412747516967, 34.357685008662514], [107.3643071382265, 34.357685008662514], [107.3643071382265, 34.35786467171934], [107.36484612739697, 34.35786467171934], [107.36484612739697, 34.357685008662514], [107.3650257904538, 34.357685008662514], [107.3650257904538, 34.35750534560569], [107.36412747516967, 34.35750534560569], [107.36412747516967, 34.356966356435215], [107.36394781211285, 34.356966356435215], [107.36394781211285, 34.356786693378396], [107.36412747516967, 34.356786693378396], [107.36412747516967, 34.35660703032157], [107.3650257904538, 34.35660703032157], [107.3650257904538, 34.356966356435215], [107.36556477962426, 34.356966356435215], [107.36556477962426, 34.35660703032157], [107.36610376879473, 34.35660703032157], [107.36610376879473, 34.356966356435215], [107.36628343185156, 34.356966356435215], [107.36628343185156, 34.35732568254887], [107.36646309490838, 34.35732568254887], [107.36646309490838, 34.35750534560569], [107.36664275796521, 34.35750534560569], [107.36664275796521, 34.35822399783299], [107.36646309490838, 34.35822399783299], [107.36646309490838, 34.35840366088981], [107.36610376879473, 34.35840366088981], [107.36610376879473, 34.35858332394663], [107.36646309490838, 34.35858332394663], [107.36646309490838, 34.35894265006028], [107.36628343185156, 34.35894265006028], [107.36628343185156, 34.359122313117105], [107.36592410573792, 34.359122313117105]], [[107.36520545351061, 34.35750534560569], [107.3650257904538, 34.35750534560569], [107.3650257904538, 34.35732568254887], [107.36520545351061, 34.35732568254887], [107.36520545351061, 34.35750534560569]]]}, "properties": {"name": "cand01", "ptype": "hall", "confidence": "low", "rank": 1, "area_ha": 4.8, "rise_db": 6.9, "digitised_from": "Sentinel-1 VV rise 2022->2026, orbit 84"}}, {"type": "Feature", "geometry": {"geodesic": false, "type": "Polygon", "coordinates": [[[107.37275130189722, 34.33522712655952], [107.37275130189722, 34.335047463502704], [107.37131399744263, 34.335047463502704], [107.37131399744263, 34.33522712655952], [107.37095467132899, 34.33522712655952], [107.37095467132899, 34.335047463502704], [107.37077500827216, 34.335047463502704], [107.37077500827216, 34.33378982210493], [107.37095467132899, 34.33378982210493], [107.37095467132899, 34.33361015904811], [107.37293096495405, 34.33361015904811], [107.37293096495405, 34.334149148218586], [107.37275130189722, 34.334149148218586], [107.37275130189722, 34.334328811275405], [107.37293096495405, 34.334328811275405], [107.37293096495405, 34.33522712655952], [107.37275130189722, 34.33522712655952]]]}, "properties": {"name": "cand02", "ptype": "hall", "confidence": "low", "rank": 2, "area_ha": 3.9, "rise_db": 8.8, "digitised_from": "Sentinel-1 VV rise 2022->2026, orbit 84"}}, {"type": "Feature", "geometry": {"geodesic": false, "type": "Polygon", "coordinates": [[[107.37868018277241, 34.33594577878682], [107.37868018277241, 34.335766115729996], [107.37850051971559, 34.335766115729996], [107.37850051971559, 34.335586452673176], [107.37814119360193, 34.335586452673176], [107.37814119360193, 34.33540678961635], [107.37796153054511, 34.33540678961635], [107.37796153054511, 34.335586452673176], [107.37760220443147, 34.335586452673176], [107.37760220443147, 34.33540678961635], [107.37706321526099, 34.33540678961635], [107.37706321526099, 34.33522712655952], [107.37688355220418, 34.33522712655952], [107.37688355220418, 34.33486780044588], [107.37706321526099, 34.33486780044588], [107.37706321526099, 34.33468813738905], [107.37760220443147, 34.33468813738905], [107.37760220443147, 34.33486780044588], [107.37903950888605, 34.33486780044588], [107.37903950888605, 34.33468813738905], [107.37921917194288, 34.33468813738905], [107.37921917194288, 34.33486780044588], [107.3793988349997, 34.33486780044588], [107.3793988349997, 34.33522712655952], [107.37921917194288, 34.33522712655952], [107.37921917194288, 34.33540678961635], [107.3793988349997, 34.33540678961635], [107.3793988349997, 34.335586452673176], [107.37921917194288, 34.335586452673176], [107.37921917194288, 34.335766115729996], [107.37903950888605, 34.335766115729996], [107.37903950888605, 34.33594577878682], [107.37868018277241, 34.33594577878682]]]}, "properties": {"name": "cand03", "ptype": "hall", "confidence": "low", "rank": 3, "area_ha": 2.4, "rise_db": 8.2, "digitised_from": "Sentinel-1 VV rise 2022->2026, orbit 84"}}, {"type": "Feature", "geometry": {"geodesic": false, "type": "Polygon", "coordinates": [[[107.36861905159027, 34.337922072411885], [107.36861905159027, 34.33774240935506], [107.36843938853345, 34.33774240935506], [107.36843938853345, 34.33756274629824], [107.36808006241979, 34.33756274629824], [107.36808006241979, 34.33774240935506], [107.36790039936298, 34.33774240935506], [107.36790039936298, 34.33738308324141], [107.36754107324933, 34.33738308324141], [107.36754107324933, 34.33756274629824], [107.3673614101925, 34.33756274629824], [107.3673614101925, 34.33738308324141], [107.36718174713567, 34.33738308324141], [107.36718174713567, 34.33756274629824], [107.36700208407886, 34.33756274629824], [107.36700208407886, 34.33738308324141], [107.36628343185156, 34.33738308324141], [107.36628343185156, 34.337203420184586], [107.36610376879473, 34.337203420184586], [107.36610376879473, 34.33738308324141], [107.36592410573792, 34.33738308324141], [107.36592410573792, 34.337203420184586], [107.36610376879473, 34.337203420184586], [107.36610376879473, 34.33684409407094], [107.36574444268109, 34.33684409407094], [107.36574444268109, 34.33702375712777], [107.36556477962426, 34.33702375712777], [107.36556477962426, 34.33684409407094], [107.36574444268109, 34.33684409407094], [107.36574444268109, 34.336664431014114], [107.36682242102204, 34.336664431014114], [107.36682242102204, 34.33684409407094], [107.3673614101925, 34.33684409407094], [107.3673614101925, 34.337203420184586], [107.36754107324933, 34.337203420184586], [107.36754107324933, 34.33702375712777], [107.36808006241979, 34.33702375712777], [107.36808006241979, 34.337203420184586], [107.36843938853345, 34.337203420184586], [107.36843938853345, 34.33738308324141], [107.36861905159027, 34.33738308324141], [107.36861905159027, 34.33756274629824], [107.3687987146471, 34.33756274629824], [107.3687987146471, 34.337922072411885], [107.36861905159027, 34.337922072411885]]]}, "properties": {"name": "cand04", "ptype": "hall", "confidence": "low", "rank": 4, "area_ha": 1.9, "rise_db": 8.8, "digitised_from": "Sentinel-1 VV rise 2022->2026, orbit 84"}}, {"type": "Feature", "geometry": {"geodesic": false, "type": "Polygon", "coordinates": [[[107.39682615151162, 34.364152878708175], [107.39682615151162, 34.36397321565135], [107.3966464884548, 34.36397321565135], [107.3966464884548, 34.3636138895377], [107.39646682539798, 34.3636138895377], [107.39646682539798, 34.36325456342406], [107.39628716234115, 34.36325456342406], [107.39628716234115, 34.36307490036723], [107.39610749928433, 34.36307490036723], [107.39610749928433, 34.362895237310404], [107.3959278362275, 34.362895237310404], [107.3959278362275, 34.36253591119676], [107.39574817317067, 34.36253591119676], [107.39574817317067, 34.36235624813994], [107.39628716234115, 34.36235624813994], [107.39628716234115, 34.36217658508311], [107.39610749928433, 34.36217658508311], [107.39610749928433, 34.361996922026286], [107.3966464884548, 34.361996922026286], [107.3966464884548, 34.36217658508311], [107.39682615151162, 34.36217658508311], [107.39682615151162, 34.362895237310404], [107.39700581456844, 34.362895237310404], [107.39700581456844, 34.36379355259453], [107.39718547762527, 34.36379355259453], [107.39718547762527, 34.364152878708175], [107.39682615151162, 34.364152878708175]], [[107.3966464884548, 34.36253591119676], [107.39628716234115, 34.36253591119676], [107.39628716234115, 34.36235624813994], [107.3966464884548, 34.36235624813994], [107.3966464884548, 34.36253591119676]]]}, "properties": {"name": "cand05", "ptype": "hall", "confidence": "low", "rank": 5, "area_ha": 1.7, "rise_db": 5.1, "digitised_from": "Sentinel-1 VV rise 2022->2026, orbit 84"}}, {"type": "Feature", "geometry": {"geodesic": false, "type": "Polygon", "coordinates": [[[107.383171759193, 34.3185184622749], [107.383171759193, 34.318159136161256], [107.38353108530666, 34.318159136161256], [107.38353108530666, 34.31797947310443], [107.38335142224983, 34.31797947310443], [107.38335142224983, 34.31779981004761], [107.383171759193, 34.31779981004761], [107.383171759193, 34.31726082087714], [107.38353108530666, 34.31726082087714], [107.38353108530666, 34.31708115782031], [107.38371074836348, 34.31708115782031], [107.38371074836348, 34.316901494763485], [107.3838904114203, 34.316901494763485], [107.3838904114203, 34.31708115782031], [107.38407007447712, 34.31708115782031], [107.38407007447712, 34.31779981004761], [107.38424973753395, 34.31779981004761], [107.38424973753395, 34.31833879921808], [107.38407007447712, 34.31833879921808], [107.38407007447712, 34.3185184622749], [107.383171759193, 34.3185184622749]]]}, "properties": {"name": "cand06", "ptype": "hall", "confidence": "low", "rank": 6, "area_ha": 1.6, "rise_db": 5.1, "digitised_from": "Sentinel-1 VV rise 2022->2026, orbit 84"}}, {"type": "Feature", "geometry": {"geodesic": false, "type": "Polygon", "coordinates": [[[107.38802266172725, 34.31941677755902], [107.38802266172725, 34.3192371145022], [107.38784299867042, 34.3192371145022], [107.38784299867042, 34.31833879921808], [107.38802266172725, 34.31833879921808], [107.38802266172725, 34.31797947310443], [107.3883819878409, 34.31797947310443], [107.3883819878409, 34.31779981004761], [107.38892097701137, 34.31779981004761], [107.38892097701137, 34.318159136161256], [107.38874131395455, 34.318159136161256], [107.38874131395455, 34.31869812533173], [107.38856165089773, 34.31869812533173], [107.38856165089773, 34.319057451445374], [107.38874131395455, 34.319057451445374], [107.38874131395455, 34.3192371145022], [107.38856165089773, 34.3192371145022], [107.38856165089773, 34.31941677755902], [107.38802266172725, 34.31941677755902]]]}, "properties": {"name": "cand07", "ptype": "hall", "confidence": "low", "rank": 7, "area_ha": 1.5, "rise_db": 7.8, "digitised_from": "Sentinel-1 VV rise 2022->2026, orbit 84"}}, {"type": "Feature", "geometry": {"geodesic": false, "type": "Polygon", "coordinates": [[[107.38029715028382, 34.36235624813994], [107.38029715028382, 34.36217658508311], [107.380117487227, 34.36217658508311], [107.380117487227, 34.361996922026286], [107.38029715028382, 34.361996922026286], [107.38029715028382, 34.36163759591264], [107.37975816111336, 34.36163759591264], [107.37975816111336, 34.361278269798994], [107.380117487227, 34.361278269798994], [107.380117487227, 34.36109860674217], [107.38065647639748, 34.36109860674217], [107.38065647639748, 34.361457932855814], [107.3808361394543, 34.361457932855814], [107.3808361394543, 34.36163759591264], [107.38101580251111, 34.36163759591264], [107.38101580251111, 34.361996922026286], [107.38137512862477, 34.361996922026286], [107.38137512862477, 34.36235624813994], [107.38029715028382, 34.36235624813994]], [[107.38065647639748, 34.36163759591264], [107.38029715028382, 34.36163759591264], [107.38029715028382, 34.361457932855814], [107.38065647639748, 34.361457932855814], [107.38065647639748, 34.36163759591264]]]}, "properties": {"name": "cand08", "ptype": "hall", "confidence": "low", "rank": 8, "area_ha": 1.3, "rise_db": 5.1, "digitised_from": "Sentinel-1 VV rise 2022->2026, orbit 84"}}, {"type": "Feature", "geometry": {"geodesic": false, "type": "Polygon", "coordinates": [[[107.36969702993122, 34.36181725896947], [107.36969702993122, 34.36163759591264], [107.36951736687439, 34.36163759591264], [107.36951736687439, 34.36181725896947], [107.36915804076074, 34.36181725896947], [107.36915804076074, 34.36163759591264], [107.36897837770393, 34.36163759591264], [107.36897837770393, 34.361457932855814], [107.36915804076074, 34.361457932855814], [107.36915804076074, 34.36109860674217], [107.36933770381756, 34.36109860674217], [107.36933770381756, 34.36091894368534], [107.36987669298804, 34.36091894368534], [107.36987669298804, 34.36109860674217], [107.37041568215851, 34.36109860674217], [107.37041568215851, 34.361278269798994], [107.37059534521534, 34.361278269798994], [107.37059534521534, 34.361457932855814], [107.37041568215851, 34.361457932855814], [107.37041568215851, 34.36163759591264], [107.37023601910168, 34.36163759591264], [107.37023601910168, 34.36181725896947], [107.36969702993122, 34.36181725896947]]]}, "properties": {"name": "cand09", "ptype": "hall", "confidence": "low", "rank": 9, "area_ha": 1.2, "rise_db": 10.5, "digitised_from": "Sentinel-1 VV rise 2022->2026, orbit 84"}}, {"type": "Feature", "geometry": {"geodesic": false, "type": "Polygon", "coordinates": [[[107.380117487227, 34.33343049599129], [107.380117487227, 34.33325083293446], [107.37993782417017, 34.33325083293446], [107.37993782417017, 34.3319931915367], [107.380117487227, 34.3319931915367], [107.380117487227, 34.33181352847987], [107.38029715028382, 34.33181352847987], [107.38029715028382, 34.33163386542305], [107.38047681334065, 34.33163386542305], [107.38047681334065, 34.33181352847987], [107.38065647639748, 34.33181352847987], [107.38065647639748, 34.33253218070717], [107.38047681334065, 34.33253218070717], [107.38047681334065, 34.33343049599129], [107.380117487227, 34.33343049599129]]]}, "properties": {"name": "cand10", "ptype": "hall", "confidence": "low", "rank": 10, "area_ha": 1.2, "rise_db": 5.7, "digitised_from": "Sentinel-1 VV rise 2022->2026, orbit 84"}}, {"type": "Feature", "geometry": {"geodesic": false, "type": "Polygon", "coordinates": [[[107.37975816111336, 34.335766115729996], [107.37975816111336, 34.335586452673176], [107.37957849805653, 34.335586452673176], [107.37957849805653, 34.33522712655952], [107.37975816111336, 34.33522712655952], [107.37975816111336, 34.33486780044588], [107.38047681334065, 34.33486780044588], [107.38047681334065, 34.335047463502704], [107.3808361394543, 34.335047463502704], [107.3808361394543, 34.33522712655952], [107.38101580251111, 34.33522712655952], [107.38101580251111, 34.335586452673176], [107.3808361394543, 34.335586452673176], [107.3808361394543, 34.335766115729996], [107.37975816111336, 34.335766115729996]], [[107.37993782417017, 34.335586452673176], [107.37975816111336, 34.335586452673176], [107.37975816111336, 34.33540678961635], [107.37993782417017, 34.33540678961635], [107.37993782417017, 34.335586452673176]], [[107.38047681334065, 34.335586452673176], [107.38029715028382, 34.335586452673176], [107.38029715028382, 34.33540678961635], [107.38047681334065, 34.33540678961635], [107.38047681334065, 34.335586452673176]]]}, "properties": {"name": "cand11", "ptype": "hall", "confidence": "low", "rank": 11, "area_ha": 1.2, "rise_db": 5.7, "digitised_from": "Sentinel-1 VV rise 2022->2026, orbit 84"}}, {"type": "Feature", "geometry": {"geodesic": false, "type": "Polygon", "coordinates": [[[107.37993782417017, 34.34564758385531], [107.37993782417017, 34.34546792079849], [107.37957849805653, 34.34546792079849], [107.37957849805653, 34.34510859468484], [107.380117487227, 34.34510859468484], [107.380117487227, 34.345288257741664], [107.38047681334065, 34.345288257741664], [107.38047681334065, 34.34510859468484], [107.3808361394543, 34.34510859468484], [107.3808361394543, 34.345288257741664], [107.38101580251111, 34.345288257741664], [107.38101580251111, 34.34546792079849], [107.38119546556794, 34.34546792079849], [107.38119546556794, 34.345288257741664], [107.38209378085206, 34.345288257741664], [107.38209378085206, 34.34564758385531], [107.37993782417017, 34.34564758385531]]]}, "properties": {"name": "cand12", "ptype": "hall", "confidence": "low", "rank": 12, "area_ha": 1.2, "rise_db": 5.1, "digitised_from": "Sentinel-1 VV rise 2022->2026, orbit 84"}}, {"type": "Feature", "geometry": {"geodesic": false, "type": "Polygon", "coordinates": [[[107.37059534521534, 34.33971870298012], [107.37059534521534, 34.3395390399233], [107.37041568215851, 34.3395390399233], [107.37041568215851, 34.33971870298012], [107.37023601910168, 34.33971870298012], [107.37023601910168, 34.3395390399233], [107.36969702993122, 34.3395390399233], [107.36969702993122, 34.339359376866476], [107.36933770381756, 34.339359376866476], [107.36933770381756, 34.33917971380965], [107.36897837770393, 34.33917971380965], [107.36897837770393, 34.33900005075283], [107.3687987146471, 34.33900005075283], [107.3687987146471, 34.338820387696], [107.36897837770393, 34.338820387696], [107.36897837770393, 34.33864072463918], [107.36933770381756, 34.33864072463918], [107.36933770381756, 34.338820387696], [107.36951736687439, 34.338820387696], [107.36951736687439, 34.33900005075283], [107.37005635604486, 34.33900005075283], [107.37005635604486, 34.33917971380965], [107.37041568215851, 34.33917971380965], [107.37041568215851, 34.339359376866476], [107.37095467132899, 34.339359376866476], [107.37095467132899, 34.3395390399233], [107.3711343343858, 34.3395390399233], [107.3711343343858, 34.33971870298012], [107.37059534521534, 34.33971870298012]]]}, "properties": {"name": "cand13", "ptype": "hall", "confidence": "low", "rank": 13, "area_ha": 1.2, "rise_db": 7.4, "digitised_from": "Sentinel-1 VV rise 2022->2026, orbit 84"}}]}