{"type": "FeatureCollection", "features": [{"type": "Feature", "geometry": {"geodesic": false, "type": "Polygon", "coordinates": [[[121.53774602800749, 40.970722804236786], [121.53774602800749, 40.97000415200949], [121.53756636495066, 40.97000415200949], [121.53756636495066, 40.96982448895266], [121.53738670189384, 40.96982448895266], [121.53738670189384, 40.969285499782195], [121.53756636495066, 40.969285499782195], [121.53756636495066, 40.96910583672537], [121.53774602800749, 40.96910583672537], [121.53774602800749, 40.96820752144125], [121.5379256910643, 40.96820752144125], [121.5379256910643, 40.96748886921395], [121.53810535412113, 40.96748886921395], [121.53810535412113, 40.96730920615713], [121.5379256910643, 40.96730920615713], [121.5379256910643, 40.96694988004348], [121.53810535412113, 40.96694988004348], [121.53810535412113, 40.96677021698666], [121.53828501717796, 40.96677021698666], [121.53828501717796, 40.96623122781619], [121.53846468023478, 40.96623122781619], [121.53846468023478, 40.96551257558889], [121.53864434329161, 40.96551257558889], [121.53864434329161, 40.96461426030477], [121.53882400634842, 40.96461426030477], [121.53882400634842, 40.963536281963826], [121.53918333246207, 40.963536281963826], [121.53918333246207, 40.96317695585018], [121.53810535412113, 40.96317695585018], [121.53810535412113, 40.962997292793354], [121.53684771272336, 40.962997292793354], [121.53684771272336, 40.962817629736534], [121.53648838660972, 40.962817629736534], [121.53648838660972, 40.96317695585018], [121.53630872355289, 40.96317695585018], [121.53630872355289, 40.96389560807747], [121.53612906049607, 40.96389560807747], [121.53612906049607, 40.9647939233616], [121.53594939743924, 40.9647939233616], [121.53594939743924, 40.96533291253207], [121.53576973438243, 40.96533291253207], [121.53576973438243, 40.96623122781619], [121.5355900713256, 40.96623122781619], [121.5355900713256, 40.96677021698666], [121.53541040826877, 40.96677021698666], [121.53541040826877, 40.96694988004348], [121.53576973438243, 40.96694988004348], [121.53576973438243, 40.967129543100306], [121.5355900713256, 40.967129543100306], [121.5355900713256, 40.96730920615713], [121.53541040826877, 40.96730920615713], [121.53541040826877, 40.96766853227078], [121.53523074521195, 40.96766853227078], [121.53523074521195, 40.968027858384424], [121.53505108215512, 40.968027858384424], [121.53505108215512, 40.96820752144125], [121.5348714190983, 40.96820752144125], [121.5348714190983, 40.96838718449807], [121.53505108215512, 40.96838718449807], [121.53505108215512, 40.96910583672537], [121.5348714190983, 40.96910583672537], [121.5348714190983, 40.96982448895266], [121.53469175604148, 40.96982448895266], [121.53469175604148, 40.97054314117996], [121.53451209298466, 40.97054314117996], [121.53451209298466, 40.970722804236786], [121.53433242992783, 40.970722804236786], [121.53433242992783, 40.97054314117996], [121.534152766871, 40.97054314117996], [121.534152766871, 40.97036347812313], [121.53433242992783, 40.97036347812313], [121.53433242992783, 40.970183815066314], [121.534152766871, 40.970183815066314], [121.534152766871, 40.97000415200949], [121.53361377770054, 40.97000415200949], [121.53361377770054, 40.96982448895266], [121.53343411464371, 40.96982448895266], [121.53343411464371, 40.970183815066314], [121.53325445158688, 40.970183815066314], [121.53325445158688, 40.97036347812313], [121.53271546241642, 40.97036347812313], [121.53271546241642, 40.970183815066314], [121.5325357993596, 40.970183815066314], [121.5325357993596, 40.97000415200949], [121.53235613630277, 40.97000415200949], [121.53235613630277, 40.96964482589584], [121.53163748407547, 40.96964482589584], [121.53163748407547, 40.969465162839015], [121.53127815796182, 40.969465162839015], [121.53127815796182, 40.96964482589584], [121.53091883184817, 40.96964482589584], [121.53091883184817, 40.969465162839015], [121.53073916879136, 40.969465162839015], [121.53073916879136, 40.96964482589584], [121.5303798426777, 40.96964482589584], [121.5303798426777, 40.96910583672537], [121.53002051656405, 40.96910583672537], [121.53002051656405, 40.969285499782195], [121.52912220127993, 40.969285499782195], [121.52912220127993, 40.96910583672537], [121.5289425382231, 40.96910583672537], [121.5289425382231, 40.969285499782195], [121.52858321210947, 40.969285499782195], [121.52858321210947, 40.969465162839015], [121.52786455988216, 40.969465162839015], [121.52786455988216, 40.96964482589584], [121.52768489682535, 40.96964482589584], [121.52768489682535, 40.96982448895266], [121.5273255707117, 40.96982448895266], [121.5273255707117, 40.970183815066314], [121.52768489682535, 40.970183815066314], [121.52768489682535, 40.97054314117996], [121.52696624459804, 40.97054314117996], [121.52696624459804, 40.96982448895266], [121.52678658154123, 40.96982448895266], [121.52678658154123, 40.97000415200949], [121.5266069184844, 40.97000415200949], [121.5266069184844, 40.96982448895266], [121.52642725542758, 40.96982448895266], [121.52642725542758, 40.96964482589584], [121.52552894014346, 40.96964482589584], [121.52552894014346, 40.96982448895266], [121.52534927708663, 40.96982448895266], [121.52534927708663, 40.970183815066314], [121.52498995097298, 40.970183815066314], [121.52498995097298, 40.97000415200949], [121.5251696140298, 40.97000415200949], [121.5251696140298, 40.96964482589584], [121.52481028791617, 40.96964482589584], [121.52481028791617, 40.969465162839015], [121.52445096180251, 40.969465162839015], [121.52445096180251, 40.96964482589584], [121.52427129874569, 40.96964482589584], [121.52427129874569, 40.969465162839015], [121.52409163568886, 40.969465162839015], [121.52409163568886, 40.969285499782195], [121.52391197263204, 40.969285499782195], [121.52391197263204, 40.969465162839015], [121.52373230957522, 40.969465162839015], [121.52373230957522, 40.969285499782195], [121.5235526465184, 40.969285499782195], [121.5235526465184, 40.96910583672537], [121.52373230957522, 40.96910583672537], [121.52373230957522, 40.96892617366854], [121.5235526465184, 40.96892617366854], [121.5235526465184, 40.96874651061172], [121.52391197263204, 40.96874651061172], [121.52391197263204, 40.9685668475549], [121.52373230957522, 40.9685668475549], [121.52373230957522, 40.96838718449807], [121.52391197263204, 40.96838718449807], [121.52391197263204, 40.968027858384424], [121.5235526465184, 40.968027858384424], [121.5235526465184, 40.9678481953276], [121.52265433123428, 40.9678481953276], [121.52265433123428, 40.96766853227078], [121.52247466817745, 40.96766853227078], [121.52247466817745, 40.9678481953276], [121.52175601595016, 40.9678481953276], [121.52175601595016, 40.96766853227078], [121.52157635289333, 40.96766853227078], [121.52157635289333, 40.96748886921395], [121.52175601595016, 40.96748886921395], [121.52175601595016, 40.96730920615713], [121.52193567900697, 40.96730920615713], [121.52193567900697, 40.967129543100306], [121.52229500512063, 40.967129543100306], [121.52229500512063, 40.96748886921395], [121.52265433123428, 40.96748886921395], [121.52265433123428, 40.96766853227078], [121.52409163568886, 40.96766853227078], [121.52409163568886, 40.96694988004348], [121.52391197263204, 40.96694988004348], [121.52391197263204, 40.96677021698666], [121.52427129874569, 40.96677021698666], [121.52427129874569, 40.96641089087301], [121.52463062485934, 40.96641089087301], [121.52463062485934, 40.965692238645715], [121.52481028791617, 40.965692238645715], [121.52481028791617, 40.964434597247944], [121.52498995097298, 40.964434597247944], [121.52498995097298, 40.96371594502065], [121.52481028791617, 40.96371594502065], [121.52481028791617, 40.96389560807747], [121.52463062485934, 40.96389560807747], [121.52463062485934, 40.96461426030477], [121.52445096180251, 40.96461426030477], [121.52445096180251, 40.9647939233616], [121.52427129874569, 40.9647939233616], [121.52427129874569, 40.96497358641842], [121.52409163568886, 40.96497358641842], [121.52409163568886, 40.96461426030477], [121.52391197263204, 40.96461426030477], [121.52391197263204, 40.964434597247944], [121.52445096180251, 40.964434597247944], [121.52445096180251, 40.964254934191125], [121.52427129874569, 40.964254934191125], [121.52427129874569, 40.963536281963826], [121.52445096180251, 40.963536281963826], [121.52445096180251, 40.96317695585018], [121.52409163568886, 40.96317695585018], [121.52409163568886, 40.96335661890701], [121.52391197263204, 40.96335661890701], [121.52391197263204, 40.96371594502065], [121.52373230957522, 40.96371594502065], [121.52373230957522, 40.96335661890701], [121.52391197263204, 40.96335661890701], [121.52391197263204, 40.96317695585018], [121.5235526465184, 40.96317695585018], [121.5235526465184, 40.962997292793354], [121.52301365734792, 40.962997292793354], [121.52301365734792, 40.962817629736534], [121.52247466817745, 40.962817629736534], [121.52247466817745, 40.962997292793354], [121.52229500512063, 40.962997292793354], [121.52229500512063, 40.962817629736534], [121.5221153420638, 40.962817629736534], [121.5221153420638, 40.96245830362288], [121.52247466817745, 40.96245830362288], [121.52247466817745, 40.962098977509235], [121.52265433123428, 40.962098977509235], [121.52265433123428, 40.96191931445241], [121.52301365734792, 40.96191931445241], [121.52301365734792, 40.96245830362288], [121.5228339942911, 40.96245830362288], [121.5228339942911, 40.96263796667971], [121.52337298346157, 40.96263796667971], [121.52337298346157, 40.96245830362288], [121.5235526465184, 40.96245830362288], [121.5235526465184, 40.96227864056606], [121.52391197263204, 40.96227864056606], [121.52391197263204, 40.96173965139559], [121.52498995097298, 40.96173965139559], [121.52498995097298, 40.961380325281944], [121.5251696140298, 40.961380325281944], [121.5251696140298, 40.96173965139559], [121.52534927708663, 40.96173965139559], [121.52534927708663, 40.96155998833876], [121.52552894014346, 40.96155998833876], [121.52552894014346, 40.961380325281944], [121.52570860320029, 40.961380325281944], [121.52570860320029, 40.96120066222512], [121.52606792931392, 40.96120066222512], [121.52606792931392, 40.961380325281944], [121.52624759237075, 40.961380325281944], [121.52624759237075, 40.96155998833876], [121.52642725542758, 40.96155998833876], [121.52642725542758, 40.96191931445241], [121.52624759237075, 40.96191931445241], [121.52624759237075, 40.96227864056606], [121.52696624459804, 40.96227864056606], [121.52696624459804, 40.962098977509235], [121.52714590765487, 40.962098977509235], [121.52714590765487, 40.96227864056606], [121.5273255707117, 40.96227864056606], [121.5273255707117, 40.96245830362288], [121.52840354905264, 40.96245830362288], [121.52840354905264, 40.962098977509235], [121.52858321210947, 40.962098977509235], [121.52858321210947, 40.96191931445241], [121.52840354905264, 40.96191931445241], [121.52840354905264, 40.96155998833876], [121.52858321210947, 40.96155998833876], [121.52858321210947, 40.961380325281944], [121.5287628751663, 40.961380325281944], [121.5287628751663, 40.96120066222512], [121.52912220127993, 40.96120066222512], [121.52912220127993, 40.962997292793354], [121.52948152739359, 40.962997292793354], [121.52948152739359, 40.96317695585018], [121.52966119045041, 40.96317695585018], [121.52966119045041, 40.96335661890701], [121.52984085350722, 40.96335661890701], [121.52984085350722, 40.963536281963826], [121.53020017962088, 40.963536281963826], [121.53020017962088, 40.96389560807747], [121.53002051656405, 40.96389560807747], [121.53002051656405, 40.964434597247944], [121.52984085350722, 40.964434597247944], [121.52984085350722, 40.96461426030477], [121.53055950573453, 40.96461426030477], [121.53055950573453, 40.9647939233616], [121.53091883184817, 40.9647939233616], [121.53091883184817, 40.964254934191125], [121.531098494905, 40.964254934191125], [121.531098494905, 40.9640752711343], [121.53127815796182, 40.9640752711343], [121.53127815796182, 40.96389560807747], [121.53145782101865, 40.96389560807747], [121.53145782101865, 40.964254934191125], [121.53181714713229, 40.964254934191125], [121.53181714713229, 40.96389560807747], [121.53163748407547, 40.96389560807747], [121.53163748407547, 40.963536281963826], [121.53181714713229, 40.963536281963826], [121.53181714713229, 40.96335661890701], [121.53199681018911, 40.96335661890701], [121.53199681018911, 40.962997292793354], [121.53163748407547, 40.962997292793354], [121.53163748407547, 40.96263796667971], [121.53199681018911, 40.96263796667971], [121.53199681018911, 40.96245830362288], [121.53217647324594, 40.96245830362288], [121.53217647324594, 40.96227864056606], [121.53235613630277, 40.96227864056606], [121.53235613630277, 40.962098977509235], [121.5325357993596, 40.962098977509235], [121.5325357993596, 40.96191931445241], [121.53271546241642, 40.96191931445241], [121.53271546241642, 40.962098977509235], [121.53289512547323, 40.962098977509235], [121.53289512547323, 40.96227864056606], [121.53325445158688, 40.96227864056606], [121.53325445158688, 40.96245830362288], [121.53397310381418, 40.96245830362288], [121.53397310381418, 40.96227864056606], [121.53451209298466, 40.96227864056606], [121.53451209298466, 40.96245830362288], [121.5348714190983, 40.96245830362288], [121.5348714190983, 40.96263796667971], [121.53505108215512, 40.96263796667971], [121.53505108215512, 40.962817629736534], [121.53523074521195, 40.962817629736534], [121.53523074521195, 40.96245830362288], [121.53541040826877, 40.96245830362288], [121.53541040826877, 40.962098977509235], [121.534152766871, 40.962098977509235], [121.534152766871, 40.96173965139559], [121.53433242992783, 40.96173965139559], [121.53433242992783, 40.96120066222512], [121.53451209298466, 40.96120066222512], [121.53451209298466, 40.96102099916829], [121.53541040826877, 40.96102099916829], [121.53541040826877, 40.96120066222512], [121.53576973438243, 40.96120066222512], [121.53576973438243, 40.96102099916829], [121.53612906049607, 40.96102099916829], [121.53612906049607, 40.96120066222512], [121.53630872355289, 40.96120066222512], [121.53630872355289, 40.96084133611147], [121.53648838660972, 40.96084133611147], [121.53648838660972, 40.960661673054645], [121.53666804966655, 40.960661673054645], [121.53666804966655, 40.960302346941], [121.53648838660972, 40.960302346941], [121.53648838660972, 40.96012268388417], [121.53666804966655, 40.96012268388417], [121.53666804966655, 40.959943020827346], [121.53684771272336, 40.959943020827346], [121.53684771272336, 40.9595836947137], [121.53666804966655, 40.9595836947137], [121.53666804966655, 40.959224368600054], [121.53648838660972, 40.959224368600054], [121.53648838660972, 40.95940403165688], [121.53612906049607, 40.95940403165688], [121.53612906049607, 40.959224368600054], [121.5348714190983, 40.959224368600054], [121.5348714190983, 40.95904470554323], [121.53433242992783, 40.95904470554323], [121.53433242992783, 40.95886504248641], [121.53379344075736, 40.95886504248641], [121.53379344075736, 40.95868537942958], [121.53361377770054, 40.95868537942958], [121.53361377770054, 40.958505716372756], [121.534152766871, 40.958505716372756], [121.534152766871, 40.95868537942958], [121.5348714190983, 40.95868537942958], [121.5348714190983, 40.95886504248641], [121.53594939743924, 40.95886504248641], [121.53594939743924, 40.95904470554323], [121.53666804966655, 40.95904470554323], [121.53666804966655, 40.959224368600054], [121.5379256910643, 40.959224368600054], [121.5379256910643, 40.95940403165688], [121.53882400634842, 40.95940403165688], [121.53882400634842, 40.95976335777053], [121.5379256910643, 40.95976335777053], [121.5379256910643, 40.9595836947137], [121.53738670189384, 40.9595836947137], [121.53738670189384, 40.95976335777053], [121.53720703883701, 40.95976335777053], [121.53720703883701, 40.96012268388417], [121.53738670189384, 40.96012268388417], [121.53738670189384, 40.960302346941], [121.53720703883701, 40.960302346941], [121.53720703883701, 40.96048200999782], [121.53702737578018, 40.96048200999782], [121.53702737578018, 40.96084133611147], [121.53684771272336, 40.96084133611147], [121.53684771272336, 40.96102099916829], [121.53702737578018, 40.96102099916829], [121.53702737578018, 40.96120066222512], [121.53738670189384, 40.96120066222512], [121.53738670189384, 40.961380325281944], [121.53702737578018, 40.961380325281944], [121.53702737578018, 40.96155998833876], [121.53684771272336, 40.96155998833876], [121.53684771272336, 40.962098977509235], [121.53720703883701, 40.962098977509235], [121.53720703883701, 40.96227864056606], [121.53774602800749, 40.96227864056606], [121.53774602800749, 40.96245830362288], [121.5379256910643, 40.96245830362288], [121.5379256910643, 40.96263796667971], [121.53882400634842, 40.96263796667971], [121.53882400634842, 40.962817629736534], [121.53900366940525, 40.962817629736534], [121.53900366940525, 40.96263796667971], [121.53918333246207, 40.96263796667971], [121.53918333246207, 40.96227864056606], [121.5393629955189, 40.96227864056606], [121.5393629955189, 40.962098977509235], [121.53954265857573, 40.962098977509235], [121.53954265857573, 40.96084133611147], [121.53972232163255, 40.96084133611147], [121.53972232163255, 40.960302346941], [121.53990198468937, 40.960302346941], [121.53990198468937, 40.96012268388417], [121.53972232163255, 40.96012268388417], [121.53972232163255, 40.959943020827346], [121.53918333246207, 40.959943020827346], [121.53918333246207, 40.9595836947137], [121.53954265857573, 40.9595836947137], [121.53954265857573, 40.95976335777053], [121.54044097385984, 40.95976335777053], [121.54044097385984, 40.959943020827346], [121.54062063691667, 40.959943020827346], [121.54062063691667, 40.960302346941], [121.54044097385984, 40.960302346941], [121.54044097385984, 40.96048200999782], [121.54062063691667, 40.96048200999782], [121.54062063691667, 40.960661673054645], [121.54044097385984, 40.960661673054645], [121.54044097385984, 40.96084133611147], [121.54026131080302, 40.96084133611147], [121.54026131080302, 40.961380325281944], [121.54008164774619, 40.961380325281944], [121.54008164774619, 40.96191931445241], [121.53990198468937, 40.96191931445241], [121.53990198468937, 40.96263796667971], [121.54008164774619, 40.96263796667971], [121.54008164774619, 40.962817629736534], [121.54026131080302, 40.962817629736534], [121.54026131080302, 40.962997292793354], [121.54008164774619, 40.962997292793354], [121.54008164774619, 40.96335661890701], [121.53990198468937, 40.96335661890701], [121.53990198468937, 40.963536281963826], [121.53972232163255, 40.963536281963826], [121.53972232163255, 40.96371594502065], [121.53990198468937, 40.96371594502065], [121.53990198468937, 40.96389560807747], [121.53954265857573, 40.96389560807747], [121.53954265857573, 40.964254934191125], [121.53972232163255, 40.964254934191125], [121.53972232163255, 40.96497358641842], [121.5393629955189, 40.96497358641842], [121.5393629955189, 40.96515324947524], [121.53954265857573, 40.96515324947524], [121.53954265857573, 40.96533291253207], [121.5393629955189, 40.96533291253207], [121.5393629955189, 40.966590553929834], [121.53918333246207, 40.966590553929834], [121.53918333246207, 40.96730920615713], [121.53900366940525, 40.96730920615713], [121.53900366940525, 40.9678481953276], [121.53882400634842, 40.9678481953276], [121.53882400634842, 40.968027858384424], [121.53900366940525, 40.968027858384424], [121.53900366940525, 40.96820752144125], [121.53864434329161, 40.96820752144125], [121.53864434329161, 40.9685668475549], [121.53846468023478, 40.9685668475549], [121.53846468023478, 40.96964482589584], [121.53828501717796, 40.96964482589584], [121.53828501717796, 40.97000415200949], [121.5379256910643, 40.97000415200949], [121.5379256910643, 40.97036347812313], [121.53810535412113, 40.97036347812313], [121.53810535412113, 40.970722804236786], [121.53774602800749, 40.970722804236786]], [[121.52445096180251, 40.96263796667971], [121.52427129874569, 40.96263796667971], [121.52427129874569, 40.96245830362288], [121.52445096180251, 40.96245830362288], [121.52445096180251, 40.96263796667971]], [[121.5251696140298, 40.963536281963826], [121.52481028791617, 40.963536281963826], [121.52481028791617, 40.96335661890701], [121.5251696140298, 40.96335661890701], [121.5251696140298, 40.963536281963826]], [[121.53648838660972, 40.96155998833876], [121.53630872355289, 40.96155998833876], [121.53630872355289, 40.961380325281944], [121.53648838660972, 40.961380325281944], [121.53648838660972, 40.96155998833876]], [[121.53612906049607, 40.96227864056606], [121.53594939743924, 40.96227864056606], [121.53594939743924, 40.962098977509235], [121.53576973438243, 40.962098977509235], [121.53576973438243, 40.96191931445241], [121.53630872355289, 40.96191931445241], [121.53630872355289, 40.962098977509235], [121.53612906049607, 40.962098977509235], [121.53612906049607, 40.96227864056606]], [[121.53684771272336, 40.96245830362288], [121.53666804966655, 40.96245830362288], [121.53666804966655, 40.962098977509235], [121.53684771272336, 40.962098977509235], [121.53684771272336, 40.96245830362288]], [[121.53361377770054, 40.96515324947524], [121.53343411464371, 40.96515324947524], [121.53343411464371, 40.96497358641842], [121.53325445158688, 40.96497358641842], [121.53325445158688, 40.9647939233616], [121.53361377770054, 40.9647939233616], [121.53361377770054, 40.96515324947524]], [[121.53433242992783, 40.96533291253207], [121.53397310381418, 40.96533291253207], [121.53397310381418, 40.96515324947524], [121.534152766871, 40.96515324947524], [121.534152766871, 40.96497358641842], [121.53433242992783, 40.96497358641842], [121.53433242992783, 40.96533291253207]]]}, "properties": {"name": "cand01", "ptype": "hall", "confidence": "low", "rank": 1, "area_ha": 125.1, "rise_db": 12.9, "digitised_from": "Sentinel-1 VV rise 2022->2026, orbit 98"}}, {"type": "Feature", "geometry": {"geodesic": false, "type": "Polygon", "coordinates": [[[121.52427129874569, 40.96155998833876], [121.52427129874569, 40.96084133611147], [121.52445096180251, 40.96084133611147], [121.52445096180251, 40.960661673054645], [121.52427129874569, 40.960661673054645], [121.52427129874569, 40.960302346941], [121.52409163568886, 40.960302346941], [121.52409163568886, 40.96048200999782], [121.5235526465184, 40.96048200999782], [121.5235526465184, 40.960302346941], [121.5228339942911, 40.960302346941], [121.5228339942911, 40.96012268388417], [121.52265433123428, 40.96012268388417], [121.52265433123428, 40.959943020827346], [121.5228339942911, 40.959943020827346], [121.5228339942911, 40.95904470554323], [121.52265433123428, 40.95904470554323], [121.52265433123428, 40.95868537942958], [121.5228339942911, 40.95868537942958], [121.5228339942911, 40.958505716372756], [121.52301365734792, 40.958505716372756], [121.52301365734792, 40.958326053315936], [121.52319332040474, 40.958326053315936], [121.52319332040474, 40.95796672720228], [121.52337298346157, 40.95796672720228], [121.52337298346157, 40.957787064145464], [121.52319332040474, 40.957787064145464], [121.52319332040474, 40.956888748861346], [121.52391197263204, 40.956888748861346], [121.52391197263204, 40.95724807497499], [121.52409163568886, 40.95724807497499], [121.52409163568886, 40.95742773803182], [121.52427129874569, 40.95742773803182], [121.52427129874569, 40.957068411918165], [121.52409163568886, 40.957068411918165], [121.52409163568886, 40.956888748861346], [121.52445096180251, 40.956888748861346], [121.52445096180251, 40.95652942274769], [121.52463062485934, 40.95652942274769], [121.52463062485934, 40.95634975969087], [121.52481028791617, 40.95634975969087], [121.52481028791617, 40.95652942274769], [121.52498995097298, 40.95652942274769], [121.52498995097298, 40.957068411918165], [121.52606792931392, 40.957068411918165], [121.52606792931392, 40.95796672720228], [121.5258882662571, 40.95796672720228], [121.5258882662571, 40.958326053315936], [121.52570860320029, 40.958326053315936], [121.52570860320029, 40.95868537942958], [121.52552894014346, 40.95868537942958], [121.52552894014346, 40.95904470554323], [121.52534927708663, 40.95904470554323], [121.52534927708663, 40.959224368600054], [121.52552894014346, 40.959224368600054], [121.52552894014346, 40.9595836947137], [121.5251696140298, 40.9595836947137], [121.5251696140298, 40.95976335777053], [121.52534927708663, 40.95976335777053], [121.52534927708663, 40.959943020827346], [121.52570860320029, 40.959943020827346], [121.52570860320029, 40.96012268388417], [121.5258882662571, 40.96012268388417], [121.5258882662571, 40.96048200999782], [121.52606792931392, 40.96048200999782], [121.52606792931392, 40.960302346941], [121.52624759237075, 40.960302346941], [121.52624759237075, 40.96012268388417], [121.52696624459804, 40.96012268388417], [121.52696624459804, 40.960302346941], [121.52714590765487, 40.960302346941], [121.52714590765487, 40.96048200999782], [121.5273255707117, 40.96048200999782], [121.5273255707117, 40.960302346941], [121.52750523376852, 40.960302346941], [121.52750523376852, 40.96012268388417], [121.52804422293899, 40.96012268388417], [121.52804422293899, 40.96084133611147], [121.52642725542758, 40.96084133611147], [121.52642725542758, 40.960661673054645], [121.5258882662571, 40.960661673054645], [121.5258882662571, 40.96084133611147], [121.52552894014346, 40.96084133611147], [121.52552894014346, 40.960661673054645], [121.52534927708663, 40.960661673054645], [121.52534927708663, 40.96084133611147], [121.5251696140298, 40.96084133611147], [121.5251696140298, 40.960661673054645], [121.52481028791617, 40.960661673054645], [121.52481028791617, 40.96084133611147], [121.52498995097298, 40.96084133611147], [121.52498995097298, 40.96102099916829], [121.52481028791617, 40.96102099916829], [121.52481028791617, 40.96120066222512], [121.52445096180251, 40.96120066222512], [121.52445096180251, 40.96155998833876], [121.52427129874569, 40.96155998833876]], [[121.52409163568886, 40.95814639025911], [121.52391197263204, 40.95814639025911], [121.52391197263204, 40.95796672720228], [121.52373230957522, 40.95796672720228], [121.52373230957522, 40.957787064145464], [121.52391197263204, 40.957787064145464], [121.52391197263204, 40.95760740108864], [121.52427129874569, 40.95760740108864], [121.52427129874569, 40.95796672720228], [121.52409163568886, 40.95796672720228], [121.52409163568886, 40.95814639025911]], [[121.52552894014346, 40.958326053315936], [121.52534927708663, 40.958326053315936], [121.52534927708663, 40.95742773803182], [121.52570860320029, 40.95742773803182], [121.52570860320029, 40.957787064145464], [121.52552894014346, 40.957787064145464], [121.52552894014346, 40.958326053315936]], [[121.52498995097298, 40.95868537942958], [121.52463062485934, 40.95868537942958], [121.52463062485934, 40.958326053315936], [121.52498995097298, 40.958326053315936], [121.52498995097298, 40.95868537942958]], [[121.52391197263204, 40.959224368600054], [121.52373230957522, 40.959224368600054], [121.52373230957522, 40.95904470554323], [121.52391197263204, 40.95904470554323], [121.52391197263204, 40.959224368600054]], [[121.5251696140298, 40.95940403165688], [121.52498995097298, 40.95940403165688], [121.52498995097298, 40.959224368600054], [121.5251696140298, 40.959224368600054], [121.5251696140298, 40.95940403165688]], [[121.52498995097298, 40.95976335777053], [121.52463062485934, 40.95976335777053], [121.52463062485934, 40.9595836947137], [121.52498995097298, 40.9595836947137], [121.52498995097298, 40.95976335777053]], [[121.52427129874569, 40.959943020827346], [121.52409163568886, 40.959943020827346], [121.52409163568886, 40.95976335777053], [121.52427129874569, 40.95976335777053], [121.52427129874569, 40.959943020827346]], [[121.5251696140298, 40.959943020827346], [121.52498995097298, 40.959943020827346], [121.52498995097298, 40.95976335777053], [121.5251696140298, 40.95976335777053], [121.5251696140298, 40.959943020827346]], [[121.5235526465184, 40.96012268388417], [121.52337298346157, 40.96012268388417], [121.52337298346157, 40.959943020827346], [121.5235526465184, 40.959943020827346], [121.5235526465184, 40.96012268388417]], [[121.52445096180251, 40.960302346941], [121.52427129874569, 40.960302346941], [121.52427129874569, 40.959943020827346], [121.52463062485934, 40.959943020827346], [121.52463062485934, 40.96012268388417], [121.52445096180251, 40.96012268388417], [121.52445096180251, 40.960302346941]]]}, "properties": {"name": "cand02", "ptype": "hall", "confidence": "low", "rank": 2, "area_ha": 13.4, "rise_db": 7.4, "digitised_from": "Sentinel-1 VV rise 2022->2026, orbit 98"}}, {"type": "Feature", "geometry": {"geodesic": false, "type": "Polygon", "coordinates": [[[121.54565120250774, 40.95401413995216], [121.54565120250774, 40.95365481383851], [121.54547153945092, 40.95365481383851], [121.54547153945092, 40.95257683549757], [121.54565120250774, 40.95257683549757], [121.54565120250774, 40.951858183270275], [121.54583086556455, 40.951858183270275], [121.54583086556455, 40.95167852021345], [121.54636985473503, 40.95167852021345], [121.54636985473503, 40.951858183270275], [121.5469088439055, 40.951858183270275], [121.5469088439055, 40.952037846327094], [121.54708850696233, 40.952037846327094], [121.54708850696233, 40.95221750938392], [121.54780715918962, 40.95221750938392], [121.54780715918962, 40.952037846327094], [121.5483461483601, 40.952037846327094], [121.5483461483601, 40.95239717244075], [121.54852581141692, 40.95239717244075], [121.54852581141692, 40.95311582466804], [121.5483461483601, 40.95311582466804], [121.5483461483601, 40.953295487724866], [121.54798682224644, 40.953295487724866], [121.54798682224644, 40.95347515078169], [121.54780715918962, 40.95347515078169], [121.54780715918962, 40.95365481383851], [121.5476274961328, 40.95365481383851], [121.5476274961328, 40.95383447689534], [121.54672918084867, 40.95383447689534], [121.54672918084867, 40.95401413995216], [121.54565120250774, 40.95401413995216]]]}, "properties": {"name": "cand03", "ptype": "hall", "confidence": "low", "rank": 3, "area_ha": 6.5, "rise_db": 8.2, "digitised_from": "Sentinel-1 VV rise 2022->2026, orbit 98"}}, {"type": "Feature", "geometry": {"geodesic": false, "type": "Polygon", "coordinates": [[[121.5228339942911, 40.9843771965554], [121.5228339942911, 40.98383820738493], [121.52301365734792, 40.98383820738493], [121.52301365734792, 40.98365854432811], [121.52337298346157, 40.98365854432811], [121.52337298346157, 40.98347888127128], [121.52319332040474, 40.98347888127128], [121.52319332040474, 40.98293989210081], [121.52409163568886, 40.98293989210081], [121.52409163568886, 40.983119555157636], [121.52445096180251, 40.983119555157636], [121.52445096180251, 40.98347888127128], [121.52463062485934, 40.98347888127128], [121.52463062485934, 40.98365854432811], [121.52445096180251, 40.98365854432811], [121.52445096180251, 40.984017870441754], [121.52409163568886, 40.984017870441754], [121.52409163568886, 40.98419753349857], [121.52373230957522, 40.98419753349857], [121.52373230957522, 40.984017870441754], [121.52337298346157, 40.984017870441754], [121.52337298346157, 40.9843771965554], [121.5228339942911, 40.9843771965554]]]}, "properties": {"name": "cand04", "ptype": "hall", "confidence": "low", "rank": 4, "area_ha": 2.0, "rise_db": 6.7, "digitised_from": "Sentinel-1 VV rise 2022->2026, orbit 98"}}, {"type": "Feature", "geometry": {"geodesic": false, "type": "Polygon", "coordinates": [[[121.4860030676422, 40.94341401959955], [121.4860030676422, 40.943234356542725], [121.48510475235808, 40.943234356542725], [121.48510475235808, 40.942336041258606], [121.48528441541491, 40.942336041258606], [121.48528441541491, 40.941617389031315], [121.48546407847172, 40.941617389031315], [121.48546407847172, 40.94125806291766], [121.48564374152855, 40.94125806291766], [121.48564374152855, 40.942336041258606], [121.4860030676422, 40.942336041258606], [121.4860030676422, 40.94251570431543], [121.48654205681267, 40.94251570431543], [121.48654205681267, 40.94269536737225], [121.4867217198695, 40.94269536737225], [121.4867217198695, 40.94287503042908], [121.48654205681267, 40.94287503042908], [121.48654205681267, 40.943234356542725], [121.48636239375584, 40.943234356542725], [121.48636239375584, 40.94341401959955], [121.4860030676422, 40.94341401959955]]]}, "properties": {"name": "cand05", "ptype": "hall", "confidence": "low", "rank": 5, "area_ha": 2.0, "rise_db": 7.2, "digitised_from": "Sentinel-1 VV rise 2022->2026, orbit 98"}}, {"type": "Feature", "geometry": {"geodesic": false, "type": "Polygon", "coordinates": [[[121.50217274275634, 40.97054314117996], [121.50217274275634, 40.970183815066314], [121.50253206887, 40.970183815066314], [121.50253206887, 40.97000415200949], [121.50217274275634, 40.97000415200949], [121.50217274275634, 40.96964482589584], [121.50235240581317, 40.96964482589584], [121.50235240581317, 40.969465162839015], [121.50253206887, 40.969465162839015], [121.50253206887, 40.969285499782195], [121.50307105804048, 40.969285499782195], [121.50307105804048, 40.96910583672537], [121.50325072109729, 40.96910583672537], [121.50325072109729, 40.969285499782195], [121.50378971026777, 40.969285499782195], [121.50378971026777, 40.97000415200949], [121.50361004721094, 40.97000415200949], [121.50361004721094, 40.970183815066314], [121.50343038415411, 40.970183815066314], [121.50343038415411, 40.96982448895266], [121.50307105804048, 40.96982448895266], [121.50307105804048, 40.970183815066314], [121.50289139498365, 40.970183815066314], [121.50289139498365, 40.96964482589584], [121.50271173192682, 40.96964482589584], [121.50271173192682, 40.97036347812313], [121.50343038415411, 40.97036347812313], [121.50343038415411, 40.97054314117996], [121.50217274275634, 40.97054314117996]]]}, "properties": {"name": "cand06", "ptype": "hall", "confidence": "low", "rank": 6, "area_ha": 1.7, "rise_db": 5.8, "digitised_from": "Sentinel-1 VV rise 2022->2026, orbit 98"}}, {"type": "Feature", "geometry": {"geodesic": false, "type": "Polygon", "coordinates": [[[121.51403050450672, 40.9558107705204], [121.51403050450672, 40.955631107463574], [121.51223387393848, 40.955631107463574], [121.51223387393848, 40.955451444406755], [121.51205421088166, 40.955451444406755], [121.51205421088166, 40.9550921182931], [121.51241353699531, 40.9550921182931], [121.51241353699531, 40.954732792179456], [121.51277286310896, 40.954732792179456], [121.51277286310896, 40.9550921182931], [121.5131321892226, 40.9550921182931], [121.5131321892226, 40.95527178134993], [121.51367117839308, 40.95527178134993], [121.51367117839308, 40.955451444406755], [121.51421016756355, 40.955451444406755], [121.51421016756355, 40.95527178134993], [121.51474915673403, 40.95527178134993], [121.51474915673403, 40.955451444406755], [121.51492881979085, 40.955451444406755], [121.51492881979085, 40.9558107705204], [121.51403050450672, 40.9558107705204]]]}, "properties": {"name": "cand07", "ptype": "hall", "confidence": "low", "rank": 7, "area_ha": 1.7, "rise_db": 10.4, "digitised_from": "Sentinel-1 VV rise 2022->2026, orbit 98"}}, {"type": "Feature", "geometry": {"geodesic": false, "type": "Polygon", "coordinates": [[[121.5325357993596, 40.95868537942958], [121.5325357993596, 40.958505716372756], [121.53127815796182, 40.958505716372756], [121.53127815796182, 40.958326053315936], [121.53055950573453, 40.958326053315936], [121.53055950573453, 40.95814639025911], [121.52948152739359, 40.95814639025911], [121.52948152739359, 40.95796672720228], [121.5289425382231, 40.95796672720228], [121.5289425382231, 40.95760740108864], [121.52930186433676, 40.95760740108864], [121.52930186433676, 40.957787064145464], [121.53002051656405, 40.957787064145464], [121.53002051656405, 40.95796672720228], [121.53091883184817, 40.95796672720228], [121.53091883184817, 40.95814639025911], [121.531098494905, 40.95814639025911], [121.531098494905, 40.95796672720228], [121.53145782101865, 40.95796672720228], [121.53145782101865, 40.95814639025911], [121.53217647324594, 40.95814639025911], [121.53217647324594, 40.958326053315936], [121.53271546241642, 40.958326053315936], [121.53271546241642, 40.95868537942958], [121.5325357993596, 40.95868537942958]]]}, "properties": {"name": "cand08", "ptype": "hall", "confidence": "low", "rank": 8, "area_ha": 1.4, "rise_db": 10.2, "digitised_from": "Sentinel-1 VV rise 2022->2026, orbit 98"}}, {"type": "Feature", "geometry": {"geodesic": false, "type": "Polygon", "coordinates": [[[121.52139668983651, 40.93712581261072], [121.52139668983651, 40.93694614955389], [121.52121702677968, 40.93694614955389], [121.52121702677968, 40.93640716038342], [121.52139668983651, 40.93640716038342], [121.52139668983651, 40.93604783426977], [121.52157635289333, 40.93604783426977], [121.52157635289333, 40.9355088450993], [121.52175601595016, 40.9355088450993], [121.52175601595016, 40.935149518985654], [121.5221153420638, 40.935149518985654], [121.5221153420638, 40.93568850815612], [121.52193567900697, 40.93568850815612], [121.52193567900697, 40.936586823440244], [121.52175601595016, 40.936586823440244], [121.52175601595016, 40.93694614955389], [121.52157635289333, 40.93694614955389], [121.52157635289333, 40.93712581261072], [121.52139668983651, 40.93712581261072]]]}, "properties": {"name": "cand09", "ptype": "hall", "confidence": "low", "rank": 9, "area_ha": 1.1, "rise_db": 9.1, "digitised_from": "Sentinel-1 VV rise 2022->2026, orbit 98"}}, {"type": "Feature", "geometry": {"geodesic": false, "type": "Polygon", "coordinates": [[[121.51097623254073, 40.94862424824744], [121.51097623254073, 40.948264922133795], [121.5107965694839, 40.948264922133795], [121.5107965694839, 40.94790559602015], [121.51133555865437, 40.94790559602015], [121.51133555865437, 40.9475462699065], [121.51151522171119, 40.9475462699065], [121.51151522171119, 40.94718694379285], [121.51133555865437, 40.94718694379285], [121.51133555865437, 40.94700728073603], [121.51169488476802, 40.94700728073603], [121.51169488476802, 40.94718694379285], [121.51187454782485, 40.94718694379285], [121.51187454782485, 40.94772593296332], [121.51169488476802, 40.94772593296332], [121.51169488476802, 40.94790559602015], [121.51187454782485, 40.94790559602015], [121.51187454782485, 40.94808525907697], [121.51169488476802, 40.94808525907697], [121.51169488476802, 40.948264922133795], [121.51151522171119, 40.948264922133795], [121.51151522171119, 40.94844458519062], [121.51133555865437, 40.94844458519062], [121.51133555865437, 40.94862424824744], [121.51097623254073, 40.94862424824744]]]}, "properties": {"name": "cand10", "ptype": "hall", "confidence": "low", "rank": 10, "area_ha": 1.1, "rise_db": 6.2, "digitised_from": "Sentinel-1 VV rise 2022->2026, orbit 98"}}, {"type": "Feature", "geometry": {"geodesic": false, "type": "Polygon", "coordinates": [[[121.52750523376852, 40.98240090293034], [121.52750523376852, 40.98204157681669], [121.5273255707117, 40.98204157681669], [121.5273255707117, 40.981682250703045], [121.52750523376852, 40.981682250703045], [121.52750523376852, 40.98150258764622], [121.52822388599581, 40.98150258764622], [121.52822388599581, 40.981682250703045], [121.52840354905264, 40.981682250703045], [121.52840354905264, 40.98240090293034], [121.52750523376852, 40.98240090293034]]]}, "properties": {"name": "cand11", "ptype": "hall", "confidence": "low", "rank": 11, "area_ha": 1.0, "rise_db": 8.3, "digitised_from": "Sentinel-1 VV rise 2022->2026, orbit 98"}}, {"type": "Feature", "geometry": {"geodesic": false, "type": "Polygon", "coordinates": [[[121.52193567900697, 40.965692238645715], [121.52193567900697, 40.96551257558889], [121.52175601595016, 40.96551257558889], [121.52175601595016, 40.96497358641842], [121.52157635289333, 40.96497358641842], [121.52157635289333, 40.96461426030477], [121.52139668983651, 40.96461426030477], [121.52139668983651, 40.964434597247944], [121.52157635289333, 40.964434597247944], [121.52157635289333, 40.964254934191125], [121.52229500512063, 40.964254934191125], [121.52229500512063, 40.964434597247944], [121.52247466817745, 40.964434597247944], [121.52247466817745, 40.96461426030477], [121.52229500512063, 40.96461426030477], [121.52229500512063, 40.9647939233616], [121.5221153420638, 40.9647939233616], [121.5221153420638, 40.96497358641842], [121.52193567900697, 40.96497358641842], [121.52193567900697, 40.96515324947524], [121.52229500512063, 40.96515324947524], [121.52229500512063, 40.96551257558889], [121.5221153420638, 40.96551257558889], [121.5221153420638, 40.965692238645715], [121.52193567900697, 40.965692238645715]]]}, "properties": {"name": "cand12", "ptype": "hall", "confidence": "low", "rank": 12, "area_ha": 1.0, "rise_db": 6.4, "digitised_from": "Sentinel-1 VV rise 2022->2026, orbit 98"}}]}