{"type": "FeatureCollection", "features": [{"type": "Feature", "geometry": {"geodesic": false, "type": "Polygon", "coordinates": [[[106.79495491115155, 39.61229043159124], [106.79495491115155, 39.61211076853442], [106.79477524809472, 39.61211076853442], [106.79477524809472, 39.6112124532503], [106.79495491115155, 39.6112124532503], [106.79495491115155, 39.609595485738886], [106.79513457420836, 39.609595485738886], [106.79513457420836, 39.60779885517064], [106.79531423726519, 39.60779885517064], [106.79531423726519, 39.606720876829705], [106.79549390032201, 39.606720876829705], [106.79549390032201, 39.605463235431934], [106.79567356337884, 39.605463235431934], [106.79567356337884, 39.60510390931829], [106.79585322643567, 39.60510390931829], [106.79585322643567, 39.6036666048637], [106.7960328894925, 39.6036666048637], [106.7960328894925, 39.6029479526364], [106.7962125525493, 39.6029479526364], [106.7962125525493, 39.60276828957958], [106.79639221560613, 39.60276828957958], [106.79639221560613, 39.602408963465926], [106.7962125525493, 39.602408963465926], [106.7962125525493, 39.601690311238634], [106.79639221560613, 39.601690311238634], [106.79639221560613, 39.600971659011336], [106.79657187866296, 39.600971659011336], [106.79657187866296, 39.60061233289769], [106.79675154171979, 39.60061233289769], [106.79675154171979, 39.600253006784044], [106.79693120477661, 39.600253006784044], [106.79693120477661, 39.59989368067039], [106.79747019394708, 39.59989368067039], [106.79747019394708, 39.60007334372722], [106.79729053089025, 39.60007334372722], [106.79729053089025, 39.60043266984086], [106.79711086783342, 39.60043266984086], [106.79711086783342, 39.60115132206816], [106.79693120477661, 39.60115132206816], [106.79693120477661, 39.60151064818181], [106.79675154171979, 39.60151064818181], [106.79675154171979, 39.60204963735228], [106.79657187866296, 39.60204963735228], [106.79657187866296, 39.60276828957958], [106.79675154171979, 39.60276828957958], [106.79675154171979, 39.603127615693225], [106.79693120477661, 39.603127615693225], [106.79693120477661, 39.60348694180687], [106.79657187866296, 39.60348694180687], [106.79657187866296, 39.60384626792052], [106.79639221560613, 39.60384626792052], [106.79639221560613, 39.60402593097734], [106.79693120477661, 39.60402593097734], [106.79693120477661, 39.60438525709099], [106.79657187866296, 39.60438525709099], [106.79657187866296, 39.60420559403417], [106.79639221560613, 39.60420559403417], [106.79639221560613, 39.60474458320464], [106.79657187866296, 39.60474458320464], [106.79657187866296, 39.604564920147816], [106.79675154171979, 39.604564920147816], [106.79675154171979, 39.60474458320464], [106.79729053089025, 39.60474458320464], [106.79729053089025, 39.60492424626146], [106.79693120477661, 39.60492424626146], [106.79693120477661, 39.60510390931829], [106.79657187866296, 39.60510390931829], [106.79657187866296, 39.605463235431934], [106.79639221560613, 39.605463235431934], [106.79639221560613, 39.60564289848876], [106.7962125525493, 39.60564289848876], [106.7962125525493, 39.60582256154558], [106.7960328894925, 39.60582256154558], [106.7960328894925, 39.606002224602406], [106.79585322643567, 39.606002224602406], [106.79585322643567, 39.60618188765923], [106.7962125525493, 39.60618188765923], [106.7962125525493, 39.60654121377288], [106.7960328894925, 39.60654121377288], [106.7960328894925, 39.606900539886524], [106.79585322643567, 39.606900539886524], [106.79585322643567, 39.60779885517064], [106.79567356337884, 39.60779885517064], [106.79567356337884, 39.60941582268206], [106.79549390032201, 39.60941582268206], [106.79549390032201, 39.61067346407983], [106.79531423726519, 39.61067346407983], [106.79531423726519, 39.61211076853442], [106.79513457420836, 39.61211076853442], [106.79513457420836, 39.61229043159124], [106.79495491115155, 39.61229043159124]], [[106.79675154171979, 39.60330727875005], [106.79657187866296, 39.60330727875005], [106.79657187866296, 39.603127615693225], [106.79675154171979, 39.603127615693225], [106.79675154171979, 39.60330727875005]], [[106.79639221560613, 39.605283572375114], [106.7962125525493, 39.605283572375114], [106.7962125525493, 39.60510390931829], [106.79639221560613, 39.60510390931829], [106.79639221560613, 39.605283572375114]]]}, "properties": {"name": "cand01", "ptype": "hall", "confidence": "low", "rank": 1, "area_ha": 8.8, "rise_db": 7.9, "digitised_from": "Sentinel-1 VV rise 2022->2026, orbit 84"}}, {"type": "Feature", "geometry": {"geodesic": false, "type": "Polygon", "coordinates": [[[106.75309341891158, 39.60708020294335], [106.75309341891158, 39.606900539886524], [106.7532730819684, 39.606900539886524], [106.7532730819684, 39.60654121377288], [106.75345274502523, 39.60654121377288], [106.75345274502523, 39.606720876829705], [106.75363240808204, 39.606720876829705], [106.75363240808204, 39.60564289848876], [106.7532730819684, 39.60564289848876], [106.7532730819684, 39.605463235431934], [106.75381207113887, 39.605463235431934], [106.75381207113887, 39.605283572375114], [106.75363240808204, 39.605283572375114], [106.75363240808204, 39.60510390931829], [106.75345274502523, 39.60510390931829], [106.75345274502523, 39.605283572375114], [106.75309341891158, 39.605283572375114], [106.75309341891158, 39.60582256154558], [106.75273409279792, 39.60582256154558], [106.75273409279792, 39.606002224602406], [106.7525544297411, 39.606002224602406], [106.7525544297411, 39.60582256154558], [106.75273409279792, 39.60582256154558], [106.75273409279792, 39.60564289848876], [106.75291375585475, 39.60564289848876], [106.75291375585475, 39.605463235431934], [106.75201544057063, 39.605463235431934], [106.75201544057063, 39.60564289848876], [106.7518357775138, 39.60564289848876], [106.7518357775138, 39.60582256154558], [106.75165611445698, 39.60582256154558], [106.75165611445698, 39.60564289848876], [106.7518357775138, 39.60564289848876], [106.7518357775138, 39.605283572375114], [106.75219510362746, 39.605283572375114], [106.75219510362746, 39.60492424626146], [106.75273409279792, 39.60492424626146], [106.75273409279792, 39.60438525709099], [106.7525544297411, 39.60438525709099], [106.7525544297411, 39.60384626792052], [106.75219510362746, 39.60384626792052], [106.75219510362746, 39.60402593097734], [106.7518357775138, 39.60402593097734], [106.7518357775138, 39.6036666048637], [106.75219510362746, 39.6036666048637], [106.75219510362746, 39.60348694180687], [106.7518357775138, 39.60348694180687], [106.7518357775138, 39.60330727875005], [106.75201544057063, 39.60330727875005], [106.75201544057063, 39.603127615693225], [106.75219510362746, 39.603127615693225], [106.75219510362746, 39.6029479526364], [106.75237476668428, 39.6029479526364], [106.75237476668428, 39.60276828957958], [106.75219510362746, 39.60276828957958], [106.75219510362746, 39.60258862652275], [106.75273409279792, 39.60258862652275], [106.75273409279792, 39.60276828957958], [106.75291375585475, 39.60276828957958], [106.75291375585475, 39.6029479526364], [106.7532730819684, 39.6029479526364], [106.7532730819684, 39.60330727875005], [106.75309341891158, 39.60330727875005], [106.75309341891158, 39.60348694180687], [106.7532730819684, 39.60348694180687], [106.7532730819684, 39.6036666048637], [106.75381207113887, 39.6036666048637], [106.75381207113887, 39.60330727875005], [106.75363240808204, 39.60330727875005], [106.75363240808204, 39.6029479526364], [106.75345274502523, 39.6029479526364], [106.75345274502523, 39.60276828957958], [106.7532730819684, 39.60276828957958], [106.7532730819684, 39.602408963465926], [106.75345274502523, 39.602408963465926], [106.75345274502523, 39.60222930040911], [106.7532730819684, 39.60222930040911], [106.7532730819684, 39.60204963735228], [106.75363240808204, 39.60204963735228], [106.75363240808204, 39.60222930040911], [106.75435106030935, 39.60222930040911], [106.75435106030935, 39.602408963465926], [106.75453072336616, 39.602408963465926], [106.75453072336616, 39.60258862652275], [106.75435106030935, 39.60258862652275], [106.75435106030935, 39.602408963465926], [106.7539917341957, 39.602408963465926], [106.7539917341957, 39.60258862652275], [106.75363240808204, 39.60258862652275], [106.75363240808204, 39.60276828957958], [106.75417139725252, 39.60276828957958], [106.75417139725252, 39.6029479526364], [106.7539917341957, 39.6029479526364], [106.7539917341957, 39.603127615693225], [106.75435106030935, 39.603127615693225], [106.75435106030935, 39.6029479526364], [106.75453072336616, 39.6029479526364], [106.75453072336616, 39.603127615693225], [106.75489004947981, 39.603127615693225], [106.75489004947981, 39.60330727875005], [106.75471038642299, 39.60330727875005], [106.75471038642299, 39.6036666048637], [106.75435106030935, 39.6036666048637], [106.75435106030935, 39.60348694180687], [106.75417139725252, 39.60348694180687], [106.75417139725252, 39.6036666048637], [106.75381207113887, 39.6036666048637], [106.75381207113887, 39.60384626792052], [106.75417139725252, 39.60384626792052], [106.75417139725252, 39.60402593097734], [106.75453072336616, 39.60402593097734], [106.75453072336616, 39.60420559403417], [106.75435106030935, 39.60420559403417], [106.75435106030935, 39.60474458320464], [106.75453072336616, 39.60474458320464], [106.75453072336616, 39.60510390931829], [106.75435106030935, 39.60510390931829], [106.75435106030935, 39.605283572375114], [106.75417139725252, 39.605283572375114], [106.75417139725252, 39.605463235431934], [106.75453072336616, 39.605463235431934], [106.75453072336616, 39.605283572375114], [106.75471038642299, 39.605283572375114], [106.75471038642299, 39.605463235431934], [106.75453072336616, 39.605463235431934], [106.75453072336616, 39.606002224602406], [106.75435106030935, 39.606002224602406], [106.75435106030935, 39.606720876829705], [106.75417139725252, 39.606720876829705], [106.75417139725252, 39.606900539886524], [106.7539917341957, 39.606900539886524], [106.7539917341957, 39.606720876829705], [106.75381207113887, 39.606720876829705], [106.75381207113887, 39.606900539886524], [106.7532730819684, 39.606900539886524], [106.7532730819684, 39.60708020294335], [106.75309341891158, 39.60708020294335]], [[106.7525544297411, 39.60330727875005], [106.75237476668428, 39.60330727875005], [106.75237476668428, 39.6029479526364], [106.7525544297411, 39.6029479526364], [106.7525544297411, 39.60330727875005]], [[106.75309341891158, 39.60330727875005], [106.75291375585475, 39.60330727875005], [106.75291375585475, 39.603127615693225], [106.75309341891158, 39.603127615693225], [106.75309341891158, 39.60330727875005]], [[106.7539917341957, 39.60474458320464], [106.75345274502523, 39.60474458320464], [106.75345274502523, 39.604564920147816], [106.7532730819684, 39.604564920147816], [106.7532730819684, 39.60438525709099], [106.75291375585475, 39.60438525709099], [106.75291375585475, 39.60420559403417], [106.75273409279792, 39.60420559403417], [106.75273409279792, 39.60402593097734], [106.75291375585475, 39.60402593097734], [106.75291375585475, 39.60384626792052], [106.7525544297411, 39.60384626792052], [106.7525544297411, 39.6036666048637], [106.75309341891158, 39.6036666048637], [106.75309341891158, 39.60384626792052], [106.75381207113887, 39.60384626792052], [106.75381207113887, 39.60420559403417], [106.7539917341957, 39.60420559403417], [106.7539917341957, 39.60402593097734], [106.75417139725252, 39.60402593097734], [106.75417139725252, 39.604564920147816], [106.7539917341957, 39.604564920147816], [106.7539917341957, 39.60474458320464]], [[106.75345274502523, 39.60492424626146], [106.7532730819684, 39.60492424626146], [106.7532730819684, 39.60474458320464], [106.75345274502523, 39.60474458320464], [106.75345274502523, 39.60492424626146]], [[106.75435106030935, 39.60492424626146], [106.7539917341957, 39.60492424626146], [106.7539917341957, 39.60474458320464], [106.75435106030935, 39.60474458320464], [106.75435106030935, 39.60492424626146]], [[106.75291375585475, 39.60510390931829], [106.75273409279792, 39.60510390931829], [106.75273409279792, 39.60492424626146], [106.75291375585475, 39.60492424626146], [106.75291375585475, 39.60510390931829]], [[106.7525544297411, 39.605283572375114], [106.75237476668428, 39.605283572375114], [106.75237476668428, 39.60510390931829], [106.7525544297411, 39.60510390931829], [106.7525544297411, 39.605283572375114]], [[106.75309341891158, 39.605283572375114], [106.75291375585475, 39.605283572375114], [106.75291375585475, 39.60510390931829], [106.75309341891158, 39.60510390931829], [106.75309341891158, 39.605283572375114]], [[106.75435106030935, 39.60582256154558], [106.7539917341957, 39.60582256154558], [106.7539917341957, 39.60564289848876], [106.75435106030935, 39.60564289848876], [106.75435106030935, 39.60582256154558]], [[106.75417139725252, 39.60636155071605], [106.7539917341957, 39.60636155071605], [106.7539917341957, 39.60618188765923], [106.75417139725252, 39.60618188765923], [106.75417139725252, 39.60636155071605]]]}, "properties": {"name": "cand02", "ptype": "hall", "confidence": "low", "rank": 2, "area_ha": 7.1, "rise_db": 5.7, "digitised_from": "Sentinel-1 VV rise 2022->2026, orbit 84"}}, {"type": "Feature", "geometry": {"geodesic": false, "type": "Polygon", "coordinates": [[[106.79405659586743, 39.64157550985354], [106.79405659586743, 39.64139584679672], [106.7938769328106, 39.64139584679672], [106.7938769328106, 39.64121618373989], [106.79351760669695, 39.64121618373989], [106.79351760669695, 39.64157550985354], [106.79297861752649, 39.64157550985354], [106.79297861752649, 39.64139584679672], [106.79261929141283, 39.64139584679672], [106.79261929141283, 39.64121618373989], [106.79225996529918, 39.64121618373989], [106.79225996529918, 39.64085685762625], [106.79261929141283, 39.64085685762625], [106.79261929141283, 39.641036520683066], [106.7931582805833, 39.641036520683066], [106.7931582805833, 39.64085685762625], [106.79333794364013, 39.64085685762625], [106.79333794364013, 39.64067719456942], [106.79351760669695, 39.64067719456942], [106.79351760669695, 39.640497531512594], [106.79333794364013, 39.640497531512594], [106.79333794364013, 39.640317868455774], [106.79297861752649, 39.640317868455774], [106.79297861752649, 39.64013820539895], [106.79351760669695, 39.64013820539895], [106.79351760669695, 39.640497531512594], [106.79369726975378, 39.640497531512594], [106.79369726975378, 39.640317868455774], [106.7938769328106, 39.640317868455774], [106.7938769328106, 39.64013820539895], [106.79441592198107, 39.64013820539895], [106.79441592198107, 39.63995854234212], [106.79477524809472, 39.63995854234212], [106.79477524809472, 39.6397788792853], [106.79495491115155, 39.6397788792853], [106.79495491115155, 39.639419553171656], [106.79477524809472, 39.639419553171656], [106.79477524809472, 39.639060227058], [106.79495491115155, 39.639060227058], [106.79495491115155, 39.638880564001184], [106.79477524809472, 39.638880564001184], [106.79477524809472, 39.63870090094436], [106.79513457420836, 39.63870090094436], [106.79513457420836, 39.639419553171656], [106.79531423726519, 39.639419553171656], [106.79531423726519, 39.6397788792853], [106.79513457420836, 39.6397788792853], [106.79513457420836, 39.63995854234212], [106.79495491115155, 39.63995854234212], [106.79495491115155, 39.64067719456942], [106.79531423726519, 39.64067719456942], [106.79531423726519, 39.64085685762625], [106.79549390032201, 39.64085685762625], [106.79549390032201, 39.64139584679672], [106.79531423726519, 39.64139584679672], [106.79531423726519, 39.64157550985354], [106.79405659586743, 39.64157550985354]], [[106.79441592198107, 39.64067719456942], [106.79369726975378, 39.64067719456942], [106.79369726975378, 39.640497531512594], [106.79441592198107, 39.640497531512594], [106.79441592198107, 39.64067719456942]], [[106.79477524809472, 39.64067719456942], [106.7945955850379, 39.64067719456942], [106.7945955850379, 39.640497531512594], [106.79477524809472, 39.640497531512594], [106.79477524809472, 39.64067719456942]]]}, "properties": {"name": "cand03", "ptype": "hall", "confidence": "low", "rank": 3, "area_ha": 4.2, "rise_db": 7.4, "digitised_from": "Sentinel-1 VV rise 2022->2026, orbit 84"}}, {"type": "Feature", "geometry": {"geodesic": false, "type": "Polygon", "coordinates": [[[106.80339907482227, 39.6600808047064], [106.80339907482227, 39.65990114164958], [106.80357873787909, 39.65990114164958], [106.80357873787909, 39.65972147859275], [106.80339907482227, 39.65972147859275], [106.80339907482227, 39.65954181553593], [106.8028600856518, 39.65954181553593], [106.8028600856518, 39.659182489422285], [106.80268042259497, 39.659182489422285], [106.80268042259497, 39.659362152479105], [106.80250075953815, 39.659362152479105], [106.80250075953815, 39.65972147859275], [106.80232109648132, 39.65972147859275], [106.80232109648132, 39.65954181553593], [106.8021414334245, 39.65954181553593], [106.8021414334245, 39.65864350025181], [106.80232109648132, 39.65864350025181], [106.80232109648132, 39.65846383719499], [106.80250075953815, 39.65846383719499], [106.80250075953815, 39.65774518496769], [106.80268042259497, 39.65774518496769], [106.80268042259497, 39.65756552191087], [106.8028600856518, 39.65756552191087], [106.8028600856518, 39.65774518496769], [106.80339907482227, 39.65774518496769], [106.80339907482227, 39.657924848024514], [106.80357873787909, 39.657924848024514], [106.80357873787909, 39.65810451108134], [106.80375840093592, 39.65810451108134], [106.80375840093592, 39.65828417413816], [106.80393806399275, 39.65828417413816], [106.80393806399275, 39.65882316330863], [106.80411772704956, 39.65882316330863], [106.80411772704956, 39.6600808047064], [106.80339907482227, 39.6600808047064]], [[106.80303974870861, 39.65828417413816], [106.8028600856518, 39.65828417413816], [106.8028600856518, 39.65810451108134], [106.80303974870861, 39.65810451108134], [106.80303974870861, 39.65828417413816]]]}, "properties": {"name": "cand04", "ptype": "hall", "confidence": "low", "rank": 4, "area_ha": 3.9, "rise_db": 6.5, "digitised_from": "Sentinel-1 VV rise 2022->2026, orbit 84"}}, {"type": "Feature", "geometry": {"geodesic": false, "type": "Polygon", "coordinates": [[[106.78165984494657, 39.63762292260341], [106.78165984494657, 39.63744325954659], [106.78148018188975, 39.63744325954659], [106.78148018188975, 39.63708393343294], [106.78165984494657, 39.63708393343294], [106.78165984494657, 39.636724607319294], [106.78148018188975, 39.636724607319294], [106.78148018188975, 39.63618561814882], [106.78165984494657, 39.63618561814882], [106.78165984494657, 39.635826292035176], [106.7818395080034, 39.635826292035176], [106.7818395080034, 39.636005955091996], [106.78201917106023, 39.636005955091996], [106.78201917106023, 39.63636528120565], [106.78273782328752, 39.63636528120565], [106.78273782328752, 39.63618561814882], [106.78309714940117, 39.63618561814882], [106.78309714940117, 39.63636528120565], [106.78399546468529, 39.63636528120565], [106.78399546468529, 39.63690427037612], [106.78363613857164, 39.63690427037612], [106.78363613857164, 39.63708393343294], [106.78309714940117, 39.63708393343294], [106.78309714940117, 39.63726359648977], [106.78201917106023, 39.63726359648977], [106.78201917106023, 39.63744325954659], [106.7818395080034, 39.63744325954659], [106.7818395080034, 39.63762292260341], [106.78165984494657, 39.63762292260341]]]}, "properties": {"name": "cand05", "ptype": "hall", "confidence": "low", "rank": 5, "area_ha": 2.9, "rise_db": 11.5, "digitised_from": "Sentinel-1 VV rise 2022->2026, orbit 84"}}, {"type": "Feature", "geometry": {"geodesic": false, "type": "Polygon", "coordinates": [[[106.7870497366513, 39.63546696592153], [106.7870497366513, 39.635287302864704], [106.78687007359447, 39.635287302864704], [106.78687007359447, 39.63510763980788], [106.78633108442399, 39.63510763980788], [106.78633108442399, 39.63474831369423], [106.7870497366513, 39.63474831369423], [106.7870497366513, 39.634568650637405], [106.78687007359447, 39.634568650637405], [106.78687007359447, 39.634388987580586], [106.7870497366513, 39.634388987580586], [106.7870497366513, 39.63420932452376], [106.78687007359447, 39.63420932452376], [106.78687007359447, 39.63402966146693], [106.7870497366513, 39.63402966146693], [106.7870497366513, 39.63384999841011], [106.78722939970811, 39.63384999841011], [106.78722939970811, 39.63402966146693], [106.78758872582176, 39.63402966146693], [106.78758872582176, 39.63384999841011], [106.78848704110588, 39.63384999841011], [106.78848704110588, 39.63402966146693], [106.78884636721953, 39.63402966146693], [106.78884636721953, 39.63420932452376], [106.78902603027636, 39.63420932452376], [106.78902603027636, 39.634388987580586], [106.78884636721953, 39.634388987580586], [106.78884636721953, 39.634568650637405], [106.78866670416271, 39.634568650637405], [106.78866670416271, 39.63474831369423], [106.78884636721953, 39.63474831369423], [106.78884636721953, 39.63510763980788], [106.78812771499224, 39.63510763980788], [106.78812771499224, 39.63492797675106], [106.78794805193542, 39.63492797675106], [106.78794805193542, 39.63510763980788], [106.78758872582176, 39.63510763980788], [106.78758872582176, 39.635287302864704], [106.78722939970811, 39.635287302864704], [106.78722939970811, 39.63546696592153], [106.7870497366513, 39.63546696592153]], [[106.78758872582176, 39.634388987580586], [106.78722939970811, 39.634388987580586], [106.78722939970811, 39.63420932452376], [106.78758872582176, 39.63420932452376], [106.78758872582176, 39.634388987580586]], [[106.78884636721953, 39.634388987580586], [106.78812771499224, 39.634388987580586], [106.78812771499224, 39.63420932452376], [106.78884636721953, 39.63420932452376], [106.78884636721953, 39.634388987580586]], [[106.78776838887859, 39.63474831369423], [106.78758872582176, 39.63474831369423], [106.78758872582176, 39.634568650637405], [106.78776838887859, 39.634568650637405], [106.78776838887859, 39.63474831369423]], [[106.78830737804905, 39.63474831369423], [106.78794805193542, 39.63474831369423], [106.78794805193542, 39.634568650637405], [106.78830737804905, 39.634568650637405], [106.78830737804905, 39.63474831369423]]]}, "properties": {"name": "cand06", "ptype": "hall", "confidence": "low", "rank": 6, "area_ha": 2.8, "rise_db": 7.4, "digitised_from": "Sentinel-1 VV rise 2022->2026, orbit 84"}}, {"type": "Feature", "geometry": {"geodesic": false, "type": "Polygon", "coordinates": [[[106.83196550085727, 39.652894282433444], [106.83196550085727, 39.652714619376624], [106.8314265116868, 39.652714619376624], [106.8314265116868, 39.652894282433444], [106.83106718557315, 39.652894282433444], [106.83106718557315, 39.6525349563198], [106.83124684862997, 39.6525349563198], [106.83124684862997, 39.65145697797885], [106.83178583780044, 39.65145697797885], [106.83178583780044, 39.651277314922034], [106.83304347919821, 39.651277314922034], [106.83304347919821, 39.65217563020615], [106.83268415308456, 39.65217563020615], [106.83268415308456, 39.65235529326297], [106.83250449002774, 39.65235529326297], [106.83250449002774, 39.652714619376624], [106.83232482697092, 39.652714619376624], [106.83232482697092, 39.652894282433444], [106.83196550085727, 39.652894282433444]], [[106.83232482697092, 39.65235529326297], [106.83214516391409, 39.65235529326297], [106.83214516391409, 39.65217563020615], [106.83196550085727, 39.65217563020615], [106.83196550085727, 39.6518163040925], [106.83214516391409, 39.6518163040925], [106.83214516391409, 39.651995967149325], [106.83232482697092, 39.651995967149325], [106.83232482697092, 39.65235529326297]]]}, "properties": {"name": "cand07", "ptype": "hall", "confidence": "low", "rank": 7, "area_ha": 2.8, "rise_db": 5.0, "digitised_from": "Sentinel-1 VV rise 2022->2026, orbit 84"}}, {"type": "Feature", "geometry": {"geodesic": false, "type": "Polygon", "coordinates": [[[106.78022254049199, 39.63564662897835], [106.78022254049199, 39.63546696592153], [106.78004287743516, 39.63546696592153], [106.78004287743516, 39.63510763980788], [106.77968355132151, 39.63510763980788], [106.77968355132151, 39.63474831369423], [106.78022254049199, 39.63474831369423], [106.78022254049199, 39.634568650637405], [106.7804022035488, 39.634568650637405], [106.7804022035488, 39.634388987580586], [106.78058186660563, 39.634388987580586], [106.78058186660563, 39.63420932452376], [106.78076152966246, 39.63420932452376], [106.78076152966246, 39.63402966146693], [106.78130051883292, 39.63402966146693], [106.78130051883292, 39.63384999841011], [106.78165984494657, 39.63384999841011], [106.78165984494657, 39.63420932452376], [106.78201917106023, 39.63420932452376], [106.78201917106023, 39.634568650637405], [106.7818395080034, 39.634568650637405], [106.7818395080034, 39.63474831369423], [106.78112085577611, 39.63474831369423], [106.78112085577611, 39.63492797675106], [106.78094119271928, 39.63492797675106], [106.78094119271928, 39.63510763980788], [106.78076152966246, 39.63510763980788], [106.78076152966246, 39.63546696592153], [106.78058186660563, 39.63546696592153], [106.78058186660563, 39.63564662897835], [106.78022254049199, 39.63564662897835]]]}, "properties": {"name": "cand08", "ptype": "hall", "confidence": "low", "rank": 8, "area_ha": 2.3, "rise_db": 7.6, "digitised_from": "Sentinel-1 VV rise 2022->2026, orbit 84"}}, {"type": "Feature", "geometry": {"geodesic": false, "type": "Polygon", "coordinates": [[[106.78094119271928, 39.64013820539895], [106.78094119271928, 39.639060227058], [106.78112085577611, 39.639060227058], [106.78112085577611, 39.638161911773885], [106.78255816023069, 39.638161911773885], [106.78255816023069, 39.63798224871706], [106.78309714940117, 39.63798224871706], [106.78309714940117, 39.638161911773885], [106.78363613857164, 39.638161911773885], [106.78363613857164, 39.63834157483071], [106.78345647551481, 39.63834157483071], [106.78345647551481, 39.63852123788753], [106.78309714940117, 39.63852123788753], [106.78309714940117, 39.638880564001184], [106.78327681245798, 39.638880564001184], [106.78327681245798, 39.639419553171656], [106.78273782328752, 39.639419553171656], [106.78273782328752, 39.63923989011483], [106.78291748634435, 39.63923989011483], [106.78291748634435, 39.639060227058], [106.78309714940117, 39.639060227058], [106.78309714940117, 39.638880564001184], [106.78201917106023, 39.638880564001184], [106.78201917106023, 39.63870090094436], [106.7818395080034, 39.63870090094436], [106.7818395080034, 39.638880564001184], [106.78130051883292, 39.638880564001184], [106.78130051883292, 39.64013820539895], [106.78094119271928, 39.64013820539895]], [[106.78237849717387, 39.63870090094436], [106.78201917106023, 39.63870090094436], [106.78201917106023, 39.63852123788753], [106.7818395080034, 39.63852123788753], [106.7818395080034, 39.63870090094436], [106.78130051883292, 39.63870090094436], [106.78130051883292, 39.63834157483071], [106.78291748634435, 39.63834157483071], [106.78291748634435, 39.63852123788753], [106.78237849717387, 39.63852123788753], [106.78237849717387, 39.63870090094436]]]}, "properties": {"name": "cand09", "ptype": "hall", "confidence": "low", "rank": 9, "area_ha": 2.2, "rise_db": 5.6, "digitised_from": "Sentinel-1 VV rise 2022->2026, orbit 84"}}, {"type": "Feature", "geometry": {"geodesic": false, "type": "Polygon", "coordinates": [[[106.77914456215105, 39.63798224871706], [106.77914456215105, 39.63762292260341], [106.77896489909422, 39.63762292260341], [106.77896489909422, 39.63708393343294], [106.77914456215105, 39.63708393343294], [106.77914456215105, 39.63690427037612], [106.77932422520786, 39.63690427037612], [106.77932422520786, 39.63654494426247], [106.78004287743516, 39.63654494426247], [106.78004287743516, 39.636724607319294], [106.78022254049199, 39.636724607319294], [106.78022254049199, 39.63690427037612], [106.78076152966246, 39.63690427037612], [106.78076152966246, 39.63744325954659], [106.78058186660563, 39.63744325954659], [106.78058186660563, 39.63762292260341], [106.78022254049199, 39.63762292260341], [106.78022254049199, 39.63744325954659], [106.77968355132151, 39.63744325954659], [106.77968355132151, 39.63762292260341], [106.77950388826468, 39.63762292260341], [106.77950388826468, 39.63780258566024], [106.77932422520786, 39.63780258566024], [106.77932422520786, 39.63798224871706], [106.77914456215105, 39.63798224871706]], [[106.78022254049199, 39.63708393343294], [106.78004287743516, 39.63708393343294], [106.78004287743516, 39.63690427037612], [106.78022254049199, 39.63690427037612], [106.78022254049199, 39.63708393343294]]]}, "properties": {"name": "cand10", "ptype": "hall", "confidence": "low", "rank": 10, "area_ha": 1.8, "rise_db": 7.3, "digitised_from": "Sentinel-1 VV rise 2022->2026, orbit 84"}}, {"type": "Feature", "geometry": {"geodesic": false, "type": "Polygon", "coordinates": [[[106.78615142136718, 39.638880564001184], [106.78615142136718, 39.63870090094436], [106.78597175831035, 39.63870090094436], [106.78597175831035, 39.63834157483071], [106.78615142136718, 39.63834157483071], [106.78615142136718, 39.638161911773885], [106.78597175831035, 39.638161911773885], [106.78597175831035, 39.63780258566024], [106.78579209525353, 39.63780258566024], [106.78579209525353, 39.63762292260341], [106.7856124321967, 39.63762292260341], [106.7856124321967, 39.63726359648977], [106.78597175831035, 39.63726359648977], [106.78597175831035, 39.63744325954659], [106.78633108442399, 39.63744325954659], [106.78633108442399, 39.63726359648977], [106.78669041053764, 39.63726359648977], [106.78669041053764, 39.63708393343294], [106.78687007359447, 39.63708393343294], [106.78687007359447, 39.63726359648977], [106.7870497366513, 39.63726359648977], [106.7870497366513, 39.63744325954659], [106.78687007359447, 39.63744325954659], [106.78687007359447, 39.63798224871706], [106.78669041053764, 39.63798224871706], [106.78669041053764, 39.63852123788753], [106.78687007359447, 39.63852123788753], [106.78687007359447, 39.63870090094436], [106.78669041053764, 39.63870090094436], [106.78669041053764, 39.638880564001184], [106.78615142136718, 39.638880564001184]]]}, "properties": {"name": "cand11", "ptype": "hall", "confidence": "low", "rank": 11, "area_ha": 1.8, "rise_db": 7.3, "digitised_from": "Sentinel-1 VV rise 2022->2026, orbit 84"}}, {"type": "Feature", "geometry": {"geodesic": false, "type": "Polygon", "coordinates": [[[106.79028367167412, 39.641934835967184], [106.79028367167412, 39.64157550985354], [106.7901040086173, 39.64157550985354], [106.7901040086173, 39.64139584679672], [106.78992434556048, 39.64139584679672], [106.78992434556048, 39.641036520683066], [106.7901040086173, 39.641036520683066], [106.7901040086173, 39.64085685762625], [106.79064299778777, 39.64085685762625], [106.79064299778777, 39.64067719456942], [106.79100232390142, 39.64067719456942], [106.79100232390142, 39.640497531512594], [106.79118198695824, 39.640497531512594], [106.79118198695824, 39.64067719456942], [106.79136165001506, 39.64067719456942], [106.79136165001506, 39.641036520683066], [106.79154131307189, 39.641036520683066], [106.79154131307189, 39.64121618373989], [106.79136165001506, 39.64121618373989], [106.79136165001506, 39.64139584679672], [106.79100232390142, 39.64139584679672], [106.79100232390142, 39.641755172910365], [106.7908226608446, 39.641755172910365], [106.7908226608446, 39.641934835967184], [106.79028367167412, 39.641934835967184]], [[106.79064299778777, 39.64157550985354], [106.79028367167412, 39.64157550985354], [106.79028367167412, 39.64139584679672], [106.79064299778777, 39.64139584679672], [106.79064299778777, 39.64157550985354]]]}, "properties": {"name": "cand12", "ptype": "hall", "confidence": "low", "rank": 12, "area_ha": 1.6, "rise_db": 6.9, "digitised_from": "Sentinel-1 VV rise 2022->2026, orbit 84"}}, {"type": "Feature", "geometry": {"geodesic": false, "type": "Polygon", "coordinates": [[[106.75309341891158, 39.62253122583021], [106.75309341891158, 39.622171899716555], [106.7532730819684, 39.622171899716555], [106.7532730819684, 39.621992236659736], [106.75345274502523, 39.621992236659736], [106.75345274502523, 39.62181257360291], [106.75363240808204, 39.62181257360291], [106.75363240808204, 39.62163291054608], [106.75309341891158, 39.62163291054608], [106.75309341891158, 39.620734595261965], [106.75291375585475, 39.620734595261965], [106.75291375585475, 39.62037526914832], [106.7532730819684, 39.62037526914832], [106.7532730819684, 39.620554932205145], [106.75309341891158, 39.620554932205145], [106.75309341891158, 39.620734595261965], [106.75345274502523, 39.620734595261965], [106.75345274502523, 39.62091425831879], [106.75363240808204, 39.62091425831879], [106.75363240808204, 39.620734595261965], [106.75381207113887, 39.620734595261965], [106.75381207113887, 39.62091425831879], [106.75417139725252, 39.62091425831879], [106.75417139725252, 39.62127358443244], [106.7539917341957, 39.62127358443244], [106.7539917341957, 39.621453247489264], [106.75381207113887, 39.621453247489264], [106.75381207113887, 39.62181257360291], [106.75363240808204, 39.62181257360291], [106.75363240808204, 39.622171899716555], [106.7539917341957, 39.622171899716555], [106.7539917341957, 39.62235156277338], [106.7532730819684, 39.62235156277338], [106.7532730819684, 39.62253122583021], [106.75309341891158, 39.62253122583021]], [[106.75363240808204, 39.62127358443244], [106.7532730819684, 39.62127358443244], [106.7532730819684, 39.62109392137562], [106.75363240808204, 39.62109392137562], [106.75363240808204, 39.62127358443244]]]}, "properties": {"name": "cand13", "ptype": "hall", "confidence": "low", "rank": 13, "area_ha": 1.4, "rise_db": 8.2, "digitised_from": "Sentinel-1 VV rise 2022->2026, orbit 84"}}, {"type": "Feature", "geometry": {"geodesic": false, "type": "Polygon", "coordinates": [[[106.75201544057063, 39.60851750739794], [106.75201544057063, 39.608337844341115], [106.75219510362746, 39.608337844341115], [106.75219510362746, 39.608158181284296], [106.75201544057063, 39.608158181284296], [106.75201544057063, 39.60779885517064], [106.7518357775138, 39.60779885517064], [106.7518357775138, 39.60761919211382], [106.75165611445698, 39.60761919211382], [106.75165611445698, 39.607439529057], [106.75219510362746, 39.607439529057], [106.75219510362746, 39.60708020294335], [106.75201544057063, 39.60708020294335], [106.75201544057063, 39.60725986600018], [106.75165611445698, 39.60725986600018], [106.75165611445698, 39.606900539886524], [106.75201544057063, 39.606900539886524], [106.75201544057063, 39.606720876829705], [106.75237476668428, 39.606720876829705], [106.75237476668428, 39.60708020294335], [106.7525544297411, 39.60708020294335], [106.7525544297411, 39.60725986600018], [106.75273409279792, 39.60725986600018], [106.75273409279792, 39.607439529057], [106.75291375585475, 39.607439529057], [106.75291375585475, 39.60779885517064], [106.75273409279792, 39.60779885517064], [106.75273409279792, 39.60761919211382], [106.75237476668428, 39.60761919211382], [106.75237476668428, 39.60779885517064], [106.7525544297411, 39.60779885517064], [106.7525544297411, 39.60797851822747], [106.75291375585475, 39.60797851822747], [106.75291375585475, 39.608158181284296], [106.75237476668428, 39.608158181284296], [106.75237476668428, 39.608337844341115], [106.75219510362746, 39.608337844341115], [106.75219510362746, 39.60851750739794], [106.75201544057063, 39.60851750739794]]]}, "properties": {"name": "cand14", "ptype": "hall", "confidence": "low", "rank": 14, "area_ha": 1.4, "rise_db": 7.0, "digitised_from": "Sentinel-1 VV rise 2022->2026, orbit 84"}}, {"type": "Feature", "geometry": {"geodesic": false, "type": "Polygon", "coordinates": [[[106.78848704110588, 39.63367033535329], [106.78848704110588, 39.63349067229646], [106.78830737804905, 39.63349067229646], [106.78830737804905, 39.63277202006917], [106.78848704110588, 39.63277202006917], [106.78848704110588, 39.632233030898696], [106.78830737804905, 39.632233030898696], [106.78830737804905, 39.631694041728224], [106.78848704110588, 39.631694041728224], [106.78848704110588, 39.6315143786714], [106.78866670416271, 39.6315143786714], [106.78866670416271, 39.631694041728224], [106.78884636721953, 39.631694041728224], [106.78884636721953, 39.632233030898696], [106.78902603027636, 39.632233030898696], [106.78902603027636, 39.63277202006917], [106.78884636721953, 39.63277202006917], [106.78884636721953, 39.63349067229646], [106.78866670416271, 39.63349067229646], [106.78866670416271, 39.63367033535329], [106.78848704110588, 39.63367033535329]]]}, "properties": {"name": "cand15", "ptype": "hall", "confidence": "low", "rank": 15, "area_ha": 1.3, "rise_db": 7.4, "digitised_from": "Sentinel-1 VV rise 2022->2026, orbit 84"}}, {"type": "Feature", "geometry": {"geodesic": false, "type": "Polygon", "coordinates": [[[106.79351760669695, 39.63115505255775], [106.79351760669695, 39.63097538950093], [106.79243962835601, 39.63097538950093], [106.79243962835601, 39.630795726444106], [106.79225996529918, 39.630795726444106], [106.79225996529918, 39.63061606338728], [106.79243962835601, 39.63061606338728], [106.79243962835601, 39.63043640033046], [106.79261929141283, 39.63043640033046], [106.79261929141283, 39.63025673727363], [106.7931582805833, 39.63025673727363], [106.7931582805833, 39.63043640033046], [106.79333794364013, 39.63043640033046], [106.79333794364013, 39.63061606338728], [106.79405659586743, 39.63061606338728], [106.79405659586743, 39.630795726444106], [106.79423625892424, 39.630795726444106], [106.79423625892424, 39.63097538950093], [106.79405659586743, 39.63097538950093], [106.79405659586743, 39.63115505255775], [106.79351760669695, 39.63115505255775]]]}, "properties": {"name": "cand16", "ptype": "hall", "confidence": "low", "rank": 16, "area_ha": 1.2, "rise_db": 10.7, "digitised_from": "Sentinel-1 VV rise 2022->2026, orbit 84"}}, {"type": "Feature", "geometry": {"geodesic": false, "type": "Polygon", "coordinates": [[[106.78453445385576, 39.63367033535329], [106.78453445385576, 39.63349067229646], [106.78435479079893, 39.63349067229646], [106.78435479079893, 39.633131346182815], [106.78453445385576, 39.633131346182815], [106.78453445385576, 39.632951683125995], [106.78579209525353, 39.632951683125995], [106.78579209525353, 39.63277202006917], [106.78597175831035, 39.63277202006917], [106.78597175831035, 39.632233030898696], [106.78633108442399, 39.632233030898696], [106.78633108442399, 39.63241269395552], [106.78651074748082, 39.63241269395552], [106.78651074748082, 39.63277202006917], [106.78633108442399, 39.63277202006917], [106.78633108442399, 39.632951683125995], [106.78597175831035, 39.632951683125995], [106.78597175831035, 39.633131346182815], [106.78543276913987, 39.633131346182815], [106.78543276913987, 39.63331100923964], [106.78489377996941, 39.63331100923964], [106.78489377996941, 39.63367033535329], [106.78453445385576, 39.63367033535329]]]}, "properties": {"name": "cand17", "ptype": "hall", "confidence": "low", "rank": 17, "area_ha": 1.2, "rise_db": 5.7, "digitised_from": "Sentinel-1 VV rise 2022->2026, orbit 84"}}, {"type": "Feature", "geometry": {"geodesic": false, "type": "Polygon", "coordinates": [[[106.78722939970811, 39.633131346182815], [106.78722939970811, 39.632951683125995], [106.7870497366513, 39.632951683125995], [106.7870497366513, 39.63277202006917], [106.78722939970811, 39.63277202006917], [106.78722939970811, 39.63205336784187], [106.78758872582176, 39.63205336784187], [106.78758872582176, 39.63187370478505], [106.78794805193542, 39.63187370478505], [106.78794805193542, 39.63205336784187], [106.78812771499224, 39.63205336784187], [106.78812771499224, 39.63241269395552], [106.78776838887859, 39.63241269395552], [106.78776838887859, 39.63259235701234], [106.78794805193542, 39.63259235701234], [106.78794805193542, 39.63277202006917], [106.78812771499224, 39.63277202006917], [106.78812771499224, 39.632951683125995], [106.78794805193542, 39.632951683125995], [106.78794805193542, 39.633131346182815], [106.78722939970811, 39.633131346182815]]]}, "properties": {"name": "cand18", "ptype": "hall", "confidence": "low", "rank": 18, "area_ha": 1.2, "rise_db": 6.8, "digitised_from": "Sentinel-1 VV rise 2022->2026, orbit 84"}}, {"type": "Feature", "geometry": {"geodesic": false, "type": "Polygon", "coordinates": [[[106.79747019394708, 39.643192477364956], [106.79747019394708, 39.64247382513766], [106.79729053089025, 39.64247382513766], [106.79729053089025, 39.64157550985354], [106.79711086783342, 39.64157550985354], [106.79711086783342, 39.64067719456942], [106.79747019394708, 39.64067719456942], [106.79747019394708, 39.64121618373989], [106.7976498570039, 39.64121618373989], [106.7976498570039, 39.64265348819448], [106.79782952006073, 39.64265348819448], [106.79782952006073, 39.643192477364956], [106.79747019394708, 39.643192477364956]]]}, "properties": {"name": "cand19", "ptype": "hall", "confidence": "low", "rank": 19, "area_ha": 1.2, "rise_db": 6.4, "digitised_from": "Sentinel-1 VV rise 2022->2026, orbit 84"}}, {"type": "Feature", "geometry": {"geodesic": false, "type": "Polygon", "coordinates": [[[106.83052819640268, 39.654331586888034], [106.83052819640268, 39.654151923831215], [106.83034853334586, 39.654151923831215], [106.83034853334586, 39.65397226077439], [106.83052819640268, 39.65397226077439], [106.83052819640268, 39.65379259771756], [106.8307078594595, 39.65379259771756], [106.8307078594595, 39.65361293466074], [106.83088752251632, 39.65361293466074], [106.83088752251632, 39.653433271603916], [106.83124684862997, 39.653433271603916], [106.83124684862997, 39.6532536085471], [106.83160617474363, 39.6532536085471], [106.83160617474363, 39.65307394549027], [106.83196550085727, 39.65307394549027], [106.83196550085727, 39.6532536085471], [106.83178583780044, 39.6532536085471], [106.83178583780044, 39.653433271603916], [106.83160617474363, 39.653433271603916], [106.83160617474363, 39.65379259771756], [106.8314265116868, 39.65379259771756], [106.8314265116868, 39.65397226077439], [106.83124684862997, 39.65397226077439], [106.83124684862997, 39.654151923831215], [106.83106718557315, 39.654151923831215], [106.83106718557315, 39.654331586888034], [106.83052819640268, 39.654331586888034]]]}, "properties": {"name": "cand20", "ptype": "hall", "confidence": "low", "rank": 20, "area_ha": 1.1, "rise_db": 5.3, "digitised_from": "Sentinel-1 VV rise 2022->2026, orbit 84"}}, {"type": "Feature", "geometry": {"geodesic": false, "type": "Polygon", "coordinates": [[[106.82639594609573, 39.654151923831215], [106.82639594609573, 39.65397226077439], [106.8262162830389, 39.65397226077439], [106.8262162830389, 39.6532536085471], [106.82639594609573, 39.6532536085471], [106.82639594609573, 39.65307394549027], [106.82657560915256, 39.65307394549027], [106.82657560915256, 39.653433271603916], [106.8269349352662, 39.653433271603916], [106.8269349352662, 39.652894282433444], [106.82729426137985, 39.652894282433444], [106.82729426137985, 39.65307394549027], [106.82747392443667, 39.65307394549027], [106.82747392443667, 39.6532536085471], [106.82729426137985, 39.6532536085471], [106.82729426137985, 39.653433271603916], [106.82711459832302, 39.653433271603916], [106.82711459832302, 39.65379259771756], [106.8269349352662, 39.65379259771756], [106.8269349352662, 39.65397226077439], [106.82657560915256, 39.65397226077439], [106.82657560915256, 39.654151923831215], [106.82639594609573, 39.654151923831215]]]}, "properties": {"name": "cand21", "ptype": "hall", "confidence": "low", "rank": 21, "area_ha": 1.0, "rise_db": 6.7, "digitised_from": "Sentinel-1 VV rise 2022->2026, orbit 84"}}]}