{"type": "FeatureCollection", "features": [{"type": "Feature", "geometry": {"geodesic": false, "type": "Polygon", "coordinates": [[[117.24415829602982, 34.96907839103426], [117.24415829602982, 34.96889872797744], [117.243978632973, 34.96889872797744], [117.243978632973, 34.96871906492061], [117.24379896991617, 34.96871906492061], [117.24379896991617, 34.96853940186379], [117.24361930685934, 34.96853940186379], [117.24361930685934, 34.96871906492061], [117.24343964380252, 34.96871906492061], [117.24343964380252, 34.96889872797744], [117.2432599807457, 34.96889872797744], [117.2432599807457, 34.96871906492061], [117.24308031768888, 34.96871906492061], [117.24308031768888, 34.96853940186379], [117.2432599807457, 34.96853940186379], [117.2432599807457, 34.96835973880697], [117.24343964380252, 34.96835973880697], [117.24343964380252, 34.96818007575014], [117.2425413285184, 34.96818007575014], [117.2425413285184, 34.96835973880697], [117.24218200240476, 34.96835973880697], [117.24218200240476, 34.96853940186379], [117.24200233934793, 34.96853940186379], [117.24200233934793, 34.96835973880697], [117.24182267629111, 34.96835973880697], [117.24182267629111, 34.968000412693314], [117.24164301323428, 34.968000412693314], [117.24164301323428, 34.967820749636495], [117.24146335017745, 34.967820749636495], [117.24146335017745, 34.96692243435238], [117.24218200240476, 34.96692243435238], [117.24218200240476, 34.966563108238724], [117.24164301323428, 34.966563108238724], [117.24164301323428, 34.96674277129555], [117.24146335017745, 34.96674277129555], [117.24146335017745, 34.966563108238724], [117.24128368712064, 34.966563108238724], [117.24128368712064, 34.966383445181904], [117.24110402406382, 34.966383445181904], [117.24110402406382, 34.96620378212508], [117.24128368712064, 34.96620378212508], [117.24128368712064, 34.96602411906825], [117.24110402406382, 34.96602411906825], [117.24110402406382, 34.96584445601143], [117.24128368712064, 34.96584445601143], [117.24128368712064, 34.96602411906825], [117.24182267629111, 34.96602411906825], [117.24182267629111, 34.96584445601143], [117.24164301323428, 34.96584445601143], [117.24164301323428, 34.964946140727314], [117.24146335017745, 34.964946140727314], [117.24146335017745, 34.96512580378413], [117.24128368712064, 34.96512580378413], [117.24128368712064, 34.965485129897786], [117.24092436100699, 34.965485129897786], [117.24092436100699, 34.96512580378413], [117.24074469795016, 34.96512580378413], [117.24074469795016, 34.96476647767049], [117.24056503489334, 34.96476647767049], [117.24056503489334, 34.964227488500015], [117.24110402406382, 34.964227488500015], [117.24110402406382, 34.96404782544319], [117.24128368712064, 34.96404782544319], [117.24128368712064, 34.96386816238637], [117.24110402406382, 34.96386816238637], [117.24110402406382, 34.96368849932954], [117.24092436100699, 34.96368849932954], [117.24092436100699, 34.96386816238637], [117.24074469795016, 34.96386816238637], [117.24074469795016, 34.96368849932954], [117.24056503489334, 34.96368849932954], [117.24056503489334, 34.963508836272716], [117.24038537183651, 34.963508836272716], [117.24038537183651, 34.96314951015907], [117.24056503489334, 34.96314951015907], [117.24056503489334, 34.96296984710225], [117.24092436100699, 34.96296984710225], [117.24092436100699, 34.96314951015907], [117.24110402406382, 34.96314951015907], [117.24110402406382, 34.963508836272716], [117.24128368712064, 34.963508836272716], [117.24128368712064, 34.9633291732159], [117.24146335017745, 34.9633291732159], [117.24146335017745, 34.96243085793178], [117.24110402406382, 34.96243085793178], [117.24110402406382, 34.96225119487495], [117.24074469795016, 34.96225119487495], [117.24074469795016, 34.96243085793178], [117.2402057087797, 34.96243085793178], [117.2402057087797, 34.9626105209886], [117.24002604572287, 34.9626105209886], [117.24002604572287, 34.96296984710225], [117.23966671960922, 34.96296984710225], [117.23966671960922, 34.9626105209886], [117.23984638266604, 34.9626105209886], [117.23984638266604, 34.96225119487495], [117.23948705655239, 34.96225119487495], [117.23948705655239, 34.962071531818125], [117.23930739349558, 34.962071531818125], [117.23930739349558, 34.961891868761306], [117.23966671960922, 34.961891868761306], [117.23966671960922, 34.96117321653401], [117.23948705655239, 34.96117321653401], [117.23948705655239, 34.96081389042036], [117.23984638266604, 34.96081389042036], [117.23984638266604, 34.960634227363535], [117.24002604572287, 34.960634227363535], [117.24002604572287, 34.960454564306715], [117.24038537183651, 34.960454564306715], [117.24038537183651, 34.960634227363535], [117.24056503489334, 34.960634227363535], [117.24056503489334, 34.96081389042036], [117.24074469795016, 34.96081389042036], [117.24074469795016, 34.96099355347719], [117.24092436100699, 34.96099355347719], [117.24092436100699, 34.96081389042036], [117.24110402406382, 34.96081389042036], [117.24110402406382, 34.96027490124989], [117.24128368712064, 34.96027490124989], [117.24128368712064, 34.96009523819306], [117.24164301323428, 34.96009523819306], [117.24164301323428, 34.959196922908944], [117.24146335017745, 34.959196922908944], [117.24146335017745, 34.959017259852125], [117.24128368712064, 34.959017259852125], [117.24128368712064, 34.9588375967953], [117.24110402406382, 34.9588375967953], [117.24110402406382, 34.95865793373847], [117.24002604572287, 34.95865793373847], [117.24002604572287, 34.9588375967953], [117.23984638266604, 34.9588375967953], [117.23984638266604, 34.95937658596577], [117.23966671960922, 34.95937658596577], [117.23966671960922, 34.95955624902259], [117.23948705655239, 34.95955624902259], [117.23948705655239, 34.95937658596577], [117.23930739349558, 34.95937658596577], [117.23930739349558, 34.95955624902259], [117.2387684043251, 34.95955624902259], [117.2387684043251, 34.95937658596577], [117.23858874126827, 34.95937658596577], [117.23858874126827, 34.959196922908944], [117.23840907821145, 34.959196922908944], [117.23840907821145, 34.959017259852125], [117.23822941515463, 34.959017259852125], [117.23822941515463, 34.9588375967953], [117.23804975209781, 34.9588375967953], [117.23804975209781, 34.95865793373847], [117.23787008904098, 34.95865793373847], [117.23787008904098, 34.95847827068165], [117.23733109987052, 34.95847827068165], [117.23733109987052, 34.959196922908944], [117.23715143681369, 34.959196922908944], [117.23715143681369, 34.959017259852125], [117.23697177375686, 34.959017259852125], [117.23697177375686, 34.9588375967953], [117.23679211070004, 34.9588375967953], [117.23679211070004, 34.95865793373847], [117.23625312152957, 34.95865793373847], [117.23625312152957, 34.958298607624826], [117.23643278458638, 34.958298607624826], [117.23643278458638, 34.957759618454354], [117.23607345847275, 34.957759618454354], [117.23607345847275, 34.95793928151118], [117.23553446930227, 34.95793928151118], [117.23553446930227, 34.957759618454354], [117.23535480624545, 34.957759618454354], [117.23535480624545, 34.95722062928388], [117.23553446930227, 34.95722062928388], [117.23553446930227, 34.95704096622706], [117.23481581707497, 34.95704096622706], [117.23481581707497, 34.956861303170236], [117.23463615401815, 34.956861303170236], [117.23463615401815, 34.95632231399976], [117.23481581707497, 34.95632231399976], [117.23481581707497, 34.95614265094294], [117.23517514318863, 34.95614265094294], [117.23517514318863, 34.95596298788612], [117.23535480624545, 34.95596298788612], [117.23535480624545, 34.95578332482929], [117.23553446930227, 34.95578332482929], [117.23553446930227, 34.955603661772464], [117.23517514318863, 34.955603661772464], [117.23517514318863, 34.95578332482929], [117.23481581707497, 34.95578332482929], [117.23481581707497, 34.955603661772464], [117.2349954801318, 34.955603661772464], [117.2349954801318, 34.955423998715645], [117.23517514318863, 34.955423998715645], [117.23517514318863, 34.95524433565882], [117.23535480624545, 34.95524433565882], [117.23535480624545, 34.955064672602], [117.23553446930227, 34.955064672602], [117.23553446930227, 34.95488500954517], [117.23589379541592, 34.95488500954517], [117.23589379541592, 34.954705346488346], [117.23607345847275, 34.954705346488346], [117.23607345847275, 34.95452568343153], [117.23589379541592, 34.95452568343153], [117.23589379541592, 34.954166357317874], [117.23571413235909, 34.954166357317874], [117.23571413235909, 34.95452568343153], [117.23553446930227, 34.95452568343153], [117.23553446930227, 34.954166357317874], [117.23535480624545, 34.954166357317874], [117.23535480624545, 34.95380703120423], [117.23553446930227, 34.95380703120423], [117.23553446930227, 34.9536273681474], [117.23571413235909, 34.9536273681474], [117.23571413235909, 34.95380703120423], [117.23589379541592, 34.95380703120423], [117.23589379541592, 34.9536273681474], [117.23607345847275, 34.9536273681474], [117.23607345847275, 34.95344770509058], [117.23643278458638, 34.95344770509058], [117.23643278458638, 34.9536273681474], [117.23679211070004, 34.9536273681474], [117.23679211070004, 34.95344770509058], [117.23715143681369, 34.95344770509058], [117.23715143681369, 34.9536273681474], [117.23733109987052, 34.9536273681474], [117.23733109987052, 34.95380703120423], [117.23751076292733, 34.95380703120423], [117.23751076292733, 34.953986694261054], [117.23769042598416, 34.953986694261054], [117.23769042598416, 34.95380703120423], [117.23787008904098, 34.95380703120423], [117.23787008904098, 34.95344770509058], [117.23804975209781, 34.95344770509058], [117.23804975209781, 34.953268042033756], [117.23822941515463, 34.953268042033756], [117.23822941515463, 34.95344770509058], [117.23840907821145, 34.95344770509058], [117.23840907821145, 34.95380703120423], [117.23894806738193, 34.95380703120423], [117.23894806738193, 34.9536273681474], [117.2387684043251, 34.9536273681474], [117.2387684043251, 34.95344770509058], [117.23858874126827, 34.95344770509058], [117.23858874126827, 34.953268042033756], [117.2387684043251, 34.953268042033756], [117.2387684043251, 34.953088378976936], [117.23930739349558, 34.953088378976936], [117.23930739349558, 34.953268042033756], [117.23984638266604, 34.953268042033756], [117.23984638266604, 34.953088378976936], [117.23966671960922, 34.953088378976936], [117.23966671960922, 34.95290871592011], [117.23948705655239, 34.95290871592011], [117.23948705655239, 34.95272905286328], [117.23930739349558, 34.95272905286328], [117.23930739349558, 34.952549389806464], [117.2387684043251, 34.952549389806464], [117.2387684043251, 34.95236972674964], [117.23858874126827, 34.95236972674964], [117.23858874126827, 34.95201040063599], [117.23840907821145, 34.95201040063599], [117.23840907821145, 34.951830737579165], [117.23822941515463, 34.951830737579165], [117.23822941515463, 34.95147141146552], [117.23804975209781, 34.95147141146552], [117.23804975209781, 34.95111208535187], [117.23822941515463, 34.95111208535187], [117.23822941515463, 34.95093242229505], [117.23858874126827, 34.95093242229505], [117.23858874126827, 34.95075275923822], [117.2387684043251, 34.95075275923822], [117.2387684043251, 34.9505730961814], [117.23894806738193, 34.9505730961814], [117.23894806738193, 34.95021377006775], [117.23912773043875, 34.95021377006775], [117.23912773043875, 34.95003410701093], [117.23948705655239, 34.95003410701093], [117.23948705655239, 34.95021377006775], [117.23966671960922, 34.95021377006775], [117.23966671960922, 34.9505730961814], [117.23948705655239, 34.9505730961814], [117.23948705655239, 34.95093242229505], [117.2402057087797, 34.95093242229505], [117.2402057087797, 34.95111208535187], [117.24038537183651, 34.95111208535187], [117.24038537183651, 34.95129174840869], [117.24056503489334, 34.95129174840869], [117.24056503489334, 34.95147141146552], [117.24074469795016, 34.95147141146552], [117.24074469795016, 34.951830737579165], [117.24092436100699, 34.951830737579165], [117.24092436100699, 34.95219006369281], [117.24074469795016, 34.95219006369281], [117.24074469795016, 34.952549389806464], [117.24056503489334, 34.952549389806464], [117.24056503489334, 34.95272905286328], [117.24038537183651, 34.95272905286328], [117.24038537183651, 34.953088378976936], [117.2402057087797, 34.953088378976936], [117.2402057087797, 34.953268042033756], [117.24056503489334, 34.953268042033756], [117.24056503489334, 34.95344770509058], [117.24110402406382, 34.95344770509058], [117.24110402406382, 34.9536273681474], [117.24128368712064, 34.9536273681474], [117.24128368712064, 34.953986694261054], [117.24146335017745, 34.953986694261054], [117.24146335017745, 34.954166357317874], [117.24182267629111, 34.954166357317874], [117.24182267629111, 34.953986694261054], [117.24200233934793, 34.953986694261054], [117.24200233934793, 34.95380703120423], [117.24236166546157, 34.95380703120423], [117.24236166546157, 34.9536273681474], [117.2425413285184, 34.9536273681474], [117.2425413285184, 34.95380703120423], [117.24272099157523, 34.95380703120423], [117.24272099157523, 34.954166357317874], [117.2432599807457, 34.954166357317874], [117.2432599807457, 34.9543460203747], [117.24343964380252, 34.9543460203747], [117.24343964380252, 34.95452568343153], [117.24379896991617, 34.95452568343153], [117.24379896991617, 34.954705346488346], [117.243978632973, 34.954705346488346], [117.243978632973, 34.95488500954517], [117.24379896991617, 34.95488500954517], [117.24379896991617, 34.955064672602], [117.24343964380252, 34.955064672602], [117.24343964380252, 34.95524433565882], [117.2432599807457, 34.95524433565882], [117.2432599807457, 34.955423998715645], [117.24308031768888, 34.955423998715645], [117.24308031768888, 34.955603661772464], [117.24290065463205, 34.955603661772464], [117.24290065463205, 34.95578332482929], [117.24272099157523, 34.95578332482929], [117.24272099157523, 34.95596298788612], [117.24290065463205, 34.95596298788612], [117.24290065463205, 34.95614265094294], [117.2432599807457, 34.95614265094294], [117.2432599807457, 34.95596298788612], [117.24343964380252, 34.95596298788612], [117.24343964380252, 34.95578332482929], [117.24361930685934, 34.95578332482929], [117.24361930685934, 34.955603661772464], [117.24415829602982, 34.955603661772464], [117.24415829602982, 34.95524433565882], [117.24451762214346, 34.95524433565882], [117.24451762214346, 34.955423998715645], [117.24469728520029, 34.955423998715645], [117.24469728520029, 34.95596298788612], [117.24451762214346, 34.95596298788612], [117.24451762214346, 34.95632231399976], [117.24487694825712, 34.95632231399976], [117.24487694825712, 34.95650197705659], [117.24505661131394, 34.95650197705659], [117.24505661131394, 34.95632231399976], [117.24541593742758, 34.95632231399976], [117.24541593742758, 34.95650197705659], [117.2455956004844, 34.95650197705659], [117.2455956004844, 34.95704096622706], [117.24541593742758, 34.95704096622706], [117.24541593742758, 34.95722062928388], [117.24523627437077, 34.95722062928388], [117.24523627437077, 34.95740029234071], [117.24505661131394, 34.95740029234071], [117.24505661131394, 34.95757995539753], [117.24487694825712, 34.95757995539753], [117.24487694825712, 34.957759618454354], [117.24451762214346, 34.957759618454354], [117.24451762214346, 34.95793928151118], [117.24433795908664, 34.95793928151118], [117.24433795908664, 34.958118944568], [117.243978632973, 34.958118944568], [117.243978632973, 34.95757995539753], [117.24379896991617, 34.95757995539753], [117.24379896991617, 34.957759618454354], [117.24361930685934, 34.957759618454354], [117.24361930685934, 34.95793928151118], [117.24308031768888, 34.95793928151118], [117.24308031768888, 34.958118944568], [117.24272099157523, 34.958118944568], [117.24272099157523, 34.95847827068165], [117.24290065463205, 34.95847827068165], [117.24290065463205, 34.958298607624826], [117.24343964380252, 34.958298607624826], [117.24343964380252, 34.95865793373847], [117.2432599807457, 34.95865793373847], [117.2432599807457, 34.9588375967953], [117.24308031768888, 34.9588375967953], [117.24308031768888, 34.959017259852125], [117.24236166546157, 34.959017259852125], [117.24236166546157, 34.959196922908944], [117.24218200240476, 34.959196922908944], [117.24218200240476, 34.95955624902259], [117.24236166546157, 34.95955624902259], [117.24236166546157, 34.95973591207942], [117.2425413285184, 34.95973591207942], [117.2425413285184, 34.95991557513624], [117.24272099157523, 34.95991557513624], [117.24272099157523, 34.96009523819306], [117.24236166546157, 34.96009523819306], [117.24236166546157, 34.960634227363535], [117.24218200240476, 34.960634227363535], [117.24218200240476, 34.961352879590834], [117.24200233934793, 34.961352879590834], [117.24200233934793, 34.96099355347719], [117.24164301323428, 34.96099355347719], [117.24164301323428, 34.96081389042036], [117.24128368712064, 34.96081389042036], [117.24128368712064, 34.96099355347719], [117.24110402406382, 34.96099355347719], [117.24110402406382, 34.96117321653401], [117.24128368712064, 34.96117321653401], [117.24128368712064, 34.96171220570448], [117.24146335017745, 34.96171220570448], [117.24146335017745, 34.961891868761306], [117.24182267629111, 34.961891868761306], [117.24182267629111, 34.962071531818125], [117.24200233934793, 34.962071531818125], [117.24200233934793, 34.96225119487495], [117.24218200240476, 34.96225119487495], [117.24218200240476, 34.962790184045424], [117.24200233934793, 34.962790184045424], [117.24200233934793, 34.96314951015907], [117.24218200240476, 34.96314951015907], [117.24218200240476, 34.96368849932954], [117.24236166546157, 34.96368849932954], [117.24236166546157, 34.96404782544319], [117.2425413285184, 34.96404782544319], [117.2425413285184, 34.96440715155684], [117.24272099157523, 34.96440715155684], [117.24272099157523, 34.96476647767049], [117.24290065463205, 34.96476647767049], [117.24290065463205, 34.964946140727314], [117.24361930685934, 34.964946140727314], [117.24361930685934, 34.96512580378413], [117.24343964380252, 34.96512580378413], [117.24343964380252, 34.96530546684096], [117.2432599807457, 34.96530546684096], [117.2432599807457, 34.966563108238724], [117.24343964380252, 34.966563108238724], [117.24343964380252, 34.96674277129555], [117.24361930685934, 34.96674277129555], [117.24361930685934, 34.96692243435238], [117.24343964380252, 34.96692243435238], [117.24343964380252, 34.967102097409196], [117.24361930685934, 34.967102097409196], [117.24361930685934, 34.967820749636495], [117.24379896991617, 34.967820749636495], [117.24379896991617, 34.96818007575014], [117.243978632973, 34.96818007575014], [117.243978632973, 34.96835973880697], [117.24379896991617, 34.96835973880697], [117.24379896991617, 34.96853940186379], [117.243978632973, 34.96853940186379], [117.243978632973, 34.96871906492061], [117.24469728520029, 34.96871906492061], [117.24469728520029, 34.96853940186379], [117.24505661131394, 34.96853940186379], [117.24505661131394, 34.96889872797744], [117.24469728520029, 34.96889872797744], [117.24469728520029, 34.96907839103426], [117.24415829602982, 34.96907839103426]], [[117.24002604572287, 34.95344770509058], [117.23984638266604, 34.95344770509058], [117.23984638266604, 34.953268042033756], [117.24002604572287, 34.953268042033756], [117.24002604572287, 34.95344770509058]], [[117.2402057087797, 34.9536273681474], [117.24002604572287, 34.9536273681474], [117.24002604572287, 34.95344770509058], [117.2402057087797, 34.95344770509058], [117.2402057087797, 34.9536273681474]], [[117.23643278458638, 34.953986694261054], [117.23625312152957, 34.953986694261054], [117.23625312152957, 34.95380703120423], [117.23643278458638, 34.95380703120423], [117.23643278458638, 34.953986694261054]], [[117.23625312152957, 34.955064672602], [117.23607345847275, 34.955064672602], [117.23607345847275, 34.95488500954517], [117.23625312152957, 34.95488500954517], [117.23625312152957, 34.955064672602]], [[117.23769042598416, 34.955064672602], [117.23733109987052, 34.955064672602], [117.23733109987052, 34.95488500954517], [117.23769042598416, 34.95488500954517], [117.23769042598416, 34.955064672602]], [[117.23679211070004, 34.95614265094294], [117.23643278458638, 34.95614265094294], [117.23643278458638, 34.95596298788612], [117.23625312152957, 34.95596298788612], [117.23625312152957, 34.95578332482929], [117.23661244764321, 34.95578332482929], [117.23661244764321, 34.95596298788612], [117.23679211070004, 34.95596298788612], [117.23679211070004, 34.95614265094294]], [[117.23769042598416, 34.95632231399976], [117.23751076292733, 34.95632231399976], [117.23751076292733, 34.95614265094294], [117.23769042598416, 34.95614265094294], [117.23769042598416, 34.95632231399976]], [[117.23804975209781, 34.95632231399976], [117.23787008904098, 34.95632231399976], [117.23787008904098, 34.95614265094294], [117.23804975209781, 34.95614265094294], [117.23804975209781, 34.95632231399976]], [[117.23589379541592, 34.95704096622706], [117.23571413235909, 34.95704096622706], [117.23571413235909, 34.956861303170236], [117.23589379541592, 34.956861303170236], [117.23589379541592, 34.95704096622706]], [[117.23751076292733, 34.958118944568], [117.23733109987052, 34.958118944568], [117.23733109987052, 34.95793928151118], [117.23751076292733, 34.95793928151118], [117.23751076292733, 34.958118944568]], [[117.24308031768888, 34.96674277129555], [117.2425413285184, 34.96674277129555], [117.2425413285184, 34.966563108238724], [117.24236166546157, 34.966563108238724], [117.24236166546157, 34.966383445181904], [117.2425413285184, 34.966383445181904], [117.2425413285184, 34.96620378212508], [117.24290065463205, 34.96620378212508], [117.24290065463205, 34.966383445181904], [117.24308031768888, 34.966383445181904], [117.24308031768888, 34.96674277129555]]]}, "properties": {"name": "cand01", "ptype": "hall", "confidence": "low", "rank": 1, "area_ha": 81.8, "rise_db": 10.2, "digitised_from": "Sentinel-1 VV rise 2022->2026, orbit 142"}}, {"type": "Feature", "geometry": {"geodesic": false, "type": "Polygon", "coordinates": [[[117.27613832014447, 34.99297357759184], [117.27613832014447, 34.992793914535014], [117.27649764625812, 34.992793914535014], [117.27649764625812, 34.992614251478194], [117.27667730931495, 34.992614251478194], [117.27667730931495, 34.99243458842137], [117.27685697237177, 34.99243458842137], [117.27685697237177, 34.99225492536454], [117.27703663542859, 34.99225492536454], [117.27703663542859, 34.99207526230772], [117.27721629848541, 34.99207526230772], [117.27721629848541, 34.991895599250896], [117.27739596154224, 34.991895599250896], [117.27739596154224, 34.99153627313725], [117.27721629848541, 34.99153627313725], [117.27721629848541, 34.99171593619407], [117.27703663542859, 34.99171593619407], [117.27703663542859, 34.991895599250896], [117.2763179832013, 34.991895599250896], [117.2763179832013, 34.99153627313725], [117.27649764625812, 34.99153627313725], [117.27649764625812, 34.99135661008042], [117.27685697237177, 34.99135661008042], [117.27685697237177, 34.99027863173948], [117.2763179832013, 34.99027863173948], [117.2763179832013, 34.99009896868266], [117.27613832014447, 34.99009896868266], [117.27613832014447, 34.989739642569006], [117.27595865708764, 34.989739642569006], [117.27595865708764, 34.98920065339854], [117.27685697237177, 34.98920065339854], [117.27685697237177, 34.989020990341714], [117.27703663542859, 34.989020990341714], [117.27703663542859, 34.98884132728489], [117.27667730931495, 34.98884132728489], [117.27667730931495, 34.98866166422807], [117.27649764625812, 34.98866166422807], [117.27649764625812, 34.988302338114416], [117.27667730931495, 34.988302338114416], [117.27667730931495, 34.988122675057596], [117.27685697237177, 34.988122675057596], [117.27685697237177, 34.988302338114416], [117.27721629848541, 34.988302338114416], [117.27721629848541, 34.988122675057596], [117.27739596154224, 34.988122675057596], [117.27739596154224, 34.988302338114416], [117.27757562459907, 34.988302338114416], [117.27757562459907, 34.98848200117124], [117.27775528765589, 34.98848200117124], [117.27775528765589, 34.98866166422807], [117.2779349507127, 34.98866166422807], [117.2779349507127, 34.98848200117124], [117.27829427682636, 34.98848200117124], [117.27829427682636, 34.988122675057596], [117.27847393988318, 34.988122675057596], [117.27847393988318, 34.98794301200077], [117.27829427682636, 34.98794301200077], [117.27829427682636, 34.986865033659825], [117.27847393988318, 34.986865033659825], [117.27847393988318, 34.98704469671665], [117.27865360294001, 34.98704469671665], [117.27865360294001, 34.98722435977348], [117.27883326599684, 34.98722435977348], [117.27883326599684, 34.988302338114416], [117.27901292905365, 34.988302338114416], [117.27901292905365, 34.98884132728489], [117.27829427682636, 34.98884132728489], [117.27829427682636, 34.98920065339854], [117.27847393988318, 34.98920065339854], [117.27847393988318, 34.98955997951219], [117.27829427682636, 34.98955997951219], [117.27829427682636, 34.989739642569006], [117.27811461376953, 34.989739642569006], [117.27811461376953, 34.99027863173948], [117.27829427682636, 34.99027863173948], [117.27829427682636, 34.99099728396678], [117.27883326599684, 34.99099728396678], [117.27883326599684, 34.991176947023604], [117.27901292905365, 34.991176947023604], [117.27901292905365, 34.99153627313725], [117.27865360294001, 34.99153627313725], [117.27865360294001, 34.99135661008042], [117.27829427682636, 34.99135661008042], [117.27829427682636, 34.99171593619407], [117.27811461376953, 34.99171593619407], [117.27811461376953, 34.991895599250896], [117.2779349507127, 34.991895599250896], [117.2779349507127, 34.99207526230772], [117.27775528765589, 34.99207526230772], [117.27775528765589, 34.992793914535014], [117.27739596154224, 34.992793914535014], [117.27739596154224, 34.99297357759184], [117.27613832014447, 34.99297357759184]]]}, "properties": {"name": "cand02", "ptype": "hall", "confidence": "low", "rank": 2, "area_ha": 10.6, "rise_db": 7.7, "digitised_from": "Sentinel-1 VV rise 2022->2026, orbit 142"}}, {"type": "Feature", "geometry": {"geodesic": false, "type": "Polygon", "coordinates": [[[117.24757189410947, 34.9746479457958], [117.24757189410947, 34.974468282738975], [117.24739223105264, 34.974468282738975], [117.24739223105264, 34.97339030439804], [117.24757189410947, 34.97339030439804], [117.24757189410947, 34.97321064134121], [117.24793122022312, 34.97321064134121], [117.24793122022312, 34.97339030439804], [117.24829054633676, 34.97339030439804], [117.24829054633676, 34.97321064134121], [117.24811088327995, 34.97321064134121], [117.24811088327995, 34.973030978284385], [117.24793122022312, 34.973030978284385], [117.24793122022312, 34.972851315227565], [117.24811088327995, 34.972851315227565], [117.24811088327995, 34.97267165217074], [117.24793122022312, 34.97267165217074], [117.24793122022312, 34.97249198911391], [117.2477515571663, 34.97249198911391], [117.2477515571663, 34.97213266300027], [117.24757189410947, 34.97213266300027], [117.24757189410947, 34.97177333688662], [117.24793122022312, 34.97177333688662], [117.24793122022312, 34.971593673829794], [117.24882953550724, 34.971593673829794], [117.24882953550724, 34.971414010772975], [117.24954818773453, 34.971414010772975], [117.24954818773453, 34.97123434771615], [117.25098549218913, 34.97123434771615], [117.25098549218913, 34.97105468465932], [117.25170414441642, 34.97105468465932], [117.25170414441642, 34.97123434771615], [117.25188380747325, 34.97123434771615], [117.25188380747325, 34.971414010772975], [117.25206347053008, 34.971414010772975], [117.25206347053008, 34.97177333688662], [117.25224313358689, 34.97177333688662], [117.25224313358689, 34.97231232605709], [117.25242279664371, 34.97231232605709], [117.25242279664371, 34.97267165217074], [117.25224313358689, 34.97267165217074], [117.25224313358689, 34.972851315227565], [117.2515244813596, 34.972851315227565], [117.2515244813596, 34.973030978284385], [117.25134481830277, 34.973030978284385], [117.25134481830277, 34.97321064134121], [117.25098549218913, 34.97321064134121], [117.25098549218913, 34.97356996745486], [117.25062616607548, 34.97356996745486], [117.25062616607548, 34.97321064134121], [117.24990751384819, 34.97321064134121], [117.24990751384819, 34.97339030439804], [117.24972785079136, 34.97339030439804], [117.24972785079136, 34.9739292935685], [117.24954818773453, 34.9739292935685], [117.24954818773453, 34.97410895662533], [117.2493685246777, 34.97410895662533], [117.2493685246777, 34.974288619682156], [117.24793122022312, 34.974288619682156], [117.24793122022312, 34.974468282738975], [117.2477515571663, 34.974468282738975], [117.2477515571663, 34.9746479457958], [117.24757189410947, 34.9746479457958]], [[117.24829054633676, 34.97267165217074], [117.24811088327995, 34.97267165217074], [117.24811088327995, 34.97249198911391], [117.24829054633676, 34.97249198911391], [117.24829054633676, 34.97267165217074]], [[117.25188380747325, 34.97267165217074], [117.25170414441642, 34.97267165217074], [117.25170414441642, 34.97249198911391], [117.25188380747325, 34.97249198911391], [117.25188380747325, 34.97267165217074]], [[117.25008717690501, 34.973030978284385], [117.24972785079136, 34.973030978284385], [117.24972785079136, 34.972851315227565], [117.24954818773453, 34.972851315227565], [117.24954818773453, 34.97213266300027], [117.2493685246777, 34.97213266300027], [117.2493685246777, 34.971593673829794], [117.24954818773453, 34.971593673829794], [117.24954818773453, 34.97177333688662], [117.25026683996182, 34.97177333688662], [117.25026683996182, 34.971593673829794], [117.25062616607548, 34.971593673829794], [117.25062616607548, 34.97177333688662], [117.25098549218913, 34.97177333688662], [117.25098549218913, 34.971593673829794], [117.25188380747325, 34.971593673829794], [117.25188380747325, 34.97195299994344], [117.25170414441642, 34.97195299994344], [117.25170414441642, 34.97213266300027], [117.2515244813596, 34.97213266300027], [117.2515244813596, 34.97231232605709], [117.25134481830277, 34.97231232605709], [117.25134481830277, 34.97267165217074], [117.25116515524596, 34.97267165217074], [117.25116515524596, 34.97249198911391], [117.2508058291323, 34.97249198911391], [117.2508058291323, 34.97267165217074], [117.25116515524596, 34.97267165217074], [117.25116515524596, 34.972851315227565], [117.25008717690501, 34.972851315227565], [117.25008717690501, 34.973030978284385]]]}, "properties": {"name": "cand03", "ptype": "hall", "confidence": "low", "rank": 3, "area_ha": 10.0, "rise_db": 9.0, "digitised_from": "Sentinel-1 VV rise 2022->2026, orbit 142"}}, {"type": "Feature", "geometry": {"geodesic": false, "type": "Polygon", "coordinates": [[[117.25511774249608, 34.932966116612654], [117.25511774249608, 34.932786453555835], [117.25386010109831, 34.932786453555835], [117.25386010109831, 34.93260679049901], [117.25350077498466, 34.93260679049901], [117.25350077498466, 34.932786453555835], [117.25332111192783, 34.932786453555835], [117.25332111192783, 34.93242712744218], [117.25350077498466, 34.93242712744218], [117.25350077498466, 34.93224746438536], [117.25403976415514, 34.93224746438536], [117.25403976415514, 34.93242712744218], [117.25439909026878, 34.93242712744218], [117.25439909026878, 34.93224746438536], [117.25475841638243, 34.93224746438536], [117.25475841638243, 34.932067801328536], [117.25493807943926, 34.932067801328536], [117.25493807943926, 34.931528812158064], [117.25475841638243, 34.931528812158064], [117.25475841638243, 34.931349149101244], [117.25493807943926, 34.931349149101244], [117.25493807943926, 34.93116948604442], [117.25511774249608, 34.93116948604442], [117.25511774249608, 34.93098982298759], [117.25799235140526, 34.93098982298759], [117.25799235140526, 34.93116948604442], [117.25817201446208, 34.93116948604442], [117.25817201446208, 34.931528812158064], [117.2583516775189, 34.931528812158064], [117.2583516775189, 34.93224746438536], [117.25853134057573, 34.93224746438536], [117.25853134057573, 34.93260679049901], [117.2583516775189, 34.93260679049901], [117.2583516775189, 34.932786453555835], [117.25745336223478, 34.932786453555835], [117.25745336223478, 34.93260679049901], [117.25691437306432, 34.93260679049901], [117.25691437306432, 34.932786453555835], [117.25655504695067, 34.932786453555835], [117.25655504695067, 34.93260679049901], [117.25619572083701, 34.93260679049901], [117.25619572083701, 34.93242712744218], [117.25583639472337, 34.93242712744218], [117.25583639472337, 34.93224746438536], [117.25565673166655, 34.93224746438536], [117.25565673166655, 34.93260679049901], [117.25547706860972, 34.93260679049901], [117.25547706860972, 34.932786453555835], [117.2552974055529, 34.932786453555835], [117.2552974055529, 34.932966116612654], [117.25511774249608, 34.932966116612654]], [[117.25655504695067, 34.93188813827171], [117.25637538389384, 34.93188813827171], [117.25637538389384, 34.931528812158064], [117.25655504695067, 34.931528812158064], [117.25655504695067, 34.93188813827171]]]}, "properties": {"name": "cand04", "ptype": "hall", "confidence": "low", "rank": 4, "area_ha": 7.9, "rise_db": 6.0, "digitised_from": "Sentinel-1 VV rise 2022->2026, orbit 142"}}, {"type": "Feature", "geometry": {"geodesic": false, "type": "Polygon", "coordinates": [[[117.243978632973, 34.9626105209886], [117.243978632973, 34.96243085793178], [117.24379896991617, 34.96243085793178], [117.24379896991617, 34.96225119487495], [117.243978632973, 34.96225119487495], [117.243978632973, 34.962071531818125], [117.24451762214346, 34.962071531818125], [117.24451762214346, 34.961352879590834], [117.24487694825712, 34.961352879590834], [117.24487694825712, 34.96117321653401], [117.2455956004844, 34.96117321653401], [117.2455956004844, 34.96099355347719], [117.24649391576853, 34.96099355347719], [117.24649391576853, 34.96081389042036], [117.24811088327995, 34.96081389042036], [117.24811088327995, 34.96099355347719], [117.24829054633676, 34.96099355347719], [117.24829054633676, 34.96153254264765], [117.24847020939359, 34.96153254264765], [117.24847020939359, 34.96171220570448], [117.24882953550724, 34.96171220570448], [117.24882953550724, 34.961891868761306], [117.24900919856407, 34.961891868761306], [117.24900919856407, 34.962071531818125], [117.24882953550724, 34.962071531818125], [117.24882953550724, 34.96225119487495], [117.2477515571663, 34.96225119487495], [117.2477515571663, 34.962071531818125], [117.24757189410947, 34.962071531818125], [117.24757189410947, 34.96171220570448], [117.24739223105264, 34.96171220570448], [117.24739223105264, 34.96153254264765], [117.24721256799583, 34.96153254264765], [117.24721256799583, 34.96171220570448], [117.247032904939, 34.96171220570448], [117.247032904939, 34.961891868761306], [117.24685324188218, 34.961891868761306], [117.24685324188218, 34.962071531818125], [117.24667357882535, 34.962071531818125], [117.24667357882535, 34.96225119487495], [117.24577526354123, 34.96225119487495], [117.24577526354123, 34.96243085793178], [117.24451762214346, 34.96243085793178], [117.24451762214346, 34.9626105209886], [117.243978632973, 34.9626105209886]]]}, "properties": {"name": "cand05", "ptype": "hall", "confidence": "low", "rank": 5, "area_ha": 6.5, "rise_db": 8.1, "digitised_from": "Sentinel-1 VV rise 2022->2026, orbit 142"}}, {"type": "Feature", "geometry": {"geodesic": false, "type": "Polygon", "coordinates": [[[117.2838638315879, 34.994051555932785], [117.2838638315879, 34.99387189287596], [117.2831451793606, 34.99387189287596], [117.2831451793606, 34.99351256676231], [117.28332484241743, 34.99351256676231], [117.28332484241743, 34.993332903705486], [117.28278585324696, 34.993332903705486], [117.28278585324696, 34.99369222981913], [117.28260619019014, 34.99369222981913], [117.28260619019014, 34.99351256676231], [117.28224686407648, 34.99351256676231], [117.28224686407648, 34.99369222981913], [117.28206720101966, 34.99369222981913], [117.28206720101966, 34.99351256676231], [117.28170787490602, 34.99351256676231], [117.28170787490602, 34.99369222981913], [117.28098922267871, 34.99369222981913], [117.28098922267871, 34.99297357759184], [117.2808095596219, 34.99297357759184], [117.2808095596219, 34.992793914535014], [117.28062989656507, 34.992793914535014], [117.28062989656507, 34.99243458842137], [117.2808095596219, 34.99243458842137], [117.2808095596219, 34.99225492536454], [117.28098922267871, 34.99225492536454], [117.28098922267871, 34.99207526230772], [117.28134854879237, 34.99207526230772], [117.28134854879237, 34.99243458842137], [117.28152821184919, 34.99243458842137], [117.28152821184919, 34.992793914535014], [117.28170787490602, 34.992793914535014], [117.28170787490602, 34.992614251478194], [117.28224686407648, 34.992614251478194], [117.28224686407648, 34.99243458842137], [117.28242652713331, 34.99243458842137], [117.28242652713331, 34.99225492536454], [117.28296551630378, 34.99225492536454], [117.28296551630378, 34.99207526230772], [117.28350450547426, 34.99207526230772], [117.28350450547426, 34.99225492536454], [117.28368416853108, 34.99225492536454], [117.28368416853108, 34.992614251478194], [117.28350450547426, 34.992614251478194], [117.28350450547426, 34.992793914535014], [117.28278585324696, 34.992793914535014], [117.28278585324696, 34.99297357759184], [117.28350450547426, 34.99297357759184], [117.28350450547426, 34.99315324064867], [117.28368416853108, 34.99315324064867], [117.28368416853108, 34.993332903705486], [117.2838638315879, 34.993332903705486], [117.2838638315879, 34.992614251478194], [117.28404349464472, 34.992614251478194], [117.28404349464472, 34.994051555932785], [117.2838638315879, 34.994051555932785]], [[117.28242652713331, 34.993332903705486], [117.28224686407648, 34.993332903705486], [117.28224686407648, 34.99315324064867], [117.28242652713331, 34.99315324064867], [117.28242652713331, 34.993332903705486]], [[117.28152821184919, 34.99351256676231], [117.28134854879237, 34.99351256676231], [117.28134854879237, 34.993332903705486], [117.28152821184919, 34.993332903705486], [117.28152821184919, 34.99351256676231]], [[117.28224686407648, 34.99351256676231], [117.28206720101966, 34.99351256676231], [117.28206720101966, 34.993332903705486], [117.28224686407648, 34.993332903705486], [117.28224686407648, 34.99351256676231]]]}, "properties": {"name": "cand06", "ptype": "hall", "confidence": "low", "rank": 6, "area_ha": 4.6, "rise_db": 5.7, "digitised_from": "Sentinel-1 VV rise 2022->2026, orbit 142"}}, {"type": "Feature", "geometry": {"geodesic": false, "type": "Polygon", "coordinates": [[[117.26428055839409, 34.96835973880697], [117.26428055839409, 34.96818007575014], [117.26392123228045, 34.96818007575014], [117.26392123228045, 34.96835973880697], [117.2635619061668, 34.96835973880697], [117.2635619061668, 34.96818007575014], [117.26338224310997, 34.96818007575014], [117.26338224310997, 34.968000412693314], [117.26320258005315, 34.968000412693314], [117.26320258005315, 34.967820749636495], [117.26302291699633, 34.967820749636495], [117.26302291699633, 34.96764108657967], [117.26284325393951, 34.96764108657967], [117.26284325393951, 34.96728176046602], [117.26248392782585, 34.96728176046602], [117.26248392782585, 34.967102097409196], [117.26230426476903, 34.967102097409196], [117.26230426476903, 34.966383445181904], [117.26248392782585, 34.966383445181904], [117.26248392782585, 34.96620378212508], [117.26266359088268, 34.96620378212508], [117.26266359088268, 34.96602411906825], [117.26284325393951, 34.96602411906825], [117.26284325393951, 34.96584445601143], [117.26320258005315, 34.96584445601143], [117.26320258005315, 34.965485129897786], [117.2635619061668, 34.965485129897786], [117.2635619061668, 34.96620378212508], [117.26374156922363, 34.96620378212508], [117.26374156922363, 34.96674277129555], [117.26392123228045, 34.96674277129555], [117.26392123228045, 34.96692243435238], [117.26410089533726, 34.96692243435238], [117.26410089533726, 34.96746142352285], [117.26428055839409, 34.96746142352285], [117.26428055839409, 34.96764108657967], [117.26463988450774, 34.96764108657967], [117.26463988450774, 34.967820749636495], [117.26481954756457, 34.967820749636495], [117.26481954756457, 34.968000412693314], [117.26463988450774, 34.968000412693314], [117.26463988450774, 34.96835973880697], [117.26428055839409, 34.96835973880697]]]}, "properties": {"name": "cand07", "ptype": "hall", "confidence": "low", "rank": 7, "area_ha": 4.3, "rise_db": 8.0, "digitised_from": "Sentinel-1 VV rise 2022->2026, orbit 142"}}, {"type": "Feature", "geometry": {"geodesic": false, "type": "Polygon", "coordinates": [[[117.27452135263306, 34.97374963051168], [117.27452135263306, 34.97356996745486], [117.27434168957623, 34.97356996745486], [117.27434168957623, 34.97321064134121], [117.2741620265194, 34.97321064134121], [117.2741620265194, 34.973030978284385], [117.27326371123529, 34.973030978284385], [117.27326371123529, 34.972851315227565], [117.27308404817846, 34.972851315227565], [117.27308404817846, 34.97267165217074], [117.27272472206482, 34.97267165217074], [117.27272472206482, 34.97249198911391], [117.272545059008, 34.97249198911391], [117.272545059008, 34.97231232605709], [117.27236539595117, 34.97231232605709], [117.27236539595117, 34.97213266300027], [117.27218573289434, 34.97213266300027], [117.27218573289434, 34.971593673829794], [117.27236539595117, 34.971593673829794], [117.27236539595117, 34.971414010772975], [117.27272472206482, 34.971414010772975], [117.27272472206482, 34.971593673829794], [117.27308404817846, 34.971593673829794], [117.27308404817846, 34.97177333688662], [117.27362303734894, 34.97177333688662], [117.27362303734894, 34.971593673829794], [117.27380270040577, 34.971593673829794], [117.27380270040577, 34.971414010772975], [117.27398236346258, 34.971414010772975], [117.27398236346258, 34.971593673829794], [117.27470101568989, 34.971593673829794], [117.27470101568989, 34.97213266300027], [117.2741620265194, 34.97213266300027], [117.2741620265194, 34.97249198911391], [117.27470101568989, 34.97249198911391], [117.27470101568989, 34.97267165217074], [117.27488067874671, 34.97267165217074], [117.27488067874671, 34.972851315227565], [117.27470101568989, 34.972851315227565], [117.27470101568989, 34.97321064134121], [117.27488067874671, 34.97321064134121], [117.27488067874671, 34.97356996745486], [117.27470101568989, 34.97356996745486], [117.27470101568989, 34.97374963051168], [117.27452135263306, 34.97374963051168]]]}, "properties": {"name": "cand08", "ptype": "hall", "confidence": "low", "rank": 8, "area_ha": 4.0, "rise_db": 8.5, "digitised_from": "Sentinel-1 VV rise 2022->2026, orbit 142"}}, {"type": "Feature", "geometry": {"geodesic": false, "type": "Polygon", "coordinates": [[[117.28332484241743, 34.99171593619407], [117.28332484241743, 34.99153627313725], [117.2831451793606, 34.99153627313725], [117.2831451793606, 34.99135661008042], [117.28296551630378, 34.99135661008042], [117.28296551630378, 34.991176947023604], [117.28260619019014, 34.991176947023604], [117.28260619019014, 34.99135661008042], [117.28278585324696, 34.99135661008042], [117.28278585324696, 34.99153627313725], [117.28224686407648, 34.99153627313725], [117.28224686407648, 34.99171593619407], [117.28188753796283, 34.99171593619407], [117.28188753796283, 34.99153627313725], [117.28170787490602, 34.99153627313725], [117.28170787490602, 34.99135661008042], [117.28152821184919, 34.99135661008042], [117.28152821184919, 34.991176947023604], [117.28062989656507, 34.991176947023604], [117.28062989656507, 34.99081762090995], [117.2808095596219, 34.99081762090995], [117.2808095596219, 34.99063795785313], [117.28116888573554, 34.99063795785313], [117.28116888573554, 34.990458294796305], [117.28134854879237, 34.990458294796305], [117.28134854879237, 34.99027863173948], [117.28242652713331, 34.99027863173948], [117.28242652713331, 34.990458294796305], [117.28260619019014, 34.990458294796305], [117.28260619019014, 34.99063795785313], [117.28278585324696, 34.99063795785313], [117.28278585324696, 34.990458294796305], [117.28296551630378, 34.990458294796305], [117.28296551630378, 34.98991930562583], [117.2831451793606, 34.98991930562583], [117.2831451793606, 34.99009896868266], [117.28332484241743, 34.99009896868266], [117.28332484241743, 34.99063795785313], [117.28350450547426, 34.99063795785313], [117.28350450547426, 34.99081762090995], [117.28368416853108, 34.99081762090995], [117.28368416853108, 34.99171593619407], [117.28332484241743, 34.99171593619407]]]}, "properties": {"name": "cand09", "ptype": "hall", "confidence": "low", "rank": 9, "area_ha": 3.8, "rise_db": 6.8, "digitised_from": "Sentinel-1 VV rise 2022->2026, orbit 142"}}, {"type": "Feature", "geometry": {"geodesic": false, "type": "Polygon", "coordinates": [[[117.2552974055529, 34.95704096622706], [117.2552974055529, 34.956861303170236], [117.25511774249608, 34.956861303170236], [117.25511774249608, 34.95668164011341], [117.25439909026878, 34.95668164011341], [117.25439909026878, 34.95650197705659], [117.25421942721195, 34.95650197705659], [117.25421942721195, 34.95596298788612], [117.25403976415514, 34.95596298788612], [117.25403976415514, 34.955603661772464], [117.25421942721195, 34.955603661772464], [117.25421942721195, 34.955423998715645], [117.25439909026878, 34.955423998715645], [117.25439909026878, 34.95524433565882], [117.25511774249608, 34.95524433565882], [117.25511774249608, 34.955423998715645], [117.2552974055529, 34.955423998715645], [117.2552974055529, 34.95578332482929], [117.25547706860972, 34.95578332482929], [117.25547706860972, 34.95596298788612], [117.25565673166655, 34.95596298788612], [117.25565673166655, 34.95578332482929], [117.25583639472337, 34.95578332482929], [117.25583639472337, 34.955603661772464], [117.25619572083701, 34.955603661772464], [117.25619572083701, 34.95578332482929], [117.25637538389384, 34.95578332482929], [117.25637538389384, 34.95614265094294], [117.25655504695067, 34.95614265094294], [117.25655504695067, 34.95668164011341], [117.25637538389384, 34.95668164011341], [117.25637538389384, 34.956861303170236], [117.2560160577802, 34.956861303170236], [117.2560160577802, 34.95704096622706], [117.2552974055529, 34.95704096622706]]]}, "properties": {"name": "cand10", "ptype": "hall", "confidence": "low", "rank": 10, "area_ha": 3.7, "rise_db": 11.4, "digitised_from": "Sentinel-1 VV rise 2022->2026, orbit 142"}}, {"type": "Feature", "geometry": {"geodesic": false, "type": "Polygon", "coordinates": [[[117.247032904939, 34.95847827068165], [117.247032904939, 34.958298607624826], [117.24685324188218, 34.958298607624826], [117.24685324188218, 34.958118944568], [117.24649391576853, 34.958118944568], [117.24649391576853, 34.95793928151118], [117.2455956004844, 34.95793928151118], [117.2455956004844, 34.958118944568], [117.24541593742758, 34.958118944568], [117.24541593742758, 34.958298607624826], [117.24523627437077, 34.958298607624826], [117.24523627437077, 34.958118944568], [117.24505661131394, 34.958118944568], [117.24505661131394, 34.95793928151118], [117.24523627437077, 34.95793928151118], [117.24523627437077, 34.957759618454354], [117.24541593742758, 34.957759618454354], [117.24541593742758, 34.95757995539753], [117.24595492659806, 34.95757995539753], [117.24595492659806, 34.95740029234071], [117.2463142527117, 34.95740029234071], [117.2463142527117, 34.95722062928388], [117.24649391576853, 34.95722062928388], [117.24649391576853, 34.95704096622706], [117.2463142527117, 34.95704096622706], [117.2463142527117, 34.95668164011341], [117.24667357882535, 34.95668164011341], [117.24667357882535, 34.956861303170236], [117.24721256799583, 34.956861303170236], [117.24721256799583, 34.95704096622706], [117.24739223105264, 34.95704096622706], [117.24739223105264, 34.956861303170236], [117.2477515571663, 34.956861303170236], [117.2477515571663, 34.95722062928388], [117.24793122022312, 34.95722062928388], [117.24793122022312, 34.95757995539753], [117.24811088327995, 34.95757995539753], [117.24811088327995, 34.95740029234071], [117.24829054633676, 34.95740029234071], [117.24829054633676, 34.95722062928388], [117.24864987245041, 34.95722062928388], [117.24864987245041, 34.95740029234071], [117.24847020939359, 34.95740029234071], [117.24847020939359, 34.95757995539753], [117.24829054633676, 34.95757995539753], [117.24829054633676, 34.957759618454354], [117.24793122022312, 34.957759618454354], [117.24793122022312, 34.95757995539753], [117.24757189410947, 34.95757995539753], [117.24757189410947, 34.95740029234071], [117.247032904939, 34.95740029234071], [117.247032904939, 34.957759618454354], [117.24721256799583, 34.957759618454354], [117.24721256799583, 34.95793928151118], [117.24739223105264, 34.95793928151118], [117.24739223105264, 34.95847827068165], [117.247032904939, 34.95847827068165]], [[117.24721256799583, 34.95722062928388], [117.247032904939, 34.95722062928388], [117.247032904939, 34.95704096622706], [117.24721256799583, 34.95704096622706], [117.24721256799583, 34.95722062928388]]]}, "properties": {"name": "cand11", "ptype": "hall", "confidence": "low", "rank": 11, "area_ha": 2.9, "rise_db": 6.6, "digitised_from": "Sentinel-1 VV rise 2022->2026, orbit 142"}}, {"type": "Feature", "geometry": {"geodesic": false, "type": "Polygon", "coordinates": [[[117.28242652713331, 34.98650570754618], [117.28242652713331, 34.98632604448935], [117.28224686407648, 34.98632604448935], [117.28224686407648, 34.98614638143253], [117.28206720101966, 34.98614638143253], [117.28206720101966, 34.98578705531888], [117.28188753796283, 34.98578705531888], [117.28188753796283, 34.98506840309159], [117.28206720101966, 34.98506840309159], [117.28206720101966, 34.98488874003476], [117.28242652713331, 34.98488874003476], [117.28242652713331, 34.98470907697794], [117.28260619019014, 34.98470907697794], [117.28260619019014, 34.983990424750644], [117.28278585324696, 34.983990424750644], [117.28278585324696, 34.98434975086429], [117.28296551630378, 34.98434975086429], [117.28296551630378, 34.984529413921116], [117.28350450547426, 34.984529413921116], [117.28350450547426, 34.98470907697794], [117.28368416853108, 34.98470907697794], [117.28368416853108, 34.98506840309159], [117.2838638315879, 34.98506840309159], [117.2838638315879, 34.985248066148415], [117.28368416853108, 34.985248066148415], [117.28368416853108, 34.98578705531888], [117.28278585324696, 34.98578705531888], [117.28278585324696, 34.98650570754618], [117.28242652713331, 34.98650570754618]], [[117.28260619019014, 34.98560739226206], [117.28242652713331, 34.98560739226206], [117.28242652713331, 34.985427729205234], [117.28224686407648, 34.985427729205234], [117.28224686407648, 34.985248066148415], [117.28242652713331, 34.985248066148415], [117.28242652713331, 34.98506840309159], [117.28296551630378, 34.98506840309159], [117.28296551630378, 34.985427729205234], [117.28260619019014, 34.985427729205234], [117.28260619019014, 34.98560739226206]]]}, "properties": {"name": "cand12", "ptype": "hall", "confidence": "low", "rank": 12, "area_ha": 2.8, "rise_db": 6.3, "digitised_from": "Sentinel-1 VV rise 2022->2026, orbit 142"}}, {"type": "Feature", "geometry": {"geodesic": false, "type": "Polygon", "coordinates": [[[117.27074842843976, 34.992793914535014], [117.27074842843976, 34.992614251478194], [117.26985011315564, 34.992614251478194], [117.26985011315564, 34.99243458842137], [117.26967045009881, 34.99243458842137], [117.26967045009881, 34.99225492536454], [117.26949078704199, 34.99225492536454], [117.26949078704199, 34.99207526230772], [117.26913146092834, 34.99207526230772], [117.26913146092834, 34.99171593619407], [117.26931112398516, 34.99171593619407], [117.26931112398516, 34.99153627313725], [117.26985011315564, 34.99153627313725], [117.26985011315564, 34.99135661008042], [117.2711077545534, 34.99135661008042], [117.2711077545534, 34.99207526230772], [117.27092809149659, 34.99207526230772], [117.27092809149659, 34.99243458842137], [117.2711077545534, 34.99243458842137], [117.2711077545534, 34.992793914535014], [117.27074842843976, 34.992793914535014]]]}, "properties": {"name": "cand13", "ptype": "hall", "confidence": "low", "rank": 13, "area_ha": 2.5, "rise_db": 8.1, "digitised_from": "Sentinel-1 VV rise 2022->2026, orbit 142"}}, {"type": "Feature", "geometry": {"geodesic": false, "type": "Polygon", "coordinates": [[[117.25691437306432, 34.96997670631838], [117.25691437306432, 34.96961738020473], [117.25655504695067, 34.96961738020473], [117.25655504695067, 34.96943771714791], [117.25637538389384, 34.96943771714791], [117.25637538389384, 34.969258054091085], [117.25619572083701, 34.969258054091085], [117.25619572083701, 34.96889872797744], [117.2560160577802, 34.96889872797744], [117.2560160577802, 34.96871906492061], [117.25583639472337, 34.96871906492061], [117.25583639472337, 34.96853940186379], [117.25565673166655, 34.96853940186379], [117.25565673166655, 34.96835973880697], [117.25547706860972, 34.96835973880697], [117.25547706860972, 34.96818007575014], [117.2552974055529, 34.96818007575014], [117.2552974055529, 34.968000412693314], [117.25511774249608, 34.968000412693314], [117.25511774249608, 34.967820749636495], [117.25493807943926, 34.967820749636495], [117.25493807943926, 34.96764108657967], [117.25475841638243, 34.96764108657967], [117.25475841638243, 34.96746142352285], [117.2545787533256, 34.96746142352285], [117.2545787533256, 34.967102097409196], [117.25439909026878, 34.967102097409196], [117.25439909026878, 34.96692243435238], [117.25421942721195, 34.96692243435238], [117.25421942721195, 34.96674277129555], [117.25403976415514, 34.96674277129555], [117.25403976415514, 34.966563108238724], [117.25386010109831, 34.966563108238724], [117.25386010109831, 34.966383445181904], [117.25403976415514, 34.966383445181904], [117.25403976415514, 34.96620378212508], [117.25421942721195, 34.96620378212508], [117.25421942721195, 34.966383445181904], [117.25439909026878, 34.966383445181904], [117.25439909026878, 34.966563108238724], [117.2545787533256, 34.966563108238724], [117.2545787533256, 34.96674277129555], [117.25475841638243, 34.96674277129555], [117.25475841638243, 34.967102097409196], [117.25493807943926, 34.967102097409196], [117.25493807943926, 34.96728176046602], [117.25511774249608, 34.96728176046602], [117.25511774249608, 34.96746142352285], [117.2552974055529, 34.96746142352285], [117.2552974055529, 34.96764108657967], [117.25547706860972, 34.96764108657967], [117.25547706860972, 34.967820749636495], [117.25565673166655, 34.967820749636495], [117.25565673166655, 34.968000412693314], [117.25583639472337, 34.968000412693314], [117.25583639472337, 34.96818007575014], [117.2560160577802, 34.96818007575014], [117.2560160577802, 34.96835973880697], [117.25619572083701, 34.96835973880697], [117.25619572083701, 34.96853940186379], [117.25637538389384, 34.96853940186379], [117.25637538389384, 34.96871906492061], [117.25655504695067, 34.96871906492061], [117.25655504695067, 34.96889872797744], [117.25673471000749, 34.96889872797744], [117.25673471000749, 34.96907839103426], [117.25691437306432, 34.96907839103426], [117.25691437306432, 34.969258054091085], [117.25709403612115, 34.969258054091085], [117.25709403612115, 34.96961738020473], [117.25727369917796, 34.96961738020473], [117.25727369917796, 34.96997670631838], [117.25691437306432, 34.96997670631838]]]}, "properties": {"name": "cand14", "ptype": "hall", "confidence": "low", "rank": 14, "area_ha": 2.4, "rise_db": 7.3, "digitised_from": "Sentinel-1 VV rise 2022->2026, orbit 142"}}, {"type": "Feature", "geometry": {"geodesic": false, "type": "Polygon", "coordinates": [[[117.25547706860972, 34.978061543875455], [117.25547706860972, 34.97770221776181], [117.2552974055529, 34.97770221776181], [117.2552974055529, 34.97734289164816], [117.25511774249608, 34.97734289164816], [117.25511774249608, 34.97716322859134], [117.25493807943926, 34.97716322859134], [117.25493807943926, 34.97680390247769], [117.25511774249608, 34.97680390247769], [117.25511774249608, 34.976624239420865], [117.25619572083701, 34.976624239420865], [117.25619572083701, 34.97680390247769], [117.25637538389384, 34.97680390247769], [117.25637538389384, 34.97698356553451], [117.25655504695067, 34.97698356553451], [117.25655504695067, 34.97716322859134], [117.25673471000749, 34.97716322859134], [117.25673471000749, 34.97752255470498], [117.25655504695067, 34.97752255470498], [117.25655504695067, 34.97770221776181], [117.25637538389384, 34.97770221776181], [117.25637538389384, 34.978061543875455], [117.25547706860972, 34.978061543875455]]]}, "properties": {"name": "cand15", "ptype": "hall", "confidence": "low", "rank": 15, "area_ha": 2.3, "rise_db": 9.5, "digitised_from": "Sentinel-1 VV rise 2022->2026, orbit 142"}}, {"type": "Feature", "geometry": {"geodesic": false, "type": "Polygon", "coordinates": [[[117.2529617858142, 34.9784208699891], [117.2529617858142, 34.97824120693228], [117.25278212275737, 34.97824120693228], [117.25278212275737, 34.9784208699891], [117.25260245970054, 34.9784208699891], [117.25260245970054, 34.97824120693228], [117.25224313358689, 34.97824120693228], [117.25224313358689, 34.97788188081863], [117.25206347053008, 34.97788188081863], [117.25206347053008, 34.97770221776181], [117.25188380747325, 34.97770221776181], [117.25188380747325, 34.97716322859134], [117.25170414441642, 34.97716322859134], [117.25170414441642, 34.97698356553451], [117.25188380747325, 34.97698356553451], [117.25188380747325, 34.97680390247769], [117.25224313358689, 34.97680390247769], [117.25224313358689, 34.97698356553451], [117.25260245970054, 34.97698356553451], [117.25260245970054, 34.97716322859134], [117.25314144887102, 34.97716322859134], [117.25314144887102, 34.97734289164816], [117.25332111192783, 34.97734289164816], [117.25332111192783, 34.97788188081863], [117.25386010109831, 34.97788188081863], [117.25386010109831, 34.978061543875455], [117.25368043804148, 34.978061543875455], [117.25368043804148, 34.97824120693228], [117.25332111192783, 34.97824120693228], [117.25332111192783, 34.9784208699891], [117.2529617858142, 34.9784208699891]]]}, "properties": {"name": "cand16", "ptype": "hall", "confidence": "low", "rank": 16, "area_ha": 2.3, "rise_db": 7.7, "digitised_from": "Sentinel-1 VV rise 2022->2026, orbit 142"}}, {"type": "Feature", "geometry": {"geodesic": false, "type": "Polygon", "coordinates": [[[117.27146708066705, 34.96764108657967], [117.27146708066705, 34.96746142352285], [117.27128741761022, 34.96746142352285], [117.27128741761022, 34.96728176046602], [117.2711077545534, 34.96728176046602], [117.2711077545534, 34.96746142352285], [117.27056876538293, 34.96746142352285], [117.27056876538293, 34.96728176046602], [117.2703891023261, 34.96728176046602], [117.2703891023261, 34.96692243435238], [117.27056876538293, 34.96692243435238], [117.27056876538293, 34.96620378212508], [117.27146708066705, 34.96620378212508], [117.27146708066705, 34.966383445181904], [117.27164674372388, 34.966383445181904], [117.27164674372388, 34.96728176046602], [117.2718264067807, 34.96728176046602], [117.2718264067807, 34.967102097409196], [117.27218573289434, 34.967102097409196], [117.27218573289434, 34.96746142352285], [117.27200606983752, 34.96746142352285], [117.27200606983752, 34.96764108657967], [117.27146708066705, 34.96764108657967]]]}, "properties": {"name": "cand17", "ptype": "hall", "confidence": "low", "rank": 17, "area_ha": 2.0, "rise_db": 6.9, "digitised_from": "Sentinel-1 VV rise 2022->2026, orbit 142"}}, {"type": "Feature", "geometry": {"geodesic": false, "type": "Polygon", "coordinates": [[[117.2425413285184, 34.9784208699891], [117.2425413285184, 34.97824120693228], [117.24236166546157, 34.97824120693228], [117.24236166546157, 34.97788188081863], [117.24272099157523, 34.97788188081863], [117.24272099157523, 34.97770221776181], [117.24290065463205, 34.97770221776181], [117.24290065463205, 34.97752255470498], [117.24379896991617, 34.97752255470498], [117.24379896991617, 34.97770221776181], [117.243978632973, 34.97770221776181], [117.243978632973, 34.97824120693228], [117.24379896991617, 34.97824120693228], [117.24379896991617, 34.9784208699891], [117.2425413285184, 34.9784208699891]]]}, "properties": {"name": "cand18", "ptype": "hall", "confidence": "low", "rank": 18, "area_ha": 1.5, "rise_db": 9.8, "digitised_from": "Sentinel-1 VV rise 2022->2026, orbit 142"}}, {"type": "Feature", "geometry": {"geodesic": false, "type": "Polygon", "coordinates": [[[117.27398236346258, 34.99387189287596], [117.27398236346258, 34.99315324064867], [117.2741620265194, 34.99315324064867], [117.2741620265194, 34.99297357759184], [117.27452135263306, 34.99297357759184], [117.27452135263306, 34.992793914535014], [117.27595865708764, 34.992793914535014], [117.27595865708764, 34.99315324064867], [117.27506034180352, 34.99315324064867], [117.27506034180352, 34.993332903705486], [117.27452135263306, 34.993332903705486], [117.27452135263306, 34.99369222981913], [117.27434168957623, 34.99369222981913], [117.27434168957623, 34.99387189287596], [117.27398236346258, 34.99387189287596]]]}, "properties": {"name": "cand19", "ptype": "hall", "confidence": "low", "rank": 19, "area_ha": 1.3, "rise_db": 7.1, "digitised_from": "Sentinel-1 VV rise 2022->2026, orbit 142"}}, {"type": "Feature", "geometry": {"geodesic": false, "type": "Polygon", "coordinates": [[[117.2508058291323, 34.96171220570448], [117.2508058291323, 34.96153254264765], [117.25062616607548, 34.96153254264765], [117.25062616607548, 34.961352879590834], [117.25044650301865, 34.961352879590834], [117.25044650301865, 34.96117321653401], [117.25026683996182, 34.96117321653401], [117.25026683996182, 34.96099355347719], [117.25008717690501, 34.96099355347719], [117.25008717690501, 34.96081389042036], [117.24990751384819, 34.96081389042036], [117.24990751384819, 34.960634227363535], [117.24972785079136, 34.960634227363535], [117.24972785079136, 34.960454564306715], [117.24954818773453, 34.960454564306715], [117.24954818773453, 34.96009523819306], [117.2493685246777, 34.96009523819306], [117.2493685246777, 34.95991557513624], [117.2491888616209, 34.95991557513624], [117.2491888616209, 34.95955624902259], [117.2493685246777, 34.95955624902259], [117.2493685246777, 34.95937658596577], [117.24954818773453, 34.95937658596577], [117.24954818773453, 34.95955624902259], [117.24972785079136, 34.95955624902259], [117.24972785079136, 34.96009523819306], [117.24990751384819, 34.96009523819306], [117.24990751384819, 34.96027490124989], [117.25008717690501, 34.96027490124989], [117.25008717690501, 34.960454564306715], [117.25026683996182, 34.960454564306715], [117.25026683996182, 34.960634227363535], [117.25044650301865, 34.960634227363535], [117.25044650301865, 34.96081389042036], [117.25062616607548, 34.96081389042036], [117.25062616607548, 34.96099355347719], [117.2508058291323, 34.96099355347719], [117.2508058291323, 34.961352879590834], [117.25098549218913, 34.961352879590834], [117.25098549218913, 34.96171220570448], [117.2508058291323, 34.96171220570448]]]}, "properties": {"name": "cand20", "ptype": "hall", "confidence": "low", "rank": 20, "area_ha": 1.2, "rise_db": 6.3, "digitised_from": "Sentinel-1 VV rise 2022->2026, orbit 142"}}, {"type": "Feature", "geometry": {"geodesic": false, "type": "Polygon", "coordinates": [[[117.25691437306432, 34.980397163614164], [117.25691437306432, 34.980217500557345], [117.25673471000749, 34.980217500557345], [117.25673471000749, 34.98003783750052], [117.25691437306432, 34.98003783750052], [117.25691437306432, 34.97860053304593], [117.25709403612115, 34.97860053304593], [117.25709403612115, 34.978780196102754], [117.25727369917796, 34.978780196102754], [117.25727369917796, 34.97895985915957], [117.25745336223478, 34.97895985915957], [117.25745336223478, 34.9791395222164], [117.25763302529161, 34.9791395222164], [117.25763302529161, 34.98003783750052], [117.25745336223478, 34.98003783750052], [117.25745336223478, 34.980217500557345], [117.25709403612115, 34.980217500557345], [117.25709403612115, 34.980397163614164], [117.25691437306432, 34.980397163614164]]]}, "properties": {"name": "cand21", "ptype": "hall", "confidence": "low", "rank": 21, "area_ha": 1.2, "rise_db": 7.7, "digitised_from": "Sentinel-1 VV rise 2022->2026, orbit 142"}}, {"type": "Feature", "geometry": {"geodesic": false, "type": "Polygon", "coordinates": [[[117.25044650301865, 34.92991184464665], [117.25044650301865, 34.929552518533], [117.25026683996182, 34.929552518533], [117.25026683996182, 34.92973218158983], [117.24972785079136, 34.92973218158983], [117.24972785079136, 34.929372855476174], [117.24990751384819, 34.929372855476174], [117.24990751384819, 34.929193192419355], [117.25008717690501, 34.929193192419355], [117.25008717690501, 34.92901352936253], [117.25026683996182, 34.92901352936253], [117.25026683996182, 34.92883386630571], [117.25062616607548, 34.92883386630571], [117.25062616607548, 34.92901352936253], [117.2508058291323, 34.92901352936253], [117.2508058291323, 34.929193192419355], [117.25098549218913, 34.929193192419355], [117.25098549218913, 34.929372855476174], [117.25116515524596, 34.929372855476174], [117.25116515524596, 34.92973218158983], [117.25098549218913, 34.92973218158983], [117.25098549218913, 34.92991184464665], [117.25044650301865, 34.92991184464665]]]}, "properties": {"name": "cand22", "ptype": "hall", "confidence": "low", "rank": 22, "area_ha": 1.2, "rise_db": 6.4, "digitised_from": "Sentinel-1 VV rise 2022->2026, orbit 142"}}, {"type": "Feature", "geometry": {"geodesic": false, "type": "Polygon", "coordinates": [[[117.2808095596219, 34.986865033659825], [117.2808095596219, 34.986685370603006], [117.28062989656507, 34.986685370603006], [117.28062989656507, 34.98650570754618], [117.28045023350825, 34.98650570754618], [117.28045023350825, 34.98596671837571], [117.28062989656507, 34.98596671837571], [117.28062989656507, 34.98578705531888], [117.28152821184919, 34.98578705531888], [117.28152821184919, 34.98614638143253], [117.28170787490602, 34.98614638143253], [117.28170787490602, 34.98632604448935], [117.28152821184919, 34.98632604448935], [117.28152821184919, 34.98650570754618], [117.28134854879237, 34.98650570754618], [117.28134854879237, 34.986685370603006], [117.28116888573554, 34.986685370603006], [117.28116888573554, 34.986865033659825], [117.2808095596219, 34.986865033659825]]]}, "properties": {"name": "cand23", "ptype": "hall", "confidence": "low", "rank": 23, "area_ha": 1.2, "rise_db": 8.9, "digitised_from": "Sentinel-1 VV rise 2022->2026, orbit 142"}}, {"type": "Feature", "geometry": {"geodesic": false, "type": "Polygon", "coordinates": [[[117.27344337429211, 34.97123434771615], [117.27344337429211, 34.97105468465932], [117.27308404817846, 34.97105468465932], [117.27308404817846, 34.970695358545676], [117.27326371123529, 34.970695358545676], [117.27326371123529, 34.97051569548885], [117.27344337429211, 34.97051569548885], [117.27344337429211, 34.97033603243203], [117.27398236346258, 34.97033603243203], [117.27398236346258, 34.97051569548885], [117.27434168957623, 34.97051569548885], [117.27434168957623, 34.97033603243203], [117.27452135263306, 34.97033603243203], [117.27452135263306, 34.970156369375204], [117.27470101568989, 34.970156369375204], [117.27470101568989, 34.97105468465932], [117.27434168957623, 34.97105468465932], [117.27434168957623, 34.9708750216025], [117.2741620265194, 34.9708750216025], [117.2741620265194, 34.970695358545676], [117.27398236346258, 34.970695358545676], [117.27398236346258, 34.9708750216025], [117.27380270040577, 34.9708750216025], [117.27380270040577, 34.97105468465932], [117.27362303734894, 34.97105468465932], [117.27362303734894, 34.97123434771615], [117.27344337429211, 34.97123434771615]]]}, "properties": {"name": "cand24", "ptype": "hall", "confidence": "low", "rank": 24, "area_ha": 1.2, "rise_db": 5.9, "digitised_from": "Sentinel-1 VV rise 2022->2026, orbit 142"}}, {"type": "Feature", "geometry": {"geodesic": false, "type": "Polygon", "coordinates": [[[117.25583639472337, 34.96997670631838], [117.25583639472337, 34.96979704326156], [117.25565673166655, 34.96979704326156], [117.25565673166655, 34.96961738020473], [117.2552974055529, 34.96961738020473], [117.2552974055529, 34.96979704326156], [117.25493807943926, 34.96979704326156], [117.25493807943926, 34.96961738020473], [117.2545787533256, 34.96961738020473], [117.2545787533256, 34.969258054091085], [117.25475841638243, 34.969258054091085], [117.25475841638243, 34.96907839103426], [117.25565673166655, 34.96907839103426], [117.25565673166655, 34.969258054091085], [117.25583639472337, 34.969258054091085], [117.25583639472337, 34.96943771714791], [117.2560160577802, 34.96943771714791], [117.2560160577802, 34.96961738020473], [117.25619572083701, 34.96961738020473], [117.25619572083701, 34.96979704326156], [117.25637538389384, 34.96979704326156], [117.25637538389384, 34.96997670631838], [117.25583639472337, 34.96997670631838]]]}, "properties": {"name": "cand25", "ptype": "hall", "confidence": "low", "rank": 25, "area_ha": 1.1, "rise_db": 8.4, "digitised_from": "Sentinel-1 VV rise 2022->2026, orbit 142"}}, {"type": "Feature", "geometry": {"geodesic": false, "type": "Polygon", "coordinates": [[[117.24200233934793, 34.99351256676231], [117.24200233934793, 34.993332903705486], [117.24218200240476, 34.993332903705486], [117.24218200240476, 34.99315324064867], [117.24236166546157, 34.99315324064867], [117.24236166546157, 34.99207526230772], [117.2425413285184, 34.99207526230772], [117.2425413285184, 34.99171593619407], [117.24290065463205, 34.99171593619407], [117.24290065463205, 34.99153627313725], [117.24308031768888, 34.99153627313725], [117.24308031768888, 34.99207526230772], [117.24272099157523, 34.99207526230772], [117.24272099157523, 34.992614251478194], [117.24290065463205, 34.992614251478194], [117.24290065463205, 34.99297357759184], [117.24308031768888, 34.99297357759184], [117.24308031768888, 34.99315324064867], [117.24290065463205, 34.99315324064867], [117.24290065463205, 34.993332903705486], [117.24272099157523, 34.993332903705486], [117.24272099157523, 34.99315324064867], [117.24236166546157, 34.99315324064867], [117.24236166546157, 34.99351256676231], [117.24200233934793, 34.99351256676231]]]}, "properties": {"name": "cand26", "ptype": "hall", "confidence": "low", "rank": 26, "area_ha": 1.1, "rise_db": 5.2, "digitised_from": "Sentinel-1 VV rise 2022->2026, orbit 142"}}, {"type": "Feature", "geometry": {"geodesic": false, "type": "Polygon", "coordinates": [[[117.26643651507598, 34.987583685887124], [117.26643651507598, 34.9874040228303], [117.26625685201915, 34.9874040228303], [117.26625685201915, 34.98722435977348], [117.26589752590552, 34.98722435977348], [117.26589752590552, 34.9874040228303], [117.26553819979186, 34.9874040228303], [117.26553819979186, 34.98722435977348], [117.26535853673504, 34.98722435977348], [117.26535853673504, 34.9874040228303], [117.26517887367821, 34.9874040228303], [117.26517887367821, 34.98722435977348], [117.2649992106214, 34.98722435977348], [117.2649992106214, 34.98704469671665], [117.26517887367821, 34.98704469671665], [117.26517887367821, 34.986865033659825], [117.26553819979186, 34.986865033659825], [117.26553819979186, 34.986685370603006], [117.26625685201915, 34.986685370603006], [117.26625685201915, 34.986865033659825], [117.26643651507598, 34.986865033659825], [117.26643651507598, 34.98704469671665], [117.26661617813281, 34.98704469671665], [117.26661617813281, 34.987583685887124], [117.26643651507598, 34.987583685887124]]]}, "properties": {"name": "cand27", "ptype": "hall", "confidence": "low", "rank": 27, "area_ha": 1.0, "rise_db": 5.3, "digitised_from": "Sentinel-1 VV rise 2022->2026, orbit 142"}}]}