{"type": "FeatureCollection", "features": [{"type": "Feature", "geometry": {"geodesic": false, "type": "Polygon", "coordinates": [[[121.66351016778421, 30.031578263399723], [121.66351016778421, 30.0313986003429], [121.66315084167057, 30.0313986003429], [121.66315084167057, 30.031218937286074], [121.66261185250009, 30.031218937286074], [121.66261185250009, 30.03103927422925], [121.66243218944327, 30.03103927422925], [121.66243218944327, 30.030679948115605], [121.66297117861374, 30.030679948115605], [121.66297117861374, 30.03050028505878], [121.66315084167057, 30.03050028505878], [121.66315084167057, 30.030320622001955], [121.6633305047274, 30.030320622001955], [121.6633305047274, 30.030140958945132], [121.66351016778421, 30.030140958945132], [121.66351016778421, 30.029781632831483], [121.66368983084104, 30.029781632831483], [121.66368983084104, 30.02960196977466], [121.66386949389786, 30.02960196977466], [121.66386949389786, 30.028703654490542], [121.66476780918198, 30.028703654490542], [121.66476780918198, 30.028344328376892], [121.66440848306834, 30.028344328376892], [121.66440848306834, 30.02816466532007], [121.66422882001152, 30.02816466532007], [121.66422882001152, 30.027985002263243], [121.66404915695469, 30.027985002263243], [121.66404915695469, 30.027625676149597], [121.66422882001152, 30.027625676149597], [121.66422882001152, 30.027446013092774], [121.66440848306834, 30.027446013092774], [121.66440848306834, 30.027266350035948], [121.66476780918198, 30.027266350035948], [121.66476780918198, 30.027086686979125], [121.66494747223881, 30.027086686979125], [121.66494747223881, 30.026547697808653], [121.66512713529563, 30.026547697808653], [121.66512713529563, 30.02600870863818], [121.66458814612515, 30.02600870863818], [121.66458814612515, 30.025829045581357], [121.66440848306834, 30.025829045581357], [121.66440848306834, 30.025649382524534], [121.66404915695469, 30.025649382524534], [121.66404915695469, 30.025829045581357], [121.66386949389786, 30.025829045581357], [121.66386949389786, 30.02600870863818], [121.66368983084104, 30.02600870863818], [121.66368983084104, 30.026188371695007], [121.66351016778421, 30.026188371695007], [121.66351016778421, 30.02636803475183], [121.6633305047274, 30.02636803475183], [121.6633305047274, 30.026547697808653], [121.66315084167057, 30.026547697808653], [121.66315084167057, 30.02672736086548], [121.66297117861374, 30.02672736086548], [121.66297117861374, 30.027446013092774], [121.66279151555692, 30.027446013092774], [121.66279151555692, 30.027625676149597], [121.66261185250009, 30.027625676149597], [121.66261185250009, 30.02780533920642], [121.66243218944327, 30.02780533920642], [121.66243218944327, 30.027985002263243], [121.66207286332963, 30.027985002263243], [121.66207286332963, 30.027625676149597], [121.66225252638645, 30.027625676149597], [121.66225252638645, 30.027446013092774], [121.66243218944327, 30.027446013092774], [121.66243218944327, 30.026907023922302], [121.66261185250009, 30.026907023922302], [121.66261185250009, 30.02672736086548], [121.66279151555692, 30.02672736086548], [121.66279151555692, 30.02636803475183], [121.66297117861374, 30.02636803475183], [121.66297117861374, 30.026188371695007], [121.66315084167057, 30.026188371695007], [121.66315084167057, 30.02600870863818], [121.6633305047274, 30.02600870863818], [121.6633305047274, 30.02546971946771], [121.66315084167057, 30.02546971946771], [121.66315084167057, 30.025290056410885], [121.6633305047274, 30.025290056410885], [121.6633305047274, 30.025110393354062], [121.66404915695469, 30.025110393354062], [121.66404915695469, 30.024391741126767], [121.66476780918198, 30.024391741126767], [121.66476780918198, 30.023852751956294], [121.66494747223881, 30.023852751956294], [121.66494747223881, 30.02349342584265], [121.66512713529563, 30.02349342584265], [121.66512713529563, 30.023313762785822], [121.66458814612515, 30.023313762785822], [121.66458814612515, 30.023134099729], [121.66440848306834, 30.023134099729], [121.66440848306834, 30.022954436672176], [121.66368983084104, 30.022954436672176], [121.66368983084104, 30.023134099729], [121.66351016778421, 30.023134099729], [121.66351016778421, 30.023313762785822], [121.6633305047274, 30.023313762785822], [121.6633305047274, 30.02349342584265], [121.66297117861374, 30.02349342584265], [121.66297117861374, 30.023852751956294], [121.66279151555692, 30.023852751956294], [121.66279151555692, 30.024212078069944], [121.66261185250009, 30.024212078069944], [121.66261185250009, 30.024391741126767], [121.66243218944327, 30.024391741126767], [121.66243218944327, 30.02457140418359], [121.66225252638645, 30.02457140418359], [121.66225252638645, 30.024751067240416], [121.6618932002728, 30.024751067240416], [121.6618932002728, 30.02457140418359], [121.66171353721597, 30.02457140418359], [121.66171353721597, 30.024391741126767], [121.66153387415915, 30.024391741126767], [121.66153387415915, 30.024212078069944], [121.66135421110233, 30.024212078069944], [121.66135421110233, 30.023852751956294], [121.66153387415915, 30.023852751956294], [121.66153387415915, 30.02367308889947], [121.66171353721597, 30.02367308889947], [121.66171353721597, 30.02277477361535], [121.6618932002728, 30.02277477361535], [121.6618932002728, 30.022595110558527], [121.66207286332963, 30.022595110558527], [121.66207286332963, 30.022415447501704], [121.66243218944327, 30.022415447501704], [121.66243218944327, 30.02223578444488], [121.66261185250009, 30.02223578444488], [121.66261185250009, 30.02187645833123], [121.66279151555692, 30.02187645833123], [121.66279151555692, 30.02169679527441], [121.66297117861374, 30.02169679527441], [121.66297117861374, 30.021517132217586], [121.66368983084104, 30.021517132217586], [121.66368983084104, 30.02169679527441], [121.66404915695469, 30.02169679527441], [121.66404915695469, 30.02187645833123], [121.66440848306834, 30.02187645833123], [121.66440848306834, 30.022056121388054], [121.66458814612515, 30.022056121388054], [121.66458814612515, 30.02223578444488], [121.66476780918198, 30.02223578444488], [121.66476780918198, 30.022415447501704], [121.66512713529563, 30.022415447501704], [121.66512713529563, 30.023313762785822], [121.66530679835246, 30.023313762785822], [121.66530679835246, 30.023134099729], [121.66548646140927, 30.023134099729], [121.66548646140927, 30.02277477361535], [121.6656661244661, 30.02277477361535], [121.6656661244661, 30.022595110558527], [121.66584578752293, 30.022595110558527], [121.66584578752293, 30.022415447501704], [121.66602545057975, 30.022415447501704], [121.66602545057975, 30.02223578444488], [121.66620511363658, 30.02223578444488], [121.66620511363658, 30.022056121388054], [121.6663847766934, 30.022056121388054], [121.6663847766934, 30.02187645833123], [121.66656443975022, 30.02187645833123], [121.66656443975022, 30.02169679527441], [121.66674410280704, 30.02169679527441], [121.66674410280704, 30.021157806103936], [121.66692376586387, 30.021157806103936], [121.66692376586387, 30.020978143047113], [121.6671034289207, 30.020978143047113], [121.6671034289207, 30.020798479990287], [121.66728309197752, 30.020798479990287], [121.66728309197752, 30.020618816933464], [121.66764241809116, 30.020618816933464], [121.66764241809116, 30.020798479990287], [121.66782208114799, 30.020798479990287], [121.66782208114799, 30.020978143047113], [121.66818140726164, 30.020978143047113], [121.66818140726164, 30.020798479990287], [121.66836107031847, 30.020798479990287], [121.66836107031847, 30.02007982776299], [121.66782208114799, 30.02007982776299], [121.66782208114799, 30.020259490819818], [121.6671034289207, 30.020259490819818], [121.6671034289207, 30.02043915387664], [121.66692376586387, 30.02043915387664], [121.66692376586387, 30.020618816933464], [121.66674410280704, 30.020618816933464], [121.66674410280704, 30.020798479990287], [121.66656443975022, 30.020798479990287], [121.66656443975022, 30.020978143047113], [121.6663847766934, 30.020978143047113], [121.6663847766934, 30.021157806103936], [121.66620511363658, 30.021157806103936], [121.66620511363658, 30.02133746916076], [121.66602545057975, 30.02133746916076], [121.66602545057975, 30.02187645833123], [121.66584578752293, 30.02187645833123], [121.66584578752293, 30.022056121388054], [121.66548646140927, 30.022056121388054], [121.66548646140927, 30.02187645833123], [121.66494747223881, 30.02187645833123], [121.66494747223881, 30.02169679527441], [121.66458814612515, 30.02169679527441], [121.66458814612515, 30.021517132217586], [121.66440848306834, 30.021517132217586], [121.66440848306834, 30.020798479990287], [121.66458814612515, 30.020798479990287], [121.66458814612515, 30.02007982776299], [121.66476780918198, 30.02007982776299], [121.66476780918198, 30.01990016470617], [121.66494747223881, 30.01990016470617], [121.66494747223881, 30.019720501649346], [121.66476780918198, 30.019720501649346], [121.66476780918198, 30.019540838592523], [121.66458814612515, 30.019540838592523], [121.66458814612515, 30.019361175535696], [121.66422882001152, 30.019361175535696], [121.66422882001152, 30.019540838592523], [121.66386949389786, 30.019540838592523], [121.66386949389786, 30.020798479990287], [121.66368983084104, 30.020798479990287], [121.66368983084104, 30.020978143047113], [121.6633305047274, 30.020978143047113], [121.6633305047274, 30.02043915387664], [121.66351016778421, 30.02043915387664], [121.66351016778421, 30.020259490819818], [121.66279151555692, 30.020259490819818], [121.66279151555692, 30.019720501649346], [121.66297117861374, 30.019720501649346], [121.66297117861374, 30.019361175535696], [121.66279151555692, 30.019361175535696], [121.66279151555692, 30.019181512478873], [121.66243218944327, 30.019181512478873], [121.66243218944327, 30.01900184942205], [121.66153387415915, 30.01900184942205], [121.66153387415915, 30.018822186365224], [121.66117454804551, 30.018822186365224], [121.66117454804551, 30.0186425233084], [121.66099488498868, 30.0186425233084], [121.66099488498868, 30.018462860251578], [121.66081522193186, 30.018462860251578], [121.66081522193186, 30.018283197194755], [121.66063555887503, 30.018283197194755], [121.66063555887503, 30.017923871081106], [121.6604558958182, 30.017923871081106], [121.6604558958182, 30.017744208024283], [121.66009656970456, 30.017744208024283], [121.66009656970456, 30.01756454496746], [121.65991690664774, 30.01756454496746], [121.65991690664774, 30.01720521885381], [121.66009656970456, 30.01720521885381], [121.66009656970456, 30.01684589274016], [121.66027623276139, 30.01684589274016], [121.66027623276139, 30.016666229683338], [121.6604558958182, 30.016666229683338], [121.6604558958182, 30.016306903569692], [121.66063555887503, 30.016306903569692], [121.66063555887503, 30.016127240512866], [121.66099488498868, 30.016127240512866], [121.66099488498868, 30.01576791439922], [121.6604558958182, 30.01576791439922], [121.6604558958182, 30.015947577456043], [121.66027623276139, 30.015947577456043], [121.66027623276139, 30.016127240512866], [121.65973724359091, 30.016127240512866], [121.65973724359091, 30.015947577456043], [121.65955758053408, 30.015947577456043], [121.65955758053408, 30.01576791439922], [121.65901859136362, 30.01576791439922], [121.65901859136362, 30.015588251342397], [121.65883892830679, 30.015588251342397], [121.65883892830679, 30.01540858828557], [121.65865926524997, 30.01540858828557], [121.65865926524997, 30.015228925228747], [121.65847960219314, 30.015228925228747], [121.65847960219314, 30.015049262171924], [121.65883892830679, 30.015049262171924], [121.65883892830679, 30.015228925228747], [121.65901859136362, 30.015228925228747], [121.65901859136362, 30.01540858828557], [121.65955758053408, 30.01540858828557], [121.65955758053408, 30.015588251342397], [121.66009656970456, 30.015588251342397], [121.66009656970456, 30.01540858828557], [121.66027623276139, 30.01540858828557], [121.66027623276139, 30.015228925228747], [121.66081522193186, 30.015228925228747], [121.66081522193186, 30.01540858828557], [121.66117454804551, 30.01540858828557], [121.66117454804551, 30.015588251342397], [121.6618932002728, 30.015588251342397], [121.6618932002728, 30.01540858828557], [121.66207286332963, 30.01540858828557], [121.66207286332963, 30.015228925228747], [121.6618932002728, 30.015228925228747], [121.6618932002728, 30.015049262171924], [121.66207286332963, 30.015049262171924], [121.66207286332963, 30.014869599115098], [121.66225252638645, 30.014869599115098], [121.66225252638645, 30.014689936058275], [121.66261185250009, 30.014689936058275], [121.66261185250009, 30.014510273001452], [121.66297117861374, 30.014510273001452], [121.66297117861374, 30.014150946887803], [121.66315084167057, 30.014150946887803], [121.66315084167057, 30.01397128383098], [121.66368983084104, 30.01397128383098], [121.66368983084104, 30.013611957717334], [121.66351016778421, 30.013611957717334], [121.66351016778421, 30.013432294660507], [121.66368983084104, 30.013432294660507], [121.66368983084104, 30.013252631603685], [121.66386949389786, 30.013252631603685], [121.66386949389786, 30.012893305490035], [121.66404915695469, 30.012893305490035], [121.66404915695469, 30.012713642433212], [121.66422882001152, 30.012713642433212], [121.66422882001152, 30.01253397937639], [121.66440848306834, 30.01253397937639], [121.66440848306834, 30.012354316319566], [121.66494747223881, 30.012354316319566], [121.66494747223881, 30.01217465326274], [121.66512713529563, 30.01217465326274], [121.66512713529563, 30.01163566409227], [121.66530679835246, 30.01163566409227], [121.66530679835246, 30.011456001035445], [121.66548646140927, 30.011456001035445], [121.66548646140927, 30.01127633797862], [121.6656661244661, 30.01127633797862], [121.6656661244661, 30.0110966749218], [121.66584578752293, 30.0110966749218], [121.66584578752293, 30.010917011864972], [121.6663847766934, 30.010917011864972], [121.6663847766934, 30.01073734880815], [121.66656443975022, 30.01073734880815], [121.66656443975022, 30.010557685751326], [121.6663847766934, 30.010557685751326], [121.6663847766934, 30.010378022694503], [121.66620511363658, 30.010378022694503], [121.66620511363658, 30.010198359637677], [121.66584578752293, 30.010198359637677], [121.66584578752293, 30.010018696580854], [121.6656661244661, 30.010018696580854], [121.6656661244661, 30.00947970741038], [121.66584578752293, 30.00947970741038], [121.66584578752293, 30.009659370467208], [121.66620511363658, 30.009659370467208], [121.66620511363658, 30.00983903352403], [121.6663847766934, 30.00983903352403], [121.6663847766934, 30.010018696580854], [121.66656443975022, 30.010018696580854], [121.66656443975022, 30.010198359637677], [121.66674410280704, 30.010198359637677], [121.66674410280704, 30.010378022694503], [121.66692376586387, 30.010378022694503], [121.66692376586387, 30.010557685751326], [121.66728309197752, 30.010557685751326], [121.66728309197752, 30.01073734880815], [121.66746275503434, 30.01073734880815], [121.66746275503434, 30.010557685751326], [121.66818140726164, 30.010557685751326], [121.66818140726164, 30.01073734880815], [121.66836107031847, 30.01073734880815], [121.66836107031847, 30.010917011864972], [121.66854073337528, 30.010917011864972], [121.66854073337528, 30.0110966749218], [121.66890005948893, 30.0110966749218], [121.66890005948893, 30.01127633797862], [121.66907972254576, 30.01127633797862], [121.66907972254576, 30.011456001035445], [121.66925938560259, 30.011456001035445], [121.66925938560259, 30.011815327149094], [121.6694390486594, 30.011815327149094], [121.6694390486594, 30.011994990205917], [121.66961871171623, 30.011994990205917], [121.66961871171623, 30.01217465326274], [121.66979837477305, 30.01217465326274], [121.66979837477305, 30.01253397937639], [121.66961871171623, 30.01253397937639], [121.66961871171623, 30.012713642433212], [121.6694390486594, 30.012713642433212], [121.6694390486594, 30.01307296854686], [121.66925938560259, 30.01307296854686], [121.66925938560259, 30.013252631603685], [121.66907972254576, 30.013252631603685], [121.66907972254576, 30.013432294660507], [121.66890005948893, 30.013432294660507], [121.66890005948893, 30.013791620774157], [121.66907972254576, 30.013791620774157], [121.66907972254576, 30.013611957717334], [121.6694390486594, 30.013611957717334], [121.6694390486594, 30.013791620774157], [121.66979837477305, 30.013791620774157], [121.66979837477305, 30.013252631603685], [121.66997803782988, 30.013252631603685], [121.66997803782988, 30.012893305490035], [121.670876353114, 30.012893305490035], [121.670876353114, 30.01307296854686], [121.67105601617082, 30.01307296854686], [121.67105601617082, 30.013252631603685], [121.67141534228446, 30.013252631603685], [121.67141534228446, 30.013432294660507], [121.67159500534129, 30.013432294660507], [121.67159500534129, 30.014510273001452], [121.67141534228446, 30.014510273001452], [121.67141534228446, 30.014689936058275], [121.67123567922765, 30.014689936058275], [121.67123567922765, 30.014869599115098], [121.67105601617082, 30.014869599115098], [121.67105601617082, 30.015049262171924], [121.670876353114, 30.015049262171924], [121.670876353114, 30.015228925228747], [121.67069669005717, 30.015228925228747], [121.67069669005717, 30.01576791439922], [121.67051702700034, 30.01576791439922], [121.67051702700034, 30.015947577456043], [121.67033736394353, 30.015947577456043], [121.67033736394353, 30.016127240512866], [121.6701577008867, 30.016127240512866], [121.6701577008867, 30.016306903569692], [121.66997803782988, 30.016306903569692], [121.66997803782988, 30.016486566626515], [121.66979837477305, 30.016486566626515], [121.66979837477305, 30.01684589274016], [121.67105601617082, 30.01684589274016], [121.67105601617082, 30.017025555796987], [121.67123567922765, 30.017025555796987], [121.67123567922765, 30.01720521885381], [121.67141534228446, 30.01720521885381], [121.67141534228446, 30.017384881910633], [121.67195433145494, 30.017384881910633], [121.67195433145494, 30.017025555796987], [121.67213399451177, 30.017025555796987], [121.67213399451177, 30.016666229683338], [121.67195433145494, 30.016666229683338], [121.67195433145494, 30.016486566626515], [121.67177466839811, 30.016486566626515], [121.67177466839811, 30.016127240512866], [121.67159500534129, 30.016127240512866], [121.67159500534129, 30.015947577456043], [121.67177466839811, 30.015947577456043], [121.67177466839811, 30.01576791439922], [121.67195433145494, 30.01576791439922], [121.67195433145494, 30.015588251342397], [121.67213399451177, 30.015588251342397], [121.67213399451177, 30.014869599115098], [121.6723136575686, 30.014869599115098], [121.6723136575686, 30.014689936058275], [121.6724933206254, 30.014689936058275], [121.6724933206254, 30.014510273001452], [121.67267298368223, 30.014510273001452], [121.67267298368223, 30.015228925228747], [121.67285264673906, 30.015228925228747], [121.67285264673906, 30.01540858828557], [121.67303230979589, 30.01540858828557], [121.67303230979589, 30.015228925228747], [121.67321197285271, 30.015228925228747], [121.67321197285271, 30.014869599115098], [121.67339163590952, 30.014869599115098], [121.67339163590952, 30.014689936058275], [121.67357129896635, 30.014689936058275], [121.67357129896635, 30.01433060994463], [121.67375096202318, 30.01433060994463], [121.67375096202318, 30.014150946887803], [121.67393062508, 30.014150946887803], [121.67393062508, 30.014510273001452], [121.67411028813683, 30.014510273001452], [121.67411028813683, 30.014689936058275], [121.67446961425047, 30.014689936058275], [121.67446961425047, 30.014869599115098], [121.6746492773073, 30.014869599115098], [121.6746492773073, 30.015049262171924], [121.67500860342095, 30.015049262171924], [121.67500860342095, 30.015228925228747], [121.67518826647778, 30.015228925228747], [121.67518826647778, 30.01540858828557], [121.67536792953459, 30.01540858828557], [121.67536792953459, 30.015588251342397], [121.67590691870507, 30.015588251342397], [121.67590691870507, 30.01576791439922], [121.6760865817619, 30.01576791439922], [121.6760865817619, 30.016486566626515], [121.67590691870507, 30.016486566626515], [121.67590691870507, 30.01684589274016], [121.67572725564824, 30.01684589274016], [121.67572725564824, 30.017025555796987], [121.67554759259141, 30.017025555796987], [121.67554759259141, 30.01720521885381], [121.67536792953459, 30.01720521885381], [121.67536792953459, 30.017923871081106], [121.67572725564824, 30.017923871081106], [121.67572725564824, 30.017744208024283], [121.67590691870507, 30.017744208024283], [121.67590691870507, 30.01756454496746], [121.6760865817619, 30.01756454496746], [121.6760865817619, 30.017384881910633], [121.67626624481872, 30.017384881910633], [121.67626624481872, 30.01756454496746], [121.6760865817619, 30.01756454496746], [121.6760865817619, 30.018283197194755], [121.67590691870507, 30.018283197194755], [121.67590691870507, 30.018462860251578], [121.67572725564824, 30.018462860251578], [121.67572725564824, 30.018283197194755], [121.67518826647778, 30.018283197194755], [121.67518826647778, 30.0186425233084], [121.67500860342095, 30.0186425233084], [121.67500860342095, 30.018822186365224], [121.67482894036412, 30.018822186365224], [121.67482894036412, 30.01900184942205], [121.67428995119366, 30.01900184942205], [121.67428995119366, 30.019720501649346], [121.67411028813683, 30.019720501649346], [121.67411028813683, 30.020618816933464], [121.67393062508, 30.020618816933464], [121.67393062508, 30.020798479990287], [121.67375096202318, 30.020798479990287], [121.67375096202318, 30.020978143047113], [121.67357129896635, 30.020978143047113], [121.67357129896635, 30.021157806103936], [121.67321197285271, 30.021157806103936], [121.67321197285271, 30.020978143047113], [121.67303230979589, 30.020978143047113], [121.67303230979589, 30.020798479990287], [121.67285264673906, 30.020798479990287], [121.67285264673906, 30.020978143047113], [121.67267298368223, 30.020978143047113], [121.67267298368223, 30.02133746916076], [121.6724933206254, 30.02133746916076], [121.6724933206254, 30.02169679527441], [121.6723136575686, 30.02169679527441], [121.6723136575686, 30.02187645833123], [121.67177466839811, 30.02187645833123], [121.67177466839811, 30.022056121388054], [121.67159500534129, 30.022056121388054], [121.67159500534129, 30.022954436672176], [121.67141534228446, 30.022954436672176], [121.67141534228446, 30.023313762785822], [121.67105601617082, 30.023313762785822], [121.67105601617082, 30.023852751956294], [121.67123567922765, 30.023852751956294], [121.67123567922765, 30.024391741126767], [121.67105601617082, 30.024391741126767], [121.67105601617082, 30.02457140418359], [121.670876353114, 30.02457140418359], [121.670876353114, 30.024751067240416], [121.6701577008867, 30.024751067240416], [121.6701577008867, 30.02457140418359], [121.66997803782988, 30.02457140418359], [121.66997803782988, 30.024391741126767], [121.6701577008867, 30.024391741126767], [121.6701577008867, 30.024032415013117], [121.66961871171623, 30.024032415013117], [121.66961871171623, 30.023852751956294], [121.6694390486594, 30.023852751956294], [121.6694390486594, 30.023313762785822], [121.66925938560259, 30.023313762785822], [121.66925938560259, 30.023134099729], [121.66872039643211, 30.023134099729], [121.66872039643211, 30.02349342584265], [121.66818140726164, 30.02349342584265], [121.66818140726164, 30.023313762785822], [121.66836107031847, 30.023313762785822], [121.66836107031847, 30.023134099729], [121.66854073337528, 30.023134099729], [121.66854073337528, 30.02277477361535], [121.66818140726164, 30.02277477361535], [121.66818140726164, 30.022954436672176], [121.66800174420482, 30.022954436672176], [121.66800174420482, 30.023134099729], [121.66782208114799, 30.023134099729], [121.66782208114799, 30.02349342584265], [121.66764241809116, 30.02349342584265], [121.66764241809116, 30.02367308889947], [121.66746275503434, 30.02367308889947], [121.66746275503434, 30.02457140418359], [121.6671034289207, 30.02457140418359], [121.6671034289207, 30.02493073029724], [121.66728309197752, 30.02493073029724], [121.66728309197752, 30.025110393354062], [121.66764241809116, 30.025110393354062], [121.66764241809116, 30.025290056410885], [121.66782208114799, 30.025290056410885], [121.66782208114799, 30.02546971946771], [121.66872039643211, 30.02546971946771], [121.66872039643211, 30.025649382524534], [121.66890005948893, 30.025649382524534], [121.66890005948893, 30.025829045581357], [121.6694390486594, 30.025829045581357], [121.6694390486594, 30.02600870863818], [121.66961871171623, 30.02600870863818], [121.66961871171623, 30.026188371695007], [121.66979837477305, 30.026188371695007], [121.66979837477305, 30.026547697808653], [121.66961871171623, 30.026547697808653], [121.66961871171623, 30.02672736086548], [121.6694390486594, 30.02672736086548], [121.6694390486594, 30.026907023922302], [121.66854073337528, 30.026907023922302], [121.66854073337528, 30.02672736086548], [121.66800174420482, 30.02672736086548], [121.66800174420482, 30.026547697808653], [121.66782208114799, 30.026547697808653], [121.66782208114799, 30.02636803475183], [121.66746275503434, 30.02636803475183], [121.66746275503434, 30.026188371695007], [121.6671034289207, 30.026188371695007], [121.6671034289207, 30.02600870863818], [121.6663847766934, 30.02600870863818], [121.6663847766934, 30.026188371695007], [121.66602545057975, 30.026188371695007], [121.66602545057975, 30.02672736086548], [121.66584578752293, 30.02672736086548], [121.66584578752293, 30.026907023922302], [121.6656661244661, 30.026907023922302], [121.6656661244661, 30.027086686979125], [121.66548646140927, 30.027086686979125], [121.66548646140927, 30.027446013092774], [121.66512713529563, 30.027446013092774], [121.66512713529563, 30.027985002263243], [121.66530679835246, 30.027985002263243], [121.66530679835246, 30.02816466532007], [121.6656661244661, 30.02816466532007], [121.6656661244661, 30.028344328376892], [121.66584578752293, 30.028344328376892], [121.66584578752293, 30.028523991433715], [121.6663847766934, 30.028523991433715], [121.6663847766934, 30.028703654490542], [121.66656443975022, 30.028703654490542], [121.66656443975022, 30.028883317547365], [121.66692376586387, 30.028883317547365], [121.66692376586387, 30.029422306717837], [121.66656443975022, 30.029422306717837], [121.66656443975022, 30.02924264366101], [121.6663847766934, 30.02924264366101], [121.6663847766934, 30.029062980604188], [121.66584578752293, 30.029062980604188], [121.66584578752293, 30.028883317547365], [121.66548646140927, 30.028883317547365], [121.66548646140927, 30.029062980604188], [121.66530679835246, 30.029062980604188], [121.66530679835246, 30.029422306717837], [121.66512713529563, 30.029422306717837], [121.66512713529563, 30.02960196977466], [121.66494747223881, 30.02960196977466], [121.66494747223881, 30.029781632831483], [121.66476780918198, 30.029781632831483], [121.66476780918198, 30.029961295888306], [121.66458814612515, 30.029961295888306], [121.66458814612515, 30.030140958945132], [121.66422882001152, 30.030140958945132], [121.66422882001152, 30.030320622001955], [121.66386949389786, 30.030320622001955], [121.66386949389786, 30.030679948115605], [121.66404915695469, 30.030679948115605], [121.66404915695469, 30.030859611172428], [121.66476780918198, 30.030859611172428], [121.66476780918198, 30.0313986003429], [121.66458814612515, 30.0313986003429], [121.66458814612515, 30.031578263399723], [121.66351016778421, 30.031578263399723]], [[121.67069669005717, 30.013611957717334], [121.67033736394353, 30.013611957717334], [121.67033736394353, 30.013252631603685], [121.67069669005717, 30.013252631603685], [121.67069669005717, 30.013611957717334]], [[121.66764241809116, 30.014510273001452], [121.66746275503434, 30.014510273001452], [121.66746275503434, 30.01433060994463], [121.66692376586387, 30.01433060994463], [121.66692376586387, 30.01397128383098], [121.66764241809116, 30.01397128383098], [121.66764241809116, 30.014150946887803], [121.66782208114799, 30.014150946887803], [121.66782208114799, 30.01433060994463], [121.66764241809116, 30.01433060994463], [121.66764241809116, 30.014510273001452]], [[121.66692376586387, 30.017025555796987], [121.66674410280704, 30.017025555796987], [121.66674410280704, 30.01684589274016], [121.66656443975022, 30.01684589274016], [121.66656443975022, 30.016666229683338], [121.6671034289207, 30.016666229683338], [121.6671034289207, 30.01684589274016], [121.66692376586387, 30.01684589274016], [121.66692376586387, 30.017025555796987]], [[121.66656443975022, 30.01810353413793], [121.66584578752293, 30.01810353413793], [121.66584578752293, 30.017923871081106], [121.6656661244661, 30.017923871081106], [121.6656661244661, 30.017744208024283], [121.66530679835246, 30.017744208024283], [121.66530679835246, 30.01756454496746], [121.66476780918198, 30.01756454496746], [121.66476780918198, 30.017384881910633], [121.66458814612515, 30.017384881910633], [121.66458814612515, 30.01684589274016], [121.66512713529563, 30.01684589274016], [121.66512713529563, 30.017025555796987], [121.66548646140927, 30.017025555796987], [121.66548646140927, 30.01720521885381], [121.6656661244661, 30.01720521885381], [121.6656661244661, 30.017384881910633], [121.66602545057975, 30.017384881910633], [121.66602545057975, 30.01720521885381], [121.6663847766934, 30.01720521885381], [121.6663847766934, 30.017025555796987], [121.66656443975022, 30.017025555796987], [121.66656443975022, 30.01720521885381], [121.66674410280704, 30.01720521885381], [121.66674410280704, 30.017923871081106], [121.66656443975022, 30.017923871081106], [121.66656443975022, 30.01810353413793]], [[121.66368983084104, 30.018462860251578], [121.66351016778421, 30.018462860251578], [121.66351016778421, 30.018283197194755], [121.66368983084104, 30.018283197194755], [121.66368983084104, 30.018462860251578]], [[121.6618932002728, 30.0186425233084], [121.66135421110233, 30.0186425233084], [121.66135421110233, 30.01810353413793], [121.66171353721597, 30.01810353413793], [121.66171353721597, 30.017923871081106], [121.6618932002728, 30.017923871081106], [121.6618932002728, 30.017744208024283], [121.66207286332963, 30.017744208024283], [121.66207286332963, 30.017384881910633], [121.66225252638645, 30.017384881910633], [121.66225252638645, 30.01720521885381], [121.66243218944327, 30.01720521885381], [121.66243218944327, 30.017025555796987], [121.66261185250009, 30.017025555796987], [121.66261185250009, 30.01684589274016], [121.66315084167057, 30.01684589274016], [121.66315084167057, 30.017025555796987], [121.6633305047274, 30.017025555796987], [121.6633305047274, 30.017384881910633], [121.66315084167057, 30.017384881910633], [121.66315084167057, 30.01756454496746], [121.66297117861374, 30.01756454496746], [121.66297117861374, 30.017744208024283], [121.66315084167057, 30.017744208024283], [121.66315084167057, 30.017923871081106], [121.6633305047274, 30.017923871081106], [121.6633305047274, 30.01810353413793], [121.66351016778421, 30.01810353413793], [121.66351016778421, 30.018283197194755], [121.66297117861374, 30.018283197194755], [121.66297117861374, 30.01810353413793], [121.66279151555692, 30.01810353413793], [121.66279151555692, 30.017923871081106], [121.66243218944327, 30.017923871081106], [121.66243218944327, 30.01810353413793], [121.66225252638645, 30.01810353413793], [121.66225252638645, 30.018283197194755], [121.66207286332963, 30.018283197194755], [121.66207286332963, 30.018462860251578], [121.6618932002728, 30.018462860251578], [121.6618932002728, 30.0186425233084]], [[121.66458814612515, 30.01900184942205], [121.66422882001152, 30.01900184942205], [121.66422882001152, 30.0186425233084], [121.66458814612515, 30.0186425233084], [121.66458814612515, 30.01900184942205]], [[121.66351016778421, 30.019181512478873], [121.6633305047274, 30.019181512478873], [121.6633305047274, 30.01900184942205], [121.66297117861374, 30.01900184942205], [121.66297117861374, 30.0186425233084], [121.6633305047274, 30.0186425233084], [121.6633305047274, 30.018822186365224], [121.66351016778421, 30.018822186365224], [121.66351016778421, 30.019181512478873]], [[121.66890005948893, 30.019181512478873], [121.66800174420482, 30.019181512478873], [121.66800174420482, 30.018822186365224], [121.66818140726164, 30.018822186365224], [121.66818140726164, 30.0186425233084], [121.66836107031847, 30.0186425233084], [121.66836107031847, 30.018283197194755], [121.66854073337528, 30.018283197194755], [121.66854073337528, 30.017744208024283], [121.66872039643211, 30.017744208024283], [121.66872039643211, 30.01756454496746], [121.66907972254576, 30.01756454496746], [121.66907972254576, 30.017384881910633], [121.66925938560259, 30.017384881910633], [121.66925938560259, 30.01720521885381], [121.66961871171623, 30.01720521885381], [121.66961871171623, 30.017384881910633], [121.66979837477305, 30.017384881910633], [121.66979837477305, 30.01756454496746], [121.66961871171623, 30.01756454496746], [121.66961871171623, 30.017923871081106], [121.6694390486594, 30.017923871081106], [121.6694390486594, 30.018283197194755], [121.66925938560259, 30.018283197194755], [121.66925938560259, 30.018462860251578], [121.66907972254576, 30.018462860251578], [121.66907972254576, 30.0186425233084], [121.66890005948893, 30.0186425233084], [121.66890005948893, 30.019181512478873]], [[121.67357129896635, 30.02043915387664], [121.67339163590952, 30.02043915387664], [121.67339163590952, 30.020259490819818], [121.67357129896635, 30.020259490819818], [121.67357129896635, 30.02043915387664]], [[121.67105601617082, 30.020618816933464], [121.670876353114, 30.020618816933464], [121.670876353114, 30.02043915387664], [121.67033736394353, 30.02043915387664], [121.67033736394353, 30.02007982776299], [121.67051702700034, 30.02007982776299], [121.67051702700034, 30.01990016470617], [121.67069669005717, 30.01990016470617], [121.67069669005717, 30.019720501649346], [121.67159500534129, 30.019720501649346], [121.67159500534129, 30.01990016470617], [121.67213399451177, 30.01990016470617], [121.67213399451177, 30.019720501649346], [121.6723136575686, 30.019720501649346], [121.6723136575686, 30.019540838592523], [121.6724933206254, 30.019540838592523], [121.6724933206254, 30.01990016470617], [121.6723136575686, 30.01990016470617], [121.6723136575686, 30.02007982776299], [121.67213399451177, 30.02007982776299], [121.67213399451177, 30.020259490819818], [121.67141534228446, 30.020259490819818], [121.67141534228446, 30.02043915387664], [121.67105601617082, 30.02043915387664], [121.67105601617082, 30.020618816933464]], [[121.66997803782988, 30.021157806103936], [121.66979837477305, 30.021157806103936], [121.66979837477305, 30.020978143047113], [121.66961871171623, 30.020978143047113], [121.66961871171623, 30.020798479990287], [121.66979837477305, 30.020798479990287], [121.66979837477305, 30.020618816933464], [121.66997803782988, 30.020618816933464], [121.66997803782988, 30.020798479990287], [121.6701577008867, 30.020798479990287], [121.6701577008867, 30.020978143047113], [121.66997803782988, 30.020978143047113], [121.66997803782988, 30.021157806103936]], [[121.6694390486594, 30.02187645833123], [121.66925938560259, 30.02187645833123], [121.66925938560259, 30.021517132217586], [121.66961871171623, 30.021517132217586], [121.66961871171623, 30.02169679527441], [121.6694390486594, 30.02169679527441], [121.6694390486594, 30.02187645833123]], [[121.6671034289207, 30.022056121388054], [121.66692376586387, 30.022056121388054], [121.66692376586387, 30.02187645833123], [121.66674410280704, 30.02187645833123], [121.66674410280704, 30.02169679527441], [121.6671034289207, 30.02169679527441], [121.6671034289207, 30.022056121388054]], [[121.66782208114799, 30.022415447501704], [121.66746275503434, 30.022415447501704], [121.66746275503434, 30.02223578444488], [121.66782208114799, 30.02223578444488], [121.66782208114799, 30.022415447501704]], [[121.6663847766934, 30.024032415013117], [121.66548646140927, 30.024032415013117], [121.66548646140927, 30.023313762785822], [121.6656661244661, 30.023313762785822], [121.6656661244661, 30.023134099729], [121.66584578752293, 30.023134099729], [121.66584578752293, 30.022954436672176], [121.66602545057975, 30.022954436672176], [121.66602545057975, 30.022595110558527], [121.66620511363658, 30.022595110558527], [121.66620511363658, 30.022415447501704], [121.66656443975022, 30.022415447501704], [121.66656443975022, 30.022595110558527], [121.66674410280704, 30.022595110558527], [121.66674410280704, 30.02277477361535], [121.6671034289207, 30.02277477361535], [121.6671034289207, 30.022954436672176], [121.66728309197752, 30.022954436672176], [121.66728309197752, 30.023134099729], [121.66746275503434, 30.023134099729], [121.66746275503434, 30.023313762785822], [121.66728309197752, 30.023313762785822], [121.66728309197752, 30.02349342584265], [121.6671034289207, 30.02349342584265], [121.6671034289207, 30.02367308889947], [121.66656443975022, 30.02367308889947], [121.66656443975022, 30.023852751956294], [121.6663847766934, 30.023852751956294], [121.6663847766934, 30.024032415013117]]]}, "properties": {"name": "cand01", "ptype": "hall", "confidence": "low", "rank": 1, "area_ha": 169.2, "rise_db": 9.7, "digitised_from": "Sentinel-1 VV rise 2022->2026, orbit 171"}}, {"type": "Feature", "geometry": {"geodesic": false, "type": "Polygon", "coordinates": [[[121.66351016778421, 29.99744228260318], [121.66351016778421, 29.99726261954636], [121.66315084167057, 29.99726261954636], [121.66315084167057, 29.997082956489532], [121.66297117861374, 29.997082956489532], [121.66297117861374, 29.99690329343271], [121.66279151555692, 29.99690329343271], [121.66279151555692, 29.996723630375886], [121.66261185250009, 29.996723630375886], [121.66261185250009, 29.996543967319063], [121.66243218944327, 29.996543967319063], [121.66243218944327, 29.996364304262237], [121.66225252638645, 29.996364304262237], [121.66225252638645, 29.996184641205414], [121.66207286332963, 29.996184641205414], [121.66207286332963, 29.99600497814859], [121.6618932002728, 29.99600497814859], [121.6618932002728, 29.995825315091764], [121.66171353721597, 29.995825315091764], [121.66171353721597, 29.99564565203494], [121.66135421110233, 29.99564565203494], [121.66135421110233, 29.99546598897812], [121.66117454804551, 29.99546598897812], [121.66117454804551, 29.995286325921295], [121.66099488498868, 29.995286325921295], [121.66099488498868, 29.994926999807646], [121.66117454804551, 29.994926999807646], [121.66117454804551, 29.994567673694], [121.66063555887503, 29.994567673694], [121.66063555887503, 29.994388010637174], [121.6604558958182, 29.994388010637174], [121.6604558958182, 29.99420834758035], [121.66009656970456, 29.99420834758035], [121.66009656970456, 29.99366935840988], [121.66027623276139, 29.99366935840988], [121.66027623276139, 29.993489695353055], [121.66009656970456, 29.993489695353055], [121.66009656970456, 29.993310032296232], [121.65991690664774, 29.993310032296232], [121.65991690664774, 29.993130369239406], [121.65973724359091, 29.993130369239406], [121.65973724359091, 29.99277104312576], [121.65955758053408, 29.99277104312576], [121.65955758053408, 29.992591380068937], [121.65937791747727, 29.992591380068937], [121.65937791747727, 29.99241171701211], [121.65919825442045, 29.99241171701211], [121.65919825442045, 29.992232053955288], [121.65901859136362, 29.992232053955288], [121.65901859136362, 29.992052390898465], [121.65883892830679, 29.992052390898465], [121.65883892830679, 29.99187272784164], [121.65865926524997, 29.99187272784164], [121.65865926524997, 29.991693064784815], [121.65919825442045, 29.991693064784815], [121.65919825442045, 29.99187272784164], [121.65937791747727, 29.99187272784164], [121.65937791747727, 29.992052390898465], [121.65973724359091, 29.992052390898465], [121.65973724359091, 29.992232053955288], [121.66009656970456, 29.992232053955288], [121.66009656970456, 29.99241171701211], [121.6604558958182, 29.99241171701211], [121.6604558958182, 29.992232053955288], [121.66063555887503, 29.992232053955288], [121.66063555887503, 29.992052390898465], [121.66081522193186, 29.992052390898465], [121.66081522193186, 29.99187272784164], [121.66099488498868, 29.99187272784164], [121.66099488498868, 29.991693064784815], [121.66117454804551, 29.991693064784815], [121.66117454804551, 29.99133373867117], [121.66153387415915, 29.99133373867117], [121.66153387415915, 29.991693064784815], [121.66171353721597, 29.991693064784815], [121.66171353721597, 29.99187272784164], [121.66225252638645, 29.99187272784164], [121.66225252638645, 29.991693064784815], [121.66243218944327, 29.991693064784815], [121.66243218944327, 29.991513401727993], [121.66297117861374, 29.991513401727993], [121.66297117861374, 29.99133373867117], [121.66315084167057, 29.99133373867117], [121.66315084167057, 29.991154075614343], [121.6633305047274, 29.991154075614343], [121.6633305047274, 29.99097441255752], [121.66351016778421, 29.99097441255752], [121.66351016778421, 29.99061508644387], [121.66368983084104, 29.99061508644387], [121.66368983084104, 29.990435423387048], [121.66386949389786, 29.990435423387048], [121.66386949389786, 29.990255760330225], [121.66422882001152, 29.990255760330225], [121.66422882001152, 29.990435423387048], [121.66440848306834, 29.990435423387048], [121.66440848306834, 29.991154075614343], [121.66458814612515, 29.991154075614343], [121.66458814612515, 29.99133373867117], [121.66476780918198, 29.99133373867117], [121.66476780918198, 29.991154075614343], [121.66494747223881, 29.991154075614343], [121.66494747223881, 29.99097441255752], [121.66512713529563, 29.99097441255752], [121.66512713529563, 29.990794749500697], [121.66530679835246, 29.990794749500697], [121.66530679835246, 29.990435423387048], [121.66548646140927, 29.990435423387048], [121.66548646140927, 29.990255760330225], [121.66602545057975, 29.990255760330225], [121.66602545057975, 29.990076097273402], [121.66656443975022, 29.990076097273402], [121.66656443975022, 29.990255760330225], [121.6671034289207, 29.990255760330225], [121.6671034289207, 29.990435423387048], [121.66728309197752, 29.990435423387048], [121.66728309197752, 29.99061508644387], [121.66746275503434, 29.99061508644387], [121.66746275503434, 29.990794749500697], [121.66764241809116, 29.990794749500697], [121.66764241809116, 29.99133373867117], [121.66746275503434, 29.99133373867117], [121.66746275503434, 29.991693064784815], [121.66728309197752, 29.991693064784815], [121.66728309197752, 29.992232053955288], [121.6671034289207, 29.992232053955288], [121.6671034289207, 29.99241171701211], [121.66656443975022, 29.99241171701211], [121.66656443975022, 29.992591380068937], [121.66620511363658, 29.992591380068937], [121.66620511363658, 29.99277104312576], [121.66584578752293, 29.99277104312576], [121.66584578752293, 29.992950706182583], [121.6656661244661, 29.992950706182583], [121.6656661244661, 29.993310032296232], [121.66620511363658, 29.993310032296232], [121.66620511363658, 29.993130369239406], [121.6663847766934, 29.993130369239406], [121.6663847766934, 29.992950706182583], [121.66674410280704, 29.992950706182583], [121.66674410280704, 29.993310032296232], [121.66656443975022, 29.993310032296232], [121.66656443975022, 29.993489695353055], [121.66620511363658, 29.993489695353055], [121.66620511363658, 29.99366935840988], [121.66602545057975, 29.99366935840988], [121.66602545057975, 29.9938490214667], [121.66584578752293, 29.9938490214667], [121.66584578752293, 29.994028684523528], [121.6656661244661, 29.994028684523528], [121.6656661244661, 29.99420834758035], [121.66530679835246, 29.99420834758035], [121.66530679835246, 29.993489695353055], [121.66494747223881, 29.993489695353055], [121.66494747223881, 29.99366935840988], [121.66476780918198, 29.99366935840988], [121.66476780918198, 29.9938490214667], [121.66440848306834, 29.9938490214667], [121.66440848306834, 29.99366935840988], [121.66386949389786, 29.99366935840988], [121.66386949389786, 29.993489695353055], [121.66368983084104, 29.993489695353055], [121.66368983084104, 29.993310032296232], [121.6633305047274, 29.993310032296232], [121.6633305047274, 29.993489695353055], [121.66315084167057, 29.993489695353055], [121.66315084167057, 29.99366935840988], [121.66297117861374, 29.99366935840988], [121.66297117861374, 29.9938490214667], [121.66261185250009, 29.9938490214667], [121.66261185250009, 29.994028684523528], [121.66243218944327, 29.994028684523528], [121.66243218944327, 29.99420834758035], [121.66225252638645, 29.99420834758035], [121.66225252638645, 29.994388010637174], [121.66207286332963, 29.994388010637174], [121.66207286332963, 29.994567673694], [121.6618932002728, 29.994567673694], [121.6618932002728, 29.994747336750823], [121.66171353721597, 29.994747336750823], [121.66171353721597, 29.995286325921295], [121.6618932002728, 29.995286325921295], [121.6618932002728, 29.99546598897812], [121.66207286332963, 29.99546598897812], [121.66207286332963, 29.99564565203494], [121.66225252638645, 29.99564565203494], [121.66225252638645, 29.99600497814859], [121.66261185250009, 29.99600497814859], [121.66261185250009, 29.996184641205414], [121.66279151555692, 29.996184641205414], [121.66279151555692, 29.996364304262237], [121.66297117861374, 29.996364304262237], [121.66297117861374, 29.996543967319063], [121.6633305047274, 29.996543967319063], [121.6633305047274, 29.996723630375886], [121.66351016778421, 29.996723630375886], [121.66351016778421, 29.99690329343271], [121.66368983084104, 29.99690329343271], [121.66368983084104, 29.997082956489532], [121.66386949389786, 29.997082956489532], [121.66386949389786, 29.99744228260318], [121.66351016778421, 29.99744228260318]], [[121.6656661244661, 29.99241171701211], [121.66530679835246, 29.99241171701211], [121.66530679835246, 29.99187272784164], [121.66548646140927, 29.99187272784164], [121.66548646140927, 29.992052390898465], [121.6656661244661, 29.992052390898465], [121.6656661244661, 29.99241171701211]], [[121.66440848306834, 29.992950706182583], [121.66422882001152, 29.992950706182583], [121.66422882001152, 29.992591380068937], [121.66512713529563, 29.992591380068937], [121.66512713529563, 29.99277104312576], [121.66440848306834, 29.99277104312576], [121.66440848306834, 29.992950706182583]], [[121.66207286332963, 29.9938490214667], [121.66171353721597, 29.9938490214667], [121.66171353721597, 29.99366935840988], [121.66135421110233, 29.99366935840988], [121.66135421110233, 29.993310032296232], [121.6618932002728, 29.993310032296232], [121.6618932002728, 29.993489695353055], [121.66207286332963, 29.993489695353055], [121.66207286332963, 29.9938490214667]], [[121.66135421110233, 29.994567673694], [121.66117454804551, 29.994567673694], [121.66117454804551, 29.994388010637174], [121.66135421110233, 29.994388010637174], [121.66135421110233, 29.994567673694]]]}, "properties": {"name": "cand02", "ptype": "hall", "confidence": "low", "rank": 2, "area_ha": 26.9, "rise_db": 9.0, "digitised_from": "Sentinel-1 VV rise 2022->2026, orbit 171"}}, {"type": "Feature", "geometry": {"geodesic": false, "type": "Polygon", "coordinates": [[[121.65919825442045, 30.030679948115605], [121.65919825442045, 30.03050028505878], [121.65883892830679, 30.03050028505878], [121.65883892830679, 30.030320622001955], [121.65865926524997, 30.030320622001955], [121.65865926524997, 30.030140958945132], [121.65829993913633, 30.030140958945132], [121.65829993913633, 30.029961295888306], [121.65794061302267, 30.029961295888306], [121.65794061302267, 30.02960196977466], [121.65776094996585, 30.02960196977466], [121.65776094996585, 30.029062980604188], [121.65758128690902, 30.029062980604188], [121.65758128690902, 30.02924264366101], [121.65740162385221, 30.02924264366101], [121.65740162385221, 30.029422306717837], [121.65704229773856, 30.029422306717837], [121.65704229773856, 30.02924264366101], [121.65686263468173, 30.02924264366101], [121.65686263468173, 30.028344328376892], [121.65704229773856, 30.028344328376892], [121.65704229773856, 30.027985002263243], [121.65722196079538, 30.027985002263243], [121.65722196079538, 30.027625676149597], [121.65704229773856, 30.027625676149597], [121.65704229773856, 30.027446013092774], [121.65686263468173, 30.027446013092774], [121.65686263468173, 30.027266350035948], [121.65650330856808, 30.027266350035948], [121.65650330856808, 30.027086686979125], [121.65596431939761, 30.027086686979125], [121.65596431939761, 30.026907023922302], [121.65578465634078, 30.026907023922302], [121.65578465634078, 30.02672736086548], [121.65560499328396, 30.02672736086548], [121.65560499328396, 30.026547697808653], [121.65542533022715, 30.026547697808653], [121.65542533022715, 30.02600870863818], [121.65524566717032, 30.02600870863818], [121.65524566717032, 30.02546971946771], [121.65542533022715, 30.02546971946771], [121.65542533022715, 30.025110393354062], [121.65560499328396, 30.025110393354062], [121.65560499328396, 30.02493073029724], [121.65614398245444, 30.02493073029724], [121.65614398245444, 30.025110393354062], [121.65632364551126, 30.025110393354062], [121.65632364551126, 30.025290056410885], [121.6566829716249, 30.025290056410885], [121.6566829716249, 30.02546971946771], [121.65686263468173, 30.02546971946771], [121.65686263468173, 30.025649382524534], [121.6566829716249, 30.025649382524534], [121.6566829716249, 30.025829045581357], [121.65632364551126, 30.025829045581357], [121.65632364551126, 30.025649382524534], [121.65614398245444, 30.025649382524534], [121.65614398245444, 30.02546971946771], [121.65578465634078, 30.02546971946771], [121.65578465634078, 30.025649382524534], [121.65560499328396, 30.025649382524534], [121.65560499328396, 30.02600870863818], [121.65578465634078, 30.02600870863818], [121.65578465634078, 30.026188371695007], [121.65596431939761, 30.026188371695007], [121.65596431939761, 30.02636803475183], [121.65632364551126, 30.02636803475183], [121.65632364551126, 30.026188371695007], [121.6566829716249, 30.026188371695007], [121.6566829716249, 30.02600870863818], [121.65704229773856, 30.02600870863818], [121.65704229773856, 30.026188371695007], [121.65740162385221, 30.026188371695007], [121.65740162385221, 30.02636803475183], [121.65794061302267, 30.02636803475183], [121.65794061302267, 30.026188371695007], [121.65829993913633, 30.026188371695007], [121.65829993913633, 30.026547697808653], [121.65847960219314, 30.026547697808653], [121.65847960219314, 30.02672736086548], [121.65919825442045, 30.02672736086548], [121.65919825442045, 30.026547697808653], [121.65937791747727, 30.026547697808653], [121.65937791747727, 30.02636803475183], [121.65955758053408, 30.02636803475183], [121.65955758053408, 30.02672736086548], [121.66009656970456, 30.02672736086548], [121.66009656970456, 30.026547697808653], [121.6604558958182, 30.026547697808653], [121.6604558958182, 30.02780533920642], [121.66081522193186, 30.02780533920642], [121.66081522193186, 30.027266350035948], [121.66099488498868, 30.027266350035948], [121.66099488498868, 30.027086686979125], [121.66117454804551, 30.027086686979125], [121.66117454804551, 30.027625676149597], [121.66135421110233, 30.027625676149597], [121.66135421110233, 30.027985002263243], [121.66153387415915, 30.027985002263243], [121.66153387415915, 30.02816466532007], [121.66171353721597, 30.02816466532007], [121.66171353721597, 30.028344328376892], [121.6618932002728, 30.028344328376892], [121.6618932002728, 30.028703654490542], [121.66171353721597, 30.028703654490542], [121.66171353721597, 30.028883317547365], [121.66153387415915, 30.028883317547365], [121.66153387415915, 30.029062980604188], [121.66135421110233, 30.029062980604188], [121.66135421110233, 30.02924264366101], [121.66081522193186, 30.02924264366101], [121.66081522193186, 30.029781632831483], [121.66063555887503, 30.029781632831483], [121.66063555887503, 30.029961295888306], [121.66027623276139, 30.029961295888306], [121.66027623276139, 30.030140958945132], [121.66009656970456, 30.030140958945132], [121.66009656970456, 30.030320622001955], [121.65991690664774, 30.030320622001955], [121.65991690664774, 30.03050028505878], [121.65973724359091, 30.03050028505878], [121.65973724359091, 30.030679948115605], [121.65919825442045, 30.030679948115605]], [[121.65740162385221, 30.026907023922302], [121.65704229773856, 30.026907023922302], [121.65704229773856, 30.02672736086548], [121.65722196079538, 30.02672736086548], [121.65722196079538, 30.026547697808653], [121.65740162385221, 30.026547697808653], [121.65740162385221, 30.026907023922302]], [[121.65847960219314, 30.027446013092774], [121.65758128690902, 30.027446013092774], [121.65758128690902, 30.027086686979125], [121.65847960219314, 30.027086686979125], [121.65847960219314, 30.027446013092774]]]}, "properties": {"name": "cand03", "ptype": "hall", "confidence": "low", "rank": 3, "area_ha": 20.3, "rise_db": 8.2, "digitised_from": "Sentinel-1 VV rise 2022->2026, orbit 171"}}, {"type": "Feature", "geometry": {"geodesic": false, "type": "Polygon", "coordinates": [[[121.65596431939761, 30.03409354619526], [121.65596431939761, 30.033913883138432], [121.65614398245444, 30.033913883138432], [121.65614398245444, 30.033554557024786], [121.65632364551126, 30.033554557024786], [121.65632364551126, 30.033374893967963], [121.65614398245444, 30.033374893967963], [121.65614398245444, 30.033195230911137], [121.65596431939761, 30.033195230911137], [121.65596431939761, 30.033374893967963], [121.65524566717032, 30.033374893967963], [121.65524566717032, 30.033015567854314], [121.65470667799984, 30.033015567854314], [121.65470667799984, 30.03283590479749], [121.65452701494301, 30.03283590479749], [121.65452701494301, 30.032656241740668], [121.6543473518862, 30.032656241740668], [121.6543473518862, 30.03247657868384], [121.65416768882938, 30.03247657868384], [121.65416768882938, 30.03229691562702], [121.65452701494301, 30.03229691562702], [121.65452701494301, 30.03193758951337], [121.65470667799984, 30.03193758951337], [121.65470667799984, 30.031757926456546], [121.65488634105667, 30.031757926456546], [121.65488634105667, 30.031578263399723], [121.65470667799984, 30.031578263399723], [121.65470667799984, 30.0313986003429], [121.65452701494301, 30.0313986003429], [121.65452701494301, 30.031218937286074], [121.65470667799984, 30.031218937286074], [121.65470667799984, 30.0313986003429], [121.65560499328396, 30.0313986003429], [121.65560499328396, 30.031218937286074], [121.65542533022715, 30.031218937286074], [121.65542533022715, 30.030679948115605], [121.65560499328396, 30.030679948115605], [121.65560499328396, 30.03050028505878], [121.65578465634078, 30.03050028505878], [121.65578465634078, 30.030140958945132], [121.65632364551126, 30.030140958945132], [121.65632364551126, 30.030320622001955], [121.65650330856808, 30.030320622001955], [121.65650330856808, 30.030140958945132], [121.65704229773856, 30.030140958945132], [121.65704229773856, 30.030320622001955], [121.65722196079538, 30.030320622001955], [121.65722196079538, 30.03050028505878], [121.65704229773856, 30.03050028505878], [121.65704229773856, 30.030679948115605], [121.65686263468173, 30.030679948115605], [121.65686263468173, 30.030859611172428], [121.65704229773856, 30.030859611172428], [121.65704229773856, 30.03103927422925], [121.65740162385221, 30.03103927422925], [121.65740162385221, 30.030859611172428], [121.65776094996585, 30.030859611172428], [121.65776094996585, 30.030679948115605], [121.65794061302267, 30.030679948115605], [121.65794061302267, 30.0313986003429], [121.65776094996585, 30.0313986003429], [121.65776094996585, 30.031578263399723], [121.65758128690902, 30.031578263399723], [121.65758128690902, 30.03193758951337], [121.65794061302267, 30.03193758951337], [121.65794061302267, 30.032117252570195], [121.6581202760795, 30.032117252570195], [121.6581202760795, 30.03193758951337], [121.65829993913633, 30.03193758951337], [121.65829993913633, 30.031757926456546], [121.65847960219314, 30.031757926456546], [121.65847960219314, 30.031578263399723], [121.65883892830679, 30.031578263399723], [121.65883892830679, 30.032117252570195], [121.65865926524997, 30.032117252570195], [121.65865926524997, 30.03229691562702], [121.6581202760795, 30.03229691562702], [121.6581202760795, 30.03247657868384], [121.65794061302267, 30.03247657868384], [121.65794061302267, 30.032656241740668], [121.65776094996585, 30.032656241740668], [121.65776094996585, 30.03283590479749], [121.65758128690902, 30.03283590479749], [121.65758128690902, 30.033015567854314], [121.65722196079538, 30.033015567854314], [121.65722196079538, 30.033195230911137], [121.65704229773856, 30.033195230911137], [121.65704229773856, 30.033374893967963], [121.65686263468173, 30.033374893967963], [121.65686263468173, 30.033554557024786], [121.6566829716249, 30.033554557024786], [121.6566829716249, 30.03373422008161], [121.65650330856808, 30.03373422008161], [121.65650330856808, 30.03409354619526], [121.65596431939761, 30.03409354619526]], [[121.65650330856808, 30.03103927422925], [121.65632364551126, 30.03103927422925], [121.65632364551126, 30.030859611172428], [121.65650330856808, 30.030859611172428], [121.65650330856808, 30.03103927422925]], [[121.65614398245444, 30.032117252570195], [121.65542533022715, 30.032117252570195], [121.65542533022715, 30.031757926456546], [121.65560499328396, 30.031757926456546], [121.65560499328396, 30.0313986003429], [121.65578465634078, 30.0313986003429], [121.65578465634078, 30.03193758951337], [121.65596431939761, 30.03193758951337], [121.65596431939761, 30.031757926456546], [121.65632364551126, 30.031757926456546], [121.65632364551126, 30.03193758951337], [121.65614398245444, 30.03193758951337], [121.65614398245444, 30.032117252570195]]]}, "properties": {"name": "cand04", "ptype": "hall", "confidence": "low", "rank": 4, "area_ha": 10.6, "rise_db": 10.2, "digitised_from": "Sentinel-1 VV rise 2022->2026, orbit 171"}}, {"type": "Feature", "geometry": {"geodesic": false, "type": "Polygon", "coordinates": [[[121.66225252638645, 30.03553085064985], [121.66225252638645, 30.035351187593026], [121.66153387415915, 30.035351187593026], [121.66153387415915, 30.034991861479376], [121.66135421110233, 30.034991861479376], [121.66135421110233, 30.034812198422554], [121.66117454804551, 30.034812198422554], [121.66117454804551, 30.03463253536573], [121.66135421110233, 30.03463253536573], [121.66135421110233, 30.034452872308904], [121.66117454804551, 30.034452872308904], [121.66117454804551, 30.03427320925208], [121.66099488498868, 30.03427320925208], [121.66099488498868, 30.03409354619526], [121.66081522193186, 30.03409354619526], [121.66081522193186, 30.033913883138432], [121.6604558958182, 30.033913883138432], [121.6604558958182, 30.03373422008161], [121.66027623276139, 30.03373422008161], [121.66027623276139, 30.033374893967963], [121.66081522193186, 30.033374893967963], [121.66081522193186, 30.033554557024786], [121.66153387415915, 30.033554557024786], [121.66153387415915, 30.033374893967963], [121.66171353721597, 30.033374893967963], [121.66171353721597, 30.033195230911137], [121.66153387415915, 30.033195230911137], [121.66153387415915, 30.033015567854314], [121.66135421110233, 30.033015567854314], [121.66135421110233, 30.03283590479749], [121.66081522193186, 30.03283590479749], [121.66081522193186, 30.033015567854314], [121.66063555887503, 30.033015567854314], [121.66063555887503, 30.03283590479749], [121.6604558958182, 30.03283590479749], [121.6604558958182, 30.032656241740668], [121.65955758053408, 30.032656241740668], [121.65955758053408, 30.03283590479749], [121.65937791747727, 30.03283590479749], [121.65937791747727, 30.033015567854314], [121.65919825442045, 30.033015567854314], [121.65919825442045, 30.03283590479749], [121.65901859136362, 30.03283590479749], [121.65901859136362, 30.032656241740668], [121.65919825442045, 30.032656241740668], [121.65919825442045, 30.03247657868384], [121.65955758053408, 30.03247657868384], [121.65955758053408, 30.03229691562702], [121.65973724359091, 30.03229691562702], [121.65973724359091, 30.032117252570195], [121.65991690664774, 30.032117252570195], [121.65991690664774, 30.03193758951337], [121.66027623276139, 30.03193758951337], [121.66027623276139, 30.032117252570195], [121.6604558958182, 30.032117252570195], [121.6604558958182, 30.03229691562702], [121.66063555887503, 30.03229691562702], [121.66063555887503, 30.03247657868384], [121.66081522193186, 30.03247657868384], [121.66081522193186, 30.032656241740668], [121.66117454804551, 30.032656241740668], [121.66117454804551, 30.03247657868384], [121.66135421110233, 30.03247657868384], [121.66135421110233, 30.03229691562702], [121.66153387415915, 30.03229691562702], [121.66153387415915, 30.032117252570195], [121.66225252638645, 30.032117252570195], [121.66225252638645, 30.03247657868384], [121.66243218944327, 30.03247657868384], [121.66243218944327, 30.03229691562702], [121.66297117861374, 30.03229691562702], [121.66297117861374, 30.03247657868384], [121.66315084167057, 30.03247657868384], [121.66315084167057, 30.033015567854314], [121.66297117861374, 30.033015567854314], [121.66297117861374, 30.033195230911137], [121.66279151555692, 30.033195230911137], [121.66279151555692, 30.033374893967963], [121.66243218944327, 30.033374893967963], [121.66243218944327, 30.03409354619526], [121.66225252638645, 30.03409354619526], [121.66225252638645, 30.03427320925208], [121.6618932002728, 30.03427320925208], [121.6618932002728, 30.034452872308904], [121.66153387415915, 30.034452872308904], [121.66153387415915, 30.034991861479376], [121.66171353721597, 30.034991861479376], [121.66171353721597, 30.034812198422554], [121.66243218944327, 30.034812198422554], [121.66243218944327, 30.034991861479376], [121.66261185250009, 30.034991861479376], [121.66261185250009, 30.035351187593026], [121.66243218944327, 30.035351187593026], [121.66243218944327, 30.03553085064985], [121.66225252638645, 30.03553085064985]]]}, "properties": {"name": "cand05", "ptype": "hall", "confidence": "low", "rank": 5, "area_ha": 6.4, "rise_db": 6.0, "digitised_from": "Sentinel-1 VV rise 2022->2026, orbit 171"}}, {"type": "Feature", "geometry": {"geodesic": false, "type": "Polygon", "coordinates": [[[121.65937791747727, 30.012893305490035], [121.65937791747727, 30.012713642433212], [121.65865926524997, 30.012713642433212], [121.65865926524997, 30.01253397937639], [121.65847960219314, 30.01253397937639], [121.65847960219314, 30.012354316319566], [121.6581202760795, 30.012354316319566], [121.6581202760795, 30.01217465326274], [121.65794061302267, 30.01217465326274], [121.65794061302267, 30.011994990205917], [121.65758128690902, 30.011994990205917], [121.65758128690902, 30.011815327149094], [121.65740162385221, 30.011815327149094], [121.65740162385221, 30.011456001035445], [121.65722196079538, 30.011456001035445], [121.65722196079538, 30.01127633797862], [121.65704229773856, 30.01127633797862], [121.65704229773856, 30.011456001035445], [121.65686263468173, 30.011456001035445], [121.65686263468173, 30.011815327149094], [121.65650330856808, 30.011815327149094], [121.65650330856808, 30.01163566409227], [121.65614398245444, 30.01163566409227], [121.65614398245444, 30.011456001035445], [121.65596431939761, 30.011456001035445], [121.65596431939761, 30.01127633797862], [121.65560499328396, 30.01127633797862], [121.65560499328396, 30.0110966749218], [121.65542533022715, 30.0110966749218], [121.65542533022715, 30.01073734880815], [121.65560499328396, 30.01073734880815], [121.65560499328396, 30.010557685751326], [121.65578465634078, 30.010557685751326], [121.65578465634078, 30.010378022694503], [121.65614398245444, 30.010378022694503], [121.65614398245444, 30.010198359637677], [121.65650330856808, 30.010198359637677], [121.65650330856808, 30.010378022694503], [121.65686263468173, 30.010378022694503], [121.65686263468173, 30.010198359637677], [121.65704229773856, 30.010198359637677], [121.65704229773856, 30.010018696580854], [121.65740162385221, 30.010018696580854], [121.65740162385221, 30.010198359637677], [121.65758128690902, 30.010198359637677], [121.65758128690902, 30.010378022694503], [121.65776094996585, 30.010378022694503], [121.65776094996585, 30.010557685751326], [121.6581202760795, 30.010557685751326], [121.6581202760795, 30.010917011864972], [121.65776094996585, 30.010917011864972], [121.65776094996585, 30.01127633797862], [121.65794061302267, 30.01127633797862], [121.65794061302267, 30.011456001035445], [121.65829993913633, 30.011456001035445], [121.65829993913633, 30.01163566409227], [121.65847960219314, 30.01163566409227], [121.65847960219314, 30.011815327149094], [121.65865926524997, 30.011815327149094], [121.65865926524997, 30.011994990205917], [121.65883892830679, 30.011994990205917], [121.65883892830679, 30.011815327149094], [121.65955758053408, 30.011815327149094], [121.65955758053408, 30.011994990205917], [121.65973724359091, 30.011994990205917], [121.65973724359091, 30.012713642433212], [121.65955758053408, 30.012713642433212], [121.65955758053408, 30.012893305490035], [121.65937791747727, 30.012893305490035]]]}, "properties": {"name": "cand06", "ptype": "hall", "confidence": "low", "rank": 6, "area_ha": 5.7, "rise_db": 7.7, "digitised_from": "Sentinel-1 VV rise 2022->2026, orbit 171"}}, {"type": "Feature", "geometry": {"geodesic": false, "type": "Polygon", "coordinates": [[[121.65614398245444, 30.028703654490542], [121.65614398245444, 30.028523991433715], [121.65596431939761, 30.028523991433715], [121.65596431939761, 30.028344328376892], [121.65542533022715, 30.028344328376892], [121.65542533022715, 30.028523991433715], [121.65524566717032, 30.028523991433715], [121.65524566717032, 30.028703654490542], [121.65452701494301, 30.028703654490542], [121.65452701494301, 30.028523991433715], [121.6543473518862, 30.028523991433715], [121.6543473518862, 30.02816466532007], [121.65416768882938, 30.02816466532007], [121.65416768882938, 30.027625676149597], [121.6543473518862, 30.027625676149597], [121.6543473518862, 30.027446013092774], [121.65452701494301, 30.027446013092774], [121.65452701494301, 30.027266350035948], [121.65470667799984, 30.027266350035948], [121.65470667799984, 30.027086686979125], [121.65488634105667, 30.027086686979125], [121.65488634105667, 30.026907023922302], [121.65524566717032, 30.026907023922302], [121.65524566717032, 30.027086686979125], [121.65542533022715, 30.027086686979125], [121.65542533022715, 30.027266350035948], [121.65560499328396, 30.027266350035948], [121.65560499328396, 30.027446013092774], [121.65578465634078, 30.027446013092774], [121.65578465634078, 30.027625676149597], [121.65632364551126, 30.027625676149597], [121.65632364551126, 30.02780533920642], [121.65650330856808, 30.02780533920642], [121.65650330856808, 30.02816466532007], [121.6566829716249, 30.02816466532007], [121.6566829716249, 30.028523991433715], [121.65650330856808, 30.028523991433715], [121.65650330856808, 30.028703654490542], [121.65614398245444, 30.028703654490542]]]}, "properties": {"name": "cand07", "ptype": "hall", "confidence": "low", "rank": 7, "area_ha": 3.5, "rise_db": 9.6, "digitised_from": "Sentinel-1 VV rise 2022->2026, orbit 171"}}, {"type": "Feature", "geometry": {"geodesic": false, "type": "Polygon", "coordinates": [[[121.62793688253308, 30.007862739898968], [121.62793688253308, 30.00750341378532], [121.62775721947627, 30.00750341378532], [121.62775721947627, 30.007323750728496], [121.62757755641944, 30.007323750728496], [121.62757755641944, 30.0066050985012], [121.62775721947627, 30.0066050985012], [121.62775721947627, 30.006425435444378], [121.62793688253308, 30.006425435444378], [121.62793688253308, 30.006066109330728], [121.62775721947627, 30.006066109330728], [121.62775721947627, 30.005886446273905], [121.62757755641944, 30.005886446273905], [121.62757755641944, 30.00480846793296], [121.62829620864673, 30.00480846793296], [121.62829620864673, 30.004988130989783], [121.62847587170356, 30.004988130989783], [121.62847587170356, 30.005347457103433], [121.62865553476038, 30.005347457103433], [121.62865553476038, 30.00570678321708], [121.6288351978172, 30.00570678321708], [121.6288351978172, 30.005886446273905], [121.62919452393085, 30.005886446273905], [121.62919452393085, 30.00624577238755], [121.62901486087402, 30.00624577238755], [121.62901486087402, 30.006425435444378], [121.6288351978172, 30.006425435444378], [121.6288351978172, 30.0066050985012], [121.62865553476038, 30.0066050985012], [121.62865553476038, 30.006784761558023], [121.62847587170356, 30.006784761558023], [121.62847587170356, 30.006964424614846], [121.62829620864673, 30.006964424614846], [121.62829620864673, 30.007144087671673], [121.6281165455899, 30.007144087671673], [121.6281165455899, 30.00750341378532], [121.62829620864673, 30.00750341378532], [121.62829620864673, 30.007683076842145], [121.62847587170356, 30.007683076842145], [121.62847587170356, 30.007862739898968], [121.62793688253308, 30.007862739898968]]]}, "properties": {"name": "cand08", "ptype": "hall", "confidence": "low", "rank": 8, "area_ha": 3.4, "rise_db": 11.2, "digitised_from": "Sentinel-1 VV rise 2022->2026, orbit 171"}}, {"type": "Feature", "geometry": {"geodesic": false, "type": "Polygon", "coordinates": [[[121.6581202760795, 30.00570678321708], [121.6581202760795, 30.005527120160256], [121.65794061302267, 30.005527120160256], [121.65794061302267, 30.005347457103433], [121.65740162385221, 30.005347457103433], [121.65740162385221, 30.00516779404661], [121.65722196079538, 30.00516779404661], [121.65722196079538, 30.004988130989783], [121.65686263468173, 30.004988130989783], [121.65686263468173, 30.00480846793296], [121.6566829716249, 30.00480846793296], [121.6566829716249, 30.004089815705665], [121.65686263468173, 30.004089815705665], [121.65686263468173, 30.003910152648842], [121.65704229773856, 30.003910152648842], [121.65704229773856, 30.004089815705665], [121.65722196079538, 30.004089815705665], [121.65722196079538, 30.004269478762488], [121.65758128690902, 30.004269478762488], [121.65758128690902, 30.004449141819315], [121.65776094996585, 30.004449141819315], [121.65776094996585, 30.004628804876138], [121.65794061302267, 30.004628804876138], [121.65794061302267, 30.00480846793296], [121.65829993913633, 30.00480846793296], [121.65829993913633, 30.004988130989783], [121.65865926524997, 30.004988130989783], [121.65865926524997, 30.00516779404661], [121.65919825442045, 30.00516779404661], [121.65919825442045, 30.004988130989783], [121.65955758053408, 30.004988130989783], [121.65955758053408, 30.00480846793296], [121.65973724359091, 30.00480846793296], [121.65973724359091, 30.004628804876138], [121.65991690664774, 30.004628804876138], [121.65991690664774, 30.004449141819315], [121.66027623276139, 30.004449141819315], [121.66027623276139, 30.00480846793296], [121.66009656970456, 30.00480846793296], [121.66009656970456, 30.004988130989783], [121.65955758053408, 30.004988130989783], [121.65955758053408, 30.005347457103433], [121.65937791747727, 30.005347457103433], [121.65937791747727, 30.005527120160256], [121.65919825442045, 30.005527120160256], [121.65919825442045, 30.005347457103433], [121.65901859136362, 30.005347457103433], [121.65901859136362, 30.005527120160256], [121.65865926524997, 30.005527120160256], [121.65865926524997, 30.00570678321708], [121.6581202760795, 30.00570678321708]]]}, "properties": {"name": "cand09", "ptype": "hall", "confidence": "low", "rank": 9, "area_ha": 2.8, "rise_db": 6.2, "digitised_from": "Sentinel-1 VV rise 2022->2026, orbit 171"}}, {"type": "Feature", "geometry": {"geodesic": false, "type": "Polygon", "coordinates": [[[121.63548273091969, 30.004988130989783], [121.63548273091969, 30.00480846793296], [121.63530306786286, 30.00480846793296], [121.63530306786286, 30.004628804876138], [121.63512340480604, 30.004628804876138], [121.63512340480604, 30.004449141819315], [121.63476407869238, 30.004449141819315], [121.63476407869238, 30.004269478762488], [121.63440475257875, 30.004269478762488], [121.63440475257875, 30.004089815705665], [121.6340454264651, 30.004089815705665], [121.6340454264651, 30.003910152648842], [121.63422508952192, 30.003910152648842], [121.63422508952192, 30.003550826535193], [121.63440475257875, 30.003550826535193], [121.63440475257875, 30.00337116347837], [121.63458441563557, 30.00337116347837], [121.63458441563557, 30.003191500421547], [121.63476407869238, 30.003191500421547], [121.63476407869238, 30.00301183736472], [121.63494374174921, 30.00301183736472], [121.63494374174921, 30.002832174307898], [121.63512340480604, 30.002832174307898], [121.63512340480604, 30.00301183736472], [121.63548273091969, 30.00301183736472], [121.63548273091969, 30.00337116347837], [121.63566239397652, 30.00337116347837], [121.63566239397652, 30.003730489592016], [121.63584205703333, 30.003730489592016], [121.63584205703333, 30.004628804876138], [121.63602172009016, 30.004628804876138], [121.63602172009016, 30.004988130989783], [121.63548273091969, 30.004988130989783]]]}, "properties": {"name": "cand10", "ptype": "hall", "confidence": "low", "rank": 10, "area_ha": 2.8, "rise_db": 6.3, "digitised_from": "Sentinel-1 VV rise 2022->2026, orbit 171"}}, {"type": "Feature", "geometry": {"geodesic": false, "type": "Polygon", "coordinates": [[[121.66297117861374, 30.0110966749218], [121.66297117861374, 30.010917011864972], [121.66279151555692, 30.010917011864972], [121.66279151555692, 30.01073734880815], [121.66297117861374, 30.01073734880815], [121.66297117861374, 30.010378022694503], [121.66315084167057, 30.010378022694503], [121.66315084167057, 30.010198359637677], [121.6633305047274, 30.010198359637677], [121.6633305047274, 30.00983903352403], [121.66351016778421, 30.00983903352403], [121.66351016778421, 30.009659370467208], [121.66422882001152, 30.009659370467208], [121.66422882001152, 30.00947970741038], [121.66440848306834, 30.00947970741038], [121.66440848306834, 30.00894071823991], [121.66458814612515, 30.00894071823991], [121.66458814612515, 30.008761055183086], [121.66476780918198, 30.008761055183086], [121.66476780918198, 30.00894071823991], [121.66494747223881, 30.00894071823991], [121.66494747223881, 30.00930004435356], [121.66476780918198, 30.00930004435356], [121.66476780918198, 30.009659370467208], [121.66458814612515, 30.009659370467208], [121.66458814612515, 30.00983903352403], [121.66476780918198, 30.00983903352403], [121.66476780918198, 30.010198359637677], [121.66458814612515, 30.010198359637677], [121.66458814612515, 30.010378022694503], [121.66404915695469, 30.010378022694503], [121.66404915695469, 30.010557685751326], [121.66386949389786, 30.010557685751326], [121.66386949389786, 30.01073734880815], [121.66368983084104, 30.01073734880815], [121.66368983084104, 30.010917011864972], [121.66351016778421, 30.010917011864972], [121.66351016778421, 30.0110966749218], [121.66297117861374, 30.0110966749218]]]}, "properties": {"name": "cand11", "ptype": "hall", "confidence": "low", "rank": 11, "area_ha": 2.4, "rise_db": 5.6, "digitised_from": "Sentinel-1 VV rise 2022->2026, orbit 171"}}, {"type": "Feature", "geometry": {"geodesic": false, "type": "Polygon", "coordinates": [[[121.65255072131795, 29.994747336750823], [121.65255072131795, 29.994567673694], [121.65237105826114, 29.994567673694], [121.65237105826114, 29.994028684523528], [121.65201173214749, 29.994028684523528], [121.65201173214749, 29.9938490214667], [121.65147274297702, 29.9938490214667], [121.65147274297702, 29.99366935840988], [121.6512930799202, 29.99366935840988], [121.6512930799202, 29.993310032296232], [121.65147274297702, 29.993310032296232], [121.65147274297702, 29.993130369239406], [121.65183206909066, 29.993130369239406], [121.65183206909066, 29.992950706182583], [121.65237105826114, 29.992950706182583], [121.65237105826114, 29.993130369239406], [121.65255072131795, 29.993130369239406], [121.65255072131795, 29.993310032296232], [121.6529100474316, 29.993310032296232], [121.6529100474316, 29.993489695353055], [121.65308971048843, 29.993489695353055], [121.65308971048843, 29.994388010637174], [121.6529100474316, 29.994388010637174], [121.6529100474316, 29.994747336750823], [121.65255072131795, 29.994747336750823]]]}, "properties": {"name": "cand12", "ptype": "hall", "confidence": "low", "rank": 12, "area_ha": 2.2, "rise_db": 7.6, "digitised_from": "Sentinel-1 VV rise 2022->2026, orbit 171"}}, {"type": "Feature", "geometry": {"geodesic": false, "type": "Polygon", "coordinates": [[[121.65650330856808, 30.013791620774157], [121.65650330856808, 30.013611957717334], [121.65632364551126, 30.013611957717334], [121.65632364551126, 30.013432294660507], [121.65614398245444, 30.013432294660507], [121.65614398245444, 30.013252631603685], [121.65596431939761, 30.013252631603685], [121.65596431939761, 30.01307296854686], [121.65542533022715, 30.01307296854686], [121.65542533022715, 30.012893305490035], [121.6550660041135, 30.012893305490035], [121.6550660041135, 30.012713642433212], [121.65488634105667, 30.012713642433212], [121.65488634105667, 30.01217465326274], [121.65524566717032, 30.01217465326274], [121.65524566717032, 30.012354316319566], [121.65560499328396, 30.012354316319566], [121.65560499328396, 30.01217465326274], [121.65578465634078, 30.01217465326274], [121.65578465634078, 30.011994990205917], [121.65596431939761, 30.011994990205917], [121.65596431939761, 30.01217465326274], [121.65614398245444, 30.01217465326274], [121.65614398245444, 30.012354316319566], [121.65596431939761, 30.012354316319566], [121.65596431939761, 30.012713642433212], [121.65650330856808, 30.012713642433212], [121.65650330856808, 30.012893305490035], [121.6566829716249, 30.012893305490035], [121.6566829716249, 30.01307296854686], [121.65704229773856, 30.01307296854686], [121.65704229773856, 30.013791620774157], [121.65650330856808, 30.013791620774157]]]}, "properties": {"name": "cand13", "ptype": "hall", "confidence": "low", "rank": 13, "area_ha": 2.0, "rise_db": 6.6, "digitised_from": "Sentinel-1 VV rise 2022->2026, orbit 171"}}, {"type": "Feature", "geometry": {"geodesic": false, "type": "Polygon", "coordinates": [[[121.66279151555692, 30.00193385902378], [121.66279151555692, 30.001754195966953], [121.6618932002728, 30.001754195966953], [121.6618932002728, 30.001035543739658], [121.66207286332963, 30.001035543739658], [121.66207286332963, 30.00049655456919], [121.6618932002728, 30.00049655456919], [121.6618932002728, 30.00013722845554], [121.66171353721597, 30.00013722845554], [121.66171353721597, 29.999957565398716], [121.6618932002728, 29.999957565398716], [121.6618932002728, 29.99977790234189], [121.66207286332963, 29.99977790234189], [121.66207286332963, 29.999957565398716], [121.66225252638645, 29.999957565398716], [121.66225252638645, 30.00013722845554], [121.66243218944327, 30.00013722845554], [121.66243218944327, 30.00049655456919], [121.66225252638645, 30.00049655456919], [121.66225252638645, 30.000855880682835], [121.66297117861374, 30.000855880682835], [121.66297117861374, 30.001035543739658], [121.66315084167057, 30.001035543739658], [121.66315084167057, 30.001215206796484], [121.6633305047274, 30.001215206796484], [121.6633305047274, 30.001754195966953], [121.66315084167057, 30.001754195966953], [121.66315084167057, 30.00193385902378], [121.66279151555692, 30.00193385902378]]]}, "properties": {"name": "cand14", "ptype": "hall", "confidence": "low", "rank": 14, "area_ha": 2.0, "rise_db": 8.2, "digitised_from": "Sentinel-1 VV rise 2022->2026, orbit 171"}}, {"type": "Feature", "geometry": {"geodesic": false, "type": "Polygon", "coordinates": [[[121.64644217738595, 30.016127240512866], [121.64644217738595, 30.015947577456043], [121.64626251432912, 30.015947577456043], [121.64626251432912, 30.01576791439922], [121.6460828512723, 30.01576791439922], [121.6460828512723, 30.015228925228747], [121.64662184044276, 30.015228925228747], [121.64662184044276, 30.015049262171924], [121.64680150349959, 30.015049262171924], [121.64680150349959, 30.014869599115098], [121.64716082961324, 30.014869599115098], [121.64716082961324, 30.015049262171924], [121.6476998187837, 30.015049262171924], [121.6476998187837, 30.014869599115098], [121.64787948184053, 30.014869599115098], [121.64787948184053, 30.015588251342397], [121.64734049267007, 30.015588251342397], [121.64734049267007, 30.01576791439922], [121.64716082961324, 30.01576791439922], [121.64716082961324, 30.015947577456043], [121.64698116655642, 30.015947577456043], [121.64698116655642, 30.016127240512866], [121.64644217738595, 30.016127240512866]]]}, "properties": {"name": "cand15", "ptype": "hall", "confidence": "low", "rank": 15, "area_ha": 1.8, "rise_db": 5.7, "digitised_from": "Sentinel-1 VV rise 2022->2026, orbit 171"}}, {"type": "Feature", "geometry": {"geodesic": false, "type": "Polygon", "coordinates": [[[121.70285637722866, 29.989896434216575], [121.70285637722866, 29.988818455875634], [121.70267671417183, 29.988818455875634], [121.70267671417183, 29.988279466705162], [121.702497051115, 29.988279466705162], [121.702497051115, 29.98774047753469], [121.70357502945595, 29.98774047753469], [121.70357502945595, 29.987920140591513], [121.70375469251277, 29.987920140591513], [121.70375469251277, 29.98809980364834], [121.70411401862641, 29.98809980364834], [121.70411401862641, 29.988459129761985], [121.70357502945595, 29.988459129761985], [121.70357502945595, 29.988279466705162], [121.7032157033423, 29.988279466705162], [121.7032157033423, 29.988638792818808], [121.70303604028547, 29.988638792818808], [121.70303604028547, 29.989357445046107], [121.7032157033423, 29.989357445046107], [121.7032157033423, 29.98953710810293], [121.70339536639912, 29.98953710810293], [121.70339536639912, 29.989896434216575], [121.70285637722866, 29.989896434216575]]]}, "properties": {"name": "cand16", "ptype": "hall", "confidence": "low", "rank": 16, "area_ha": 1.8, "rise_db": 6.4, "digitised_from": "Sentinel-1 VV rise 2022->2026, orbit 171"}}, {"type": "Feature", "geometry": {"geodesic": false, "type": "Polygon", "coordinates": [[[121.66009656970456, 30.0351715245362], [121.66009656970456, 30.034991861479376], [121.65973724359091, 30.034991861479376], [121.65973724359091, 30.034812198422554], [121.65937791747727, 30.034812198422554], [121.65937791747727, 30.03463253536573], [121.65901859136362, 30.03463253536573], [121.65901859136362, 30.033554557024786], [121.65919825442045, 30.033554557024786], [121.65919825442045, 30.033374893967963], [121.65955758053408, 30.033374893967963], [121.65955758053408, 30.03427320925208], [121.65991690664774, 30.03427320925208], [121.65991690664774, 30.034452872308904], [121.66009656970456, 30.034452872308904], [121.66009656970456, 30.03463253536573], [121.66027623276139, 30.03463253536573], [121.66027623276139, 30.034812198422554], [121.6604558958182, 30.034812198422554], [121.6604558958182, 30.0351715245362], [121.66009656970456, 30.0351715245362]]]}, "properties": {"name": "cand17", "ptype": "hall", "confidence": "low", "rank": 17, "area_ha": 1.4, "rise_db": 5.6, "digitised_from": "Sentinel-1 VV rise 2022->2026, orbit 171"}}, {"type": "Feature", "geometry": {"geodesic": false, "type": "Polygon", "coordinates": [[[121.63063182838545, 30.009120381296736], [121.63063182838545, 30.00894071823991], [121.63045216532862, 30.00894071823991], [121.63045216532862, 30.008761055183086], [121.6302725022718, 30.008761055183086], [121.6302725022718, 30.008581392126263], [121.63009283921497, 30.008581392126263], [121.63009283921497, 30.00840172906944], [121.62991317615814, 30.00840172906944], [121.62991317615814, 30.00804240295579], [121.63009283921497, 30.00804240295579], [121.63009283921497, 30.007683076842145], [121.6302725022718, 30.007683076842145], [121.6302725022718, 30.00750341378532], [121.63045216532862, 30.00750341378532], [121.63045216532862, 30.007862739898968], [121.6302725022718, 30.007862739898968], [121.6302725022718, 30.008222066012614], [121.63045216532862, 30.008222066012614], [121.63045216532862, 30.00840172906944], [121.63081149144226, 30.00840172906944], [121.63081149144226, 30.008581392126263], [121.63117081755591, 30.008581392126263], [121.63117081755591, 30.008761055183086], [121.63153014366956, 30.008761055183086], [121.63153014366956, 30.00840172906944], [121.6318894697832, 30.00840172906944], [121.6318894697832, 30.008761055183086], [121.63170980672639, 30.008761055183086], [121.63170980672639, 30.00894071823991], [121.63153014366956, 30.00894071823991], [121.63153014366956, 30.009120381296736], [121.63063182838545, 30.009120381296736]]]}, "properties": {"name": "cand18", "ptype": "hall", "confidence": "low", "rank": 18, "area_ha": 1.4, "rise_db": 5.0, "digitised_from": "Sentinel-1 VV rise 2022->2026, orbit 171"}}, {"type": "Feature", "geometry": {"geodesic": false, "type": "Polygon", "coordinates": [[[121.65039476463608, 30.04631063405928], [121.65039476463608, 30.04613097100246], [121.65021510157925, 30.04613097100246], [121.65021510157925, 30.045951307945636], [121.65003543852242, 30.045951307945636], [121.65003543852242, 30.045771644888813], [121.65021510157925, 30.045771644888813], [121.65021510157925, 30.045591981831986], [121.65039476463608, 30.045591981831986], [121.65039476463608, 30.045412318775163], [121.65057442769289, 30.045412318775163], [121.65057442769289, 30.04523265571834], [121.65075409074971, 30.04523265571834], [121.65075409074971, 30.045412318775163], [121.65111341686337, 30.045412318775163], [121.65111341686337, 30.04523265571834], [121.65183206909066, 30.04523265571834], [121.65183206909066, 30.045771644888813], [121.65165240603383, 30.045771644888813], [121.65165240603383, 30.045951307945636], [121.6512930799202, 30.045951307945636], [121.6512930799202, 30.045771644888813], [121.65075409074971, 30.045771644888813], [121.65075409074971, 30.04631063405928], [121.65039476463608, 30.04631063405928]]]}, "properties": {"name": "cand19", "ptype": "hall", "confidence": "low", "rank": 19, "area_ha": 1.3, "rise_db": 5.5, "digitised_from": "Sentinel-1 VV rise 2022->2026, orbit 171"}}, {"type": "Feature", "geometry": {"geodesic": false, "type": "Polygon", "coordinates": [[[121.70411401862641, 29.989357445046107], [121.70411401862641, 29.988998118932457], [121.70447334474007, 29.988998118932457], [121.70447334474007, 29.988818455875634], [121.70483267085372, 29.988818455875634], [121.70483267085372, 29.988638792818808], [121.70465300779689, 29.988638792818808], [121.70465300779689, 29.98809980364834], [121.70537166002418, 29.98809980364834], [121.70537166002418, 29.987920140591513], [121.70555132308101, 29.987920140591513], [121.70555132308101, 29.988279466705162], [121.70573098613784, 29.988279466705162], [121.70573098613784, 29.988459129761985], [121.70555132308101, 29.988459129761985], [121.70555132308101, 29.988638792818808], [121.70537166002418, 29.988638792818808], [121.70537166002418, 29.988818455875634], [121.70519199696736, 29.988818455875634], [121.70519199696736, 29.988998118932457], [121.70501233391053, 29.988998118932457], [121.70501233391053, 29.98917778198928], [121.70465300779689, 29.98917778198928], [121.70465300779689, 29.989357445046107], [121.70411401862641, 29.989357445046107]]]}, "properties": {"name": "cand20", "ptype": "hall", "confidence": "low", "rank": 20, "area_ha": 1.3, "rise_db": 6.0, "digitised_from": "Sentinel-1 VV rise 2022->2026, orbit 171"}}, {"type": "Feature", "geometry": {"geodesic": false, "type": "Polygon", "coordinates": [[[121.66746275503434, 29.989716771159753], [121.66746275503434, 29.98953710810293], [121.6671034289207, 29.98953710810293], [121.6671034289207, 29.989716771159753], [121.66674410280704, 29.989716771159753], [121.66674410280704, 29.989357445046107], [121.66692376586387, 29.989357445046107], [121.66692376586387, 29.98917778198928], [121.6671034289207, 29.98917778198928], [121.6671034289207, 29.988998118932457], [121.66728309197752, 29.988998118932457], [121.66728309197752, 29.988818455875634], [121.66746275503434, 29.988818455875634], [121.66746275503434, 29.988638792818808], [121.66764241809116, 29.988638792818808], [121.66764241809116, 29.988459129761985], [121.66782208114799, 29.988459129761985], [121.66782208114799, 29.988279466705162], [121.66800174420482, 29.988279466705162], [121.66800174420482, 29.98809980364834], [121.66818140726164, 29.98809980364834], [121.66818140726164, 29.987920140591513], [121.66854073337528, 29.987920140591513], [121.66854073337528, 29.98809980364834], [121.66836107031847, 29.98809980364834], [121.66836107031847, 29.988279466705162], [121.66818140726164, 29.988279466705162], [121.66818140726164, 29.988638792818808], [121.66800174420482, 29.988638792818808], [121.66800174420482, 29.988818455875634], [121.66782208114799, 29.988818455875634], [121.66782208114799, 29.988998118932457], [121.66764241809116, 29.988998118932457], [121.66764241809116, 29.989357445046107], [121.66782208114799, 29.989357445046107], [121.66782208114799, 29.98953710810293], [121.66764241809116, 29.98953710810293], [121.66764241809116, 29.989716771159753], [121.66746275503434, 29.989716771159753]]]}, "properties": {"name": "cand21", "ptype": "hall", "confidence": "low", "rank": 21, "area_ha": 1.2, "rise_db": 5.5, "digitised_from": "Sentinel-1 VV rise 2022->2026, orbit 171"}}, {"type": "Feature", "geometry": {"geodesic": false, "type": "Polygon", "coordinates": [[[121.68992063713733, 30.00516779404661], [121.68992063713733, 30.004988130989783], [121.69010030019416, 30.004988130989783], [121.69010030019416, 30.004628804876138], [121.69027996325097, 30.004628804876138], [121.69027996325097, 30.004449141819315], [121.6904596263078, 30.004449141819315], [121.6904596263078, 30.004089815705665], [121.69063928936463, 30.004089815705665], [121.69063928936463, 30.003910152648842], [121.69081895242145, 30.003910152648842], [121.69081895242145, 30.003730489592016], [121.69099861547828, 30.003730489592016], [121.69099861547828, 30.00337116347837], [121.69117827853509, 30.00337116347837], [121.69117827853509, 30.003191500421547], [121.69135794159192, 30.003191500421547], [121.69135794159192, 30.002832174307898], [121.69153760464874, 30.002832174307898], [121.69153760464874, 30.002652511251075], [121.69171726770557, 30.002652511251075], [121.69171726770557, 30.00247284819425], [121.69207659381922, 30.00247284819425], [121.69207659381922, 30.002832174307898], [121.6918969307624, 30.002832174307898], [121.6918969307624, 30.00301183736472], [121.69153760464874, 30.00301183736472], [121.69153760464874, 30.003550826535193], [121.69135794159192, 30.003550826535193], [121.69135794159192, 30.003730489592016], [121.69099861547828, 30.003730489592016], [121.69099861547828, 30.004269478762488], [121.69081895242145, 30.004269478762488], [121.69081895242145, 30.004449141819315], [121.69063928936463, 30.004449141819315], [121.69063928936463, 30.004628804876138], [121.6904596263078, 30.004628804876138], [121.6904596263078, 30.004988130989783], [121.69010030019416, 30.004988130989783], [121.69010030019416, 30.00516779404661], [121.68992063713733, 30.00516779404661]]]}, "properties": {"name": "cand22", "ptype": "hall", "confidence": "low", "rank": 22, "area_ha": 1.2, "rise_db": 8.5, "digitised_from": "Sentinel-1 VV rise 2022->2026, orbit 171"}}, {"type": "Feature", "geometry": {"geodesic": false, "type": "Polygon", "coordinates": [[[121.6671034289207, 30.030679948115605], [121.6671034289207, 30.030140958945132], [121.66728309197752, 30.030140958945132], [121.66728309197752, 30.029422306717837], [121.66746275503434, 30.029422306717837], [121.66746275503434, 30.02924264366101], [121.66800174420482, 30.02924264366101], [121.66800174420482, 30.029422306717837], [121.66818140726164, 30.029422306717837], [121.66818140726164, 30.029781632831483], [121.66800174420482, 30.029781632831483], [121.66800174420482, 30.029961295888306], [121.66782208114799, 30.029961295888306], [121.66782208114799, 30.030320622001955], [121.66764241809116, 30.030320622001955], [121.66764241809116, 30.030679948115605], [121.6671034289207, 30.030679948115605]]]}, "properties": {"name": "cand23", "ptype": "hall", "confidence": "low", "rank": 23, "area_ha": 1.2, "rise_db": 6.1, "digitised_from": "Sentinel-1 VV rise 2022->2026, orbit 171"}}, {"type": "Feature", "geometry": {"geodesic": false, "type": "Polygon", "coordinates": [[[121.6581202760795, 30.040022427070447], [121.6581202760795, 30.03984276401362], [121.65794061302267, 30.03984276401362], [121.65794061302267, 30.039124111786325], [121.6581202760795, 30.039124111786325], [121.6581202760795, 30.038944448729502], [121.65829993913633, 30.038944448729502], [121.65829993913633, 30.03876478567268], [121.65865926524997, 30.03876478567268], [121.65865926524997, 30.038944448729502], [121.65883892830679, 30.038944448729502], [121.65883892830679, 30.039124111786325], [121.65901859136362, 30.039124111786325], [121.65901859136362, 30.039663100956798], [121.65865926524997, 30.039663100956798], [121.65865926524997, 30.03984276401362], [121.65847960219314, 30.03984276401362], [121.65847960219314, 30.040022427070447], [121.6581202760795, 30.040022427070447]]]}, "properties": {"name": "cand24", "ptype": "hall", "confidence": "low", "rank": 24, "area_ha": 1.2, "rise_db": 10.1, "digitised_from": "Sentinel-1 VV rise 2022->2026, orbit 171"}}, {"type": "Feature", "geometry": {"geodesic": false, "type": "Polygon", "coordinates": [[[121.65488634105667, 30.006425435444378], [121.65488634105667, 30.00624577238755], [121.65470667799984, 30.00624577238755], [121.65470667799984, 30.006066109330728], [121.65452701494301, 30.006066109330728], [121.65452701494301, 30.005886446273905], [121.65470667799984, 30.005886446273905], [121.65470667799984, 30.00570678321708], [121.6550660041135, 30.00570678321708], [121.6550660041135, 30.005527120160256], [121.65524566717032, 30.005527120160256], [121.65524566717032, 30.005347457103433], [121.65578465634078, 30.005347457103433], [121.65578465634078, 30.00570678321708], [121.65596431939761, 30.00570678321708], [121.65596431939761, 30.005886446273905], [121.65578465634078, 30.005886446273905], [121.65578465634078, 30.006066109330728], [121.65560499328396, 30.006066109330728], [121.65560499328396, 30.00624577238755], [121.65542533022715, 30.00624577238755], [121.65542533022715, 30.006425435444378], [121.65488634105667, 30.006425435444378]]]}, "properties": {"name": "cand25", "ptype": "hall", "confidence": "low", "rank": 25, "area_ha": 1.2, "rise_db": 9.0, "digitised_from": "Sentinel-1 VV rise 2022->2026, orbit 171"}}, {"type": "Feature", "geometry": {"geodesic": false, "type": "Polygon", "coordinates": [[[121.67321197285271, 30.01127633797862], [121.67321197285271, 30.0110966749218], [121.67303230979589, 30.0110966749218], [121.67303230979589, 30.010917011864972], [121.67285264673906, 30.010917011864972], [121.67285264673906, 30.01073734880815], [121.6724933206254, 30.01073734880815], [121.6724933206254, 30.010917011864972], [121.6723136575686, 30.010917011864972], [121.6723136575686, 30.01073734880815], [121.67195433145494, 30.01073734880815], [121.67195433145494, 30.010557685751326], [121.67213399451177, 30.010557685751326], [121.67213399451177, 30.010198359637677], [121.67195433145494, 30.010198359637677], [121.67195433145494, 30.010378022694503], [121.67177466839811, 30.010378022694503], [121.67177466839811, 30.010018696580854], [121.67213399451177, 30.010018696580854], [121.67213399451177, 30.00983903352403], [121.6724933206254, 30.00983903352403], [121.6724933206254, 30.010018696580854], [121.6723136575686, 30.010018696580854], [121.6723136575686, 30.010198359637677], [121.67267298368223, 30.010198359637677], [121.67267298368223, 30.010378022694503], [121.67303230979589, 30.010378022694503], [121.67303230979589, 30.010018696580854], [121.67321197285271, 30.010018696580854], [121.67321197285271, 30.010378022694503], [121.67303230979589, 30.010378022694503], [121.67303230979589, 30.010557685751326], [121.67285264673906, 30.010557685751326], [121.67285264673906, 30.01073734880815], [121.67321197285271, 30.01073734880815], [121.67321197285271, 30.0110966749218], [121.67375096202318, 30.0110966749218], [121.67375096202318, 30.01127633797862], [121.67321197285271, 30.01127633797862]]]}, "properties": {"name": "cand26", "ptype": "hall", "confidence": "low", "rank": 26, "area_ha": 1.1, "rise_db": 4.4, "digitised_from": "Sentinel-1 VV rise 2022->2026, orbit 171"}}, {"type": "Feature", "geometry": {"geodesic": false, "type": "Polygon", "coordinates": [[[121.63045216532862, 30.006784761558023], [121.63045216532862, 30.0066050985012], [121.63009283921497, 30.0066050985012], [121.63009283921497, 30.00624577238755], [121.62991317615814, 30.00624577238755], [121.62991317615814, 30.006066109330728], [121.63009283921497, 30.006066109330728], [121.63009283921497, 30.005886446273905], [121.6302725022718, 30.005886446273905], [121.6302725022718, 30.005347457103433], [121.63063182838545, 30.005347457103433], [121.63063182838545, 30.005527120160256], [121.63081149144226, 30.005527120160256], [121.63081149144226, 30.005886446273905], [121.63099115449909, 30.005886446273905], [121.63099115449909, 30.006066109330728], [121.63081149144226, 30.006066109330728], [121.63081149144226, 30.0066050985012], [121.63063182838545, 30.0066050985012], [121.63063182838545, 30.006784761558023], [121.63045216532862, 30.006784761558023]], [[121.63045216532862, 30.006066109330728], [121.6302725022718, 30.006066109330728], [121.6302725022718, 30.005886446273905], [121.63045216532862, 30.005886446273905], [121.63045216532862, 30.006066109330728]]]}, "properties": {"name": "cand27", "ptype": "hall", "confidence": "low", "rank": 27, "area_ha": 1.0, "rise_db": 5.1, "digitised_from": "Sentinel-1 VV rise 2022->2026, orbit 171"}}]}