{"type": "FeatureCollection", "features": [{"type": "Feature", "geometry": {"geodesic": false, "type": "Polygon", "coordinates": [[[102.81362157193382, 27.704223025302866], [102.81362157193382, 27.703863699189217], [102.813441908877, 27.703863699189217], [102.813441908877, 27.70350437307557], [102.81326224582018, 27.70350437307557], [102.81326224582018, 27.7029653839051], [102.813441908877, 27.7029653839051], [102.813441908877, 27.702785720848276], [102.81380123499065, 27.702785720848276], [102.81380123499065, 27.702606057791453], [102.81398089804748, 27.702606057791453], [102.81398089804748, 27.702246731677803], [102.81380123499065, 27.702246731677803], [102.81380123499065, 27.70170774250733], [102.813441908877, 27.70170774250733], [102.813441908877, 27.701528079450508], [102.81326224582018, 27.701528079450508], [102.81326224582018, 27.701348416393685], [102.81308258276336, 27.701348416393685], [102.81308258276336, 27.70116875333686], [102.81254359359288, 27.70116875333686], [102.81254359359288, 27.700809427223213], [102.8127232566497, 27.700809427223213], [102.8127232566497, 27.70062976416639], [102.81308258276336, 27.70062976416639], [102.81308258276336, 27.700809427223213], [102.81326224582018, 27.700809427223213], [102.81326224582018, 27.700989090280036], [102.81362157193382, 27.700989090280036], [102.81362157193382, 27.700450101109563], [102.81398089804748, 27.700450101109563], [102.81398089804748, 27.70062976416639], [102.8141605611043, 27.70062976416639], [102.8141605611043, 27.700809427223213], [102.81434022416111, 27.700809427223213], [102.81434022416111, 27.700989090280036], [102.8141605611043, 27.700989090280036], [102.8141605611043, 27.70170774250733], [102.81434022416111, 27.70170774250733], [102.81434022416111, 27.702246731677803], [102.81451988721794, 27.702246731677803], [102.81451988721794, 27.702426394734626], [102.81469955027477, 27.702426394734626], [102.81469955027477, 27.702606057791453], [102.8148792133316, 27.702606057791453], [102.8148792133316, 27.7029653839051], [102.81505887638842, 27.7029653839051], [102.81505887638842, 27.70350437307557], [102.8148792133316, 27.70350437307557], [102.8148792133316, 27.703684036132394], [102.81451988721794, 27.703684036132394], [102.81451988721794, 27.703863699189217], [102.8141605611043, 27.703863699189217], [102.8141605611043, 27.704043362246043], [102.81380123499065, 27.704043362246043], [102.81380123499065, 27.704223025302866], [102.81362157193382, 27.704223025302866]]]}, "properties": {"name": "cand01", "ptype": "hall", "confidence": "low", "rank": 1, "area_ha": 4.7, "rise_db": 8.4, "digitised_from": "Sentinel-1 VV rise 2022->2026, orbit 62"}}, {"type": "Feature", "geometry": {"geodesic": false, "type": "Polygon", "coordinates": [[[102.8021231362971, 27.722368994042082], [102.8021231362971, 27.722009667928432], [102.80194347324027, 27.722009667928432], [102.80194347324027, 27.72183000487161], [102.80104515795615, 27.72183000487161], [102.80104515795615, 27.721650341814787], [102.8006858318425, 27.721650341814787], [102.8006858318425, 27.72147067875796], [102.80050616878567, 27.72147067875796], [102.80050616878567, 27.721291015701137], [102.8006858318425, 27.721291015701137], [102.8006858318425, 27.721111352644314], [102.80104515795615, 27.721111352644314], [102.80104515795615, 27.721291015701137], [102.80122482101298, 27.721291015701137], [102.80122482101298, 27.721111352644314], [102.8014044840698, 27.721111352644314], [102.8014044840698, 27.720931689587488], [102.80158414712662, 27.720931689587488], [102.80158414712662, 27.720752026530665], [102.80266212546756, 27.720752026530665], [102.80266212546756, 27.721111352644314], [102.80320111463804, 27.721111352644314], [102.80320111463804, 27.721291015701137], [102.80338077769487, 27.721291015701137], [102.80338077769487, 27.721650341814787], [102.80320111463804, 27.721650341814787], [102.80320111463804, 27.72183000487161], [102.80266212546756, 27.72183000487161], [102.80266212546756, 27.722009667928432], [102.80248246241074, 27.722009667928432], [102.80248246241074, 27.722189330985255], [102.80230279935392, 27.722189330985255], [102.80230279935392, 27.722368994042082], [102.8021231362971, 27.722368994042082]], [[102.80266212546756, 27.72147067875796], [102.80230279935392, 27.72147067875796], [102.80230279935392, 27.721291015701137], [102.80248246241074, 27.721291015701137], [102.80248246241074, 27.721111352644314], [102.80266212546756, 27.721111352644314], [102.80266212546756, 27.72147067875796]]]}, "properties": {"name": "cand02", "ptype": "hall", "confidence": "low", "rank": 2, "area_ha": 2.9, "rise_db": 6.6, "digitised_from": "Sentinel-1 VV rise 2022->2026, orbit 62"}}, {"type": "Feature", "geometry": {"geodesic": false, "type": "Polygon", "coordinates": [[[102.77463468860304, 27.7277588857468], [102.77463468860304, 27.727579222689975], [102.77445502554622, 27.727579222689975], [102.77445502554622, 27.72739955963315], [102.77427536248939, 27.72739955963315], [102.77427536248939, 27.727040233519503], [102.7735567102621, 27.727040233519503], [102.7735567102621, 27.72686057046268], [102.77337704720527, 27.72686057046268], [102.77337704720527, 27.72650124434903], [102.7735567102621, 27.72650124434903], [102.7735567102621, 27.726321581292208], [102.77427536248939, 27.726321581292208], [102.77427536248939, 27.72650124434903], [102.77499401471668, 27.72650124434903], [102.77499401471668, 27.726321581292208], [102.7758923300008, 27.726321581292208], [102.7758923300008, 27.72650124434903], [102.77607199305763, 27.72650124434903], [102.77607199305763, 27.726680907405854], [102.77625165611445, 27.726680907405854], [102.77625165611445, 27.727040233519503], [102.77607199305763, 27.727040233519503], [102.77607199305763, 27.727219896576326], [102.77499401471668, 27.727219896576326], [102.77499401471668, 27.727579222689975], [102.77481435165986, 27.727579222689975], [102.77481435165986, 27.7277588857468], [102.77463468860304, 27.7277588857468]]]}, "properties": {"name": "cand03", "ptype": "hall", "confidence": "low", "rank": 3, "area_ha": 2.9, "rise_db": 6.0, "digitised_from": "Sentinel-1 VV rise 2022->2026, orbit 62"}}, {"type": "Feature", "geometry": {"geodesic": false, "type": "Polygon", "coordinates": [[[102.78505514589882, 27.722009667928432], [102.78505514589882, 27.72183000487161], [102.784875482842, 27.72183000487161], [102.784875482842, 27.721650341814787], [102.78451615672836, 27.721650341814787], [102.78451615672836, 27.72039270041702], [102.78469581978517, 27.72039270041702], [102.78469581978517, 27.720213037360192], [102.78523480895565, 27.720213037360192], [102.78523480895565, 27.72003337430337], [102.78541447201248, 27.72003337430337], [102.78541447201248, 27.720213037360192], [102.7855941350693, 27.720213037360192], [102.7855941350693, 27.72003337430337], [102.78595346118294, 27.72003337430337], [102.78595346118294, 27.720213037360192], [102.78613312423977, 27.720213037360192], [102.78613312423977, 27.72039270041702], [102.78595346118294, 27.72039270041702], [102.78595346118294, 27.720572363473842], [102.78613312423977, 27.720572363473842], [102.78613312423977, 27.720752026530665], [102.78667211341023, 27.720752026530665], [102.78667211341023, 27.720931689587488], [102.78649245035342, 27.720931689587488], [102.78649245035342, 27.721111352644314], [102.78613312423977, 27.721111352644314], [102.78613312423977, 27.721291015701137], [102.78595346118294, 27.721291015701137], [102.78595346118294, 27.72147067875796], [102.78577379812612, 27.72147067875796], [102.78577379812612, 27.721650341814787], [102.7855941350693, 27.721650341814787], [102.7855941350693, 27.72183000487161], [102.78541447201248, 27.72183000487161], [102.78541447201248, 27.722009667928432], [102.78505514589882, 27.722009667928432]], [[102.78541447201248, 27.721291015701137], [102.784875482842, 27.721291015701137], [102.784875482842, 27.721111352644314], [102.78469581978517, 27.721111352644314], [102.78469581978517, 27.720931689587488], [102.784875482842, 27.720931689587488], [102.784875482842, 27.720572363473842], [102.78523480895565, 27.720572363473842], [102.78523480895565, 27.720931689587488], [102.78541447201248, 27.720931689587488], [102.78541447201248, 27.721291015701137]]]}, "properties": {"name": "cand04", "ptype": "hall", "confidence": "low", "rank": 4, "area_ha": 2.8, "rise_db": 7.3, "digitised_from": "Sentinel-1 VV rise 2022->2026, orbit 62"}}, {"type": "Feature", "geometry": {"geodesic": false, "type": "Polygon", "coordinates": [[[102.80823168022911, 27.71859606984878], [102.80823168022911, 27.718057080678307], [102.80805201717229, 27.718057080678307], [102.80805201717229, 27.717877417621484], [102.80787235411546, 27.717877417621484], [102.80787235411546, 27.71769775456466], [102.80769269105863, 27.71769775456466], [102.80769269105863, 27.717518091507834], [102.80787235411546, 27.717518091507834], [102.80787235411546, 27.71733842845101], [102.80805201717229, 27.71733842845101], [102.80805201717229, 27.717518091507834], [102.80823168022911, 27.717518091507834], [102.80823168022911, 27.718057080678307], [102.8089503324564, 27.718057080678307], [102.8089503324564, 27.71769775456466], [102.80912999551323, 27.71769775456466], [102.80912999551323, 27.71679943928054], [102.80930965857006, 27.71679943928054], [102.80930965857006, 27.716440113166893], [102.80984864774052, 27.716440113166893], [102.80984864774052, 27.716619776223716], [102.81002831079735, 27.716619776223716], [102.81002831079735, 27.71679943928054], [102.80984864774052, 27.71679943928054], [102.80984864774052, 27.71733842845101], [102.81002831079735, 27.71733842845101], [102.81002831079735, 27.717518091507834], [102.80948932162687, 27.717518091507834], [102.80948932162687, 27.71769775456466], [102.80930965857006, 27.71769775456466], [102.80930965857006, 27.71823674373513], [102.80912999551323, 27.71823674373513], [102.80912999551323, 27.718416406791956], [102.8089503324564, 27.718416406791956], [102.8089503324564, 27.71859606984878], [102.80823168022911, 27.71859606984878]]]}, "properties": {"name": "cand05", "ptype": "hall", "confidence": "low", "rank": 5, "area_ha": 2.1, "rise_db": 5.1, "digitised_from": "Sentinel-1 VV rise 2022->2026, orbit 62"}}, {"type": "Feature", "geometry": {"geodesic": false, "type": "Polygon", "coordinates": [[[102.79349930956955, 27.710511232291704], [102.79349930956955, 27.710331569234878], [102.79331964651273, 27.710331569234878], [102.79331964651273, 27.710151906178055], [102.7931399834559, 27.710151906178055], [102.7931399834559, 27.709972243121232], [102.79331964651273, 27.709972243121232], [102.79331964651273, 27.70979258006441], [102.79367897262637, 27.70979258006441], [102.79367897262637, 27.709612917007583], [102.7938586356832, 27.709612917007583], [102.7938586356832, 27.709253590893937], [102.79403829874002, 27.709253590893937], [102.79403829874002, 27.70907392783711], [102.79457728791049, 27.70907392783711], [102.79457728791049, 27.709253590893937], [102.79547560319462, 27.709253590893937], [102.79547560319462, 27.70943325395076], [102.79583492930826, 27.70943325395076], [102.79583492930826, 27.70979258006441], [102.79511627708096, 27.70979258006441], [102.79511627708096, 27.709612917007583], [102.79475695096731, 27.709612917007583], [102.79475695096731, 27.70979258006441], [102.79439762485367, 27.70979258006441], [102.79439762485367, 27.709972243121232], [102.79421796179685, 27.709972243121232], [102.79421796179685, 27.710151906178055], [102.79403829874002, 27.710151906178055], [102.79403829874002, 27.710331569234878], [102.7938586356832, 27.710331569234878], [102.7938586356832, 27.710511232291704], [102.79349930956955, 27.710511232291704]]]}, "properties": {"name": "cand06", "ptype": "hall", "confidence": "low", "rank": 6, "area_ha": 2.0, "rise_db": 6.8, "digitised_from": "Sentinel-1 VV rise 2022->2026, orbit 62"}}, {"type": "Feature", "geometry": {"geodesic": false, "type": "Polygon", "coordinates": [[[102.80122482101298, 27.709612917007583], [102.80122482101298, 27.70943325395076], [102.8006858318425, 27.70943325395076], [102.8006858318425, 27.709253590893937], [102.80050616878567, 27.709253590893937], [102.80050616878567, 27.70943325395076], [102.80014684267204, 27.70943325395076], [102.80014684267204, 27.708894264780287], [102.80032650572886, 27.708894264780287], [102.80032650572886, 27.708714601723464], [102.8006858318425, 27.708714601723464], [102.8006858318425, 27.70853493866664], [102.80086549489933, 27.70853493866664], [102.80086549489933, 27.708355275609815], [102.8014044840698, 27.708355275609815], [102.8014044840698, 27.70853493866664], [102.80158414712662, 27.70853493866664], [102.80158414712662, 27.708714601723464], [102.80176381018345, 27.708714601723464], [102.80176381018345, 27.708894264780287], [102.80194347324027, 27.708894264780287], [102.80194347324027, 27.70943325395076], [102.80176381018345, 27.70943325395076], [102.80176381018345, 27.709612917007583], [102.80122482101298, 27.709612917007583]]]}, "properties": {"name": "cand07", "ptype": "hall", "confidence": "low", "rank": 7, "area_ha": 1.9, "rise_db": 7.5, "digitised_from": "Sentinel-1 VV rise 2022->2026, orbit 62"}}, {"type": "Feature", "geometry": {"geodesic": false, "type": "Polygon", "coordinates": [[[102.8014044840698, 27.70619931892793], [102.8014044840698, 27.706019655871106], [102.80122482101298, 27.706019655871106], [102.80122482101298, 27.705839992814283], [102.8014044840698, 27.705839992814283], [102.8014044840698, 27.705660329757457], [102.80158414712662, 27.705660329757457], [102.80158414712662, 27.705480666700634], [102.80176381018345, 27.705480666700634], [102.80176381018345, 27.70476201447334], [102.80194347324027, 27.70476201447334], [102.80194347324027, 27.704582351416516], [102.8021231362971, 27.704582351416516], [102.8021231362971, 27.704223025302866], [102.80194347324027, 27.704223025302866], [102.80194347324027, 27.704043362246043], [102.8021231362971, 27.704043362246043], [102.8021231362971, 27.703863699189217], [102.80230279935392, 27.703863699189217], [102.80230279935392, 27.704043362246043], [102.80266212546756, 27.704043362246043], [102.80266212546756, 27.704223025302866], [102.80284178852439, 27.704223025302866], [102.80284178852439, 27.70476201447334], [102.80266212546756, 27.70476201447334], [102.80266212546756, 27.70494167753016], [102.80230279935392, 27.70494167753016], [102.80230279935392, 27.705121340586985], [102.8021231362971, 27.705121340586985], [102.8021231362971, 27.70530100364381], [102.80194347324027, 27.70530100364381], [102.80194347324027, 27.705480666700634], [102.80176381018345, 27.705480666700634], [102.80176381018345, 27.706019655871106], [102.80158414712662, 27.706019655871106], [102.80158414712662, 27.70619931892793], [102.8014044840698, 27.70619931892793]]]}, "properties": {"name": "cand08", "ptype": "hall", "confidence": "low", "rank": 8, "area_ha": 1.4, "rise_db": 5.1, "digitised_from": "Sentinel-1 VV rise 2022->2026, orbit 62"}}, {"type": "Feature", "geometry": {"geodesic": false, "type": "Polygon", "coordinates": [[[102.7931399834559, 27.70943325395076], [102.7931399834559, 27.708714601723464], [102.79296032039908, 27.708714601723464], [102.79296032039908, 27.70853493866664], [102.79278065734225, 27.70853493866664], [102.79278065734225, 27.708355275609815], [102.79260099428542, 27.708355275609815], [102.79260099428542, 27.707816286439346], [102.79296032039908, 27.707816286439346], [102.79296032039908, 27.70799594949617], [102.7931399834559, 27.70799594949617], [102.7931399834559, 27.708175612552992], [102.79349930956955, 27.708175612552992], [102.79349930956955, 27.70799594949617], [102.79367897262637, 27.70799594949617], [102.79367897262637, 27.708175612552992], [102.7938586356832, 27.708175612552992], [102.7938586356832, 27.708894264780287], [102.79367897262637, 27.708894264780287], [102.79367897262637, 27.70907392783711], [102.79349930956955, 27.70907392783711], [102.79349930956955, 27.709253590893937], [102.79331964651273, 27.709253590893937], [102.79331964651273, 27.70943325395076], [102.7931399834559, 27.70943325395076]]]}, "properties": {"name": "cand09", "ptype": "hall", "confidence": "low", "rank": 9, "area_ha": 1.4, "rise_db": 5.9, "digitised_from": "Sentinel-1 VV rise 2022->2026, orbit 62"}}, {"type": "Feature", "geometry": {"geodesic": false, "type": "Polygon", "coordinates": [[[102.7900857114899, 27.723806298496672], [102.7900857114899, 27.72362663543985], [102.78990604843307, 27.72362663543985], [102.78990604843307, 27.723446972383023], [102.79044503760355, 27.723446972383023], [102.79044503760355, 27.7232673093262], [102.79062470066036, 27.7232673093262], [102.79062470066036, 27.722728320155728], [102.79044503760355, 27.722728320155728], [102.79044503760355, 27.722548657098905], [102.79026537454672, 27.722548657098905], [102.79026537454672, 27.722189330985255], [102.79098402677401, 27.722189330985255], [102.79098402677401, 27.722368994042082], [102.79116368983084, 27.722368994042082], [102.79116368983084, 27.7232673093262], [102.79098402677401, 27.7232673093262], [102.79098402677401, 27.723446972383023], [102.79080436371719, 27.723446972383023], [102.79080436371719, 27.72362663543985], [102.79026537454672, 27.72362663543985], [102.79026537454672, 27.723806298496672], [102.7900857114899, 27.723806298496672]]]}, "properties": {"name": "cand10", "ptype": "hall", "confidence": "low", "rank": 10, "area_ha": 1.2, "rise_db": 6.8, "digitised_from": "Sentinel-1 VV rise 2022->2026, orbit 62"}}, {"type": "Feature", "geometry": {"geodesic": false, "type": "Polygon", "coordinates": [[[102.81811314835443, 27.707456960325697], [102.81811314835443, 27.707097634212047], [102.81829281141124, 27.707097634212047], [102.81829281141124, 27.706917971155224], [102.8186521375249, 27.706917971155224], [102.8186521375249, 27.70655864504158], [102.81883180058172, 27.70655864504158], [102.81883180058172, 27.706378981984752], [102.81937078975218, 27.706378981984752], [102.81937078975218, 27.70619931892793], [102.81955045280901, 27.70619931892793], [102.81955045280901, 27.70655864504158], [102.81919112669537, 27.70655864504158], [102.81919112669537, 27.707456960325697], [102.81811314835443, 27.707456960325697]]]}, "properties": {"name": "cand11", "ptype": "hall", "confidence": "low", "rank": 11, "area_ha": 1.1, "rise_db": 5.4, "digitised_from": "Sentinel-1 VV rise 2022->2026, orbit 62"}}, {"type": "Feature", "geometry": {"geodesic": false, "type": "Polygon", "coordinates": [[[102.77068210135292, 27.699192459711796], [102.77068210135292, 27.699012796654973], [102.77050243829609, 27.699012796654973], [102.77050243829609, 27.6984738074845], [102.77068210135292, 27.6984738074845], [102.77068210135292, 27.698294144427678], [102.77086176440973, 27.698294144427678], [102.77086176440973, 27.698114481370855], [102.77122109052338, 27.698114481370855], [102.77122109052338, 27.697934818314028], [102.77158041663704, 27.697934818314028], [102.77158041663704, 27.698114481370855], [102.77176007969385, 27.698114481370855], [102.77176007969385, 27.6984738074845], [102.77158041663704, 27.6984738074845], [102.77158041663704, 27.698653470541327], [102.77122109052338, 27.698653470541327], [102.77122109052338, 27.69883313359815], [102.77104142746656, 27.69883313359815], [102.77104142746656, 27.699012796654973], [102.77086176440973, 27.699012796654973], [102.77086176440973, 27.699192459711796], [102.77068210135292, 27.699192459711796]]]}, "properties": {"name": "cand12", "ptype": "hall", "confidence": "low", "rank": 12, "area_ha": 1.1, "rise_db": 5.9, "digitised_from": "Sentinel-1 VV rise 2022->2026, orbit 62"}}]}