{"type": "FeatureCollection", "features": [{"type": "Feature", "geometry": {"geodesic": false, "type": "Polygon", "coordinates": [[[112.29228512384937, 31.002657085532924], [112.29228512384937, 31.0024774224761], [112.29156647162208, 31.0024774224761], [112.29156647162208, 31.002118096362455], [112.2917461346789, 31.002118096362455], [112.2917461346789, 31.001758770248806], [112.29156647162208, 31.001758770248806], [112.29156647162208, 31.001399444135156], [112.2917461346789, 31.001399444135156], [112.2917461346789, 31.00104011802151], [112.29192579773571, 31.00104011802151], [112.29192579773571, 31.000501128851038], [112.29120714550842, 31.000501128851038], [112.29120714550842, 31.000321465794215], [112.2886918627129, 31.000321465794215], [112.2886918627129, 31.000141802737392], [112.2872545582583, 31.000141802737392], [112.2872545582583, 30.999962139680566], [112.28635624297418, 30.999962139680566], [112.28635624297418, 30.999782476623743], [112.28617657991735, 30.999782476623743], [112.28617657991735, 30.999063824396448], [112.28599691686053, 30.999063824396448], [112.28599691686053, 30.998884161339625], [112.28581725380371, 30.998884161339625], [112.28581725380371, 30.998704498282798], [112.28599691686053, 30.998704498282798], [112.28599691686053, 30.998524835225975], [112.28617657991735, 30.998524835225975], [112.28617657991735, 30.998345172169152], [112.28707489520147, 30.998345172169152], [112.28707489520147, 30.998524835225975], [112.28851219965607, 30.998524835225975], [112.28851219965607, 30.998345172169152], [112.28887152576971, 30.998345172169152], [112.28887152576971, 30.998524835225975], [112.28923085188336, 30.998524835225975], [112.28923085188336, 30.998345172169152], [112.28905118882653, 30.998345172169152], [112.28905118882653, 30.99816550911233], [112.28923085188336, 30.99816550911233], [112.28923085188336, 30.997626519941857], [112.28941051494019, 30.997626519941857], [112.28941051494019, 30.997267193828208], [112.28959017799701, 30.997267193828208], [112.28959017799701, 30.997087530771385], [112.28976984105384, 30.997087530771385], [112.28976984105384, 30.99690786771456], [112.28994950411065, 30.99690786771456], [112.28994950411065, 30.99636887854409], [112.28976984105384, 30.99636887854409], [112.28976984105384, 30.995650226316794], [112.28994950411065, 30.995650226316794], [112.28994950411065, 30.9949315740895], [112.28976984105384, 30.9949315740895], [112.28976984105384, 30.994751911032672], [112.28941051494019, 30.994751911032672], [112.28941051494019, 30.994392584919026], [112.28976984105384, 30.994392584919026], [112.28976984105384, 30.994212921862204], [112.28994950411065, 30.994212921862204], [112.28994950411065, 30.99367393269173], [112.28976984105384, 30.99367393269173], [112.28976984105384, 30.993494269634905], [112.28833253659924, 30.993494269634905], [112.28833253659924, 30.993314606578082], [112.28797321048559, 30.993314606578082], [112.28797321048559, 30.992955280464436], [112.28815287354242, 30.992955280464436], [112.28815287354242, 30.99277561740761], [112.28851219965607, 30.99277561740761], [112.28851219965607, 30.992595954350787], [112.28887152576971, 30.992595954350787], [112.28887152576971, 30.992416291293964], [112.28923085188336, 30.992416291293964], [112.28923085188336, 30.99223662823714], [112.28959017799701, 30.99223662823714], [112.28959017799701, 30.992416291293964], [112.29012916716748, 30.992416291293964], [112.29012916716748, 30.992595954350787], [112.2903088302243, 30.992595954350787], [112.2903088302243, 30.99313494352126], [112.29084781939477, 30.99313494352126], [112.29084781939477, 30.992955280464436], [112.29120714550842, 30.992955280464436], [112.29120714550842, 30.99313494352126], [112.29138680856525, 30.99313494352126], [112.29138680856525, 30.992955280464436], [112.29210546079254, 30.992955280464436], [112.29210546079254, 30.99277561740761], [112.29228512384937, 30.99277561740761], [112.29228512384937, 30.992595954350787], [112.29210546079254, 30.992595954350787], [112.29210546079254, 30.99169763906667], [112.29282411301983, 30.99169763906667], [112.29282411301983, 30.99223662823714], [112.29300377607666, 30.99223662823714], [112.29300377607666, 30.992595954350787], [112.29318343913349, 30.992595954350787], [112.29318343913349, 30.99277561740761], [112.29336310219031, 30.99277561740761], [112.29336310219031, 30.993314606578082], [112.29300377607666, 30.993314606578082], [112.29300377607666, 30.993494269634905], [112.29318343913349, 30.993494269634905], [112.29318343913349, 30.993853595748554], [112.29336310219031, 30.993853595748554], [112.29336310219031, 30.994212921862204], [112.29354276524714, 30.994212921862204], [112.29354276524714, 30.994392584919026], [112.29372242830397, 30.994392584919026], [112.29372242830397, 30.994751911032672], [112.29354276524714, 30.994751911032672], [112.29354276524714, 30.9949315740895], [112.29336310219031, 30.9949315740895], [112.29336310219031, 30.994751911032672], [112.29318343913349, 30.994751911032672], [112.29318343913349, 30.9949315740895], [112.29300377607666, 30.9949315740895], [112.29300377607666, 30.995470563259968], [112.29282411301983, 30.995470563259968], [112.29282411301983, 30.995829889373617], [112.2924647869062, 30.995829889373617], [112.2924647869062, 30.995650226316794], [112.29228512384937, 30.995650226316794], [112.29228512384937, 30.995290900203145], [112.29156647162208, 30.995290900203145], [112.29156647162208, 30.995470563259968], [112.29192579773571, 30.995470563259968], [112.29192579773571, 30.995829889373617], [112.29156647162208, 30.995829889373617], [112.29156647162208, 30.99600955243044], [112.2910274824516, 30.99600955243044], [112.2910274824516, 30.996189215487266], [112.29066815633796, 30.996189215487266], [112.29066815633796, 30.99636887854409], [112.29048849328113, 30.99636887854409], [112.29048849328113, 30.996728204657735], [112.29138680856525, 30.996728204657735], [112.29138680856525, 30.997087530771385], [112.2917461346789, 30.997087530771385], [112.2917461346789, 30.997267193828208], [112.29192579773571, 30.997267193828208], [112.29192579773571, 30.997087530771385], [112.29228512384937, 30.997087530771385], [112.29228512384937, 30.997267193828208], [112.2924647869062, 30.997267193828208], [112.2924647869062, 30.997626519941857], [112.29228512384937, 30.997626519941857], [112.29228512384937, 30.99780618299868], [112.29210546079254, 30.99780618299868], [112.29210546079254, 30.997985846055503], [112.29228512384937, 30.997985846055503], [112.29228512384937, 30.99816550911233], [112.2924647869062, 30.99816550911233], [112.2924647869062, 30.99780618299868], [112.29264444996302, 30.99780618299868], [112.29264444996302, 30.997985846055503], [112.29282411301983, 30.997985846055503], [112.29282411301983, 30.99816550911233], [112.29300377607666, 30.99816550911233], [112.29300377607666, 30.998524835225975], [112.29264444996302, 30.998524835225975], [112.29264444996302, 30.99924348745327], [112.29300377607666, 30.99924348745327], [112.29300377607666, 30.999063824396448], [112.29318343913349, 30.999063824396448], [112.29318343913349, 30.99924348745327], [112.29336310219031, 30.99924348745327], [112.29336310219031, 30.99960281356692], [112.29318343913349, 30.99960281356692], [112.29318343913349, 30.999782476623743], [112.29300377607666, 30.999782476623743], [112.29300377607666, 30.999962139680566], [112.29282411301983, 30.999962139680566], [112.29282411301983, 31.000141802737392], [112.29264444996302, 31.000141802737392], [112.29264444996302, 31.000501128851038], [112.2924647869062, 31.000501128851038], [112.2924647869062, 31.001219781078333], [112.29228512384937, 31.001219781078333], [112.29228512384937, 31.001758770248806], [112.29210546079254, 31.001758770248806], [112.29210546079254, 31.00193843330563], [112.29192579773571, 31.00193843330563], [112.29192579773571, 31.002297759419278], [112.29210546079254, 31.002297759419278], [112.29210546079254, 31.002118096362455], [112.29228512384937, 31.002118096362455], [112.29228512384937, 31.00193843330563], [112.2924647869062, 31.00193843330563], [112.2924647869062, 31.002657085532924], [112.29228512384937, 31.002657085532924]], [[112.29300377607666, 30.99277561740761], [112.29282411301983, 30.99277561740761], [112.29282411301983, 30.992595954350787], [112.29300377607666, 30.992595954350787], [112.29300377607666, 30.99277561740761]], [[112.28905118882653, 30.99313494352126], [112.28887152576971, 30.99313494352126], [112.28887152576971, 30.992955280464436], [112.28905118882653, 30.992955280464436], [112.28905118882653, 30.99313494352126]], [[112.29318343913349, 30.99313494352126], [112.29300377607666, 30.99313494352126], [112.29300377607666, 30.99277561740761], [112.29318343913349, 30.99277561740761], [112.29318343913349, 30.99313494352126]], [[112.2917461346789, 30.997626519941857], [112.2910274824516, 30.997626519941857], [112.2910274824516, 30.99744685688503], [112.29048849328113, 30.99744685688503], [112.29048849328113, 30.997267193828208], [112.29156647162208, 30.997267193828208], [112.29156647162208, 30.99744685688503], [112.2917461346789, 30.99744685688503], [112.2917461346789, 30.997626519941857]], [[112.2917461346789, 30.99816550911233], [112.29156647162208, 30.99816550911233], [112.29156647162208, 30.997985846055503], [112.2917461346789, 30.997985846055503], [112.2917461346789, 30.99816550911233]], [[112.2917461346789, 30.998524835225975], [112.29138680856525, 30.998524835225975], [112.29138680856525, 30.998345172169152], [112.2917461346789, 30.998345172169152], [112.2917461346789, 30.998524835225975]], [[112.29138680856525, 30.998704498282798], [112.29120714550842, 30.998704498282798], [112.29120714550842, 30.998524835225975], [112.29138680856525, 30.998524835225975], [112.29138680856525, 30.998704498282798]], [[112.29228512384937, 30.998704498282798], [112.29192579773571, 30.998704498282798], [112.29192579773571, 30.998524835225975], [112.29228512384937, 30.998524835225975], [112.29228512384937, 30.998704498282798]]]}, "properties": {"name": "cand01", "ptype": "hall", "confidence": "low", "rank": 1, "area_ha": 38.6, "rise_db": 11.6, "digitised_from": "Sentinel-1 VV rise 2022->2026, orbit 113"}}, {"type": "Feature", "geometry": {"geodesic": false, "type": "Polygon", "coordinates": [[[112.27773241624664, 31.005352031385286], [112.27773241624664, 31.00517236832846], [112.27719342707616, 31.00517236832846], [112.27719342707616, 31.004992705271636], [112.27701376401933, 31.004992705271636], [112.27701376401933, 31.004813042214813], [112.27647477484886, 31.004813042214813], [112.27647477484886, 31.004633379157987], [112.27611544873521, 31.004633379157987], [112.27611544873521, 31.004453716101164], [112.2759357856784, 31.004453716101164], [112.2759357856784, 31.00427405304434], [112.27575612262157, 31.00427405304434], [112.27575612262157, 31.004453716101164], [112.27539679650792, 31.004453716101164], [112.27539679650792, 31.004633379157987], [112.27557645956475, 31.004633379157987], [112.27557645956475, 31.004813042214813], [112.27575612262157, 31.004813042214813], [112.27575612262157, 31.004992705271636], [112.2759357856784, 31.004992705271636], [112.2759357856784, 31.00517236832846], [112.27575612262157, 31.00517236832846], [112.27575612262157, 31.005352031385286], [112.27557645956475, 31.005352031385286], [112.27557645956475, 31.00517236832846], [112.27539679650792, 31.00517236832846], [112.27539679650792, 31.004813042214813], [112.27485780733745, 31.004813042214813], [112.27485780733745, 31.004633379157987], [112.27503747039427, 31.004633379157987], [112.27503747039427, 31.00427405304434], [112.2752171334511, 31.00427405304434], [112.2752171334511, 31.00337573776022], [112.27539679650792, 31.00337573776022], [112.27539679650792, 31.003016411646573], [112.27575612262157, 31.003016411646573], [112.27575612262157, 31.003196074703396], [112.2759357856784, 31.003196074703396], [112.2759357856784, 31.00373506387387], [112.27575612262157, 31.00373506387387], [112.27575612262157, 31.00391472693069], [112.2759357856784, 31.00391472693069], [112.2759357856784, 31.00427405304434], [112.27611544873521, 31.00427405304434], [112.27611544873521, 31.004094389987518], [112.27665443790569, 31.004094389987518], [112.27665443790569, 31.00391472693069], [112.27701376401933, 31.00391472693069], [112.27701376401933, 31.00373506387387], [112.27755275318981, 31.00373506387387], [112.27755275318981, 31.00337573776022], [112.27773241624664, 31.00337573776022], [112.27773241624664, 31.003196074703396], [112.27755275318981, 31.003196074703396], [112.27755275318981, 31.003016411646573], [112.27737309013298, 31.003016411646573], [112.27737309013298, 31.00283674858975], [112.27665443790569, 31.00283674858975], [112.27665443790569, 31.002118096362455], [112.27683410096252, 31.002118096362455], [112.27683410096252, 31.00193843330563], [112.27701376401933, 31.00193843330563], [112.27701376401933, 31.001579107191983], [112.27683410096252, 31.001579107191983], [112.27683410096252, 31.001399444135156], [112.27611544873521, 31.001399444135156], [112.27611544873521, 31.001579107191983], [112.2759357856784, 31.001579107191983], [112.2759357856784, 31.001758770248806], [112.27575612262157, 31.001758770248806], [112.27575612262157, 31.002118096362455], [112.2759357856784, 31.002118096362455], [112.2759357856784, 31.002297759419278], [112.27557645956475, 31.002297759419278], [112.27557645956475, 31.0024774224761], [112.27503747039427, 31.0024774224761], [112.27503747039427, 31.002118096362455], [112.2752171334511, 31.002118096362455], [112.2752171334511, 31.00193843330563], [112.27539679650792, 31.00193843330563], [112.27539679650792, 31.001399444135156], [112.27557645956475, 31.001399444135156], [112.27557645956475, 31.000860454964688], [112.27575612262157, 31.000860454964688], [112.27575612262157, 31.000501128851038], [112.2759357856784, 31.000501128851038], [112.2759357856784, 31.000321465794215], [112.27611544873521, 31.000321465794215], [112.27611544873521, 31.000141802737392], [112.27629511179204, 31.000141802737392], [112.27629511179204, 30.999962139680566], [112.27665443790569, 30.999962139680566], [112.27665443790569, 30.999782476623743], [112.27683410096252, 30.999782476623743], [112.27683410096252, 30.99960281356692], [112.27773241624664, 30.99960281356692], [112.27773241624664, 30.999962139680566], [112.27791207930346, 30.999962139680566], [112.27791207930346, 31.000141802737392], [112.27809174236027, 31.000141802737392], [112.27809174236027, 31.000321465794215], [112.2782714054171, 31.000321465794215], [112.2782714054171, 31.00104011802151], [112.27881039458758, 31.00104011802151], [112.27881039458758, 31.000860454964688], [112.27899005764439, 31.000860454964688], [112.27899005764439, 31.00068079190786], [112.27934938375805, 31.00068079190786], [112.27934938375805, 31.000321465794215], [112.27952904681487, 31.000321465794215], [112.27952904681487, 31.000141802737392], [112.28042736209899, 31.000141802737392], [112.28042736209899, 31.000321465794215], [112.28060702515582, 31.000321465794215], [112.28060702515582, 31.00068079190786], [112.28042736209899, 31.00068079190786], [112.28042736209899, 31.00104011802151], [112.28060702515582, 31.00104011802151], [112.28060702515582, 31.001399444135156], [112.28042736209899, 31.001399444135156], [112.28042736209899, 31.001579107191983], [112.27952904681487, 31.001579107191983], [112.27952904681487, 31.001758770248806], [112.27881039458758, 31.001758770248806], [112.27881039458758, 31.001579107191983], [112.27863073153075, 31.001579107191983], [112.27863073153075, 31.001219781078333], [112.27845106847393, 31.001219781078333], [112.27845106847393, 31.001399444135156], [112.2782714054171, 31.001399444135156], [112.2782714054171, 31.001758770248806], [112.27845106847393, 31.001758770248806], [112.27845106847393, 31.00193843330563], [112.27881039458758, 31.00193843330563], [112.27881039458758, 31.002297759419278], [112.27899005764439, 31.002297759419278], [112.27899005764439, 31.0024774224761], [112.27916972070122, 31.0024774224761], [112.27916972070122, 31.00283674858975], [112.28042736209899, 31.00283674858975], [112.28042736209899, 31.003016411646573], [112.28060702515582, 31.003016411646573], [112.28060702515582, 31.003196074703396], [112.28006803598534, 31.003196074703396], [112.28006803598534, 31.00337573776022], [112.27988837292853, 31.00337573776022], [112.27988837292853, 31.00373506387387], [112.2797087098717, 31.00373506387387], [112.2797087098717, 31.00391472693069], [112.27952904681487, 31.00391472693069], [112.27952904681487, 31.00373506387387], [112.27934938375805, 31.00373506387387], [112.27934938375805, 31.00337573776022], [112.27916972070122, 31.00337573776022], [112.27916972070122, 31.003196074703396], [112.27881039458758, 31.003196074703396], [112.27881039458758, 31.00373506387387], [112.27863073153075, 31.00373506387387], [112.27863073153075, 31.00391472693069], [112.27845106847393, 31.00391472693069], [112.27845106847393, 31.00517236832846], [112.2782714054171, 31.00517236832846], [112.2782714054171, 31.005352031385286], [112.27773241624664, 31.005352031385286]], [[112.27557645956475, 31.002118096362455], [112.27539679650792, 31.002118096362455], [112.27539679650792, 31.00193843330563], [112.27557645956475, 31.00193843330563], [112.27557645956475, 31.002118096362455]], [[112.27773241624664, 31.0024774224761], [112.27737309013298, 31.0024774224761], [112.27737309013298, 31.002297759419278], [112.27755275318981, 31.002297759419278], [112.27755275318981, 31.002118096362455], [112.27773241624664, 31.002118096362455], [112.27773241624664, 31.0024774224761]], [[112.27809174236027, 31.0024774224761], [112.27791207930346, 31.0024774224761], [112.27791207930346, 31.002297759419278], [112.27809174236027, 31.002297759419278], [112.27809174236027, 31.0024774224761]], [[112.2782714054171, 31.00337573776022], [112.27809174236027, 31.00337573776022], [112.27809174236027, 31.00283674858975], [112.27845106847393, 31.00283674858975], [112.27845106847393, 31.003196074703396], [112.2782714054171, 31.003196074703396], [112.2782714054171, 31.00337573776022]]]}, "properties": {"name": "cand02", "ptype": "hall", "confidence": "low", "rank": 2, "area_ha": 19.3, "rise_db": 7.4, "digitised_from": "Sentinel-1 VV rise 2022->2026, orbit 113"}}, {"type": "Feature", "geometry": {"geodesic": false, "type": "Polygon", "coordinates": [[[112.28959017799701, 31.004813042214813], [112.28959017799701, 31.004633379157987], [112.28941051494019, 31.004633379157987], [112.28941051494019, 31.00427405304434], [112.28923085188336, 31.00427405304434], [112.28923085188336, 31.004453716101164], [112.28887152576971, 31.004453716101164], [112.28887152576971, 31.004633379157987], [112.28743422131512, 31.004633379157987], [112.28743422131512, 31.004453716101164], [112.2872545582583, 31.004453716101164], [112.2872545582583, 31.004094389987518], [112.28743422131512, 31.004094389987518], [112.28743422131512, 31.00391472693069], [112.2872545582583, 31.00391472693069], [112.2872545582583, 31.00373506387387], [112.28707489520147, 31.00373506387387], [112.28707489520147, 31.004094389987518], [112.28689523214464, 31.004094389987518], [112.28689523214464, 31.00427405304434], [112.28671556908783, 31.00427405304434], [112.28671556908783, 31.004094389987518], [112.286535906031, 31.004094389987518], [112.286535906031, 31.0024774224761], [112.28635624297418, 31.0024774224761], [112.28635624297418, 31.002118096362455], [112.286535906031, 31.002118096362455], [112.286535906031, 31.00193843330563], [112.28635624297418, 31.00193843330563], [112.28635624297418, 31.001758770248806], [112.28617657991735, 31.001758770248806], [112.28617657991735, 31.0024774224761], [112.28599691686053, 31.0024774224761], [112.28599691686053, 31.00283674858975], [112.28581725380371, 31.00283674858975], [112.28581725380371, 31.003196074703396], [112.28545792769006, 31.003196074703396], [112.28545792769006, 31.003016411646573], [112.28527826463323, 31.003016411646573], [112.28527826463323, 31.00283674858975], [112.28545792769006, 31.00283674858975], [112.28545792769006, 31.002118096362455], [112.28527826463323, 31.002118096362455], [112.28527826463323, 31.00193843330563], [112.28509860157641, 31.00193843330563], [112.28509860157641, 31.002297759419278], [112.28491893851958, 31.002297759419278], [112.28491893851958, 31.00283674858975], [112.28455961240594, 31.00283674858975], [112.28455961240594, 31.0024774224761], [112.28437994934912, 31.0024774224761], [112.28437994934912, 31.001758770248806], [112.28455961240594, 31.001758770248806], [112.28455961240594, 31.001579107191983], [112.28473927546277, 31.001579107191983], [112.28473927546277, 31.001219781078333], [112.28491893851958, 31.001219781078333], [112.28491893851958, 31.00104011802151], [112.28527826463323, 31.00104011802151], [112.28527826463323, 31.001399444135156], [112.28563759074689, 31.001399444135156], [112.28563759074689, 31.001219781078333], [112.28581725380371, 31.001219781078333], [112.28581725380371, 31.00104011802151], [112.28599691686053, 31.00104011802151], [112.28599691686053, 31.00068079190786], [112.28581725380371, 31.00068079190786], [112.28581725380371, 31.000321465794215], [112.28599691686053, 31.000321465794215], [112.28599691686053, 31.000141802737392], [112.28617657991735, 31.000141802737392], [112.28617657991735, 31.000321465794215], [112.28635624297418, 31.000321465794215], [112.28635624297418, 31.000501128851038], [112.286535906031, 31.000501128851038], [112.286535906031, 31.00068079190786], [112.28707489520147, 31.00068079190786], [112.28707489520147, 31.000860454964688], [112.2872545582583, 31.000860454964688], [112.2872545582583, 31.001219781078333], [112.28743422131512, 31.001219781078333], [112.28743422131512, 31.001579107191983], [112.2872545582583, 31.001579107191983], [112.2872545582583, 31.001758770248806], [112.28779354742878, 31.001758770248806], [112.28779354742878, 31.00193843330563], [112.28833253659924, 31.00193843330563], [112.28833253659924, 31.001758770248806], [112.28887152576971, 31.001758770248806], [112.28887152576971, 31.001579107191983], [112.28905118882653, 31.001579107191983], [112.28905118882653, 31.001758770248806], [112.28941051494019, 31.001758770248806], [112.28941051494019, 31.00193843330563], [112.28959017799701, 31.00193843330563], [112.28959017799701, 31.0024774224761], [112.28994950411065, 31.0024774224761], [112.28994950411065, 31.002657085532924], [112.29012916716748, 31.002657085532924], [112.29012916716748, 31.00283674858975], [112.28994950411065, 31.00283674858975], [112.28994950411065, 31.003196074703396], [112.28941051494019, 31.003196074703396], [112.28941051494019, 31.00373506387387], [112.28959017799701, 31.00373506387387], [112.28959017799701, 31.00391472693069], [112.28994950411065, 31.00391472693069], [112.28994950411065, 31.004633379157987], [112.28976984105384, 31.004633379157987], [112.28976984105384, 31.004813042214813], [112.28959017799701, 31.004813042214813]], [[112.28779354742878, 31.002657085532924], [112.28761388437195, 31.002657085532924], [112.28761388437195, 31.0024774224761], [112.28779354742878, 31.0024774224761], [112.28779354742878, 31.002657085532924]], [[112.2886918627129, 31.002657085532924], [112.28833253659924, 31.002657085532924], [112.28833253659924, 31.0024774224761], [112.2886918627129, 31.0024774224761], [112.2886918627129, 31.002657085532924]], [[112.28761388437195, 31.003196074703396], [112.28743422131512, 31.003196074703396], [112.28743422131512, 31.00283674858975], [112.28761388437195, 31.00283674858975], [112.28761388437195, 31.003196074703396]]]}, "properties": {"name": "cand03", "ptype": "hall", "confidence": "low", "rank": 3, "area_ha": 15.4, "rise_db": 8.0, "digitised_from": "Sentinel-1 VV rise 2022->2026, orbit 113"}}, {"type": "Feature", "geometry": {"geodesic": false, "type": "Polygon", "coordinates": [[[112.28581725380371, 30.99277561740761], [112.28581725380371, 30.992595954350787], [112.28563759074689, 30.992595954350787], [112.28563759074689, 30.99277561740761], [112.28509860157641, 30.99277561740761], [112.28509860157641, 30.992595954350787], [112.28527826463323, 30.992595954350787], [112.28527826463323, 30.992416291293964], [112.28563759074689, 30.992416291293964], [112.28563759074689, 30.992056965180314], [112.28545792769006, 30.992056965180314], [112.28545792769006, 30.99187730212349], [112.28491893851958, 30.99187730212349], [112.28491893851958, 30.992056965180314], [112.28402062323546, 30.992056965180314], [112.28402062323546, 30.99223662823714], [112.28366129712182, 30.99223662823714], [112.28366129712182, 30.992056965180314], [112.283481634065, 30.992056965180314], [112.283481634065, 30.99187730212349], [112.28366129712182, 30.99187730212349], [112.28366129712182, 30.99169763906667], [112.28402062323546, 30.99169763906667], [112.28402062323546, 30.99133831295302], [112.28366129712182, 30.99133831295302], [112.28366129712182, 30.991158649896196], [112.283481634065, 30.991158649896196], [112.283481634065, 30.990978986839373], [112.28330197100817, 30.990978986839373], [112.28330197100817, 30.990799323782547], [112.283481634065, 30.990799323782547], [112.283481634065, 30.990619660725724], [112.28366129712182, 30.990619660725724], [112.28366129712182, 30.9904399976689], [112.28384096017865, 30.9904399976689], [112.28384096017865, 30.990260334612078], [112.28420028629229, 30.990260334612078], [112.28420028629229, 30.9904399976689], [112.28509860157641, 30.9904399976689], [112.28509860157641, 30.990260334612078], [112.28545792769006, 30.990260334612078], [112.28545792769006, 30.98954168238478], [112.28617657991735, 30.98954168238478], [112.28617657991735, 30.989721345441605], [112.28707489520147, 30.989721345441605], [112.28707489520147, 30.989362019327956], [112.2872545582583, 30.989362019327956], [112.2872545582583, 30.988823030157484], [112.28707489520147, 30.988823030157484], [112.28707489520147, 30.98864336710066], [112.2872545582583, 30.98864336710066], [112.2872545582583, 30.988463704043838], [112.28761388437195, 30.988463704043838], [112.28761388437195, 30.988284040987015], [112.28779354742878, 30.988284040987015], [112.28779354742878, 30.988463704043838], [112.28815287354242, 30.988463704043838], [112.28815287354242, 30.98864336710066], [112.28833253659924, 30.98864336710066], [112.28833253659924, 30.988823030157484], [112.28815287354242, 30.988823030157484], [112.28815287354242, 30.989182356271133], [112.28833253659924, 30.989182356271133], [112.28833253659924, 30.989362019327956], [112.28851219965607, 30.989362019327956], [112.28851219965607, 30.989721345441605], [112.2886918627129, 30.989721345441605], [112.2886918627129, 30.990619660725724], [112.28833253659924, 30.990619660725724], [112.28833253659924, 30.990799323782547], [112.28815287354242, 30.990799323782547], [112.28815287354242, 30.990978986839373], [112.28833253659924, 30.990978986839373], [112.28833253659924, 30.991158649896196], [112.28815287354242, 30.991158649896196], [112.28815287354242, 30.99187730212349], [112.28779354742878, 30.99187730212349], [112.28779354742878, 30.991517976009842], [112.28743422131512, 30.991517976009842], [112.28743422131512, 30.99187730212349], [112.2872545582583, 30.99187730212349], [112.2872545582583, 30.992056965180314], [112.28689523214464, 30.992056965180314], [112.28689523214464, 30.99223662823714], [112.28671556908783, 30.99223662823714], [112.28671556908783, 30.992416291293964], [112.286535906031, 30.992416291293964], [112.286535906031, 30.992595954350787], [112.28635624297418, 30.992595954350787], [112.28635624297418, 30.99277561740761], [112.28581725380371, 30.99277561740761]], [[112.2872545582583, 30.990619660725724], [112.28707489520147, 30.990619660725724], [112.28707489520147, 30.9904399976689], [112.2872545582583, 30.9904399976689], [112.2872545582583, 30.990619660725724]]]}, "properties": {"name": "cand04", "ptype": "hall", "confidence": "low", "rank": 4, "area_ha": 14.8, "rise_db": 9.0, "digitised_from": "Sentinel-1 VV rise 2022->2026, orbit 113"}}, {"type": "Feature", "geometry": {"geodesic": false, "type": "Polygon", "coordinates": [[[112.29066815633796, 30.99169763906667], [112.29066815633796, 30.991517976009842], [112.2903088302243, 30.991517976009842], [112.2903088302243, 30.99169763906667], [112.28976984105384, 30.99169763906667], [112.28976984105384, 30.991158649896196], [112.28959017799701, 30.991158649896196], [112.28959017799701, 30.990799323782547], [112.28941051494019, 30.990799323782547], [112.28941051494019, 30.9904399976689], [112.28959017799701, 30.9904399976689], [112.28959017799701, 30.99008067155525], [112.28976984105384, 30.99008067155525], [112.28976984105384, 30.98990100849843], [112.28959017799701, 30.98990100849843], [112.28959017799701, 30.98954168238478], [112.28941051494019, 30.98954168238478], [112.28941051494019, 30.989362019327956], [112.28923085188336, 30.989362019327956], [112.28923085188336, 30.989182356271133], [112.28905118882653, 30.989182356271133], [112.28905118882653, 30.988823030157484], [112.28887152576971, 30.988823030157484], [112.28887152576971, 30.98810437793019], [112.28905118882653, 30.98810437793019], [112.28905118882653, 30.987745051816542], [112.28923085188336, 30.987745051816542], [112.28923085188336, 30.987924714873365], [112.29084781939477, 30.987924714873365], [112.29084781939477, 30.98810437793019], [112.2910274824516, 30.98810437793019], [112.2910274824516, 30.987924714873365], [112.2917461346789, 30.987924714873365], [112.2917461346789, 30.987745051816542], [112.29282411301983, 30.987745051816542], [112.29282411301983, 30.98810437793019], [112.29228512384937, 30.98810437793019], [112.29228512384937, 30.987924714873365], [112.2917461346789, 30.987924714873365], [112.2917461346789, 30.988463704043838], [112.29192579773571, 30.988463704043838], [112.29192579773571, 30.98864336710066], [112.29210546079254, 30.98864336710066], [112.29210546079254, 30.988823030157484], [112.29264444996302, 30.988823030157484], [112.29264444996302, 30.98864336710066], [112.29318343913349, 30.98864336710066], [112.29318343913349, 30.988823030157484], [112.29336310219031, 30.988823030157484], [112.29336310219031, 30.989182356271133], [112.29318343913349, 30.989182356271133], [112.29318343913349, 30.98954168238478], [112.29336310219031, 30.98954168238478], [112.29336310219031, 30.990799323782547], [112.29354276524714, 30.990799323782547], [112.29354276524714, 30.990978986839373], [112.29300377607666, 30.990978986839373], [112.29300377607666, 30.9904399976689], [112.2924647869062, 30.9904399976689], [112.2924647869062, 30.990799323782547], [112.29228512384937, 30.990799323782547], [112.29228512384937, 30.991158649896196], [112.29120714550842, 30.991158649896196], [112.29120714550842, 30.99133831295302], [112.2910274824516, 30.99133831295302], [112.2910274824516, 30.991517976009842], [112.29084781939477, 30.991517976009842], [112.29084781939477, 30.99169763906667], [112.29066815633796, 30.99169763906667]], [[112.29048849328113, 30.989182356271133], [112.2903088302243, 30.989182356271133], [112.2903088302243, 30.988823030157484], [112.29048849328113, 30.988823030157484], [112.29048849328113, 30.989182356271133]], [[112.29282411301983, 30.98954168238478], [112.29228512384937, 30.98954168238478], [112.29228512384937, 30.989362019327956], [112.29210546079254, 30.989362019327956], [112.29210546079254, 30.989182356271133], [112.29300377607666, 30.989182356271133], [112.29300377607666, 30.989362019327956], [112.29282411301983, 30.989362019327956], [112.29282411301983, 30.98954168238478]]]}, "properties": {"name": "cand05", "ptype": "hall", "confidence": "low", "rank": 5, "area_ha": 14.8, "rise_db": 9.8, "digitised_from": "Sentinel-1 VV rise 2022->2026, orbit 113"}}, {"type": "Feature", "geometry": {"geodesic": false, "type": "Polygon", "coordinates": [[[112.28581725380371, 31.012718216715065], [112.28581725380371, 31.01253855365824], [112.28563759074689, 31.01253855365824], [112.28563759074689, 31.012179227544593], [112.28527826463323, 31.012179227544593], [112.28527826463323, 31.01199956448777], [112.28509860157641, 31.01199956448777], [112.28509860157641, 31.011819901430943], [112.28473927546277, 31.011819901430943], [112.28473927546277, 31.011460575317297], [112.28527826463323, 31.011460575317297], [112.28527826463323, 31.011101249203648], [112.28545792769006, 31.011101249203648], [112.28545792769006, 31.010741923090002], [112.28509860157641, 31.010741923090002], [112.28509860157641, 31.010562260033176], [112.28491893851958, 31.010562260033176], [112.28491893851958, 31.010382596976353], [112.28509860157641, 31.010382596976353], [112.28509860157641, 31.01020293391953], [112.28527826463323, 31.01020293391953], [112.28527826463323, 31.010023270862707], [112.28509860157641, 31.010023270862707], [112.28509860157641, 31.009663944749057], [112.28491893851958, 31.009663944749057], [112.28491893851958, 31.00930461863541], [112.28509860157641, 31.00930461863541], [112.28509860157641, 31.009124955578585], [112.28545792769006, 31.009124955578585], [112.28545792769006, 31.00930461863541], [112.28563759074689, 31.00930461863541], [112.28563759074689, 31.009663944749057], [112.28581725380371, 31.009663944749057], [112.28581725380371, 31.00984360780588], [112.28599691686053, 31.00984360780588], [112.28599691686053, 31.010023270862707], [112.28635624297418, 31.010023270862707], [112.28635624297418, 31.00984360780588], [112.28671556908783, 31.00984360780588], [112.28671556908783, 31.010023270862707], [112.28689523214464, 31.010023270862707], [112.28689523214464, 31.01020293391953], [112.28707489520147, 31.01020293391953], [112.28707489520147, 31.010023270862707], [112.2872545582583, 31.010023270862707], [112.2872545582583, 31.00984360780588], [112.28743422131512, 31.00984360780588], [112.28743422131512, 31.009663944749057], [112.28761388437195, 31.009663944749057], [112.28761388437195, 31.00984360780588], [112.28779354742878, 31.00984360780588], [112.28779354742878, 31.010382596976353], [112.28797321048559, 31.010382596976353], [112.28797321048559, 31.010562260033176], [112.28815287354242, 31.010562260033176], [112.28815287354242, 31.010921586146825], [112.28797321048559, 31.010921586146825], [112.28797321048559, 31.011101249203648], [112.28779354742878, 31.011101249203648], [112.28779354742878, 31.011280912260474], [112.28761388437195, 31.011280912260474], [112.28761388437195, 31.011819901430943], [112.28779354742878, 31.011819901430943], [112.28779354742878, 31.01199956448777], [112.28815287354242, 31.01199956448777], [112.28815287354242, 31.01253855365824], [112.28689523214464, 31.01253855365824], [112.28689523214464, 31.012718216715065], [112.28581725380371, 31.012718216715065]]]}, "properties": {"name": "cand06", "ptype": "hall", "confidence": "low", "rank": 6, "area_ha": 9.6, "rise_db": 8.1, "digitised_from": "Sentinel-1 VV rise 2022->2026, orbit 113"}}, {"type": "Feature", "geometry": {"geodesic": false, "type": "Polygon", "coordinates": [[[112.2827629818377, 30.999782476623743], [112.2827629818377, 30.99960281356692], [112.28258331878088, 30.99960281356692], [112.28258331878088, 30.999063824396448], [112.2827629818377, 30.999063824396448], [112.2827629818377, 30.997087530771385], [112.28294264489452, 30.997087530771385], [112.28294264489452, 30.996728204657735], [112.28312230795134, 30.996728204657735], [112.28312230795134, 30.99600955243044], [112.28330197100817, 30.99600955243044], [112.28330197100817, 30.996189215487266], [112.283481634065, 30.996189215487266], [112.283481634065, 30.996728204657735], [112.28366129712182, 30.996728204657735], [112.28366129712182, 30.996548541600912], [112.28402062323546, 30.996548541600912], [112.28402062323546, 30.997626519941857], [112.28420028629229, 30.997626519941857], [112.28420028629229, 30.99780618299868], [112.28455961240594, 30.99780618299868], [112.28455961240594, 30.997267193828208], [112.28437994934912, 30.997267193828208], [112.28437994934912, 30.996728204657735], [112.28455961240594, 30.996728204657735], [112.28455961240594, 30.99636887854409], [112.28473927546277, 30.99636887854409], [112.28473927546277, 30.996548541600912], [112.28491893851958, 30.996548541600912], [112.28491893851958, 30.996728204657735], [112.28473927546277, 30.996728204657735], [112.28473927546277, 30.99690786771456], [112.28491893851958, 30.99690786771456], [112.28491893851958, 30.997087530771385], [112.28509860157641, 30.997087530771385], [112.28509860157641, 30.997267193828208], [112.28527826463323, 30.997267193828208], [112.28527826463323, 30.99744685688503], [112.28509860157641, 30.99744685688503], [112.28509860157641, 30.997626519941857], [112.28491893851958, 30.997626519941857], [112.28491893851958, 30.99780618299868], [112.28509860157641, 30.99780618299868], [112.28509860157641, 30.997985846055503], [112.28491893851958, 30.997985846055503], [112.28491893851958, 30.999063824396448], [112.28473927546277, 30.999063824396448], [112.28473927546277, 30.99924348745327], [112.28455961240594, 30.99924348745327], [112.28455961240594, 30.999423150510093], [112.28420028629229, 30.999423150510093], [112.28420028629229, 30.99924348745327], [112.28402062323546, 30.99924348745327], [112.28402062323546, 30.999063824396448], [112.28384096017865, 30.999063824396448], [112.28384096017865, 30.998884161339625], [112.28366129712182, 30.998884161339625], [112.28366129712182, 30.998704498282798], [112.283481634065, 30.998704498282798], [112.283481634065, 30.998884161339625], [112.28330197100817, 30.998884161339625], [112.28330197100817, 30.999063824396448], [112.28312230795134, 30.999063824396448], [112.28312230795134, 30.99960281356692], [112.28294264489452, 30.99960281356692], [112.28294264489452, 30.999782476623743], [112.2827629818377, 30.999782476623743]], [[112.28384096017865, 30.997985846055503], [112.283481634065, 30.997985846055503], [112.283481634065, 30.99780618299868], [112.28330197100817, 30.99780618299868], [112.28330197100817, 30.99744685688503], [112.283481634065, 30.99744685688503], [112.283481634065, 30.997626519941857], [112.28402062323546, 30.997626519941857], [112.28402062323546, 30.99780618299868], [112.28384096017865, 30.99780618299868], [112.28384096017865, 30.997985846055503]]]}, "properties": {"name": "cand07", "ptype": "hall", "confidence": "low", "rank": 7, "area_ha": 6.4, "rise_db": 8.0, "digitised_from": "Sentinel-1 VV rise 2022->2026, orbit 113"}}, {"type": "Feature", "geometry": {"geodesic": false, "type": "Polygon", "coordinates": [[[112.26838993729179, 31.028887891829214], [112.26838993729179, 31.02870822877239], [112.26821027423496, 31.02870822877239], [112.26821027423496, 31.02816923960192], [112.26838993729179, 31.02816923960192], [112.26838993729179, 31.027091261260978], [112.26785094812132, 31.027091261260978], [112.26785094812132, 31.02691159820415], [112.26803061117815, 31.02691159820415], [112.26803061117815, 31.02673193514733], [112.26785094812132, 31.02673193514733], [112.26785094812132, 31.026552272090505], [112.26803061117815, 31.026552272090505], [112.26803061117815, 31.026013282920033], [112.26785094812132, 31.026013282920033], [112.26785094812132, 31.02583361986321], [112.26749162200767, 31.02583361986321], [112.26749162200767, 31.025653956806384], [112.26821027423496, 31.025653956806384], [112.26821027423496, 31.02547429374956], [112.26838993729179, 31.02547429374956], [112.26838993729179, 31.025294630692738], [112.26856960034861, 31.025294630692738], [112.26856960034861, 31.025114967635915], [112.26874926340544, 31.025114967635915], [112.26874926340544, 31.025294630692738], [112.26910858951908, 31.025294630692738], [112.26910858951908, 31.02547429374956], [112.2692882525759, 31.02547429374956], [112.2692882525759, 31.025653956806384], [112.26964757868956, 31.025653956806384], [112.26964757868956, 31.02583361986321], [112.26982724174638, 31.02583361986321], [112.26982724174638, 31.026372609033682], [112.26964757868956, 31.026372609033682], [112.26964757868956, 31.02673193514733], [112.26946791563273, 31.02673193514733], [112.26946791563273, 31.02691159820415], [112.26910858951908, 31.02691159820415], [112.26910858951908, 31.027091261260978], [112.26892892646227, 31.027091261260978], [112.26892892646227, 31.027809913488273], [112.26910858951908, 31.027809913488273], [112.26910858951908, 31.028348902658745], [112.26892892646227, 31.028348902658745], [112.26892892646227, 31.028887891829214], [112.26838993729179, 31.028887891829214]]]}, "properties": {"name": "cand08", "ptype": "hall", "confidence": "low", "rank": 8, "area_ha": 5.0, "rise_db": 6.3, "digitised_from": "Sentinel-1 VV rise 2022->2026, orbit 113"}}, {"type": "Feature", "geometry": {"geodesic": false, "type": "Polygon", "coordinates": [[[112.26515600226895, 31.00571135749893], [112.26515600226895, 31.00553169444211], [112.26479667615531, 31.00553169444211], [112.26479667615531, 31.005352031385286], [112.26461701309849, 31.005352031385286], [112.26461701309849, 31.00553169444211], [112.26443735004166, 31.00553169444211], [112.26443735004166, 31.00517236832846], [112.26425768698483, 31.00517236832846], [112.26425768698483, 31.004992705271636], [112.26407802392802, 31.004992705271636], [112.26407802392802, 31.004813042214813], [112.2638983608712, 31.004813042214813], [112.2638983608712, 31.004633379157987], [112.26335937170072, 31.004633379157987], [112.26335937170072, 31.004992705271636], [112.26300004558708, 31.004992705271636], [112.26300004558708, 31.004813042214813], [112.26282038253025, 31.004813042214813], [112.26282038253025, 31.00427405304434], [112.26264071947342, 31.00427405304434], [112.26264071947342, 31.00391472693069], [112.2624610564166, 31.00391472693069], [112.2624610564166, 31.003555400817046], [112.26264071947342, 31.003555400817046], [112.26264071947342, 31.00337573776022], [112.26282038253025, 31.00337573776022], [112.26282038253025, 31.003196074703396], [112.26335937170072, 31.003196074703396], [112.26335937170072, 31.00337573776022], [112.26371869781437, 31.00337573776022], [112.26371869781437, 31.003555400817046], [112.26407802392802, 31.003555400817046], [112.26407802392802, 31.00391472693069], [112.26353903475754, 31.00391472693069], [112.26353903475754, 31.004094389987518], [112.26443735004166, 31.004094389987518], [112.26443735004166, 31.00427405304434], [112.26461701309849, 31.00427405304434], [112.26461701309849, 31.004633379157987], [112.26515600226895, 31.004633379157987], [112.26515600226895, 31.004813042214813], [112.26569499143943, 31.004813042214813], [112.26569499143943, 31.004992705271636], [112.26587465449626, 31.004992705271636], [112.26587465449626, 31.005352031385286], [112.26605431755308, 31.005352031385286], [112.26605431755308, 31.00553169444211], [112.26533566532578, 31.00553169444211], [112.26533566532578, 31.00571135749893], [112.26515600226895, 31.00571135749893]]]}, "properties": {"name": "cand09", "ptype": "hall", "confidence": "low", "rank": 9, "area_ha": 4.4, "rise_db": 8.3, "digitised_from": "Sentinel-1 VV rise 2022->2026, orbit 113"}}, {"type": "Feature", "geometry": {"geodesic": false, "type": "Polygon", "coordinates": [[[112.27934938375805, 30.999782476623743], [112.27934938375805, 30.99960281356692], [112.27916972070122, 30.99960281356692], [112.27916972070122, 30.999423150510093], [112.27881039458758, 30.999423150510093], [112.27881039458758, 30.99924348745327], [112.27863073153075, 30.99924348745327], [112.27863073153075, 30.99816550911233], [112.27881039458758, 30.99816550911233], [112.27881039458758, 30.997985846055503], [112.27863073153075, 30.997985846055503], [112.27863073153075, 30.99744685688503], [112.27952904681487, 30.99744685688503], [112.27952904681487, 30.997267193828208], [112.27934938375805, 30.997267193828208], [112.27934938375805, 30.997087530771385], [112.27916972070122, 30.997087530771385], [112.27916972070122, 30.99690786771456], [112.27899005764439, 30.99690786771456], [112.27899005764439, 30.996728204657735], [112.27881039458758, 30.996728204657735], [112.27881039458758, 30.99690786771456], [112.27863073153075, 30.99690786771456], [112.27863073153075, 30.997087530771385], [112.2782714054171, 30.997087530771385], [112.2782714054171, 30.99690786771456], [112.27845106847393, 30.99690786771456], [112.27845106847393, 30.996728204657735], [112.27863073153075, 30.996728204657735], [112.27863073153075, 30.996548541600912], [112.27881039458758, 30.996548541600912], [112.27881039458758, 30.996189215487266], [112.27952904681487, 30.996189215487266], [112.27952904681487, 30.995829889373617], [112.27988837292853, 30.995829889373617], [112.27988837292853, 30.996728204657735], [112.28006803598534, 30.996728204657735], [112.28006803598534, 30.99690786771456], [112.27988837292853, 30.99690786771456], [112.27988837292853, 30.997087530771385], [112.2797087098717, 30.997087530771385], [112.2797087098717, 30.998884161339625], [112.27952904681487, 30.998884161339625], [112.27952904681487, 30.999063824396448], [112.27934938375805, 30.999063824396448], [112.27934938375805, 30.99924348745327], [112.2797087098717, 30.99924348745327], [112.2797087098717, 30.99960281356692], [112.27952904681487, 30.99960281356692], [112.27952904681487, 30.999782476623743], [112.27934938375805, 30.999782476623743]]]}, "properties": {"name": "cand10", "ptype": "hall", "confidence": "low", "rank": 10, "area_ha": 4.2, "rise_db": 8.2, "digitised_from": "Sentinel-1 VV rise 2022->2026, orbit 113"}}, {"type": "Feature", "geometry": {"geodesic": false, "type": "Polygon", "coordinates": [[[112.2624610564166, 31.018647097590254], [112.2624610564166, 31.018467434533427], [112.26228139335977, 31.018467434533427], [112.26228139335977, 31.01810810841978], [112.2624610564166, 31.01810810841978], [112.2624610564166, 31.01792844536296], [112.26264071947342, 31.01792844536296], [112.26264071947342, 31.01756911924931], [112.26282038253025, 31.01756911924931], [112.26282038253025, 31.016850467022014], [112.26317970864389, 31.016850467022014], [112.26317970864389, 31.01667080396519], [112.2638983608712, 31.01667080396519], [112.2638983608712, 31.015952151737896], [112.26425768698483, 31.015952151737896], [112.26425768698483, 31.01577248868107], [112.26443735004166, 31.01577248868107], [112.26443735004166, 31.016491140908364], [112.26425768698483, 31.016491140908364], [112.26425768698483, 31.01667080396519], [112.26407802392802, 31.01667080396519], [112.26407802392802, 31.017030130078837], [112.26425768698483, 31.017030130078837], [112.26425768698483, 31.017209793135663], [112.26443735004166, 31.017209793135663], [112.26443735004166, 31.018287771476604], [112.26371869781437, 31.018287771476604], [112.26371869781437, 31.018467434533427], [112.26353903475754, 31.018467434533427], [112.26353903475754, 31.018287771476604], [112.26317970864389, 31.018287771476604], [112.26317970864389, 31.018467434533427], [112.26300004558708, 31.018467434533427], [112.26300004558708, 31.018647097590254], [112.2624610564166, 31.018647097590254]]]}, "properties": {"name": "cand11", "ptype": "hall", "confidence": "low", "rank": 11, "area_ha": 4.1, "rise_db": 8.3, "digitised_from": "Sentinel-1 VV rise 2022->2026, orbit 113"}}, {"type": "Feature", "geometry": {"geodesic": false, "type": "Polygon", "coordinates": [[[112.29156647162208, 30.986667073475598], [112.29156647162208, 30.986487410418775], [112.29138680856525, 30.986487410418775], [112.29138680856525, 30.98630774736195], [112.2910274824516, 30.98630774736195], [112.2910274824516, 30.986128084305125], [112.29084781939477, 30.986128084305125], [112.29084781939477, 30.985948421248303], [112.29066815633796, 30.985948421248303], [112.29066815633796, 30.985589095134653], [112.29012916716748, 30.985589095134653], [112.29012916716748, 30.98576875819148], [112.28976984105384, 30.98576875819148], [112.28976984105384, 30.985948421248303], [112.28923085188336, 30.985948421248303], [112.28923085188336, 30.98576875819148], [112.28887152576971, 30.98576875819148], [112.28887152576971, 30.985229769021007], [112.28923085188336, 30.985229769021007], [112.28923085188336, 30.98540943207783], [112.28994950411065, 30.98540943207783], [112.28994950411065, 30.985229769021007], [112.29012916716748, 30.985229769021007], [112.29012916716748, 30.98540943207783], [112.29066815633796, 30.98540943207783], [112.29066815633796, 30.985050105964184], [112.29048849328113, 30.985050105964184], [112.29048849328113, 30.984151790680063], [112.29066815633796, 30.984151790680063], [112.29066815633796, 30.98397212762324], [112.2917461346789, 30.98397212762324], [112.2917461346789, 30.984151790680063], [112.29192579773571, 30.984151790680063], [112.29192579773571, 30.98576875819148], [112.29156647162208, 30.98576875819148], [112.29156647162208, 30.985948421248303], [112.29138680856525, 30.985948421248303], [112.29138680856525, 30.986128084305125], [112.29156647162208, 30.986128084305125], [112.29156647162208, 30.98630774736195], [112.29192579773571, 30.98630774736195], [112.29192579773571, 30.986487410418775], [112.2917461346789, 30.986487410418775], [112.2917461346789, 30.986667073475598], [112.29156647162208, 30.986667073475598]], [[112.29138680856525, 30.985229769021007], [112.29084781939477, 30.985229769021007], [112.29084781939477, 30.985050105964184], [112.29066815633796, 30.985050105964184], [112.29066815633796, 30.984870442907358], [112.29084781939477, 30.984870442907358], [112.29084781939477, 30.984690779850535], [112.2910274824516, 30.984690779850535], [112.2910274824516, 30.984511116793712], [112.29120714550842, 30.984511116793712], [112.29120714550842, 30.984690779850535], [112.29138680856525, 30.984690779850535], [112.29138680856525, 30.985229769021007]]]}, "properties": {"name": "cand12", "ptype": "hall", "confidence": "low", "rank": 12, "area_ha": 4.0, "rise_db": 7.4, "digitised_from": "Sentinel-1 VV rise 2022->2026, orbit 113"}}, {"type": "Feature", "geometry": {"geodesic": false, "type": "Polygon", "coordinates": [[[112.27198319842827, 31.00750798806717], [112.27198319842827, 31.006250346669404], [112.27216286148509, 31.006250346669404], [112.27216286148509, 31.005891020555755], [112.27234252454191, 31.005891020555755], [112.27234252454191, 31.004992705271636], [112.27252218759874, 31.004992705271636], [112.27252218759874, 31.004813042214813], [112.27270185065557, 31.004813042214813], [112.27270185065557, 31.00427405304434], [112.27288151371239, 31.00427405304434], [112.27288151371239, 31.00391472693069], [112.2730611767692, 31.00391472693069], [112.2730611767692, 31.003016411646573], [112.27324083982603, 31.003016411646573], [112.27324083982603, 31.002657085532924], [112.27360016593968, 31.002657085532924], [112.27360016593968, 31.00283674858975], [112.27377982899651, 31.00283674858975], [112.27377982899651, 31.00337573776022], [112.27360016593968, 31.00337573776022], [112.27360016593968, 31.003555400817046], [112.27342050288286, 31.003555400817046], [112.27342050288286, 31.00373506387387], [112.27324083982603, 31.00373506387387], [112.27324083982603, 31.004094389987518], [112.2730611767692, 31.004094389987518], [112.2730611767692, 31.004992705271636], [112.27288151371239, 31.004992705271636], [112.27288151371239, 31.00553169444211], [112.2730611767692, 31.00553169444211], [112.2730611767692, 31.00607068361258], [112.27288151371239, 31.00607068361258], [112.27288151371239, 31.006250346669404], [112.27252218759874, 31.006250346669404], [112.27252218759874, 31.0069689988967], [112.27234252454191, 31.0069689988967], [112.27234252454191, 31.00750798806717], [112.27198319842827, 31.00750798806717]]]}, "properties": {"name": "cand13", "ptype": "hall", "confidence": "low", "rank": 13, "area_ha": 3.0, "rise_db": 5.5, "digitised_from": "Sentinel-1 VV rise 2022->2026, orbit 113"}}, {"type": "Feature", "geometry": {"geodesic": false, "type": "Polygon", "coordinates": [[[112.26282038253025, 31.020084402044844], [112.26282038253025, 31.019545412874372], [112.26264071947342, 31.019545412874372], [112.26264071947342, 31.01936574981755], [112.2624610564166, 31.01936574981755], [112.2624610564166, 31.019186086760726], [112.26228139335977, 31.019186086760726], [112.26228139335977, 31.0190064237039], [112.26300004558708, 31.0190064237039], [112.26300004558708, 31.018826760647077], [112.26425768698483, 31.018826760647077], [112.26425768698483, 31.018647097590254], [112.26443735004166, 31.018647097590254], [112.26443735004166, 31.018826760647077], [112.26461701309849, 31.018826760647077], [112.26461701309849, 31.019186086760726], [112.26443735004166, 31.019186086760726], [112.26443735004166, 31.019545412874372], [112.26461701309849, 31.019545412874372], [112.26461701309849, 31.01990473898802], [112.26425768698483, 31.01990473898802], [112.26425768698483, 31.020084402044844], [112.26282038253025, 31.020084402044844]], [[112.26371869781437, 31.019186086760726], [112.26353903475754, 31.019186086760726], [112.26353903475754, 31.0190064237039], [112.26371869781437, 31.0190064237039], [112.26371869781437, 31.019186086760726]]]}, "properties": {"name": "cand14", "ptype": "hall", "confidence": "low", "rank": 14, "area_ha": 2.8, "rise_db": 7.6, "digitised_from": "Sentinel-1 VV rise 2022->2026, orbit 113"}}, {"type": "Feature", "geometry": {"geodesic": false, "type": "Polygon", "coordinates": [[[112.25707116471189, 31.003196074703396], [112.25707116471189, 31.003016411646573], [112.25689150165506, 31.003016411646573], [112.25689150165506, 31.00283674858975], [112.25671183859824, 31.00283674858975], [112.25671183859824, 31.002657085532924], [112.25653217554141, 31.002657085532924], [112.25653217554141, 31.002297759419278], [112.25635251248458, 31.002297759419278], [112.25635251248458, 31.002118096362455], [112.25617284942776, 31.002118096362455], [112.25617284942776, 31.001579107191983], [112.25653217554141, 31.001579107191983], [112.25653217554141, 31.001758770248806], [112.25671183859824, 31.001758770248806], [112.25671183859824, 31.00193843330563], [112.25689150165506, 31.00193843330563], [112.25689150165506, 31.001579107191983], [112.25671183859824, 31.001579107191983], [112.25671183859824, 31.001399444135156], [112.25707116471189, 31.001399444135156], [112.25707116471189, 31.001219781078333], [112.25761015388235, 31.001219781078333], [112.25761015388235, 31.00104011802151], [112.257969479996, 31.00104011802151], [112.257969479996, 31.001219781078333], [112.25814914305283, 31.001219781078333], [112.25814914305283, 31.002118096362455], [112.257969479996, 31.002118096362455], [112.257969479996, 31.002297759419278], [112.2572508277687, 31.002297759419278], [112.2572508277687, 31.0024774224761], [112.25707116471189, 31.0024774224761], [112.25707116471189, 31.00283674858975], [112.25743049082553, 31.00283674858975], [112.25743049082553, 31.003016411646573], [112.25761015388235, 31.003016411646573], [112.25761015388235, 31.003196074703396], [112.25707116471189, 31.003196074703396]]]}, "properties": {"name": "cand15", "ptype": "hall", "confidence": "low", "rank": 15, "area_ha": 2.8, "rise_db": 6.8, "digitised_from": "Sentinel-1 VV rise 2022->2026, orbit 113"}}, {"type": "Feature", "geometry": {"geodesic": false, "type": "Polygon", "coordinates": [[[112.28258331878088, 30.99511123714632], [112.28258331878088, 30.9949315740895], [112.28240365572405, 30.9949315740895], [112.28240365572405, 30.994751911032672], [112.28222399266723, 30.994751911032672], [112.28222399266723, 30.99457224797585], [112.28150534043994, 30.99457224797585], [112.28150534043994, 30.994392584919026], [112.28132567738311, 30.994392584919026], [112.28132567738311, 30.99367393269173], [112.28150534043994, 30.99367393269173], [112.28150534043994, 30.993314606578082], [112.28096635126946, 30.993314606578082], [112.28096635126946, 30.992955280464436], [112.28114601432628, 30.992955280464436], [112.28114601432628, 30.99277561740761], [112.28168500349676, 30.99277561740761], [112.28168500349676, 30.99313494352126], [112.28240365572405, 30.99313494352126], [112.28240365572405, 30.993494269634905], [112.28222399266723, 30.993494269634905], [112.28222399266723, 30.993853595748554], [112.28240365572405, 30.993853595748554], [112.28240365572405, 30.994033258805377], [112.28258331878088, 30.994033258805377], [112.28258331878088, 30.994212921862204], [112.2827629818377, 30.994212921862204], [112.2827629818377, 30.9949315740895], [112.28294264489452, 30.9949315740895], [112.28294264489452, 30.99511123714632], [112.28258331878088, 30.99511123714632]]]}, "properties": {"name": "cand16", "ptype": "hall", "confidence": "low", "rank": 16, "area_ha": 2.6, "rise_db": 7.0, "digitised_from": "Sentinel-1 VV rise 2022->2026, orbit 113"}}, {"type": "Feature", "geometry": {"geodesic": false, "type": "Polygon", "coordinates": [[[112.24629138130244, 30.970856724475095], [112.24629138130244, 30.969239756963677], [112.24647104435927, 30.969239756963677], [112.24647104435927, 30.969060093906855], [112.24683037047292, 30.969060093906855], [112.24683037047292, 30.96977874613415], [112.24718969658657, 30.96977874613415], [112.24718969658657, 30.969599083077327], [112.24754902270021, 30.969599083077327], [112.24754902270021, 30.969419420020504], [112.2482676749275, 30.969419420020504], [112.2482676749275, 30.969958409190976], [112.24808801187069, 30.969958409190976], [112.24808801187069, 30.970317735304622], [112.24790834881387, 30.970317735304622], [112.24790834881387, 30.970497398361445], [112.2466507074161, 30.970497398361445], [112.2466507074161, 30.97067706141827], [112.24647104435927, 30.97067706141827], [112.24647104435927, 30.970856724475095], [112.24629138130244, 30.970856724475095]], [[112.24772868575704, 30.9701380722478], [112.24754902270021, 30.9701380722478], [112.24754902270021, 30.969958409190976], [112.24772868575704, 30.969958409190976], [112.24772868575704, 30.9701380722478]]]}, "properties": {"name": "cand17", "ptype": "hall", "confidence": "low", "rank": 17, "area_ha": 2.5, "rise_db": 8.1, "digitised_from": "Sentinel-1 VV rise 2022->2026, orbit 113"}}, {"type": "Feature", "geometry": {"geodesic": false, "type": "Polygon", "coordinates": [[[112.29048849328113, 31.017030130078837], [112.29048849328113, 31.016850467022014], [112.2903088302243, 31.016850467022014], [112.2903088302243, 31.016491140908364], [112.29012916716748, 31.016491140908364], [112.29012916716748, 31.01577248868107], [112.28994950411065, 31.01577248868107], [112.28994950411065, 31.015952151737896], [112.28976984105384, 31.015952151737896], [112.28976984105384, 31.01577248868107], [112.28959017799701, 31.01577248868107], [112.28959017799701, 31.015592825624246], [112.29048849328113, 31.015592825624246], [112.29048849328113, 31.015413162567423], [112.29066815633796, 31.015413162567423], [112.29066815633796, 31.015592825624246], [112.29120714550842, 31.015592825624246], [112.29120714550842, 31.01577248868107], [112.29138680856525, 31.01577248868107], [112.29138680856525, 31.016491140908364], [112.29156647162208, 31.016491140908364], [112.29156647162208, 31.017030130078837], [112.29048849328113, 31.017030130078837]]]}, "properties": {"name": "cand18", "ptype": "hall", "confidence": "low", "rank": 18, "area_ha": 2.4, "rise_db": 7.4, "digitised_from": "Sentinel-1 VV rise 2022->2026, orbit 113"}}, {"type": "Feature", "geometry": {"geodesic": false, "type": "Polygon", "coordinates": [[[112.28473927546277, 30.994751911032672], [112.28473927546277, 30.994033258805377], [112.28437994934912, 30.994033258805377], [112.28437994934912, 30.993494269634905], [112.28509860157641, 30.993494269634905], [112.28509860157641, 30.993314606578082], [112.28581725380371, 30.993314606578082], [112.28581725380371, 30.993494269634905], [112.286535906031, 30.993494269634905], [112.286535906031, 30.99367393269173], [112.28671556908783, 30.99367393269173], [112.28671556908783, 30.994033258805377], [112.286535906031, 30.994033258805377], [112.286535906031, 30.994212921862204], [112.28563759074689, 30.994212921862204], [112.28563759074689, 30.994392584919026], [112.28527826463323, 30.994392584919026], [112.28527826463323, 30.994212921862204], [112.28509860157641, 30.994212921862204], [112.28509860157641, 30.994392584919026], [112.28491893851958, 30.994392584919026], [112.28491893851958, 30.994751911032672], [112.28473927546277, 30.994751911032672]]]}, "properties": {"name": "cand19", "ptype": "hall", "confidence": "low", "rank": 19, "area_ha": 2.3, "rise_db": 7.7, "digitised_from": "Sentinel-1 VV rise 2022->2026, orbit 113"}}, {"type": "Feature", "geometry": {"geodesic": false, "type": "Polygon", "coordinates": [[[112.25132194689351, 31.02547429374956], [112.25132194689351, 31.025294630692738], [112.2504236316094, 31.025294630692738], [112.2504236316094, 31.024755641522265], [112.2497049793821, 31.024755641522265], [112.2497049793821, 31.025114967635915], [112.24952531632528, 31.025114967635915], [112.24952531632528, 31.02493530457909], [112.24934565326845, 31.02493530457909], [112.24934565326845, 31.025294630692738], [112.24916599021164, 31.025294630692738], [112.24916599021164, 31.02493530457909], [112.24934565326845, 31.02493530457909], [112.24934565326845, 31.024755641522265], [112.24952531632528, 31.024755641522265], [112.24952531632528, 31.02439631540862], [112.2497049793821, 31.02439631540862], [112.2497049793821, 31.024216652351793], [112.25006430549575, 31.024216652351793], [112.25006430549575, 31.02439631540862], [112.25096262077987, 31.02439631540862], [112.25096262077987, 31.024216652351793], [112.25168127300716, 31.024216652351793], [112.25168127300716, 31.025294630692738], [112.25150160995034, 31.025294630692738], [112.25150160995034, 31.02547429374956], [112.25132194689351, 31.02547429374956]]]}, "properties": {"name": "cand20", "ptype": "hall", "confidence": "low", "rank": 20, "area_ha": 2.3, "rise_db": 7.1, "digitised_from": "Sentinel-1 VV rise 2022->2026, orbit 113"}}, {"type": "Feature", "geometry": {"geodesic": false, "type": "Polygon", "coordinates": [[[112.27503747039427, 31.007148661953522], [112.27503747039427, 31.0069689988967], [112.2744984812238, 31.0069689988967], [112.2744984812238, 31.00607068361258], [112.27467814428063, 31.00607068361258], [112.27467814428063, 31.005891020555755], [112.27503747039427, 31.005891020555755], [112.27503747039427, 31.00571135749893], [112.2752171334511, 31.00571135749893], [112.2752171334511, 31.00553169444211], [112.27485780733745, 31.00553169444211], [112.27485780733745, 31.005352031385286], [112.27467814428063, 31.005352031385286], [112.27467814428063, 31.00517236832846], [112.27503747039427, 31.00517236832846], [112.27503747039427, 31.005352031385286], [112.2752171334511, 31.005352031385286], [112.2752171334511, 31.00553169444211], [112.27557645956475, 31.00553169444211], [112.27557645956475, 31.00571135749893], [112.27575612262157, 31.00571135749893], [112.27575612262157, 31.005891020555755], [112.27557645956475, 31.005891020555755], [112.27557645956475, 31.00607068361258], [112.27539679650792, 31.00607068361258], [112.27539679650792, 31.006250346669404], [112.2759357856784, 31.006250346669404], [112.2759357856784, 31.00660967278305], [112.27575612262157, 31.00660967278305], [112.27575612262157, 31.0069689988967], [112.27557645956475, 31.0069689988967], [112.27557645956475, 31.007148661953522], [112.27503747039427, 31.007148661953522]], [[112.27539679650792, 31.00607068361258], [112.2752171334511, 31.00607068361258], [112.2752171334511, 31.005891020555755], [112.27539679650792, 31.005891020555755], [112.27539679650792, 31.00607068361258]]]}, "properties": {"name": "cand21", "ptype": "hall", "confidence": "low", "rank": 21, "area_ha": 2.1, "rise_db": 6.1, "digitised_from": "Sentinel-1 VV rise 2022->2026, orbit 113"}}, {"type": "Feature", "geometry": {"geodesic": false, "type": "Polygon", "coordinates": [[[112.26749162200767, 31.02403698929497], [112.26749162200767, 31.023857326238147], [112.2676712850645, 31.023857326238147], [112.2676712850645, 31.02367766318132], [112.26785094812132, 31.02367766318132], [112.26785094812132, 31.023498000124498], [112.2676712850645, 31.023498000124498], [112.2676712850645, 31.022779347897202], [112.26821027423496, 31.022779347897202], [112.26821027423496, 31.02259968484038], [112.2692882525759, 31.02259968484038], [112.2692882525759, 31.022959010954025], [112.26874926340544, 31.022959010954025], [112.26874926340544, 31.023318337067675], [112.26892892646227, 31.023318337067675], [112.26892892646227, 31.023498000124498], [112.26874926340544, 31.023498000124498], [112.26874926340544, 31.02367766318132], [112.26856960034861, 31.02367766318132], [112.26856960034861, 31.023857326238147], [112.26785094812132, 31.023857326238147], [112.26785094812132, 31.02403698929497], [112.26749162200767, 31.02403698929497]]]}, "properties": {"name": "cand22", "ptype": "hall", "confidence": "low", "rank": 22, "area_ha": 1.8, "rise_db": 8.5, "digitised_from": "Sentinel-1 VV rise 2022->2026, orbit 113"}}, {"type": "Feature", "geometry": {"geodesic": false, "type": "Polygon", "coordinates": [[[112.29426141747443, 31.017389456192486], [112.29426141747443, 31.017209793135663], [112.2940817544176, 31.017209793135663], [112.2940817544176, 31.016850467022014], [112.29390209136078, 31.016850467022014], [112.29390209136078, 31.016491140908364], [112.29372242830397, 31.016491140908364], [112.29372242830397, 31.015952151737896], [112.29390209136078, 31.015952151737896], [112.29390209136078, 31.01577248868107], [112.29462074358808, 31.01577248868107], [112.29462074358808, 31.015952151737896], [112.2948004066449, 31.015952151737896], [112.2948004066449, 31.017209793135663], [112.29462074358808, 31.017209793135663], [112.29462074358808, 31.017389456192486], [112.29426141747443, 31.017389456192486]]]}, "properties": {"name": "cand23", "ptype": "hall", "confidence": "low", "rank": 23, "area_ha": 1.7, "rise_db": 7.9, "digitised_from": "Sentinel-1 VV rise 2022->2026, orbit 113"}}, {"type": "Feature", "geometry": {"geodesic": false, "type": "Polygon", "coordinates": [[[112.25832880610965, 31.00427405304434], [112.25832880610965, 31.004094389987518], [112.25814914305283, 31.004094389987518], [112.25814914305283, 31.003555400817046], [112.25832880610965, 31.003555400817046], [112.25832880610965, 31.00283674858975], [112.25886779528012, 31.00283674858975], [112.25886779528012, 31.003016411646573], [112.25904745833695, 31.003016411646573], [112.25904745833695, 31.003196074703396], [112.25940678445059, 31.003196074703396], [112.25940678445059, 31.00373506387387], [112.25922712139376, 31.00373506387387], [112.25922712139376, 31.00391472693069], [112.25904745833695, 31.00391472693069], [112.25904745833695, 31.004094389987518], [112.25886779528012, 31.004094389987518], [112.25886779528012, 31.00427405304434], [112.25832880610965, 31.00427405304434]]]}, "properties": {"name": "cand24", "ptype": "hall", "confidence": "low", "rank": 24, "area_ha": 1.6, "rise_db": 6.8, "digitised_from": "Sentinel-1 VV rise 2022->2026, orbit 113"}}, {"type": "Feature", "geometry": {"geodesic": false, "type": "Polygon", "coordinates": [[[112.27845106847393, 31.00876562946494], [112.27845106847393, 31.008585966408113], [112.2782714054171, 31.008585966408113], [112.2782714054171, 31.00840630335129], [112.27809174236027, 31.00840630335129], [112.27809174236027, 31.008226640294467], [112.2782714054171, 31.008226640294467], [112.2782714054171, 31.008046977237644], [112.27845106847393, 31.008046977237644], [112.27845106847393, 31.007867314180817], [112.27934938375805, 31.007867314180817], [112.27934938375805, 31.008046977237644], [112.27952904681487, 31.008046977237644], [112.27952904681487, 31.008226640294467], [112.2797087098717, 31.008226640294467], [112.2797087098717, 31.00840630335129], [112.28006803598534, 31.00840630335129], [112.28006803598534, 31.00876562946494], [112.27845106847393, 31.00876562946494]]]}, "properties": {"name": "cand25", "ptype": "hall", "confidence": "low", "rank": 25, "area_ha": 1.6, "rise_db": 10.9, "digitised_from": "Sentinel-1 VV rise 2022->2026, orbit 113"}}, {"type": "Feature", "geometry": {"geodesic": false, "type": "Polygon", "coordinates": [[[112.28114601432628, 31.008945292521762], [112.28114601432628, 31.00876562946494], [112.28078668821264, 31.00876562946494], [112.28078668821264, 31.00840630335129], [112.28096635126946, 31.00840630335129], [112.28096635126946, 31.008226640294467], [112.28114601432628, 31.008226640294467], [112.28114601432628, 31.007867314180817], [112.2820443296104, 31.007867314180817], [112.2820443296104, 31.008046977237644], [112.2827629818377, 31.008046977237644], [112.2827629818377, 31.00840630335129], [112.28240365572405, 31.00840630335129], [112.28240365572405, 31.008226640294467], [112.2820443296104, 31.008226640294467], [112.2820443296104, 31.00840630335129], [112.28186466655359, 31.00840630335129], [112.28186466655359, 31.008585966408113], [112.28150534043994, 31.008585966408113], [112.28150534043994, 31.00876562946494], [112.28132567738311, 31.00876562946494], [112.28132567738311, 31.008945292521762], [112.28114601432628, 31.008945292521762]]]}, "properties": {"name": "cand26", "ptype": "hall", "confidence": "low", "rank": 26, "area_ha": 1.3, "rise_db": 9.6, "digitised_from": "Sentinel-1 VV rise 2022->2026, orbit 113"}}, {"type": "Feature", "geometry": {"geodesic": false, "type": "Polygon", "coordinates": [[[112.2655153283826, 31.028887891829214], [112.2655153283826, 31.02816923960192], [112.26569499143943, 31.02816923960192], [112.26569499143943, 31.027809913488273], [112.26605431755308, 31.027809913488273], [112.26605431755308, 31.027989576545096], [112.2662339806099, 31.027989576545096], [112.2662339806099, 31.02816923960192], [112.26641364366672, 31.02816923960192], [112.26641364366672, 31.028348902658745], [112.26659330672355, 31.028348902658745], [112.26659330672355, 31.02852856571557], [112.26677296978038, 31.02852856571557], [112.26677296978038, 31.028887891829214], [112.2655153283826, 31.028887891829214]]]}, "properties": {"name": "cand27", "ptype": "hall", "confidence": "low", "rank": 27, "area_ha": 1.2, "rise_db": 9.1, "digitised_from": "Sentinel-1 VV rise 2022->2026, orbit 113"}}, {"type": "Feature", "geometry": {"geodesic": false, "type": "Polygon", "coordinates": [[[112.2886918627129, 30.987565388759716], [112.2886918627129, 30.987385725702893], [112.28851219965607, 30.987385725702893], [112.28851219965607, 30.987026399589247], [112.28833253659924, 30.987026399589247], [112.28833253659924, 30.98684673653242], [112.28815287354242, 30.98684673653242], [112.28815287354242, 30.986667073475598], [112.28797321048559, 30.986667073475598], [112.28797321048559, 30.98630774736195], [112.28815287354242, 30.98630774736195], [112.28815287354242, 30.986128084305125], [112.28851219965607, 30.986128084305125], [112.28851219965607, 30.98630774736195], [112.2886918627129, 30.98630774736195], [112.2886918627129, 30.986487410418775], [112.28887152576971, 30.986487410418775], [112.28887152576971, 30.986667073475598], [112.28905118882653, 30.986667073475598], [112.28905118882653, 30.987385725702893], [112.28923085188336, 30.987385725702893], [112.28923085188336, 30.987565388759716], [112.2886918627129, 30.987565388759716]]]}, "properties": {"name": "cand28", "ptype": "hall", "confidence": "low", "rank": 28, "area_ha": 1.2, "rise_db": 5.5, "digitised_from": "Sentinel-1 VV rise 2022->2026, orbit 113"}}, {"type": "Feature", "geometry": {"geodesic": false, "type": "Polygon", "coordinates": [[[112.26228139335977, 31.023138674010852], [112.26228139335977, 31.022959010954025], [112.26210173030296, 31.022959010954025], [112.26210173030296, 31.02259968484038], [112.26192206724613, 31.02259968484038], [112.26192206724613, 31.022420021783557], [112.2617424041893, 31.022420021783557], [112.2617424041893, 31.02259968484038], [112.26156274113248, 31.02259968484038], [112.26156274113248, 31.022420021783557], [112.26138307807565, 31.022420021783557], [112.26138307807565, 31.02224035872673], [112.26156274113248, 31.02224035872673], [112.26156274113248, 31.022060695669907], [112.26228139335977, 31.022060695669907], [112.26228139335977, 31.021881032613084], [112.2624610564166, 31.021881032613084], [112.2624610564166, 31.022060695669907], [112.26264071947342, 31.022060695669907], [112.26264071947342, 31.023138674010852], [112.26228139335977, 31.023138674010852]]]}, "properties": {"name": "cand29", "ptype": "hall", "confidence": "low", "rank": 29, "area_ha": 1.1, "rise_db": 7.3, "digitised_from": "Sentinel-1 VV rise 2022->2026, orbit 113"}}]}