{"type": "FeatureCollection", "features": [{"type": "Feature", "geometry": {"geodesic": false, "type": "Polygon", "coordinates": [[[114.65054240771994, 30.532478865824768], [114.65054240771994, 30.532299202767945], [114.65018308160629, 30.532299202767945], [114.65018308160629, 30.531939876654295], [114.65054240771994, 30.531939876654295], [114.65054240771994, 30.531760213597472], [114.65072207077677, 30.531760213597472], [114.65072207077677, 30.53158055054065], [114.65054240771994, 30.53158055054065], [114.65054240771994, 30.531400887483823], [114.65036274466311, 30.531400887483823], [114.65036274466311, 30.531221224427], [114.65018308160629, 30.531221224427], [114.65018308160629, 30.531400887483823], [114.64982375549263, 30.531400887483823], [114.64982375549263, 30.531760213597472], [114.64964409243582, 30.531760213597472], [114.64964409243582, 30.532299202767945], [114.649464429379, 30.532299202767945], [114.649464429379, 30.532478865824768], [114.64928476632217, 30.532478865824768], [114.64928476632217, 30.532299202767945], [114.64910510326534, 30.532299202767945], [114.64910510326534, 30.532119539711122], [114.6487457771517, 30.532119539711122], [114.6487457771517, 30.532299202767945], [114.64856611409488, 30.532299202767945], [114.64856611409488, 30.532119539711122], [114.6487457771517, 30.532119539711122], [114.6487457771517, 30.531760213597472], [114.64910510326534, 30.531760213597472], [114.64910510326534, 30.531939876654295], [114.64928476632217, 30.531939876654295], [114.64928476632217, 30.531221224427], [114.649464429379, 30.531221224427], [114.649464429379, 30.531041561370177], [114.64964409243582, 30.531041561370177], [114.64964409243582, 30.530682235256528], [114.64982375549263, 30.530682235256528], [114.64982375549263, 30.529244930801937], [114.65018308160629, 30.529244930801937], [114.65018308160629, 30.529065267745114], [114.65036274466311, 30.529065267745114], [114.65036274466311, 30.528705941631465], [114.64964409243582, 30.528705941631465], [114.64964409243582, 30.528526278574642], [114.64856611409488, 30.528526278574642], [114.64856611409488, 30.528166952460992], [114.6480271249244, 30.528166952460992], [114.6480271249244, 30.527807626347347], [114.64838645103805, 30.527807626347347], [114.64838645103805, 30.527448300233697], [114.64856611409488, 30.527448300233697], [114.64856611409488, 30.527268637176874], [114.64892544020852, 30.527268637176874], [114.64892544020852, 30.52708897412005], [114.64910510326534, 30.52708897412005], [114.64910510326534, 30.52690931106323], [114.649464429379, 30.52690931106323], [114.649464429379, 30.52708897412005], [114.64982375549263, 30.52708897412005], [114.64982375549263, 30.527268637176874], [114.65000341854946, 30.527268637176874], [114.65000341854946, 30.527448300233697], [114.65072207077677, 30.527448300233697], [114.65072207077677, 30.527627963290524], [114.65090173383358, 30.527627963290524], [114.65090173383358, 30.527807626347347], [114.6510813968904, 30.527807626347347], [114.6510813968904, 30.52834661551782], [114.65090173383358, 30.52834661551782], [114.65090173383358, 30.528526278574642], [114.6510813968904, 30.528526278574642], [114.6510813968904, 30.528705941631465], [114.65126105994723, 30.528705941631465], [114.65126105994723, 30.52888560468829], [114.6510813968904, 30.52888560468829], [114.6510813968904, 30.529065267745114], [114.65090173383358, 30.529065267745114], [114.65090173383358, 30.52942459385876], [114.65162038606088, 30.52942459385876], [114.65162038606088, 30.529065267745114], [114.65144072300406, 30.529065267745114], [114.65144072300406, 30.528705941631465], [114.6518000491177, 30.528705941631465], [114.6518000491177, 30.52888560468829], [114.65197971217452, 30.52888560468829], [114.65197971217452, 30.52798728940417], [114.652518701345, 30.52798728940417], [114.652518701345, 30.528166952460992], [114.65269836440183, 30.528166952460992], [114.65269836440183, 30.52798728940417], [114.65287802745864, 30.52798728940417], [114.65287802745864, 30.528166952460992], [114.65269836440183, 30.528166952460992], [114.65269836440183, 30.52834661551782], [114.65287802745864, 30.52834661551782], [114.65287802745864, 30.528526278574642], [114.65269836440183, 30.528526278574642], [114.65269836440183, 30.52834661551782], [114.652518701345, 30.52834661551782], [114.652518701345, 30.52888560468829], [114.65233903828818, 30.52888560468829], [114.65233903828818, 30.529244930801937], [114.652518701345, 30.529244930801937], [114.652518701345, 30.52942459385876], [114.65269836440183, 30.52942459385876], [114.65269836440183, 30.529604256915587], [114.6532373535723, 30.529604256915587], [114.6532373535723, 30.52942459385876], [114.65359667968595, 30.52942459385876], [114.65359667968595, 30.52978391997241], [114.65377634274276, 30.52978391997241], [114.65377634274276, 30.529963583029232], [114.65395600579959, 30.529963583029232], [114.65395600579959, 30.530143246086055], [114.65413566885641, 30.530143246086055], [114.65413566885641, 30.530502572199705], [114.65395600579959, 30.530502572199705], [114.65395600579959, 30.530682235256528], [114.65359667968595, 30.530682235256528], [114.65359667968595, 30.530861898313354], [114.6532373535723, 30.530861898313354], [114.6532373535723, 30.531221224427], [114.65305769051547, 30.531221224427], [114.65305769051547, 30.530861898313354], [114.652518701345, 30.530861898313354], [114.652518701345, 30.531041561370177], [114.65233903828818, 30.531041561370177], [114.65233903828818, 30.531221224427], [114.65215937523135, 30.531221224427], [114.65215937523135, 30.531400887483823], [114.65233903828818, 30.531400887483823], [114.65233903828818, 30.53158055054065], [114.652518701345, 30.53158055054065], [114.652518701345, 30.531760213597472], [114.65233903828818, 30.531760213597472], [114.65233903828818, 30.532119539711122], [114.65197971217452, 30.532119539711122], [114.65197971217452, 30.532299202767945], [114.6510813968904, 30.532299202767945], [114.6510813968904, 30.532478865824768], [114.65054240771994, 30.532478865824768]], [[114.65144072300406, 30.530502572199705], [114.6510813968904, 30.530502572199705], [114.6510813968904, 30.530322909142882], [114.65054240771994, 30.530322909142882], [114.65054240771994, 30.530143246086055], [114.65072207077677, 30.530143246086055], [114.65072207077677, 30.529963583029232], [114.65090173383358, 30.529963583029232], [114.65090173383358, 30.530143246086055], [114.65126105994723, 30.530143246086055], [114.65126105994723, 30.530322909142882], [114.65144072300406, 30.530322909142882], [114.65144072300406, 30.530502572199705]], [[114.6510813968904, 30.531221224427], [114.65090173383358, 30.531221224427], [114.65090173383358, 30.531041561370177], [114.65036274466311, 30.531041561370177], [114.65036274466311, 30.530682235256528], [114.65090173383358, 30.530682235256528], [114.65090173383358, 30.530861898313354], [114.65126105994723, 30.530861898313354], [114.65126105994723, 30.531041561370177], [114.6510813968904, 30.531041561370177], [114.6510813968904, 30.531221224427]], [[114.65090173383358, 30.53158055054065], [114.65072207077677, 30.53158055054065], [114.65072207077677, 30.531400887483823], [114.65090173383358, 30.531400887483823], [114.65090173383358, 30.53158055054065]]]}, "properties": {"name": "cand01", "ptype": "hall", "confidence": "low", "rank": 1, "area_ha": 17.9, "rise_db": 9.2, "digitised_from": "Sentinel-1 VV rise 2022->2026, orbit 40"}}, {"type": "Feature", "geometry": {"geodesic": false, "type": "Polygon", "coordinates": [[[114.60868091547997, 30.530322909142882], [114.60868091547997, 30.530143246086055], [114.60850125242314, 30.530143246086055], [114.60850125242314, 30.529963583029232], [114.60832158936631, 30.529963583029232], [114.60832158936631, 30.529604256915587], [114.60850125242314, 30.529604256915587], [114.60850125242314, 30.52942459385876], [114.60868091547997, 30.52942459385876], [114.60868091547997, 30.52834661551782], [114.60886057853679, 30.52834661551782], [114.60886057853679, 30.528166952460992], [114.60904024159362, 30.528166952460992], [114.60904024159362, 30.527448300233697], [114.60921990465044, 30.527448300233697], [114.60921990465044, 30.52708897412005], [114.60904024159362, 30.52708897412005], [114.60904024159362, 30.526729648006402], [114.60957923076408, 30.526729648006402], [114.60957923076408, 30.52654998494958], [114.60993855687774, 30.52654998494958], [114.60993855687774, 30.526729648006402], [114.61011821993456, 30.526729648006402], [114.61011821993456, 30.52708897412005], [114.60993855687774, 30.52708897412005], [114.60993855687774, 30.527448300233697], [114.60975889382091, 30.527448300233697], [114.60975889382091, 30.527627963290524], [114.60993855687774, 30.527627963290524], [114.60993855687774, 30.527807626347347], [114.61011821993456, 30.527807626347347], [114.61011821993456, 30.52798728940417], [114.61083687216185, 30.52798728940417], [114.61083687216185, 30.527807626347347], [114.61173518744597, 30.527807626347347], [114.61173518744597, 30.527627963290524], [114.61227417661644, 30.527627963290524], [114.61227417661644, 30.527448300233697], [114.61263350273009, 30.527448300233697], [114.61263350273009, 30.527627963290524], [114.61299282884374, 30.527627963290524], [114.61299282884374, 30.527268637176874], [114.61317249190057, 30.527268637176874], [114.61317249190057, 30.52708897412005], [114.61335215495738, 30.52708897412005], [114.61335215495738, 30.527268637176874], [114.61353181801421, 30.527268637176874], [114.61353181801421, 30.527448300233697], [114.61335215495738, 30.527448300233697], [114.61335215495738, 30.527627963290524], [114.61299282884374, 30.527627963290524], [114.61299282884374, 30.52798728940417], [114.61317249190057, 30.52798728940417], [114.61317249190057, 30.528705941631465], [114.61335215495738, 30.528705941631465], [114.61335215495738, 30.52888560468829], [114.61317249190057, 30.52888560468829], [114.61317249190057, 30.529065267745114], [114.61299282884374, 30.529065267745114], [114.61299282884374, 30.529244930801937], [114.61263350273009, 30.529244930801937], [114.61263350273009, 30.52942459385876], [114.61227417661644, 30.52942459385876], [114.61227417661644, 30.529244930801937], [114.6119148505028, 30.529244930801937], [114.6119148505028, 30.52942459385876], [114.61173518744597, 30.52942459385876], [114.61173518744597, 30.529604256915587], [114.61155552438915, 30.529604256915587], [114.61155552438915, 30.52978391997241], [114.61119619827551, 30.52978391997241], [114.61119619827551, 30.529604256915587], [114.6104775460482, 30.529604256915587], [114.6104775460482, 30.52942459385876], [114.61029788299138, 30.52942459385876], [114.61029788299138, 30.529604256915587], [114.60975889382091, 30.529604256915587], [114.60975889382091, 30.52942459385876], [114.60957923076408, 30.52942459385876], [114.60957923076408, 30.529244930801937], [114.60904024159362, 30.529244930801937], [114.60904024159362, 30.52942459385876], [114.60886057853679, 30.52942459385876], [114.60886057853679, 30.529963583029232], [114.60904024159362, 30.529963583029232], [114.60904024159362, 30.530143246086055], [114.60886057853679, 30.530143246086055], [114.60886057853679, 30.530322909142882], [114.60868091547997, 30.530322909142882]], [[114.60993855687774, 30.52942459385876], [114.60975889382091, 30.52942459385876], [114.60975889382091, 30.529244930801937], [114.60993855687774, 30.529244930801937], [114.60993855687774, 30.52942459385876]]]}, "properties": {"name": "cand02", "ptype": "hall", "confidence": "low", "rank": 2, "area_ha": 11.0, "rise_db": 10.1, "digitised_from": "Sentinel-1 VV rise 2022->2026, orbit 40"}}, {"type": "Feature", "geometry": {"geodesic": false, "type": "Polygon", "coordinates": [[[114.64856611409488, 30.545953595086562], [114.64856611409488, 30.545773932029736], [114.64838645103805, 30.545773932029736], [114.64838645103805, 30.545594268972913], [114.64820678798122, 30.545594268972913], [114.64820678798122, 30.54541460591609], [114.64784746186757, 30.54541460591609], [114.64784746186757, 30.545234942859263], [114.6473084726971, 30.545234942859263], [114.6473084726971, 30.54541460591609], [114.64694914658345, 30.54541460591609], [114.64694914658345, 30.545594268972913], [114.64623049435616, 30.545594268972913], [114.64623049435616, 30.545773932029736], [114.64605083129933, 30.545773932029736], [114.64605083129933, 30.545953595086562], [114.64515251601522, 30.545953595086562], [114.64515251601522, 30.545594268972913], [114.64533217907204, 30.545594268972913], [114.64533217907204, 30.54541460591609], [114.64551184212887, 30.54541460591609], [114.64551184212887, 30.54505527980244], [114.6456915051857, 30.54505527980244], [114.6456915051857, 30.544695953688795], [114.64605083129933, 30.544695953688795], [114.64605083129933, 30.544516290631968], [114.64623049435616, 30.544516290631968], [114.64623049435616, 30.543438312291027], [114.64641015741299, 30.543438312291027], [114.64641015741299, 30.5432586492342], [114.64676948352664, 30.5432586492342], [114.64676948352664, 30.543438312291027], [114.64694914658345, 30.543438312291027], [114.64694914658345, 30.54361797534785], [114.64784746186757, 30.54361797534785], [114.64784746186757, 30.543438312291027], [114.6480271249244, 30.543438312291027], [114.6480271249244, 30.54361797534785], [114.64892544020852, 30.54361797534785], [114.64892544020852, 30.543797638404673], [114.64910510326534, 30.543797638404673], [114.64910510326534, 30.544156964518322], [114.64928476632217, 30.544156964518322], [114.64928476632217, 30.544516290631968], [114.649464429379, 30.544516290631968], [114.649464429379, 30.544695953688795], [114.64892544020852, 30.544695953688795], [114.64892544020852, 30.54505527980244], [114.64910510326534, 30.54505527980244], [114.64910510326534, 30.54541460591609], [114.64928476632217, 30.54541460591609], [114.64928476632217, 30.545594268972913], [114.64910510326534, 30.545594268972913], [114.64910510326534, 30.545773932029736], [114.64892544020852, 30.545773932029736], [114.64892544020852, 30.545953595086562], [114.64856611409488, 30.545953595086562]], [[114.64623049435616, 30.54505527980244], [114.64605083129933, 30.54505527980244], [114.64605083129933, 30.544695953688795], [114.64623049435616, 30.544695953688795], [114.64623049435616, 30.54505527980244]]]}, "properties": {"name": "cand03", "ptype": "hall", "confidence": "low", "rank": 3, "area_ha": 8.4, "rise_db": 9.1, "digitised_from": "Sentinel-1 VV rise 2022->2026, orbit 40"}}, {"type": "Feature", "geometry": {"geodesic": false, "type": "Polygon", "coordinates": [[[114.60598596962761, 30.544156964518322], [114.60598596962761, 30.5439773014615], [114.60580630657078, 30.5439773014615], [114.60580630657078, 30.543438312291027], [114.60562664351396, 30.543438312291027], [114.60562664351396, 30.5432586492342], [114.60580630657078, 30.5432586492342], [114.60580630657078, 30.543078986177377], [114.60598596962761, 30.543078986177377], [114.60598596962761, 30.542899323120555], [114.60580630657078, 30.542899323120555], [114.60580630657078, 30.54271966006373], [114.60544698045713, 30.54271966006373], [114.60544698045713, 30.542360333950082], [114.60598596962761, 30.542360333950082], [114.60598596962761, 30.54218067089326], [114.60616563268444, 30.54218067089326], [114.60616563268444, 30.54182134477961], [114.60598596962761, 30.54182134477961], [114.60598596962761, 30.541462018665964], [114.60616563268444, 30.541462018665964], [114.60616563268444, 30.541102692552315], [114.60634529574125, 30.541102692552315], [114.60634529574125, 30.54092302949549], [114.60652495879808, 30.54092302949549], [114.60652495879808, 30.54074336643867], [114.60688428491173, 30.54074336643867], [114.60688428491173, 30.54092302949549], [114.60724361102537, 30.54092302949549], [114.60724361102537, 30.541102692552315], [114.60760293713902, 30.541102692552315], [114.60760293713902, 30.541282355609138], [114.6081419263095, 30.541282355609138], [114.6081419263095, 30.541102692552315], [114.60832158936631, 30.541102692552315], [114.60832158936631, 30.54092302949549], [114.60904024159362, 30.54092302949549], [114.60904024159362, 30.541102692552315], [114.60921990465044, 30.541102692552315], [114.60921990465044, 30.54092302949549], [114.60957923076408, 30.54092302949549], [114.60957923076408, 30.541102692552315], [114.60975889382091, 30.541102692552315], [114.60975889382091, 30.541462018665964], [114.60939956770726, 30.541462018665964], [114.60939956770726, 30.541641681722787], [114.60832158936631, 30.541641681722787], [114.60832158936631, 30.54182134477961], [114.60760293713902, 30.54182134477961], [114.60760293713902, 30.542001007836436], [114.60724361102537, 30.542001007836436], [114.60724361102537, 30.542539997006905], [114.60706394796856, 30.542539997006905], [114.60706394796856, 30.54271966006373], [114.60688428491173, 30.54271966006373], [114.60688428491173, 30.542899323120555], [114.6067046218549, 30.542899323120555], [114.6067046218549, 30.543438312291027], [114.60706394796856, 30.543438312291027], [114.60706394796856, 30.54361797534785], [114.60760293713902, 30.54361797534785], [114.60760293713902, 30.543797638404673], [114.6074232740822, 30.543797638404673], [114.6074232740822, 30.5439773014615], [114.60724361102537, 30.5439773014615], [114.60724361102537, 30.543797638404673], [114.60634529574125, 30.543797638404673], [114.60634529574125, 30.5439773014615], [114.60616563268444, 30.5439773014615], [114.60616563268444, 30.544156964518322], [114.60598596962761, 30.544156964518322]]]}, "properties": {"name": "cand04", "ptype": "hall", "confidence": "low", "rank": 4, "area_ha": 6.6, "rise_db": 6.7, "digitised_from": "Sentinel-1 VV rise 2022->2026, orbit 40"}}, {"type": "Feature", "geometry": {"geodesic": false, "type": "Polygon", "coordinates": [[[114.65718994082242, 30.538228083643133], [114.65718994082242, 30.53804842058631], [114.6570102777656, 30.53804842058631], [114.6570102777656, 30.53732976835901], [114.65683061470877, 30.53732976835901], [114.65683061470877, 30.536970442245366], [114.6570102777656, 30.536970442245366], [114.6570102777656, 30.536611116131716], [114.65718994082242, 30.536611116131716], [114.65718994082242, 30.536431453074893], [114.65988488667477, 30.536431453074893], [114.65988488667477, 30.536611116131716], [114.6600645497316, 30.536611116131716], [114.6600645497316, 30.536970442245366], [114.65988488667477, 30.536970442245366], [114.65988488667477, 30.53715010530219], [114.65970522361795, 30.53715010530219], [114.65970522361795, 30.53732976835901], [114.65988488667477, 30.53732976835901], [114.65988488667477, 30.53768909447266], [114.65970522361795, 30.53768909447266], [114.65970522361795, 30.537868757529484], [114.65952556056114, 30.537868757529484], [114.65952556056114, 30.53804842058631], [114.65916623444748, 30.53804842058631], [114.65916623444748, 30.537868757529484], [114.65862724527702, 30.537868757529484], [114.65862724527702, 30.53804842058631], [114.65808825610654, 30.53804842058631], [114.65808825610654, 30.537868757529484], [114.65772892999289, 30.537868757529484], [114.65772892999289, 30.53804842058631], [114.65754926693607, 30.53804842058631], [114.65754926693607, 30.538228083643133], [114.65718994082242, 30.538228083643133]], [[114.65898657139066, 30.53715010530219], [114.65880690833383, 30.53715010530219], [114.65880690833383, 30.536970442245366], [114.65898657139066, 30.536970442245366], [114.65898657139066, 30.53715010530219]]]}, "properties": {"name": "cand05", "ptype": "hall", "confidence": "low", "rank": 5, "area_ha": 5.6, "rise_db": 10.6, "digitised_from": "Sentinel-1 VV rise 2022->2026, orbit 40"}}, {"type": "Feature", "geometry": {"geodesic": false, "type": "Polygon", "coordinates": [[[114.6156877746961, 30.531939876654295], [114.6156877746961, 30.531760213597472], [114.61478945941198, 30.531760213597472], [114.61478945941198, 30.53158055054065], [114.61443013329833, 30.53158055054065], [114.61443013329833, 30.531400887483823], [114.6142504702415, 30.531400887483823], [114.6142504702415, 30.531041561370177], [114.61443013329833, 30.531041561370177], [114.61443013329833, 30.530322909142882], [114.6142504702415, 30.530322909142882], [114.6142504702415, 30.530143246086055], [114.61407080718469, 30.530143246086055], [114.61407080718469, 30.529963583029232], [114.61443013329833, 30.529963583029232], [114.61443013329833, 30.530143246086055], [114.61460979635515, 30.530143246086055], [114.61460979635515, 30.530322909142882], [114.61478945941198, 30.530322909142882], [114.61478945941198, 30.530143246086055], [114.61514878552563, 30.530143246086055], [114.61514878552563, 30.529963583029232], [114.61532844858245, 30.529963583029232], [114.61532844858245, 30.52978391997241], [114.61550811163927, 30.52978391997241], [114.61550811163927, 30.529604256915587], [114.6156877746961, 30.529604256915587], [114.6156877746961, 30.52942459385876], [114.61604710080975, 30.52942459385876], [114.61604710080975, 30.529604256915587], [114.61622676386656, 30.529604256915587], [114.61622676386656, 30.52978391997241], [114.61676575303704, 30.52978391997241], [114.61676575303704, 30.530682235256528], [114.61658608998022, 30.530682235256528], [114.61658608998022, 30.531221224427], [114.61640642692339, 30.531221224427], [114.61640642692339, 30.531400887483823], [114.61622676386656, 30.531400887483823], [114.61622676386656, 30.531939876654295], [114.6156877746961, 30.531939876654295]], [[114.61532844858245, 30.530682235256528], [114.61514878552563, 30.530682235256528], [114.61514878552563, 30.530502572199705], [114.61532844858245, 30.530502572199705], [114.61532844858245, 30.530682235256528]], [[114.61622676386656, 30.531041561370177], [114.61550811163927, 30.531041561370177], [114.61550811163927, 30.530682235256528], [114.6156877746961, 30.530682235256528], [114.6156877746961, 30.530322909142882], [114.61604710080975, 30.530322909142882], [114.61604710080975, 30.530682235256528], [114.61622676386656, 30.530682235256528], [114.61622676386656, 30.531041561370177]], [[114.61604710080975, 30.53158055054065], [114.6156877746961, 30.53158055054065], [114.6156877746961, 30.531400887483823], [114.61604710080975, 30.531400887483823], [114.61604710080975, 30.53158055054065]]]}, "properties": {"name": "cand06", "ptype": "hall", "confidence": "low", "rank": 6, "area_ha": 4.8, "rise_db": 6.5, "digitised_from": "Sentinel-1 VV rise 2022->2026, orbit 40"}}, {"type": "Feature", "geometry": {"geodesic": false, "type": "Polygon", "coordinates": [[[114.65521364719736, 30.522597397699453], [114.65521364719736, 30.52241773464263], [114.65503398414053, 30.52241773464263], [114.65503398414053, 30.52205840852898], [114.6548543210837, 30.52205840852898], [114.6548543210837, 30.52151941935851], [114.65449499497007, 30.52151941935851], [114.65449499497007, 30.522238071585804], [114.65431533191324, 30.522238071585804], [114.65431533191324, 30.52205840852898], [114.65413566885641, 30.52205840852898], [114.65413566885641, 30.521878745472158], [114.65395600579959, 30.521878745472158], [114.65395600579959, 30.521699082415335], [114.65377634274276, 30.521699082415335], [114.65377634274276, 30.52151941935851], [114.65305769051547, 30.52151941935851], [114.65305769051547, 30.521878745472158], [114.65269836440183, 30.521878745472158], [114.65269836440183, 30.521160093244863], [114.65431533191324, 30.521160093244863], [114.65431533191324, 30.52098043018804], [114.65521364719736, 30.52098043018804], [114.65521364719736, 30.520800767131213], [114.65593229942465, 30.520800767131213], [114.65593229942465, 30.52098043018804], [114.6562916255383, 30.52098043018804], [114.6562916255383, 30.521160093244863], [114.65647128859513, 30.521160093244863], [114.65647128859513, 30.521339756301685], [114.65665095165195, 30.521339756301685], [114.65665095165195, 30.521878745472158], [114.6562916255383, 30.521878745472158], [114.6562916255383, 30.52205840852898], [114.65611196248148, 30.52205840852898], [114.65611196248148, 30.52241773464263], [114.65557297331101, 30.52241773464263], [114.65557297331101, 30.522597397699453], [114.65521364719736, 30.522597397699453]]]}, "properties": {"name": "cand07", "ptype": "hall", "confidence": "low", "rank": 7, "area_ha": 4.6, "rise_db": 6.3, "digitised_from": "Sentinel-1 VV rise 2022->2026, orbit 40"}}, {"type": "Feature", "geometry": {"geodesic": false, "type": "Polygon", "coordinates": [[[114.6149691224688, 30.519902451847095], [114.6149691224688, 30.519363462676623], [114.61514878552563, 30.519363462676623], [114.61514878552563, 30.519004136562977], [114.61532844858245, 30.519004136562977], [114.61532844858245, 30.518285484335678], [114.61514878552563, 30.518285484335678], [114.61514878552563, 30.518105821278855], [114.6149691224688, 30.518105821278855], [114.6149691224688, 30.517926158222032], [114.61478945941198, 30.517926158222032], [114.61478945941198, 30.51774649516521], [114.61460979635515, 30.51774649516521], [114.61460979635515, 30.518105821278855], [114.6142504702415, 30.518105821278855], [114.6142504702415, 30.517926158222032], [114.61443013329833, 30.517926158222032], [114.61443013329833, 30.51774649516521], [114.61389114412786, 30.51774649516521], [114.61389114412786, 30.518105821278855], [114.61371148107104, 30.518105821278855], [114.61371148107104, 30.518465147392504], [114.61335215495738, 30.518465147392504], [114.61335215495738, 30.51738716905156], [114.61317249190057, 30.51738716905156], [114.61317249190057, 30.517207505994737], [114.61335215495738, 30.517207505994737], [114.61335215495738, 30.516668516824264], [114.61407080718469, 30.516668516824264], [114.61407080718469, 30.516848179881087], [114.6149691224688, 30.516848179881087], [114.6149691224688, 30.517027842937914], [114.61550811163927, 30.517027842937914], [114.61550811163927, 30.517207505994737], [114.6156877746961, 30.517207505994737], [114.6156877746961, 30.51738716905156], [114.61550811163927, 30.51738716905156], [114.61550811163927, 30.517566832108383], [114.6156877746961, 30.517566832108383], [114.6156877746961, 30.51774649516521], [114.61586743775293, 30.51774649516521], [114.61586743775293, 30.518105821278855], [114.6156877746961, 30.518105821278855], [114.6156877746961, 30.518285484335678], [114.61586743775293, 30.518285484335678], [114.61586743775293, 30.51882447350615], [114.6156877746961, 30.51882447350615], [114.6156877746961, 30.519004136562977], [114.61550811163927, 30.519004136562977], [114.61550811163927, 30.519543125733446], [114.61532844858245, 30.519543125733446], [114.61532844858245, 30.519902451847095], [114.6149691224688, 30.519902451847095]]]}, "properties": {"name": "cand08", "ptype": "hall", "confidence": "low", "rank": 8, "area_ha": 4.5, "rise_db": 6.4, "digitised_from": "Sentinel-1 VV rise 2022->2026, orbit 40"}}, {"type": "Feature", "geometry": {"geodesic": false, "type": "Polygon", "coordinates": [[[114.61389114412786, 30.521160093244863], [114.61389114412786, 30.52098043018804], [114.61353181801421, 30.52098043018804], [114.61353181801421, 30.520800767131213], [114.61281316578692, 30.520800767131213], [114.61281316578692, 30.52062110407439], [114.61263350273009, 30.52062110407439], [114.61263350273009, 30.520441441017567], [114.61209451355963, 30.520441441017567], [114.61209451355963, 30.52062110407439], [114.61173518744597, 30.52062110407439], [114.61173518744597, 30.52026177796074], [114.61119619827551, 30.52026177796074], [114.61119619827551, 30.520082114903918], [114.61065720910503, 30.520082114903918], [114.61065720910503, 30.519902451847095], [114.6104775460482, 30.519902451847095], [114.6104775460482, 30.519722788790272], [114.61029788299138, 30.519722788790272], [114.61029788299138, 30.519902451847095], [114.61011821993456, 30.519902451847095], [114.61011821993456, 30.519722788790272], [114.60975889382091, 30.519722788790272], [114.60975889382091, 30.519543125733446], [114.60957923076408, 30.519543125733446], [114.60957923076408, 30.5191837996198], [114.60993855687774, 30.5191837996198], [114.60993855687774, 30.519363462676623], [114.61029788299138, 30.519363462676623], [114.61029788299138, 30.519543125733446], [114.61065720910503, 30.519543125733446], [114.61065720910503, 30.519363462676623], [114.61119619827551, 30.519363462676623], [114.61119619827551, 30.5191837996198], [114.61137586133232, 30.5191837996198], [114.61137586133232, 30.519004136562977], [114.61155552438915, 30.519004136562977], [114.61155552438915, 30.519363462676623], [114.61173518744597, 30.519363462676623], [114.61173518744597, 30.519543125733446], [114.61245383967326, 30.519543125733446], [114.61245383967326, 30.519722788790272], [114.61299282884374, 30.519722788790272], [114.61299282884374, 30.519902451847095], [114.61317249190057, 30.519902451847095], [114.61317249190057, 30.52026177796074], [114.61353181801421, 30.52026177796074], [114.61353181801421, 30.520082114903918], [114.61389114412786, 30.520082114903918], [114.61389114412786, 30.52026177796074], [114.61353181801421, 30.52026177796074], [114.61353181801421, 30.520441441017567], [114.61371148107104, 30.520441441017567], [114.61371148107104, 30.52062110407439], [114.61407080718469, 30.52062110407439], [114.61407080718469, 30.521160093244863], [114.61389114412786, 30.521160093244863]], [[114.61245383967326, 30.520082114903918], [114.61227417661644, 30.520082114903918], [114.61227417661644, 30.519902451847095], [114.61245383967326, 30.519902451847095], [114.61245383967326, 30.520082114903918]]]}, "properties": {"name": "cand09", "ptype": "hall", "confidence": "low", "rank": 9, "area_ha": 4.0, "rise_db": 6.6, "digitised_from": "Sentinel-1 VV rise 2022->2026, orbit 40"}}, {"type": "Feature", "geometry": {"geodesic": false, "type": "Polygon", "coordinates": [[[114.6683290503455, 30.50534974424436], [114.6683290503455, 30.505170081187533], [114.66743073506139, 30.505170081187533], [114.66743073506139, 30.50499041813071], [114.6676103981182, 30.50499041813071], [114.6676103981182, 30.504810755073887], [114.66743073506139, 30.504810755073887], [114.66743073506139, 30.504631092017064], [114.66671208283408, 30.504631092017064], [114.66671208283408, 30.504451428960238], [114.66653241977727, 30.504451428960238], [114.66653241977727, 30.504271765903415], [114.66671208283408, 30.504271765903415], [114.66671208283408, 30.50409210284659], [114.66725107200456, 30.50409210284659], [114.66725107200456, 30.50391243978977], [114.66743073506139, 30.50391243978977], [114.66743073506139, 30.50355311367612], [114.66725107200456, 30.50355311367612], [114.66725107200456, 30.503373450619296], [114.66743073506139, 30.503373450619296], [114.66743073506139, 30.50319378756247], [114.66814938728868, 30.50319378756247], [114.66814938728868, 30.503373450619296], [114.6683290503455, 30.503373450619296], [114.6683290503455, 30.50355311367612], [114.66850871340233, 30.50355311367612], [114.66850871340233, 30.503732776732942], [114.66868837645914, 30.503732776732942], [114.66868837645914, 30.504271765903415], [114.66886803951597, 30.504271765903415], [114.66886803951597, 30.504631092017064], [114.66868837645914, 30.504631092017064], [114.66868837645914, 30.505170081187533], [114.66850871340233, 30.505170081187533], [114.66850871340233, 30.50534974424436], [114.6683290503455, 30.50534974424436]], [[114.66814938728868, 30.504631092017064], [114.66796972423185, 30.504631092017064], [114.66796972423185, 30.504451428960238], [114.66779006117503, 30.504451428960238], [114.66779006117503, 30.504271765903415], [114.66814938728868, 30.504271765903415], [114.66814938728868, 30.504631092017064]]]}, "properties": {"name": "cand10", "ptype": "hall", "confidence": "low", "rank": 10, "area_ha": 3.4, "rise_db": 7.0, "digitised_from": "Sentinel-1 VV rise 2022->2026, orbit 40"}}, {"type": "Feature", "geometry": {"geodesic": false, "type": "Polygon", "coordinates": [[[114.59933843652512, 30.485946134107376], [114.59933843652512, 30.485766471050553], [114.59951809958194, 30.485766471050553], [114.59951809958194, 30.485407144936904], [114.59969776263877, 30.485407144936904], [114.59969776263877, 30.485047818823258], [114.5991587734683, 30.485047818823258], [114.5991587734683, 30.48522748188008], [114.59897911041148, 30.48522748188008], [114.59897911041148, 30.485407144936904], [114.598440121241, 30.485407144936904], [114.598440121241, 30.48558680799373], [114.5977214690137, 30.48558680799373], [114.5977214690137, 30.485407144936904], [114.59700281678641, 30.485407144936904], [114.59700281678641, 30.485047818823258], [114.59718247984324, 30.485047818823258], [114.59718247984324, 30.484868155766435], [114.59736214290005, 30.484868155766435], [114.59736214290005, 30.485047818823258], [114.59754180595688, 30.485047818823258], [114.59754180595688, 30.48522748188008], [114.59826045818419, 30.48522748188008], [114.59826045818419, 30.485047818823258], [114.598440121241, 30.485047818823258], [114.598440121241, 30.48468849270961], [114.59826045818419, 30.48468849270961], [114.59826045818419, 30.484329166595963], [114.59808079512736, 30.484329166595963], [114.59808079512736, 30.483969840482313], [114.59826045818419, 30.483969840482313], [114.59826045818419, 30.483610514368667], [114.59861978429782, 30.483610514368667], [114.59861978429782, 30.484329166595963], [114.59879944735465, 30.484329166595963], [114.59879944735465, 30.484508829652786], [114.59897911041148, 30.484508829652786], [114.59897911041148, 30.48468849270961], [114.5991587734683, 30.48468849270961], [114.5991587734683, 30.484508829652786], [114.59933843652512, 30.484508829652786], [114.59933843652512, 30.484329166595963], [114.59969776263877, 30.484329166595963], [114.59969776263877, 30.484508829652786], [114.5998774256956, 30.484508829652786], [114.5998774256956, 30.48468849270961], [114.60005708875242, 30.48468849270961], [114.60005708875242, 30.484868155766435], [114.60023675180925, 30.484868155766435], [114.60023675180925, 30.485407144936904], [114.60005708875242, 30.485407144936904], [114.60005708875242, 30.485766471050553], [114.5998774256956, 30.485766471050553], [114.5998774256956, 30.485946134107376], [114.59933843652512, 30.485946134107376]]]}, "properties": {"name": "cand11", "ptype": "hall", "confidence": "low", "rank": 11, "area_ha": 3.2, "rise_db": 6.0, "digitised_from": "Sentinel-1 VV rise 2022->2026, orbit 40"}}, {"type": "Feature", "geometry": {"geodesic": false, "type": "Polygon", "coordinates": [[[114.649464429379, 30.525472006608634], [114.649464429379, 30.52529234355181], [114.64928476632217, 30.52529234355181], [114.64928476632217, 30.52511268049499], [114.64910510326534, 30.52511268049499], [114.64910510326534, 30.524933017438165], [114.64892544020852, 30.524933017438165], [114.64892544020852, 30.52475335438134], [114.6487457771517, 30.52475335438134], [114.6487457771517, 30.52385503909722], [114.64856611409488, 30.52385503909722], [114.64856611409488, 30.524214365210867], [114.64838645103805, 30.524214365210867], [114.64838645103805, 30.52385503909722], [114.64856611409488, 30.52385503909722], [114.64856611409488, 30.52349571298357], [114.6487457771517, 30.52349571298357], [114.6487457771517, 30.52331604992675], [114.64856611409488, 30.52331604992675], [114.64856611409488, 30.523136386869925], [114.64910510326534, 30.523136386869925], [114.64910510326534, 30.524394028267693], [114.64928476632217, 30.524394028267693], [114.64928476632217, 30.524573691324516], [114.64964409243582, 30.524573691324516], [114.64964409243582, 30.524394028267693], [114.65036274466311, 30.524394028267693], [114.65036274466311, 30.524214365210867], [114.65054240771994, 30.524214365210867], [114.65054240771994, 30.524573691324516], [114.65072207077677, 30.524573691324516], [114.65072207077677, 30.52475335438134], [114.65090173383358, 30.52475335438134], [114.65090173383358, 30.52529234355181], [114.65054240771994, 30.52529234355181], [114.65054240771994, 30.525472006608634], [114.649464429379, 30.525472006608634]], [[114.64964409243582, 30.524933017438165], [114.649464429379, 30.524933017438165], [114.649464429379, 30.52475335438134], [114.64964409243582, 30.52475335438134], [114.64964409243582, 30.524933017438165]], [[114.64982375549263, 30.52511268049499], [114.64964409243582, 30.52511268049499], [114.64964409243582, 30.524933017438165], [114.64982375549263, 30.524933017438165], [114.64982375549263, 30.52511268049499]], [[114.65000341854946, 30.52529234355181], [114.64982375549263, 30.52529234355181], [114.64982375549263, 30.52511268049499], [114.65000341854946, 30.52511268049499], [114.65000341854946, 30.52529234355181]]]}, "properties": {"name": "cand12", "ptype": "hall", "confidence": "low", "rank": 12, "area_ha": 2.9, "rise_db": 6.1, "digitised_from": "Sentinel-1 VV rise 2022->2026, orbit 40"}}, {"type": "Feature", "geometry": {"geodesic": false, "type": "Polygon", "coordinates": [[[114.65898657139066, 30.543078986177377], [114.65898657139066, 30.542899323120555], [114.65880690833383, 30.542899323120555], [114.65880690833383, 30.54271966006373], [114.65862724527702, 30.54271966006373], [114.65862724527702, 30.542539997006905], [114.65844758222019, 30.542539997006905], [114.65844758222019, 30.542360333950082], [114.65826791916336, 30.542360333950082], [114.65826791916336, 30.542001007836436], [114.65862724527702, 30.542001007836436], [114.65862724527702, 30.54218067089326], [114.65898657139066, 30.54218067089326], [114.65898657139066, 30.541641681722787], [114.65916623444748, 30.541641681722787], [114.65916623444748, 30.541282355609138], [114.65934589750431, 30.541282355609138], [114.65934589750431, 30.541102692552315], [114.65970522361795, 30.541102692552315], [114.65970522361795, 30.54092302949549], [114.65988488667477, 30.54092302949549], [114.65988488667477, 30.54074336643867], [114.6600645497316, 30.54074336643867], [114.6600645497316, 30.54092302949549], [114.66024421278843, 30.54092302949549], [114.66024421278843, 30.542539997006905], [114.66078320195889, 30.542539997006905], [114.66078320195889, 30.542899323120555], [114.65988488667477, 30.542899323120555], [114.65988488667477, 30.54271966006373], [114.65970522361795, 30.54271966006373], [114.65970522361795, 30.54218067089326], [114.65988488667477, 30.54218067089326], [114.65988488667477, 30.541641681722787], [114.65934589750431, 30.541641681722787], [114.65934589750431, 30.542899323120555], [114.65916623444748, 30.542899323120555], [114.65916623444748, 30.543078986177377], [114.65898657139066, 30.543078986177377]]]}, "properties": {"name": "cand13", "ptype": "hall", "confidence": "low", "rank": 13, "area_ha": 2.8, "rise_db": 7.8, "digitised_from": "Sentinel-1 VV rise 2022->2026, orbit 40"}}, {"type": "Feature", "geometry": {"geodesic": false, "type": "Polygon", "coordinates": [[[114.64227790710603, 30.508943005380836], [114.64227790710603, 30.508763342324013], [114.64209824404921, 30.508763342324013], [114.64209824404921, 30.507865027039895], [114.64227790710603, 30.507865027039895], [114.64227790710603, 30.507685363983068], [114.6435355485038, 30.507685363983068], [114.6435355485038, 30.507505700926245], [114.64389487461744, 30.507505700926245], [114.64389487461744, 30.507685363983068], [114.64407453767427, 30.507685363983068], [114.64407453767427, 30.507865027039895], [114.64443386378792, 30.507865027039895], [114.64443386378792, 30.508044690096717], [114.64461352684475, 30.508044690096717], [114.64461352684475, 30.50822435315354], [114.64479318990158, 30.50822435315354], [114.64479318990158, 30.508404016210363], [114.64461352684475, 30.508404016210363], [114.64461352684475, 30.50858367926719], [114.64389487461744, 30.50858367926719], [114.64389487461744, 30.508763342324013], [114.6435355485038, 30.508763342324013], [114.6435355485038, 30.50822435315354], [114.64335588544698, 30.50822435315354], [114.64335588544698, 30.50858367926719], [114.64317622239015, 30.50858367926719], [114.64317622239015, 30.508763342324013], [114.64281689627651, 30.508763342324013], [114.64281689627651, 30.50822435315354], [114.64299655933333, 30.50822435315354], [114.64299655933333, 30.508044690096717], [114.64281689627651, 30.508044690096717], [114.64281689627651, 30.507865027039895], [114.64263723321969, 30.507865027039895], [114.64263723321969, 30.508943005380836], [114.64227790710603, 30.508943005380836]]]}, "properties": {"name": "cand14", "ptype": "hall", "confidence": "low", "rank": 14, "area_ha": 2.8, "rise_db": 8.5, "digitised_from": "Sentinel-1 VV rise 2022->2026, orbit 40"}}, {"type": "Feature", "geometry": {"geodesic": false, "type": "Polygon", "coordinates": [[[114.58748067477474, 30.50085816782376], [114.58748067477474, 30.49852254808505], [114.58855865311568, 30.49852254808505], [114.58855865311568, 30.498702211141875], [114.58891797922934, 30.498702211141875], [114.58891797922934, 30.49852254808505], [114.58999595757028, 30.49852254808505], [114.58999595757028, 30.498702211141875], [114.59017562062711, 30.498702211141875], [114.59017562062711, 30.4988818741987], [114.58963663145663, 30.4988818741987], [114.58963663145663, 30.49942086336917], [114.5894569683998, 30.49942086336917], [114.5894569683998, 30.499600526425994], [114.58909764228616, 30.499600526425994], [114.58909764228616, 30.49942086336917], [114.58891797922934, 30.49942086336917], [114.58891797922934, 30.49906153725552], [114.58873831617251, 30.49906153725552], [114.58873831617251, 30.4988818741987], [114.58837899005887, 30.4988818741987], [114.58837899005887, 30.499241200312344], [114.58819932700204, 30.499241200312344], [114.58819932700204, 30.499600526425994], [114.58766033783157, 30.499600526425994], [114.58766033783157, 30.50049884171011], [114.58784000088839, 30.50049884171011], [114.58784000088839, 30.500678504766938], [114.58766033783157, 30.500678504766938], [114.58766033783157, 30.50085816782376], [114.58748067477474, 30.50085816782376]]]}, "properties": {"name": "cand15", "ptype": "hall", "confidence": "low", "rank": 15, "area_ha": 2.7, "rise_db": 7.6, "digitised_from": "Sentinel-1 VV rise 2022->2026, orbit 40"}}, {"type": "Feature", "geometry": {"geodesic": false, "type": "Polygon", "coordinates": [[[114.60472832822984, 30.52529234355181], [114.60472832822984, 30.52511268049499], [114.60454866517301, 30.52511268049499], [114.60454866517301, 30.524933017438165], [114.60418933905937, 30.524933017438165], [114.60418933905937, 30.52475335438134], [114.60400967600255, 30.52475335438134], [114.60400967600255, 30.524034702154044], [114.60418933905937, 30.524034702154044], [114.60418933905937, 30.52385503909722], [114.60490799128667, 30.52385503909722], [114.60490799128667, 30.524034702154044], [114.60544698045713, 30.524034702154044], [114.60544698045713, 30.524214365210867], [114.60580630657078, 30.524214365210867], [114.60580630657078, 30.524394028267693], [114.60598596962761, 30.524394028267693], [114.60598596962761, 30.52511268049499], [114.60562664351396, 30.52511268049499], [114.60562664351396, 30.52529234355181], [114.60472832822984, 30.52529234355181]]]}, "properties": {"name": "cand16", "ptype": "hall", "confidence": "low", "rank": 16, "area_ha": 2.7, "rise_db": 7.5, "digitised_from": "Sentinel-1 VV rise 2022->2026, orbit 40"}}, {"type": "Feature", "geometry": {"geodesic": false, "type": "Polygon", "coordinates": [[[114.65341701662912, 30.51882447350615], [114.65341701662912, 30.518105821278855], [114.6532373535723, 30.518105821278855], [114.6532373535723, 30.51774649516521], [114.65341701662912, 30.51774649516521], [114.65341701662912, 30.51648885376744], [114.6532373535723, 30.51648885376744], [114.6532373535723, 30.516309190710615], [114.65341701662912, 30.516309190710615], [114.65341701662912, 30.516129527653792], [114.65359667968595, 30.516129527653792], [114.65359667968595, 30.516309190710615], [114.65413566885641, 30.516309190710615], [114.65413566885641, 30.517027842937914], [114.65395600579959, 30.517027842937914], [114.65395600579959, 30.517566832108383], [114.65431533191324, 30.517566832108383], [114.65431533191324, 30.51774649516521], [114.65503398414053, 30.51774649516521], [114.65503398414053, 30.517926158222032], [114.6548543210837, 30.517926158222032], [114.6548543210837, 30.518105821278855], [114.65413566885641, 30.518105821278855], [114.65413566885641, 30.518465147392504], [114.65395600579959, 30.518465147392504], [114.65395600579959, 30.51882447350615], [114.65341701662912, 30.51882447350615]]]}, "properties": {"name": "cand17", "ptype": "hall", "confidence": "low", "rank": 17, "area_ha": 2.6, "rise_db": 7.5, "digitised_from": "Sentinel-1 VV rise 2022->2026, orbit 40"}}, {"type": "Feature", "geometry": {"geodesic": false, "type": "Polygon", "coordinates": [[[114.6036503498889, 30.527807626347347], [114.6036503498889, 30.527627963290524], [114.60347068683207, 30.527627963290524], [114.60347068683207, 30.527448300233697], [114.60311136071843, 30.527448300233697], [114.60311136071843, 30.527268637176874], [114.6029316976616, 30.527268637176874], [114.6029316976616, 30.52708897412005], [114.60275203460478, 30.52708897412005], [114.60275203460478, 30.526729648006402], [114.6029316976616, 30.526729648006402], [114.6029316976616, 30.526370321892756], [114.60311136071843, 30.526370321892756], [114.60311136071843, 30.526010995779107], [114.60329102377524, 30.526010995779107], [114.60329102377524, 30.525831332722284], [114.60347068683207, 30.525831332722284], [114.60347068683207, 30.52565166966546], [114.6036503498889, 30.52565166966546], [114.6036503498889, 30.52529234355181], [114.60383001294572, 30.52529234355181], [114.60383001294572, 30.52511268049499], [114.60400967600255, 30.52511268049499], [114.60400967600255, 30.52529234355181], [114.60418933905937, 30.52529234355181], [114.60418933905937, 30.525831332722284], [114.60400967600255, 30.525831332722284], [114.60400967600255, 30.526010995779107], [114.60383001294572, 30.526010995779107], [114.60383001294572, 30.525831332722284], [114.6036503498889, 30.525831332722284], [114.6036503498889, 30.526729648006402], [114.60383001294572, 30.526729648006402], [114.60383001294572, 30.52654998494958], [114.60400967600255, 30.52654998494958], [114.60400967600255, 30.526729648006402], [114.60418933905937, 30.526729648006402], [114.60418933905937, 30.527448300233697], [114.60400967600255, 30.527448300233697], [114.60400967600255, 30.527627963290524], [114.60383001294572, 30.527627963290524], [114.60383001294572, 30.527807626347347], [114.6036503498889, 30.527807626347347]]]}, "properties": {"name": "cand18", "ptype": "hall", "confidence": "low", "rank": 18, "area_ha": 2.5, "rise_db": 7.4, "digitised_from": "Sentinel-1 VV rise 2022->2026, orbit 40"}}, {"type": "Feature", "geometry": {"geodesic": false, "type": "Polygon", "coordinates": [[[114.59969776263877, 30.491695351925742], [114.59969776263877, 30.49151568886892], [114.59897911041148, 30.49151568886892], [114.59897911041148, 30.491336025812092], [114.5991587734683, 30.491336025812092], [114.5991587734683, 30.490976699698447], [114.59933843652512, 30.490976699698447], [114.59933843652512, 30.490797036641624], [114.5991587734683, 30.490797036641624], [114.5991587734683, 30.490617373584797], [114.59897911041148, 30.490617373584797], [114.59897911041148, 30.490437710527974], [114.59861978429782, 30.490437710527974], [114.59861978429782, 30.49025804747115], [114.598440121241, 30.49025804747115], [114.598440121241, 30.490078384414325], [114.59826045818419, 30.490078384414325], [114.59826045818419, 30.489898721357502], [114.59861978429782, 30.489898721357502], [114.59861978429782, 30.490078384414325], [114.59933843652512, 30.490078384414325], [114.59933843652512, 30.49025804747115], [114.5998774256956, 30.49025804747115], [114.5998774256956, 30.490078384414325], [114.60005708875242, 30.490078384414325], [114.60005708875242, 30.49025804747115], [114.60023675180925, 30.49025804747115], [114.60023675180925, 30.490617373584797], [114.60041641486606, 30.490617373584797], [114.60041641486606, 30.490976699698447], [114.60059607792289, 30.490976699698447], [114.60059607792289, 30.49115636275527], [114.60041641486606, 30.49115636275527], [114.60041641486606, 30.491336025812092], [114.60023675180925, 30.491336025812092], [114.60023675180925, 30.49151568886892], [114.60005708875242, 30.49151568886892], [114.60005708875242, 30.491695351925742], [114.59969776263877, 30.491695351925742]]]}, "properties": {"name": "cand19", "ptype": "hall", "confidence": "low", "rank": 19, "area_ha": 2.4, "rise_db": 5.6, "digitised_from": "Sentinel-1 VV rise 2022->2026, orbit 40"}}, {"type": "Feature", "geometry": {"geodesic": false, "type": "Polygon", "coordinates": [[[114.66994601785692, 30.51109896206272], [114.66994601785692, 30.5109192990059], [114.66976635480009, 30.5109192990059], [114.66976635480009, 30.510559972892253], [114.66958669174326, 30.510559972892253], [114.66958669174326, 30.510380309835426], [114.66922736562962, 30.510380309835426], [114.66922736562962, 30.510200646778603], [114.6690477025728, 30.510200646778603], [114.6690477025728, 30.51002098372178], [114.66886803951597, 30.51002098372178], [114.66886803951597, 30.510200646778603], [114.66850871340233, 30.510200646778603], [114.66850871340233, 30.509481994551308], [114.66868837645914, 30.509481994551308], [114.66868837645914, 30.509302331494485], [114.66886803951597, 30.509302331494485], [114.66886803951597, 30.509481994551308], [114.6690477025728, 30.509481994551308], [114.6690477025728, 30.50966165760813], [114.66886803951597, 30.50966165760813], [114.66886803951597, 30.509841320664957], [114.6690477025728, 30.509841320664957], [114.6690477025728, 30.51002098372178], [114.66922736562962, 30.51002098372178], [114.66922736562962, 30.509841320664957], [114.66958669174326, 30.509841320664957], [114.66958669174326, 30.51002098372178], [114.66976635480009, 30.51002098372178], [114.66976635480009, 30.509841320664957], [114.66994601785692, 30.509841320664957], [114.66994601785692, 30.50966165760813], [114.67012568091374, 30.50966165760813], [114.67012568091374, 30.508943005380836], [114.67030534397057, 30.508943005380836], [114.67030534397057, 30.508763342324013], [114.6704850070274, 30.508763342324013], [114.6704850070274, 30.51109896206272], [114.66994601785692, 30.51109896206272]]]}, "properties": {"name": "cand20", "ptype": "hall", "confidence": "low", "rank": 20, "area_ha": 2.4, "rise_db": 9.2, "digitised_from": "Sentinel-1 VV rise 2022->2026, orbit 40"}}, {"type": "Feature", "geometry": {"geodesic": false, "type": "Polygon", "coordinates": [[[114.6442542007311, 30.545773932029736], [114.6442542007311, 30.54505527980244], [114.64407453767427, 30.54505527980244], [114.64407453767427, 30.544516290631968], [114.64389487461744, 30.544516290631968], [114.64389487461744, 30.544156964518322], [114.64407453767427, 30.544156964518322], [114.64407453767427, 30.5439773014615], [114.64461352684475, 30.5439773014615], [114.64461352684475, 30.543797638404673], [114.64479318990158, 30.543797638404673], [114.64479318990158, 30.54361797534785], [114.64497285295839, 30.54361797534785], [114.64497285295839, 30.543797638404673], [114.64551184212887, 30.543797638404673], [114.64551184212887, 30.54361797534785], [114.6456915051857, 30.54361797534785], [114.6456915051857, 30.5432586492342], [114.64587116824251, 30.5432586492342], [114.64587116824251, 30.542899323120555], [114.64623049435616, 30.542899323120555], [114.64623049435616, 30.5432586492342], [114.64605083129933, 30.5432586492342], [114.64605083129933, 30.54361797534785], [114.64587116824251, 30.54361797534785], [114.64587116824251, 30.5439773014615], [114.6456915051857, 30.5439773014615], [114.6456915051857, 30.544156964518322], [114.64515251601522, 30.544156964518322], [114.64515251601522, 30.5439773014615], [114.64497285295839, 30.5439773014615], [114.64497285295839, 30.544156964518322], [114.64479318990158, 30.544156964518322], [114.64479318990158, 30.544336627575145], [114.64461352684475, 30.544336627575145], [114.64461352684475, 30.544875616745617], [114.64479318990158, 30.544875616745617], [114.64479318990158, 30.54541460591609], [114.64461352684475, 30.54541460591609], [114.64461352684475, 30.545773932029736], [114.6442542007311, 30.545773932029736]]]}, "properties": {"name": "cand21", "ptype": "hall", "confidence": "low", "rank": 21, "area_ha": 2.2, "rise_db": 5.6, "digitised_from": "Sentinel-1 VV rise 2022->2026, orbit 40"}}, {"type": "Feature", "geometry": {"geodesic": false, "type": "Polygon", "coordinates": [[[114.59125359896805, 30.50211580922153], [114.59125359896805, 30.501936146164706], [114.5908942728544, 30.501936146164706], [114.5908942728544, 30.50175648310788], [114.59071460979757, 30.50175648310788], [114.59071460979757, 30.501576820051056], [114.5908942728544, 30.501576820051056], [114.5908942728544, 30.501397156994233], [114.59143326202486, 30.501397156994233], [114.59143326202486, 30.501217493937407], [114.59161292508169, 30.501217493937407], [114.59161292508169, 30.501037830880584], [114.59197225119534, 30.501037830880584], [114.59197225119534, 30.501217493937407], [114.59215191425217, 30.501217493937407], [114.59215191425217, 30.501397156994233], [114.592331577309, 30.501397156994233], [114.592331577309, 30.501576820051056], [114.59269090342264, 30.501576820051056], [114.59269090342264, 30.501397156994233], [114.59287056647946, 30.501397156994233], [114.59287056647946, 30.501217493937407], [114.59305022953629, 30.501217493937407], [114.59305022953629, 30.501037830880584], [114.59322989259311, 30.501037830880584], [114.59322989259311, 30.501217493937407], [114.59340955564993, 30.501217493937407], [114.59340955564993, 30.501576820051056], [114.59322989259311, 30.501576820051056], [114.59322989259311, 30.50175648310788], [114.59269090342264, 30.50175648310788], [114.59269090342264, 30.501936146164706], [114.59251124036581, 30.501936146164706], [114.59251124036581, 30.50211580922153], [114.59125359896805, 30.50211580922153]]]}, "properties": {"name": "cand22", "ptype": "hall", "confidence": "low", "rank": 22, "area_ha": 2.1, "rise_db": 9.2, "digitised_from": "Sentinel-1 VV rise 2022->2026, orbit 40"}}, {"type": "Feature", "geometry": {"geodesic": false, "type": "Polygon", "coordinates": [[[114.64066093959462, 30.50534974424436], [114.64066093959462, 30.505170081187533], [114.64030161348097, 30.505170081187533], [114.64030161348097, 30.50499041813071], [114.6404812765378, 30.50499041813071], [114.6404812765378, 30.504810755073887], [114.64030161348097, 30.504810755073887], [114.64030161348097, 30.50409210284659], [114.64012195042415, 30.50409210284659], [114.64012195042415, 30.50355311367612], [114.64030161348097, 30.50355311367612], [114.64030161348097, 30.503373450619296], [114.64137959182192, 30.503373450619296], [114.64137959182192, 30.50355311367612], [114.64155925487874, 30.50355311367612], [114.64155925487874, 30.503732776732942], [114.64137959182192, 30.503732776732942], [114.64137959182192, 30.50409210284659], [114.64119992876509, 30.50409210284659], [114.64119992876509, 30.504631092017064], [114.64102026570826, 30.504631092017064], [114.64102026570826, 30.504810755073887], [114.64084060265145, 30.504810755073887], [114.64084060265145, 30.50534974424436], [114.64066093959462, 30.50534974424436]]]}, "properties": {"name": "cand23", "ptype": "hall", "confidence": "low", "rank": 23, "area_ha": 2.1, "rise_db": 7.9, "digitised_from": "Sentinel-1 VV rise 2022->2026, orbit 40"}}, {"type": "Feature", "geometry": {"geodesic": false, "type": "Polygon", "coordinates": [[[114.6390439720832, 30.497803895857754], [114.6390439720832, 30.49762423280093], [114.63886430902639, 30.49762423280093], [114.63886430902639, 30.49726490668728], [114.63868464596956, 30.49726490668728], [114.63868464596956, 30.496366591403163], [114.63940329819685, 30.496366591403163], [114.63940329819685, 30.495468276119045], [114.6397626243105, 30.495468276119045], [114.6397626243105, 30.495647939175868], [114.63994228736732, 30.495647939175868], [114.63994228736732, 30.49582760223269], [114.64012195042415, 30.49582760223269], [114.64012195042415, 30.496007265289514], [114.64030161348097, 30.496007265289514], [114.64030161348097, 30.49618692834634], [114.6404812765378, 30.49618692834634], [114.6404812765378, 30.496366591403163], [114.63958296125368, 30.496366591403163], [114.63958296125368, 30.496725917516812], [114.63940329819685, 30.496725917516812], [114.63940329819685, 30.496905580573635], [114.63922363514003, 30.496905580573635], [114.63922363514003, 30.49708524363046], [114.6390439720832, 30.49708524363046], [114.6390439720832, 30.49726490668728], [114.63958296125368, 30.49726490668728], [114.63958296125368, 30.497444569744108], [114.63994228736732, 30.497444569744108], [114.63994228736732, 30.49762423280093], [114.63958296125368, 30.49762423280093], [114.63958296125368, 30.497803895857754], [114.6390439720832, 30.497803895857754]]]}, "properties": {"name": "cand24", "ptype": "hall", "confidence": "low", "rank": 24, "area_ha": 2.1, "rise_db": 6.0, "digitised_from": "Sentinel-1 VV rise 2022->2026, orbit 40"}}, {"type": "Feature", "geometry": {"geodesic": false, "type": "Polygon", "coordinates": [[[114.5946671970477, 30.50175648310788], [114.5946671970477, 30.501576820051056], [114.59448753399087, 30.501576820051056], [114.59448753399087, 30.501217493937407], [114.59412820787723, 30.501217493937407], [114.59412820787723, 30.501576820051056], [114.59376888176358, 30.501576820051056], [114.59376888176358, 30.501217493937407], [114.59358921870675, 30.501217493937407], [114.59358921870675, 30.50085816782376], [114.59376888176358, 30.50085816782376], [114.59376888176358, 30.500678504766938], [114.59538584927499, 30.500678504766938], [114.59538584927499, 30.50049884171011], [114.59592483844547, 30.50049884171011], [114.59592483844547, 30.500678504766938], [114.59574517538864, 30.500678504766938], [114.59574517538864, 30.50085816782376], [114.59556551233182, 30.50085816782376], [114.59556551233182, 30.501037830880584], [114.59538584927499, 30.501037830880584], [114.59538584927499, 30.501217493937407], [114.59520618621818, 30.501217493937407], [114.59520618621818, 30.501576820051056], [114.59556551233182, 30.501576820051056], [114.59556551233182, 30.50175648310788], [114.5946671970477, 30.50175648310788]]]}, "properties": {"name": "cand25", "ptype": "hall", "confidence": "low", "rank": 25, "area_ha": 2.1, "rise_db": 6.2, "digitised_from": "Sentinel-1 VV rise 2022->2026, orbit 40"}}, {"type": "Feature", "geometry": {"geodesic": false, "type": "Polygon", "coordinates": [[[114.65144072300406, 30.527268637176874], [114.65144072300406, 30.52708897412005], [114.65126105994723, 30.52708897412005], [114.65126105994723, 30.52690931106323], [114.65018308160629, 30.52690931106323], [114.65018308160629, 30.52654998494958], [114.65036274466311, 30.52654998494958], [114.65036274466311, 30.526370321892756], [114.65054240771994, 30.526370321892756], [114.65054240771994, 30.526010995779107], [114.65072207077677, 30.526010995779107], [114.65072207077677, 30.525831332722284], [114.65144072300406, 30.525831332722284], [114.65144072300406, 30.52565166966546], [114.65162038606088, 30.52565166966546], [114.65162038606088, 30.526729648006402], [114.65215937523135, 30.526729648006402], [114.65215937523135, 30.52708897412005], [114.65197971217452, 30.52708897412005], [114.65197971217452, 30.527268637176874], [114.65144072300406, 30.527268637176874]]]}, "properties": {"name": "cand26", "ptype": "hall", "confidence": "low", "rank": 26, "area_ha": 2.1, "rise_db": 8.8, "digitised_from": "Sentinel-1 VV rise 2022->2026, orbit 40"}}, {"type": "Feature", "geometry": {"geodesic": false, "type": "Polygon", "coordinates": [[[114.65539331025418, 30.545773932029736], [114.65539331025418, 30.545594268972913], [114.65449499497007, 30.545594268972913], [114.65449499497007, 30.54541460591609], [114.65431533191324, 30.54541460591609], [114.65431533191324, 30.544695953688795], [114.65449499497007, 30.544695953688795], [114.65449499497007, 30.544336627575145], [114.65467465802689, 30.544336627575145], [114.65467465802689, 30.544156964518322], [114.65503398414053, 30.544156964518322], [114.65503398414053, 30.544336627575145], [114.65521364719736, 30.544336627575145], [114.65521364719736, 30.544875616745617], [114.65575263636782, 30.544875616745617], [114.65575263636782, 30.54505527980244], [114.65593229942465, 30.54505527980244], [114.65593229942465, 30.545773932029736], [114.65539331025418, 30.545773932029736]]]}, "properties": {"name": "cand27", "ptype": "hall", "confidence": "low", "rank": 27, "area_ha": 2.1, "rise_db": 9.2, "digitised_from": "Sentinel-1 VV rise 2022->2026, orbit 40"}}, {"type": "Feature", "geometry": {"geodesic": false, "type": "Polygon", "coordinates": [[[114.6510813968904, 30.534275496393008], [114.6510813968904, 30.534095833336185], [114.65090173383358, 30.534095833336185], [114.65090173383358, 30.53391617027936], [114.65072207077677, 30.53391617027936], [114.65072207077677, 30.533556844165712], [114.65090173383358, 30.533556844165712], [114.65090173383358, 30.533377181108886], [114.65233903828818, 30.533377181108886], [114.65233903828818, 30.533556844165712], [114.6532373535723, 30.533556844165712], [114.6532373535723, 30.53391617027936], [114.652518701345, 30.53391617027936], [114.652518701345, 30.534095833336185], [114.65215937523135, 30.534095833336185], [114.65215937523135, 30.534275496393008], [114.6510813968904, 30.534275496393008]]]}, "properties": {"name": "cand28", "ptype": "hall", "confidence": "low", "rank": 28, "area_ha": 2.0, "rise_db": 8.2, "digitised_from": "Sentinel-1 VV rise 2022->2026, orbit 40"}}, {"type": "Feature", "geometry": {"geodesic": false, "type": "Polygon", "coordinates": [[[114.6359897001172, 30.55008584539351], [114.6359897001172, 30.549906182336688], [114.63581003706038, 30.549906182336688], [114.63581003706038, 30.54972651927986], [114.63563037400355, 30.54972651927986], [114.63563037400355, 30.549367193166216], [114.6359897001172, 30.549367193166216], [114.6359897001172, 30.549187530109393], [114.63616936317402, 30.549187530109393], [114.63616936317402, 30.549007867052566], [114.63634902623085, 30.549007867052566], [114.63634902623085, 30.54864854093892], [114.63616936317402, 30.54864854093892], [114.63616936317402, 30.548468877882094], [114.63634902623085, 30.548468877882094], [114.63634902623085, 30.548109551768448], [114.63688801540133, 30.548109551768448], [114.63688801540133, 30.548468877882094], [114.6367083523445, 30.548468877882094], [114.6367083523445, 30.54864854093892], [114.63652868928767, 30.54864854093892], [114.63652868928767, 30.549007867052566], [114.6367083523445, 30.549007867052566], [114.6367083523445, 30.549367193166216], [114.63688801540133, 30.549367193166216], [114.63688801540133, 30.54954685622304], [114.63706767845814, 30.54954685622304], [114.63706767845814, 30.54972651927986], [114.63742700457179, 30.54972651927986], [114.63742700457179, 30.55008584539351], [114.6359897001172, 30.55008584539351]]]}, "properties": {"name": "cand29", "ptype": "hall", "confidence": "low", "rank": 29, "area_ha": 2.0, "rise_db": 10.5, "digitised_from": "Sentinel-1 VV rise 2022->2026, orbit 40"}}, {"type": "Feature", "geometry": {"geodesic": false, "type": "Polygon", "coordinates": [[[114.66545444143632, 30.50966165760813], [114.66545444143632, 30.509481994551308], [114.6652747783795, 30.509481994551308], [114.6652747783795, 30.50912266843766], [114.66545444143632, 30.50912266843766], [114.66545444143632, 30.50822435315354], [114.66563410449314, 30.50822435315354], [114.66563410449314, 30.508044690096717], [114.66653241977727, 30.508044690096717], [114.66653241977727, 30.50858367926719], [114.66635275672044, 30.50858367926719], [114.66635275672044, 30.508763342324013], [114.66671208283408, 30.508763342324013], [114.66671208283408, 30.508943005380836], [114.66635275672044, 30.508943005380836], [114.66635275672044, 30.50912266843766], [114.66617309366362, 30.50912266843766], [114.66617309366362, 30.509481994551308], [114.66599343060679, 30.509481994551308], [114.66599343060679, 30.50966165760813], [114.66545444143632, 30.50966165760813]]]}, "properties": {"name": "cand30", "ptype": "hall", "confidence": "low", "rank": 30, "area_ha": 1.9, "rise_db": 6.6, "digitised_from": "Sentinel-1 VV rise 2022->2026, orbit 40"}}, {"type": "Feature", "geometry": {"geodesic": false, "type": "Polygon", "coordinates": [[[114.59035528368393, 30.51648885376744], [114.59035528368393, 30.516309190710615], [114.58999595757028, 30.516309190710615], [114.58999595757028, 30.515770201540146], [114.59017562062711, 30.515770201540146], [114.59017562062711, 30.515231212369674], [114.59035528368393, 30.515231212369674], [114.59035528368393, 30.514871886256024], [114.59053494674075, 30.514871886256024], [114.59053494674075, 30.5146922231992], [114.59125359896805, 30.5146922231992], [114.59125359896805, 30.514871886256024], [114.59143326202486, 30.514871886256024], [114.59143326202486, 30.51505154931285], [114.59125359896805, 30.51505154931285], [114.59125359896805, 30.515231212369674], [114.59107393591123, 30.515231212369674], [114.59107393591123, 30.51559053848332], [114.5908942728544, 30.51559053848332], [114.5908942728544, 30.51594986459697], [114.59071460979757, 30.51594986459697], [114.59071460979757, 30.516129527653792], [114.59053494674075, 30.516129527653792], [114.59053494674075, 30.51648885376744], [114.59035528368393, 30.51648885376744]]]}, "properties": {"name": "cand31", "ptype": "hall", "confidence": "low", "rank": 31, "area_ha": 1.7, "rise_db": 7.6, "digitised_from": "Sentinel-1 VV rise 2022->2026, orbit 40"}}, {"type": "Feature", "geometry": {"geodesic": false, "type": "Polygon", "coordinates": [[[114.6074232740822, 30.528705941631465], [114.6074232740822, 30.528526278574642], [114.60724361102537, 30.528526278574642], [114.60724361102537, 30.52834661551782], [114.6067046218549, 30.52834661551782], [114.6067046218549, 30.528166952460992], [114.60652495879808, 30.528166952460992], [114.60652495879808, 30.527627963290524], [114.60688428491173, 30.527627963290524], [114.60688428491173, 30.527448300233697], [114.60724361102537, 30.527448300233697], [114.60724361102537, 30.527807626347347], [114.60760293713902, 30.527807626347347], [114.60760293713902, 30.527448300233697], [114.60778260019585, 30.527448300233697], [114.60778260019585, 30.527268637176874], [114.60796226325267, 30.527268637176874], [114.60796226325267, 30.52708897412005], [114.6081419263095, 30.52708897412005], [114.6081419263095, 30.527807626347347], [114.60796226325267, 30.527807626347347], [114.60796226325267, 30.52834661551782], [114.60778260019585, 30.52834661551782], [114.60778260019585, 30.528526278574642], [114.60760293713902, 30.528526278574642], [114.60760293713902, 30.528705941631465], [114.6074232740822, 30.528705941631465]]]}, "properties": {"name": "cand32", "ptype": "hall", "confidence": "low", "rank": 32, "area_ha": 1.7, "rise_db": 10.1, "digitised_from": "Sentinel-1 VV rise 2022->2026, orbit 40"}}, {"type": "Feature", "geometry": {"geodesic": false, "type": "Polygon", "coordinates": [[[114.63473205871944, 30.52098043018804], [114.63473205871944, 30.520800767131213], [114.63437273260578, 30.520800767131213], [114.63437273260578, 30.52062110407439], [114.63383374343532, 30.52062110407439], [114.63383374343532, 30.520800767131213], [114.63365408037849, 30.520800767131213], [114.63365408037849, 30.52062110407439], [114.63347441732166, 30.52062110407439], [114.63347441732166, 30.520441441017567], [114.63365408037849, 30.520441441017567], [114.63365408037849, 30.52026177796074], [114.63383374343532, 30.52026177796074], [114.63383374343532, 30.520082114903918], [114.63401340649213, 30.520082114903918], [114.63401340649213, 30.519902451847095], [114.63419306954896, 30.519902451847095], [114.63419306954896, 30.519722788790272], [114.63437273260578, 30.519722788790272], [114.63437273260578, 30.519543125733446], [114.63473205871944, 30.519543125733446], [114.63473205871944, 30.519722788790272], [114.63509138483307, 30.519722788790272], [114.63509138483307, 30.520441441017567], [114.63491172177626, 30.520441441017567], [114.63491172177626, 30.52098043018804], [114.63473205871944, 30.52098043018804]]]}, "properties": {"name": "cand33", "ptype": "hall", "confidence": "low", "rank": 33, "area_ha": 1.6, "rise_db": 5.4, "digitised_from": "Sentinel-1 VV rise 2022->2026, orbit 40"}}, {"type": "Feature", "geometry": {"geodesic": false, "type": "Polygon", "coordinates": [[[114.59107393591123, 30.492054678039388], [114.59107393591123, 30.491875014982565], [114.5908942728544, 30.491875014982565], [114.5908942728544, 30.489898721357502], [114.59107393591123, 30.489898721357502], [114.59107393591123, 30.489539395243856], [114.59125359896805, 30.489539395243856], [114.59125359896805, 30.48935973218703], [114.59161292508169, 30.48935973218703], [114.59161292508169, 30.489539395243856], [114.59143326202486, 30.489539395243856], [114.59143326202486, 30.490078384414325], [114.59161292508169, 30.490078384414325], [114.59161292508169, 30.49025804747115], [114.59179258813852, 30.49025804747115], [114.59179258813852, 30.490437710527974], [114.59143326202486, 30.490437710527974], [114.59143326202486, 30.490797036641624], [114.59125359896805, 30.490797036641624], [114.59125359896805, 30.491336025812092], [114.59143326202486, 30.491336025812092], [114.59143326202486, 30.491875014982565], [114.59125359896805, 30.491875014982565], [114.59125359896805, 30.492054678039388], [114.59107393591123, 30.492054678039388]]]}, "properties": {"name": "cand34", "ptype": "hall", "confidence": "low", "rank": 34, "area_ha": 1.6, "rise_db": 8.3, "digitised_from": "Sentinel-1 VV rise 2022->2026, orbit 40"}}, {"type": "Feature", "geometry": {"geodesic": false, "type": "Polygon", "coordinates": [[[114.64443386378792, 30.501576820051056], [114.64443386378792, 30.501397156994233], [114.64407453767427, 30.501397156994233], [114.64407453767427, 30.501217493937407], [114.64371521156063, 30.501217493937407], [114.64371521156063, 30.501037830880584], [114.6435355485038, 30.501037830880584], [114.6435355485038, 30.500678504766938], [114.64371521156063, 30.500678504766938], [114.64371521156063, 30.50049884171011], [114.64443386378792, 30.50049884171011], [114.64443386378792, 30.500678504766938], [114.64497285295839, 30.500678504766938], [114.64497285295839, 30.50049884171011], [114.64533217907204, 30.50049884171011], [114.64533217907204, 30.500678504766938], [114.64551184212887, 30.500678504766938], [114.64551184212887, 30.501037830880584], [114.64497285295839, 30.501037830880584], [114.64497285295839, 30.501217493937407], [114.64479318990158, 30.501217493937407], [114.64479318990158, 30.501397156994233], [114.64461352684475, 30.501397156994233], [114.64461352684475, 30.501576820051056], [114.64443386378792, 30.501576820051056]]]}, "properties": {"name": "cand35", "ptype": "hall", "confidence": "low", "rank": 35, "area_ha": 1.6, "rise_db": 7.5, "digitised_from": "Sentinel-1 VV rise 2022->2026, orbit 40"}}, {"type": "Feature", "geometry": {"geodesic": false, "type": "Polygon", "coordinates": [[[114.63958296125368, 30.5064277225853], [114.63958296125368, 30.506248059528478], [114.63940329819685, 30.506248059528478], [114.63940329819685, 30.506068396471655], [114.63922363514003, 30.506068396471655], [114.63922363514003, 30.505709070358005], [114.63940329819685, 30.505709070358005], [114.63940329819685, 30.505529407301182], [114.63958296125368, 30.505529407301182], [114.63958296125368, 30.50534974424436], [114.6397626243105, 30.50534974424436], [114.6397626243105, 30.505170081187533], [114.63994228736732, 30.505170081187533], [114.63994228736732, 30.50499041813071], [114.64012195042415, 30.50499041813071], [114.64012195042415, 30.50534974424436], [114.64030161348097, 30.50534974424436], [114.64030161348097, 30.505529407301182], [114.64012195042415, 30.505529407301182], [114.64012195042415, 30.505709070358005], [114.64030161348097, 30.505709070358005], [114.64030161348097, 30.50588873341483], [114.64137959182192, 30.50588873341483], [114.64137959182192, 30.506068396471655], [114.64119992876509, 30.506068396471655], [114.64119992876509, 30.506248059528478], [114.6397626243105, 30.506248059528478], [114.6397626243105, 30.5064277225853], [114.63958296125368, 30.5064277225853]]]}, "properties": {"name": "cand36", "ptype": "hall", "confidence": "low", "rank": 36, "area_ha": 1.6, "rise_db": 6.8, "digitised_from": "Sentinel-1 VV rise 2022->2026, orbit 40"}}, {"type": "Feature", "geometry": {"geodesic": false, "type": "Polygon", "coordinates": [[[114.61263350273009, 30.522238071585804], [114.61263350273009, 30.52205840852898], [114.61227417661644, 30.52205840852898], [114.61227417661644, 30.521878745472158], [114.6119148505028, 30.521878745472158], [114.6119148505028, 30.521699082415335], [114.61137586133232, 30.521699082415335], [114.61137586133232, 30.52151941935851], [114.61101653521868, 30.52151941935851], [114.61101653521868, 30.521160093244863], [114.61155552438915, 30.521160093244863], [114.61155552438915, 30.52098043018804], [114.61173518744597, 30.52098043018804], [114.61173518744597, 30.521160093244863], [114.6119148505028, 30.521160093244863], [114.6119148505028, 30.521339756301685], [114.61209451355963, 30.521339756301685], [114.61209451355963, 30.52151941935851], [114.61263350273009, 30.52151941935851], [114.61263350273009, 30.521339756301685], [114.61317249190057, 30.521339756301685], [114.61317249190057, 30.52151941935851], [114.61299282884374, 30.52151941935851], [114.61299282884374, 30.521699082415335], [114.61317249190057, 30.521699082415335], [114.61317249190057, 30.522238071585804], [114.61263350273009, 30.522238071585804]]]}, "properties": {"name": "cand37", "ptype": "hall", "confidence": "low", "rank": 37, "area_ha": 1.6, "rise_db": 6.8, "digitised_from": "Sentinel-1 VV rise 2022->2026, orbit 40"}}, {"type": "Feature", "geometry": {"geodesic": false, "type": "Polygon", "coordinates": [[[114.65862724527702, 30.505709070358005], [114.65862724527702, 30.505529407301182], [114.65844758222019, 30.505529407301182], [114.65844758222019, 30.504451428960238], [114.65862724527702, 30.504451428960238], [114.65862724527702, 30.504271765903415], [114.65880690833383, 30.504271765903415], [114.65880690833383, 30.504451428960238], [114.65898657139066, 30.504451428960238], [114.65898657139066, 30.504631092017064], [114.65916623444748, 30.504631092017064], [114.65916623444748, 30.50499041813071], [114.65952556056114, 30.50499041813071], [114.65952556056114, 30.505170081187533], [114.65970522361795, 30.505170081187533], [114.65970522361795, 30.50534974424436], [114.65988488667477, 30.50534974424436], [114.65988488667477, 30.505529407301182], [114.65952556056114, 30.505529407301182], [114.65952556056114, 30.505709070358005], [114.65862724527702, 30.505709070358005]]]}, "properties": {"name": "cand38", "ptype": "hall", "confidence": "low", "rank": 38, "area_ha": 1.5, "rise_db": 6.9, "digitised_from": "Sentinel-1 VV rise 2022->2026, orbit 40"}}, {"type": "Feature", "geometry": {"geodesic": false, "type": "Polygon", "coordinates": [[[114.63832531985591, 30.50858367926719], [114.63832531985591, 30.508404016210363], [114.63814565679908, 30.508404016210363], [114.63814565679908, 30.507685363983068], [114.63850498291274, 30.507685363983068], [114.63850498291274, 30.507505700926245], [114.63832531985591, 30.507505700926245], [114.63832531985591, 30.506966711755773], [114.63850498291274, 30.506966711755773], [114.63850498291274, 30.50678704869895], [114.63868464596956, 30.50678704869895], [114.63868464596956, 30.506607385642127], [114.6390439720832, 30.506607385642127], [114.6390439720832, 30.50678704869895], [114.63922363514003, 30.50678704869895], [114.63922363514003, 30.507505700926245], [114.6390439720832, 30.507505700926245], [114.6390439720832, 30.507685363983068], [114.63868464596956, 30.507685363983068], [114.63868464596956, 30.50858367926719], [114.63832531985591, 30.50858367926719]]]}, "properties": {"name": "cand39", "ptype": "hall", "confidence": "low", "rank": 39, "area_ha": 1.5, "rise_db": 5.4, "digitised_from": "Sentinel-1 VV rise 2022->2026, orbit 40"}}, {"type": "Feature", "geometry": {"geodesic": false, "type": "Polygon", "coordinates": [[[114.60706394796856, 30.530322909142882], [114.60706394796856, 30.530143246086055], [114.60616563268444, 30.530143246086055], [114.60616563268444, 30.529963583029232], [114.60598596962761, 30.529963583029232], [114.60598596962761, 30.529244930801937], [114.60616563268444, 30.529244930801937], [114.60616563268444, 30.529065267745114], [114.6067046218549, 30.529065267745114], [114.6067046218549, 30.529244930801937], [114.60688428491173, 30.529244930801937], [114.60688428491173, 30.529604256915587], [114.60706394796856, 30.529604256915587], [114.60706394796856, 30.52978391997241], [114.6074232740822, 30.52978391997241], [114.6074232740822, 30.529963583029232], [114.60760293713902, 30.529963583029232], [114.60760293713902, 30.530322909142882], [114.60706394796856, 30.530322909142882]]]}, "properties": {"name": "cand40", "ptype": "hall", "confidence": "low", "rank": 40, "area_ha": 1.5, "rise_db": 6.8, "digitised_from": "Sentinel-1 VV rise 2022->2026, orbit 40"}}, {"type": "Feature", "geometry": {"geodesic": false, "type": "Polygon", "coordinates": [[[114.59520618621818, 30.514871886256024], [114.59520618621818, 30.5146922231992], [114.59484686010452, 30.5146922231992], [114.59484686010452, 30.51451256014238], [114.5946671970477, 30.51451256014238], [114.5946671970477, 30.514332897085552], [114.59430787093406, 30.514332897085552], [114.59430787093406, 30.51415323402873], [114.59412820787723, 30.51415323402873], [114.59412820787723, 30.513793907915083], [114.5946671970477, 30.513793907915083], [114.5946671970477, 30.513614244858257], [114.59502652316135, 30.513614244858257], [114.59502652316135, 30.513434581801434], [114.59520618621818, 30.513434581801434], [114.59520618621818, 30.513793907915083], [114.59502652316135, 30.513793907915083], [114.59502652316135, 30.51415323402873], [114.59538584927499, 30.51415323402873], [114.59538584927499, 30.513973570971906], [114.59574517538864, 30.513973570971906], [114.59574517538864, 30.5146922231992], [114.59556551233182, 30.5146922231992], [114.59556551233182, 30.514871886256024], [114.59520618621818, 30.514871886256024]]]}, "properties": {"name": "cand41", "ptype": "hall", "confidence": "low", "rank": 41, "area_ha": 1.5, "rise_db": 5.9, "digitised_from": "Sentinel-1 VV rise 2022->2026, orbit 40"}}, {"type": "Feature", "geometry": {"geodesic": false, "type": "Polygon", "coordinates": [[[114.63706767845814, 30.52151941935851], [114.63706767845814, 30.521339756301685], [114.63724734151496, 30.521339756301685], [114.63724734151496, 30.521160093244863], [114.63742700457179, 30.521160093244863], [114.63742700457179, 30.520800767131213], [114.63760666762862, 30.520800767131213], [114.63760666762862, 30.52062110407439], [114.63778633068544, 30.52062110407439], [114.63778633068544, 30.520441441017567], [114.63814565679908, 30.520441441017567], [114.63814565679908, 30.52062110407439], [114.63832531985591, 30.52062110407439], [114.63832531985591, 30.519902451847095], [114.63850498291274, 30.519902451847095], [114.63850498291274, 30.520082114903918], [114.6390439720832, 30.520082114903918], [114.6390439720832, 30.52026177796074], [114.63922363514003, 30.52026177796074], [114.63922363514003, 30.520800767131213], [114.63868464596956, 30.520800767131213], [114.63868464596956, 30.52098043018804], [114.63814565679908, 30.52098043018804], [114.63814565679908, 30.521160093244863], [114.63796599374226, 30.521160093244863], [114.63796599374226, 30.52098043018804], [114.63778633068544, 30.52098043018804], [114.63778633068544, 30.520800767131213], [114.63760666762862, 30.520800767131213], [114.63760666762862, 30.521339756301685], [114.63724734151496, 30.521339756301685], [114.63724734151496, 30.52151941935851], [114.63706767845814, 30.52151941935851]]]}, "properties": {"name": "cand42", "ptype": "hall", "confidence": "low", "rank": 42, "area_ha": 1.5, "rise_db": 8.1, "digitised_from": "Sentinel-1 VV rise 2022->2026, orbit 40"}}, {"type": "Feature", "geometry": {"geodesic": false, "type": "Polygon", "coordinates": [[[114.58748067477474, 30.48522748188008], [114.58748067477474, 30.482712199084546], [114.58801966394522, 30.482712199084546], [114.58801966394522, 30.484149503539136], [114.58784000088839, 30.484149503539136], [114.58784000088839, 30.484329166595963], [114.58766033783157, 30.484329166595963], [114.58766033783157, 30.484868155766435], [114.58801966394522, 30.484868155766435], [114.58801966394522, 30.48522748188008], [114.58748067477474, 30.48522748188008]]]}, "properties": {"name": "cand43", "ptype": "hall", "confidence": "low", "rank": 43, "area_ha": 1.4, "rise_db": 9.0, "digitised_from": "Sentinel-1 VV rise 2022->2026, orbit 40"}}, {"type": "Feature", "geometry": {"geodesic": false, "type": "Polygon", "coordinates": [[[114.66491545226584, 30.533197518052063], [114.66491545226584, 30.53301785499524], [114.6645561261522, 30.53301785499524], [114.6645561261522, 30.532838191938417], [114.66437646309538, 30.532838191938417], [114.66437646309538, 30.53301785499524], [114.66401713698173, 30.53301785499524], [114.66401713698173, 30.53265852888159], [114.66419680003855, 30.53265852888159], [114.66419680003855, 30.532299202767945], [114.66437646309538, 30.532299202767945], [114.66437646309538, 30.532119539711122], [114.66419680003855, 30.532119539711122], [114.66419680003855, 30.531760213597472], [114.66437646309538, 30.531760213597472], [114.66437646309538, 30.53158055054065], [114.6645561261522, 30.53158055054065], [114.6645561261522, 30.531400887483823], [114.66473578920902, 30.531400887483823], [114.66473578920902, 30.53158055054065], [114.66491545226584, 30.53158055054065], [114.66491545226584, 30.53265852888159], [114.66509511532267, 30.53265852888159], [114.66509511532267, 30.533197518052063], [114.66491545226584, 30.533197518052063]]]}, "properties": {"name": "cand44", "ptype": "hall", "confidence": "low", "rank": 44, "area_ha": 1.4, "rise_db": 5.6, "digitised_from": "Sentinel-1 VV rise 2022->2026, orbit 40"}}, {"type": "Feature", "geometry": {"geodesic": false, "type": "Polygon", "coordinates": [[[114.60257237154795, 30.4823528729709], [114.60257237154795, 30.481813883800427], [114.60239270849112, 30.481813883800427], [114.60239270849112, 30.481634220743604], [114.60221304543431, 30.481634220743604], [114.60221304543431, 30.481454557686778], [114.60239270849112, 30.481454557686778], [114.60239270849112, 30.481274894629955], [114.60329102377524, 30.481274894629955], [114.60329102377524, 30.481454557686778], [114.60418933905937, 30.481454557686778], [114.60418933905937, 30.481813883800427], [114.60311136071843, 30.481813883800427], [114.60311136071843, 30.48199354685725], [114.6029316976616, 30.48199354685725], [114.6029316976616, 30.4823528729709], [114.60257237154795, 30.4823528729709]]]}, "properties": {"name": "cand45", "ptype": "hall", "confidence": "low", "rank": 45, "area_ha": 1.3, "rise_db": 7.8, "digitised_from": "Sentinel-1 VV rise 2022->2026, orbit 40"}}, {"type": "Feature", "geometry": {"geodesic": false, "type": "Polygon", "coordinates": [[[114.6518000491177, 30.54541460591609], [114.6518000491177, 30.545234942859263], [114.65162038606088, 30.545234942859263], [114.65162038606088, 30.544875616745617], [114.65144072300406, 30.544875616745617], [114.65144072300406, 30.544695953688795], [114.65126105994723, 30.544695953688795], [114.65126105994723, 30.544156964518322], [114.6510813968904, 30.544156964518322], [114.6510813968904, 30.5439773014615], [114.65162038606088, 30.5439773014615], [114.65162038606088, 30.544156964518322], [114.65215937523135, 30.544156964518322], [114.65215937523135, 30.544336627575145], [114.65233903828818, 30.544336627575145], [114.65233903828818, 30.544695953688795], [114.65215937523135, 30.544695953688795], [114.65215937523135, 30.54541460591609], [114.6518000491177, 30.54541460591609]]]}, "properties": {"name": "cand46", "ptype": "hall", "confidence": "low", "rank": 46, "area_ha": 1.3, "rise_db": 7.3, "digitised_from": "Sentinel-1 VV rise 2022->2026, orbit 40"}}, {"type": "Feature", "geometry": {"geodesic": false, "type": "Polygon", "coordinates": [[[114.66868837645914, 30.499241200312344], [114.66868837645914, 30.49906153725552], [114.66850871340233, 30.49906153725552], [114.66850871340233, 30.498702211141875], [114.6683290503455, 30.498702211141875], [114.6683290503455, 30.498163221971403], [114.66850871340233, 30.498163221971403], [114.66850871340233, 30.49798355891458], [114.66922736562962, 30.49798355891458], [114.66922736562962, 30.498163221971403], [114.66940702868645, 30.498163221971403], [114.66940702868645, 30.49852254808505], [114.66922736562962, 30.49852254808505], [114.66922736562962, 30.49906153725552], [114.6690477025728, 30.49906153725552], [114.6690477025728, 30.499241200312344], [114.66868837645914, 30.499241200312344]]]}, "properties": {"name": "cand47", "ptype": "hall", "confidence": "low", "rank": 47, "area_ha": 1.2, "rise_db": 7.3, "digitised_from": "Sentinel-1 VV rise 2022->2026, orbit 40"}}, {"type": "Feature", "geometry": {"geodesic": false, "type": "Polygon", "coordinates": [[[114.63634902623085, 30.511997277346843], [114.63634902623085, 30.51181761429002], [114.63616936317402, 30.51181761429002], [114.63616936317402, 30.511278625119548], [114.6359897001172, 30.511278625119548], [114.6359897001172, 30.5109192990059], [114.63616936317402, 30.5109192990059], [114.63616936317402, 30.510739635949076], [114.63634902623085, 30.510739635949076], [114.63634902623085, 30.510559972892253], [114.6367083523445, 30.510559972892253], [114.6367083523445, 30.510380309835426], [114.63688801540133, 30.510380309835426], [114.63688801540133, 30.510559972892253], [114.63706767845814, 30.510559972892253], [114.63706767845814, 30.5109192990059], [114.63652868928767, 30.5109192990059], [114.63652868928767, 30.51145828817637], [114.63706767845814, 30.51145828817637], [114.63706767845814, 30.51181761429002], [114.6367083523445, 30.51181761429002], [114.6367083523445, 30.511997277346843], [114.63634902623085, 30.511997277346843]]]}, "properties": {"name": "cand48", "ptype": "hall", "confidence": "low", "rank": 48, "area_ha": 1.2, "rise_db": 5.2, "digitised_from": "Sentinel-1 VV rise 2022->2026, orbit 40"}}, {"type": "Feature", "geometry": {"geodesic": false, "type": "Polygon", "coordinates": [[[114.65215937523135, 30.521160093244863], [114.65215937523135, 30.52098043018804], [114.65197971217452, 30.52098043018804], [114.65197971217452, 30.519722788790272], [114.65215937523135, 30.519722788790272], [114.65215937523135, 30.519543125733446], [114.65287802745864, 30.519543125733446], [114.65287802745864, 30.519722788790272], [114.65305769051547, 30.519722788790272], [114.65305769051547, 30.519902451847095], [114.65287802745864, 30.519902451847095], [114.65287802745864, 30.520082114903918], [114.652518701345, 30.520082114903918], [114.652518701345, 30.52026177796074], [114.65233903828818, 30.52026177796074], [114.65233903828818, 30.52062110407439], [114.652518701345, 30.52062110407439], [114.652518701345, 30.52098043018804], [114.65233903828818, 30.52098043018804], [114.65233903828818, 30.521160093244863], [114.65215937523135, 30.521160093244863]]]}, "properties": {"name": "cand49", "ptype": "hall", "confidence": "low", "rank": 49, "area_ha": 1.2, "rise_db": 7.7, "digitised_from": "Sentinel-1 VV rise 2022->2026, orbit 40"}}, {"type": "Feature", "geometry": {"geodesic": false, "type": "Polygon", "coordinates": [[[114.60921990465044, 30.533736507222535], [114.60921990465044, 30.533556844165712], [114.60904024159362, 30.533556844165712], [114.60904024159362, 30.532478865824768], [114.60921990465044, 30.532478865824768], [114.60921990465044, 30.532119539711122], [114.60957923076408, 30.532119539711122], [114.60957923076408, 30.532299202767945], [114.60975889382091, 30.532299202767945], [114.60975889382091, 30.533377181108886], [114.60957923076408, 30.533377181108886], [114.60957923076408, 30.533556844165712], [114.60939956770726, 30.533556844165712], [114.60939956770726, 30.533736507222535], [114.60921990465044, 30.533736507222535]]]}, "properties": {"name": "cand50", "ptype": "hall", "confidence": "low", "rank": 50, "area_ha": 1.2, "rise_db": 8.0, "digitised_from": "Sentinel-1 VV rise 2022->2026, orbit 40"}}, {"type": "Feature", "geometry": {"geodesic": false, "type": "Polygon", "coordinates": [[[114.6518000491177, 30.502654798392], [114.6518000491177, 30.50211580922153], [114.65162038606088, 30.50211580922153], [114.65162038606088, 30.501936146164706], [114.6518000491177, 30.501936146164706], [114.6518000491177, 30.50175648310788], [114.65162038606088, 30.50175648310788], [114.65162038606088, 30.50085816782376], [114.6518000491177, 30.50085816782376], [114.6518000491177, 30.500678504766938], [114.65197971217452, 30.500678504766938], [114.65197971217452, 30.50085816782376], [114.65215937523135, 30.50085816782376], [114.65215937523135, 30.50229547227835], [114.65233903828818, 30.50229547227835], [114.65233903828818, 30.502475135335175], [114.65215937523135, 30.502475135335175], [114.65215937523135, 30.502654798392], [114.6518000491177, 30.502654798392]]]}, "properties": {"name": "cand51", "ptype": "hall", "confidence": "low", "rank": 51, "area_ha": 1.1, "rise_db": 6.9, "digitised_from": "Sentinel-1 VV rise 2022->2026, orbit 40"}}, {"type": "Feature", "geometry": {"geodesic": false, "type": "Polygon", "coordinates": [[[114.60832158936631, 30.517566832108383], [114.60832158936631, 30.517027842937914], [114.60850125242314, 30.517027842937914], [114.60850125242314, 30.516848179881087], [114.60868091547997, 30.516848179881087], [114.60868091547997, 30.515770201540146], [114.60921990465044, 30.515770201540146], [114.60921990465044, 30.51594986459697], [114.60939956770726, 30.51594986459697], [114.60939956770726, 30.516309190710615], [114.60921990465044, 30.516309190710615], [114.60921990465044, 30.51648885376744], [114.60904024159362, 30.51648885376744], [114.60904024159362, 30.516848179881087], [114.60886057853679, 30.516848179881087], [114.60886057853679, 30.51738716905156], [114.60868091547997, 30.51738716905156], [114.60868091547997, 30.517566832108383], [114.60832158936631, 30.517566832108383]]]}, "properties": {"name": "cand52", "ptype": "hall", "confidence": "low", "rank": 52, "area_ha": 1.1, "rise_db": 7.6, "digitised_from": "Sentinel-1 VV rise 2022->2026, orbit 40"}}, {"type": "Feature", "geometry": {"geodesic": false, "type": "Polygon", "coordinates": [[[114.65036274466311, 30.544156964518322], [114.65036274466311, 30.5439773014615], [114.64964409243582, 30.5439773014615], [114.64964409243582, 30.543797638404673], [114.649464429379, 30.543797638404673], [114.649464429379, 30.54361797534785], [114.64928476632217, 30.54361797534785], [114.64928476632217, 30.543438312291027], [114.649464429379, 30.543438312291027], [114.649464429379, 30.5432586492342], [114.65000341854946, 30.5432586492342], [114.65000341854946, 30.543438312291027], [114.65072207077677, 30.543438312291027], [114.65072207077677, 30.54361797534785], [114.65090173383358, 30.54361797534785], [114.65090173383358, 30.5439773014615], [114.65072207077677, 30.5439773014615], [114.65072207077677, 30.544156964518322], [114.65036274466311, 30.544156964518322]]]}, "properties": {"name": "cand53", "ptype": "hall", "confidence": "low", "rank": 53, "area_ha": 1.1, "rise_db": 7.1, "digitised_from": "Sentinel-1 VV rise 2022->2026, orbit 40"}}, {"type": "Feature", "geometry": {"geodesic": false, "type": "Polygon", "coordinates": [[[114.66132219112937, 30.511278625119548], [114.66132219112937, 30.5109192990059], [114.6615018541862, 30.5109192990059], [114.6615018541862, 30.510739635949076], [114.66186118029984, 30.510739635949076], [114.66186118029984, 30.510559972892253], [114.66204084335666, 30.510559972892253], [114.66204084335666, 30.510380309835426], [114.66240016947032, 30.510380309835426], [114.66240016947032, 30.510559972892253], [114.66257983252714, 30.510559972892253], [114.66257983252714, 30.510739635949076], [114.66275949558396, 30.510739635949076], [114.66275949558396, 30.51109896206272], [114.66240016947032, 30.51109896206272], [114.66240016947032, 30.511278625119548], [114.66132219112937, 30.511278625119548]]]}, "properties": {"name": "cand54", "ptype": "hall", "confidence": "low", "rank": 54, "area_ha": 1.1, "rise_db": 5.8, "digitised_from": "Sentinel-1 VV rise 2022->2026, orbit 40"}}, {"type": "Feature", "geometry": {"geodesic": false, "type": "Polygon", "coordinates": [[[114.61604710080975, 30.52241773464263], [114.61604710080975, 30.521699082415335], [114.61622676386656, 30.521699082415335], [114.61622676386656, 30.52151941935851], [114.61640642692339, 30.52151941935851], [114.61640642692339, 30.52098043018804], [114.61658608998022, 30.52098043018804], [114.61658608998022, 30.520441441017567], [114.61676575303704, 30.520441441017567], [114.61676575303704, 30.52026177796074], [114.61694541609387, 30.52026177796074], [114.61694541609387, 30.519543125733446], [114.61730474220751, 30.519543125733446], [114.61730474220751, 30.520082114903918], [114.6171250791507, 30.520082114903918], [114.6171250791507, 30.52026177796074], [114.61694541609387, 30.52026177796074], [114.61694541609387, 30.52098043018804], [114.61676575303704, 30.52098043018804], [114.61676575303704, 30.521339756301685], [114.61658608998022, 30.521339756301685], [114.61658608998022, 30.52151941935851], [114.61640642692339, 30.52151941935851], [114.61640642692339, 30.522238071585804], [114.61622676386656, 30.522238071585804], [114.61622676386656, 30.52241773464263], [114.61604710080975, 30.52241773464263]]]}, "properties": {"name": "cand55", "ptype": "hall", "confidence": "low", "rank": 55, "area_ha": 1.1, "rise_db": 5.1, "digitised_from": "Sentinel-1 VV rise 2022->2026, orbit 40"}}, {"type": "Feature", "geometry": {"geodesic": false, "type": "Polygon", "coordinates": [[[114.58963663145663, 30.503732776732942], [114.58963663145663, 30.50355311367612], [114.5894569683998, 30.50355311367612], [114.5894569683998, 30.50319378756247], [114.58927730534299, 30.50319378756247], [114.58927730534299, 30.503014124505647], [114.5894569683998, 30.503014124505647], [114.5894569683998, 30.502834461448824], [114.59035528368393, 30.502834461448824], [114.59035528368393, 30.503014124505647], [114.59053494674075, 30.503014124505647], [114.59053494674075, 30.50355311367612], [114.58999595757028, 30.50355311367612], [114.58999595757028, 30.503732776732942], [114.58963663145663, 30.503732776732942]]]}, "properties": {"name": "cand56", "ptype": "hall", "confidence": "low", "rank": 56, "area_ha": 1.0, "rise_db": 5.8, "digitised_from": "Sentinel-1 VV rise 2022->2026, orbit 40"}}, {"type": "Feature", "geometry": {"geodesic": false, "type": "Polygon", "coordinates": [[[114.66725107200456, 30.509841320664957], [114.66725107200456, 30.509481994551308], [114.66743073506139, 30.509481994551308], [114.66743073506139, 30.508943005380836], [114.6676103981182, 30.508943005380836], [114.6676103981182, 30.508763342324013], [114.66814938728868, 30.508763342324013], [114.66814938728868, 30.50858367926719], [114.6683290503455, 30.50858367926719], [114.6683290503455, 30.508763342324013], [114.66850871340233, 30.508763342324013], [114.66850871340233, 30.50912266843766], [114.6683290503455, 30.50912266843766], [114.6683290503455, 30.509302331494485], [114.66814938728868, 30.509302331494485], [114.66814938728868, 30.509481994551308], [114.66796972423185, 30.509481994551308], [114.66796972423185, 30.50966165760813], [114.66743073506139, 30.50966165760813], [114.66743073506139, 30.509841320664957], [114.66725107200456, 30.509841320664957]]]}, "properties": {"name": "cand57", "ptype": "hall", "confidence": "low", "rank": 57, "area_ha": 1.0, "rise_db": 5.0, "digitised_from": "Sentinel-1 VV rise 2022->2026, orbit 40"}}, {"type": "Feature", "geometry": {"geodesic": false, "type": "Polygon", "coordinates": [[[114.61173518744597, 30.518465147392504], [114.61173518744597, 30.518285484335678], [114.61137586133232, 30.518285484335678], [114.61137586133232, 30.51774649516521], [114.61155552438915, 30.51774649516521], [114.61155552438915, 30.517566832108383], [114.61173518744597, 30.517566832108383], [114.61173518744597, 30.51738716905156], [114.61227417661644, 30.51738716905156], [114.61227417661644, 30.517207505994737], [114.61245383967326, 30.517207505994737], [114.61245383967326, 30.51738716905156], [114.61263350273009, 30.51738716905156], [114.61263350273009, 30.51774649516521], [114.6119148505028, 30.51774649516521], [114.6119148505028, 30.517926158222032], [114.61209451355963, 30.517926158222032], [114.61209451355963, 30.518105821278855], [114.61227417661644, 30.518105821278855], [114.61227417661644, 30.518285484335678], [114.61209451355963, 30.518285484335678], [114.61209451355963, 30.518465147392504], [114.61173518744597, 30.518465147392504]]]}, "properties": {"name": "cand58", "ptype": "hall", "confidence": "low", "rank": 58, "area_ha": 1.0, "rise_db": 5.0, "digitised_from": "Sentinel-1 VV rise 2022->2026, orbit 40"}}]}