{"type": "FeatureCollection", "features": [{"type": "Feature", "geometry": {"geodesic": false, "type": "Polygon", "coordinates": [[[109.37240112434728, 36.750976588613746], [109.37240112434728, 36.75079692555692], [109.37204179823362, 36.75079692555692], [109.37204179823362, 36.75043759944327], [109.37240112434728, 36.75043759944327], [109.37240112434728, 36.75025793638645], [109.37222146129045, 36.75025793638645], [109.37222146129045, 36.75007827332962], [109.37204179823362, 36.75007827332962], [109.37204179823362, 36.75025793638645], [109.37168247211999, 36.75025793638645], [109.37168247211999, 36.75043759944327], [109.37132314600633, 36.75043759944327], [109.37132314600633, 36.75025793638645], [109.3711434829495, 36.75025793638645], [109.3711434829495, 36.75007827332962], [109.37042483072221, 36.75007827332962], [109.37042483072221, 36.7498986102728], [109.37024516766539, 36.7498986102728], [109.37024516766539, 36.7491799580455], [109.37042483072221, 36.7491799580455], [109.37042483072221, 36.74900029498868], [109.37060449377904, 36.74900029498868], [109.37060449377904, 36.748820631931856], [109.37042483072221, 36.748820631931856], [109.37042483072221, 36.74864096887503], [109.37060449377904, 36.74864096887503], [109.37060449377904, 36.74846130581821], [109.37042483072221, 36.74846130581821], [109.37042483072221, 36.74756299053409], [109.37060449377904, 36.74756299053409], [109.37060449377904, 36.747383327477266], [109.37078415683585, 36.747383327477266], [109.37078415683585, 36.74720366442044], [109.37150280906316, 36.74720366442044], [109.37150280906316, 36.747383327477266], [109.37132314600633, 36.747383327477266], [109.37132314600633, 36.74756299053409], [109.3711434829495, 36.74756299053409], [109.3711434829495, 36.74810197970456], [109.37168247211999, 36.74810197970456], [109.37168247211999, 36.74792231664774], [109.37150280906316, 36.74792231664774], [109.37150280906316, 36.74774265359091], [109.37204179823362, 36.74774265359091], [109.37204179823362, 36.74792231664774], [109.37240112434728, 36.74792231664774], [109.37240112434728, 36.74774265359091], [109.37222146129045, 36.74774265359091], [109.37222146129045, 36.747383327477266], [109.3725807874041, 36.747383327477266], [109.3725807874041, 36.74756299053409], [109.37311977657457, 36.74756299053409], [109.37311977657457, 36.74720366442044], [109.37294011351774, 36.74720366442044], [109.37294011351774, 36.74666467524997], [109.37276045046092, 36.74666467524997], [109.37276045046092, 36.74702400136362], [109.37240112434728, 36.74702400136362], [109.37240112434728, 36.74720366442044], [109.37222146129045, 36.74720366442044], [109.37222146129045, 36.74702400136362], [109.3718621351768, 36.74702400136362], [109.3718621351768, 36.74720366442044], [109.37168247211999, 36.74720366442044], [109.37168247211999, 36.74684433830679], [109.37150280906316, 36.74684433830679], [109.37150280906316, 36.74648501219315], [109.3718621351768, 36.74648501219315], [109.3718621351768, 36.74630534913632], [109.37168247211999, 36.74630534913632], [109.37168247211999, 36.745946023022675], [109.37204179823362, 36.745946023022675], [109.37204179823362, 36.746125686079495], [109.3725807874041, 36.746125686079495], [109.3725807874041, 36.745946023022675], [109.37276045046092, 36.745946023022675], [109.37276045046092, 36.74576635996585], [109.37294011351774, 36.74576635996585], [109.37294011351774, 36.7454070338522], [109.37276045046092, 36.7454070338522], [109.37276045046092, 36.74558669690903], [109.3725807874041, 36.74558669690903], [109.3725807874041, 36.74576635996585], [109.37222146129045, 36.74576635996585], [109.37222146129045, 36.74558669690903], [109.3718621351768, 36.74558669690903], [109.3718621351768, 36.7454070338522], [109.37204179823362, 36.7454070338522], [109.37204179823362, 36.74522737079538], [109.37240112434728, 36.74522737079538], [109.37240112434728, 36.74486804468173], [109.37276045046092, 36.74486804468173], [109.37276045046092, 36.744688381624904], [109.37294011351774, 36.744688381624904], [109.37294011351774, 36.74486804468173], [109.37311977657457, 36.74486804468173], [109.37311977657457, 36.74522737079538], [109.37294011351774, 36.74522737079538], [109.37294011351774, 36.7454070338522], [109.37347910268822, 36.7454070338522], [109.37347910268822, 36.745946023022675], [109.3732994396314, 36.745946023022675], [109.3732994396314, 36.74630534913632], [109.37383842880186, 36.74630534913632], [109.37383842880186, 36.74648501219315], [109.37455708102917, 36.74648501219315], [109.37455708102917, 36.74630534913632], [109.37473674408598, 36.74630534913632], [109.37473674408598, 36.746125686079495], [109.37509607019963, 36.746125686079495], [109.37509607019963, 36.74648501219315], [109.3749164071428, 36.74648501219315], [109.3749164071428, 36.74702400136362], [109.37545539631328, 36.74702400136362], [109.37545539631328, 36.74684433830679], [109.37563505937011, 36.74684433830679], [109.37563505937011, 36.74666467524997], [109.37581472242692, 36.74666467524997], [109.37581472242692, 36.74630534913632], [109.37599438548375, 36.74630534913632], [109.37599438548375, 36.746125686079495], [109.37617404854058, 36.746125686079495], [109.37617404854058, 36.745946023022675], [109.3763537115974, 36.745946023022675], [109.3763537115974, 36.74576635996585], [109.37653337465423, 36.74576635996585], [109.37653337465423, 36.7454070338522], [109.3763537115974, 36.7454070338522], [109.3763537115974, 36.74522737079538], [109.37617404854058, 36.74522737079538], [109.37617404854058, 36.74486804468173], [109.37581472242692, 36.74486804468173], [109.37581472242692, 36.744508718568085], [109.37509607019963, 36.744508718568085], [109.37509607019963, 36.744688381624904], [109.37473674408598, 36.744688381624904], [109.37473674408598, 36.74504770773856], [109.37437741797234, 36.74504770773856], [109.37437741797234, 36.74522737079538], [109.37419775491551, 36.74522737079538], [109.37419775491551, 36.7454070338522], [109.37437741797234, 36.7454070338522], [109.37437741797234, 36.745946023022675], [109.37401809185869, 36.745946023022675], [109.37401809185869, 36.74576635996585], [109.37419775491551, 36.74576635996585], [109.37419775491551, 36.74558669690903], [109.37401809185869, 36.74558669690903], [109.37401809185869, 36.74522737079538], [109.37383842880186, 36.74522737079538], [109.37383842880186, 36.744508718568085], [109.37401809185869, 36.744508718568085], [109.37401809185869, 36.74432905551126], [109.37383842880186, 36.74432905551126], [109.37383842880186, 36.74396972939761], [109.37455708102917, 36.74396972939761], [109.37455708102917, 36.743790066340786], [109.37473674408598, 36.743790066340786], [109.37473674408598, 36.74361040328397], [109.37437741797234, 36.74361040328397], [109.37437741797234, 36.743251077170314], [109.37473674408598, 36.743251077170314], [109.37473674408598, 36.743071414113494], [109.37509607019963, 36.743071414113494], [109.37509607019963, 36.74289175105667], [109.37527573325646, 36.74289175105667], [109.37527573325646, 36.74253242494302], [109.37563505937011, 36.74253242494302], [109.37563505937011, 36.742352761886195], [109.37653337465423, 36.742352761886195], [109.37653337465423, 36.74199343577255], [109.37689270076787, 36.74199343577255], [109.37689270076787, 36.74181377271572], [109.37671303771104, 36.74181377271572], [109.37671303771104, 36.741634109658904], [109.37725202688152, 36.741634109658904], [109.37725202688152, 36.74181377271572], [109.37743168993835, 36.74181377271572], [109.37743168993835, 36.741634109658904], [109.37797067910881, 36.741634109658904], [109.37797067910881, 36.74145444660208], [109.37833000522247, 36.74145444660208], [109.37833000522247, 36.74127478354525], [109.37850966827929, 36.74127478354525], [109.37850966827929, 36.74145444660208], [109.37904865744976, 36.74145444660208], [109.37904865744976, 36.741634109658904], [109.37958764662024, 36.741634109658904], [109.37958764662024, 36.74145444660208], [109.37976730967705, 36.74145444660208], [109.37976730967705, 36.74181377271572], [109.37922832050658, 36.74181377271572], [109.37922832050658, 36.74199343577255], [109.37850966827929, 36.74199343577255], [109.37850966827929, 36.74217309882937], [109.37833000522247, 36.74217309882937], [109.37833000522247, 36.74271208799984], [109.37904865744976, 36.74271208799984], [109.37904865744976, 36.743071414113494], [109.37886899439293, 36.743071414113494], [109.37886899439293, 36.743251077170314], [109.3786893313361, 36.743251077170314], [109.3786893313361, 36.74343074022714], [109.37886899439293, 36.74343074022714], [109.37886899439293, 36.74361040328397], [109.37850966827929, 36.74361040328397], [109.37850966827929, 36.74343074022714], [109.37833000522247, 36.74343074022714], [109.37833000522247, 36.743251077170314], [109.37779101605199, 36.743251077170314], [109.37779101605199, 36.74361040328397], [109.37797067910881, 36.74361040328397], [109.37797067910881, 36.743790066340786], [109.3786893313361, 36.743790066340786], [109.3786893313361, 36.74396972939761], [109.37958764662024, 36.74396972939761], [109.37958764662024, 36.74414939245443], [109.37940798356341, 36.74414939245443], [109.37940798356341, 36.744508718568085], [109.37904865744976, 36.744508718568085], [109.37904865744976, 36.744688381624904], [109.37886899439293, 36.744688381624904], [109.37886899439293, 36.74486804468173], [109.3786893313361, 36.74486804468173], [109.3786893313361, 36.74504770773856], [109.37850966827929, 36.74504770773856], [109.37850966827929, 36.74522737079538], [109.37833000522247, 36.74522737079538], [109.37833000522247, 36.7454070338522], [109.37815034216564, 36.7454070338522], [109.37815034216564, 36.74522737079538], [109.37779101605199, 36.74522737079538], [109.37779101605199, 36.7454070338522], [109.37797067910881, 36.7454070338522], [109.37797067910881, 36.74576635996585], [109.37779101605199, 36.74576635996585], [109.37779101605199, 36.745946023022675], [109.37761135299517, 36.745946023022675], [109.37761135299517, 36.746125686079495], [109.37743168993835, 36.746125686079495], [109.37743168993835, 36.74630534913632], [109.37725202688152, 36.74630534913632], [109.37725202688152, 36.74648501219315], [109.3770723638247, 36.74648501219315], [109.3770723638247, 36.74666467524997], [109.37671303771104, 36.74666467524997], [109.37671303771104, 36.74684433830679], [109.37653337465423, 36.74684433830679], [109.37653337465423, 36.74720366442044], [109.3763537115974, 36.74720366442044], [109.3763537115974, 36.74684433830679], [109.37653337465423, 36.74684433830679], [109.37653337465423, 36.74666467524997], [109.3763537115974, 36.74666467524997], [109.3763537115974, 36.74648501219315], [109.37617404854058, 36.74648501219315], [109.37617404854058, 36.74666467524997], [109.37599438548375, 36.74666467524997], [109.37599438548375, 36.74684433830679], [109.37581472242692, 36.74684433830679], [109.37581472242692, 36.74702400136362], [109.37563505937011, 36.74702400136362], [109.37563505937011, 36.74720366442044], [109.37545539631328, 36.74720366442044], [109.37545539631328, 36.74756299053409], [109.37527573325646, 36.74756299053409], [109.37527573325646, 36.74774265359091], [109.3749164071428, 36.74774265359091], [109.3749164071428, 36.747383327477266], [109.37437741797234, 36.747383327477266], [109.37437741797234, 36.74756299053409], [109.37455708102917, 36.74756299053409], [109.37455708102917, 36.74774265359091], [109.37473674408598, 36.74774265359091], [109.37473674408598, 36.74810197970456], [109.37455708102917, 36.74810197970456], [109.37455708102917, 36.748281642761384], [109.37437741797234, 36.748281642761384], [109.37437741797234, 36.74846130581821], [109.37401809185869, 36.74846130581821], [109.37401809185869, 36.74792231664774], [109.37419775491551, 36.74792231664774], [109.37419775491551, 36.74774265359091], [109.37401809185869, 36.74774265359091], [109.37401809185869, 36.74756299053409], [109.37347910268822, 36.74756299053409], [109.37347910268822, 36.74774265359091], [109.37311977657457, 36.74774265359091], [109.37311977657457, 36.74810197970456], [109.37276045046092, 36.74810197970456], [109.37276045046092, 36.748281642761384], [109.37294011351774, 36.748281642761384], [109.37294011351774, 36.74846130581821], [109.37276045046092, 36.74846130581821], [109.37276045046092, 36.74864096887503], [109.3725807874041, 36.74864096887503], [109.3725807874041, 36.748820631931856], [109.37276045046092, 36.748820631931856], [109.37276045046092, 36.7491799580455], [109.37294011351774, 36.7491799580455], [109.37294011351774, 36.74864096887503], [109.37365876574505, 36.74864096887503], [109.37365876574505, 36.748820631931856], [109.37401809185869, 36.748820631931856], [109.37401809185869, 36.74900029498868], [109.37419775491551, 36.74900029498868], [109.37419775491551, 36.7491799580455], [109.37455708102917, 36.7491799580455], [109.37455708102917, 36.74900029498868], [109.37473674408598, 36.74900029498868], [109.37473674408598, 36.74935962110233], [109.37401809185869, 36.74935962110233], [109.37401809185869, 36.749539284159155], [109.37419775491551, 36.749539284159155], [109.37419775491551, 36.7498986102728], [109.37383842880186, 36.7498986102728], [109.37383842880186, 36.749718947215975], [109.37365876574505, 36.749718947215975], [109.37365876574505, 36.7498986102728], [109.37347910268822, 36.7498986102728], [109.37347910268822, 36.75007827332962], [109.3732994396314, 36.75007827332962], [109.3732994396314, 36.75025793638645], [109.37311977657457, 36.75025793638645], [109.37311977657457, 36.75079692555692], [109.37276045046092, 36.75079692555692], [109.37276045046092, 36.750976588613746], [109.37240112434728, 36.750976588613746]], [[109.37276045046092, 36.74666467524997], [109.3725807874041, 36.74666467524997], [109.3725807874041, 36.74648501219315], [109.37276045046092, 36.74648501219315], [109.37276045046092, 36.74666467524997]], [[109.37581472242692, 36.743251077170314], [109.37563505937011, 36.743251077170314], [109.37563505937011, 36.743071414113494], [109.37581472242692, 36.743071414113494], [109.37581472242692, 36.743251077170314]], [[109.3749164071428, 36.74361040328397], [109.37473674408598, 36.74361040328397], [109.37473674408598, 36.743251077170314], [109.3749164071428, 36.743251077170314], [109.3749164071428, 36.74361040328397]], [[109.37797067910881, 36.74432905551126], [109.37743168993835, 36.74432905551126], [109.37743168993835, 36.74414939245443], [109.37761135299517, 36.74414939245443], [109.37761135299517, 36.74396972939761], [109.37779101605199, 36.74396972939761], [109.37779101605199, 36.74414939245443], [109.37797067910881, 36.74414939245443], [109.37797067910881, 36.74432905551126]], [[109.37850966827929, 36.74432905551126], [109.37833000522247, 36.74432905551126], [109.37833000522247, 36.74414939245443], [109.37850966827929, 36.74414939245443], [109.37850966827929, 36.74432905551126]], [[109.37437741797234, 36.74504770773856], [109.37419775491551, 36.74504770773856], [109.37419775491551, 36.74486804468173], [109.37437741797234, 36.74486804468173], [109.37437741797234, 36.74504770773856]], [[109.37833000522247, 36.74504770773856], [109.37815034216564, 36.74504770773856], [109.37815034216564, 36.74486804468173], [109.37833000522247, 36.74486804468173], [109.37833000522247, 36.74504770773856]], [[109.37743168993835, 36.74576635996585], [109.37725202688152, 36.74576635996585], [109.37725202688152, 36.74558669690903], [109.37743168993835, 36.74558669690903], [109.37743168993835, 36.74576635996585]], [[109.37689270076787, 36.746125686079495], [109.37671303771104, 36.746125686079495], [109.37671303771104, 36.745946023022675], [109.37689270076787, 36.745946023022675], [109.37689270076787, 36.746125686079495]], [[109.37689270076787, 36.74648501219315], [109.37671303771104, 36.74648501219315], [109.37671303771104, 36.74630534913632], [109.37689270076787, 36.74630534913632], [109.37689270076787, 36.74648501219315]], [[109.37671303771104, 36.74666467524997], [109.37653337465423, 36.74666467524997], [109.37653337465423, 36.74648501219315], [109.37671303771104, 36.74648501219315], [109.37671303771104, 36.74666467524997]], [[109.37437741797234, 36.747383327477266], [109.37401809185869, 36.747383327477266], [109.37401809185869, 36.74702400136362], [109.37365876574505, 36.74702400136362], [109.37365876574505, 36.74684433830679], [109.37347910268822, 36.74684433830679], [109.37347910268822, 36.74666467524997], [109.37383842880186, 36.74666467524997], [109.37383842880186, 36.74684433830679], [109.37419775491551, 36.74684433830679], [109.37419775491551, 36.74720366442044], [109.37437741797234, 36.74720366442044], [109.37437741797234, 36.747383327477266]], [[109.37222146129045, 36.74846130581821], [109.37204179823362, 36.74846130581821], [109.37204179823362, 36.748281642761384], [109.37222146129045, 36.748281642761384], [109.37222146129045, 36.74846130581821]], [[109.3711434829495, 36.7491799580455], [109.37096381989268, 36.7491799580455], [109.37096381989268, 36.74900029498868], [109.3711434829495, 36.74900029498868], [109.3711434829495, 36.7491799580455]], [[109.37132314600633, 36.749718947215975], [109.37096381989268, 36.749718947215975], [109.37096381989268, 36.749539284159155], [109.37132314600633, 36.749539284159155], [109.37132314600633, 36.749718947215975]], [[109.37276045046092, 36.75007827332962], [109.3725807874041, 36.75007827332962], [109.3725807874041, 36.7498986102728], [109.37276045046092, 36.7498986102728], [109.37276045046092, 36.75007827332962]]]}, "properties": {"name": "cand01", "ptype": "hall", "confidence": "low", "rank": 1, "area_ha": 36.4, "rise_db": 9.7, "digitised_from": "Sentinel-1 VV rise 2022->2026, orbit 84"}}, {"type": "Feature", "geometry": {"geodesic": false, "type": "Polygon", "coordinates": [[[109.36916718932444, 36.756905469488935], [109.36916718932444, 36.75672580643211], [109.36898752626762, 36.75672580643211], [109.36898752626762, 36.75636648031846], [109.36862820015398, 36.75636648031846], [109.36862820015398, 36.756186817261636], [109.36844853709715, 36.756186817261636], [109.36844853709715, 36.75636648031846], [109.3680892109835, 36.75636648031846], [109.3680892109835, 36.756186817261636], [109.36790954792667, 36.756186817261636], [109.36790954792667, 36.75600715420481], [109.36755022181303, 36.75600715420481], [109.36755022181303, 36.75564782809116], [109.36790954792667, 36.75564782809116], [109.36790954792667, 36.755468165034344], [109.3680892109835, 36.755468165034344], [109.3680892109835, 36.75510883892069], [109.36826887404033, 36.75510883892069], [109.36826887404033, 36.75492917586387], [109.36844853709715, 36.75492917586387], [109.36844853709715, 36.75528850197752], [109.36880786321079, 36.75528850197752], [109.36880786321079, 36.75510883892069], [109.36898752626762, 36.75510883892069], [109.36898752626762, 36.75492917586387], [109.36934685238127, 36.75492917586387], [109.36934685238127, 36.75510883892069], [109.3695265154381, 36.75510883892069], [109.3695265154381, 36.75528850197752], [109.36988584155173, 36.75528850197752], [109.36988584155173, 36.75510883892069], [109.36970617849492, 36.75510883892069], [109.36970617849492, 36.75492917586387], [109.36988584155173, 36.75492917586387], [109.36988584155173, 36.754749512807045], [109.36970617849492, 36.754749512807045], [109.36970617849492, 36.7543901866934], [109.37006550460856, 36.7543901866934], [109.37006550460856, 36.75456984975022], [109.37024516766539, 36.75456984975022], [109.37024516766539, 36.7543901866934], [109.37078415683585, 36.7543901866934], [109.37078415683585, 36.75456984975022], [109.37096381989268, 36.75456984975022], [109.37096381989268, 36.754749512807045], [109.3711434829495, 36.754749512807045], [109.3711434829495, 36.755468165034344], [109.37060449377904, 36.755468165034344], [109.37060449377904, 36.75564782809116], [109.37096381989268, 36.75564782809116], [109.37096381989268, 36.75582749114799], [109.37078415683585, 36.75582749114799], [109.37078415683585, 36.75600715420481], [109.37042483072221, 36.75600715420481], [109.37042483072221, 36.75582749114799], [109.37024516766539, 36.75582749114799], [109.37024516766539, 36.75564782809116], [109.37006550460856, 36.75564782809116], [109.37006550460856, 36.756186817261636], [109.37060449377904, 36.756186817261636], [109.37060449377904, 36.75636648031846], [109.37042483072221, 36.75636648031846], [109.37042483072221, 36.75654614337528], [109.37006550460856, 36.75654614337528], [109.37006550460856, 36.75672580643211], [109.3695265154381, 36.75672580643211], [109.3695265154381, 36.756905469488935], [109.36916718932444, 36.756905469488935]], [[109.37060449377904, 36.755468165034344], [109.37042483072221, 36.755468165034344], [109.37042483072221, 36.75528850197752], [109.37060449377904, 36.75528850197752], [109.37060449377904, 36.755468165034344]], [[109.36934685238127, 36.75636648031846], [109.36916718932444, 36.75636648031846], [109.36916718932444, 36.756186817261636], [109.36934685238127, 36.756186817261636], [109.36934685238127, 36.75636648031846]], [[109.36988584155173, 36.75654614337528], [109.36970617849492, 36.75654614337528], [109.36970617849492, 36.75636648031846], [109.36988584155173, 36.75636648031846], [109.36988584155173, 36.75654614337528]]]}, "properties": {"name": "cand02", "ptype": "hall", "confidence": "low", "rank": 2, "area_ha": 5.9, "rise_db": 9.4, "digitised_from": "Sentinel-1 VV rise 2022->2026, orbit 84"}}, {"type": "Feature", "geometry": {"geodesic": false, "type": "Polygon", "coordinates": [[[109.40150653955274, 36.723488140919684], [109.40150653955274, 36.723308477862865], [109.40168620260957, 36.723308477862865], [109.40168620260957, 36.72294915174921], [109.4011472134391, 36.72294915174921], [109.4011472134391, 36.72276948869239], [109.40096755038228, 36.72276948869239], [109.40096755038228, 36.722589825635566], [109.40060822426862, 36.722589825635566], [109.40060822426862, 36.72241016257874], [109.40042856121181, 36.72241016257874], [109.40042856121181, 36.72223049952192], [109.40078788732545, 36.72223049952192], [109.40078788732545, 36.72187117340827], [109.40042856121181, 36.72187117340827], [109.40042856121181, 36.72169151035145], [109.40024889815498, 36.72169151035145], [109.40024889815498, 36.72151184729462], [109.40042856121181, 36.72151184729462], [109.40042856121181, 36.721152521180976], [109.40060822426862, 36.721152521180976], [109.40060822426862, 36.72097285812415], [109.40096755038228, 36.72097285812415], [109.40096755038228, 36.721152521180976], [109.40078788732545, 36.721152521180976], [109.40078788732545, 36.72151184729462], [109.4011472134391, 36.72151184729462], [109.4011472134391, 36.721152521180976], [109.4018658656664, 36.721152521180976], [109.4018658656664, 36.7213321842378], [109.40222519178005, 36.7213321842378], [109.40222519178005, 36.72151184729462], [109.40258451789369, 36.72151184729462], [109.40258451789369, 36.72169151035145], [109.40276418095051, 36.72169151035145], [109.40276418095051, 36.722050836465094], [109.40258451789369, 36.722050836465094], [109.40258451789369, 36.72187117340827], [109.40240485483687, 36.72187117340827], [109.40240485483687, 36.72241016257874], [109.40204552872322, 36.72241016257874], [109.40204552872322, 36.722589825635566], [109.40240485483687, 36.722589825635566], [109.40240485483687, 36.72276948869239], [109.40222519178005, 36.72276948869239], [109.40222519178005, 36.72312881480604], [109.40204552872322, 36.72312881480604], [109.40204552872322, 36.723308477862865], [109.4018658656664, 36.723308477862865], [109.4018658656664, 36.723488140919684], [109.40150653955274, 36.723488140919684]], [[109.40168620260957, 36.722589825635566], [109.40150653955274, 36.722589825635566], [109.40150653955274, 36.72223049952192], [109.40168620260957, 36.72223049952192], [109.40168620260957, 36.722589825635566]]]}, "properties": {"name": "cand03", "ptype": "hall", "confidence": "low", "rank": 3, "area_ha": 4.0, "rise_db": 10.5, "digitised_from": "Sentinel-1 VV rise 2022->2026, orbit 84"}}, {"type": "Feature", "geometry": {"geodesic": false, "type": "Polygon", "coordinates": [[[109.40420148540511, 36.71953555366956], [109.40420148540511, 36.71935589061274], [109.40330317012099, 36.71935589061274], [109.40330317012099, 36.71917622755591], [109.40312350706417, 36.71917622755591], [109.40312350706417, 36.718996564499086], [109.40258451789369, 36.718996564499086], [109.40258451789369, 36.71881690144227], [109.40240485483687, 36.71881690144227], [109.40240485483687, 36.718457575328614], [109.40258451789369, 36.718457575328614], [109.40258451789369, 36.718277912271795], [109.40276418095051, 36.718277912271795], [109.40276418095051, 36.718457575328614], [109.40294384400734, 36.718457575328614], [109.40294384400734, 36.71863723838544], [109.40330317012099, 36.71863723838544], [109.40330317012099, 36.718457575328614], [109.40312350706417, 36.718457575328614], [109.40312350706417, 36.71791858615814], [109.40294384400734, 36.71791858615814], [109.40294384400734, 36.717559260044496], [109.40312350706417, 36.717559260044496], [109.40312350706417, 36.717379596987676], [109.40420148540511, 36.717379596987676], [109.40420148540511, 36.717559260044496], [109.40402182234828, 36.717559260044496], [109.40402182234828, 36.71773892310132], [109.40420148540511, 36.71773892310132], [109.40420148540511, 36.718277912271795], [109.40402182234828, 36.718277912271795], [109.40402182234828, 36.71863723838544], [109.40384215929146, 36.71863723838544], [109.40384215929146, 36.71881690144227], [109.40420148540511, 36.71881690144227], [109.40420148540511, 36.71935589061274], [109.40438114846194, 36.71935589061274], [109.40438114846194, 36.71953555366956], [109.40420148540511, 36.71953555366956]], [[109.40402182234828, 36.71791858615814], [109.40384215929146, 36.71791858615814], [109.40384215929146, 36.71773892310132], [109.40402182234828, 36.71773892310132], [109.40402182234828, 36.71791858615814]], [[109.40384215929146, 36.71809824921497], [109.40366249623463, 36.71809824921497], [109.40366249623463, 36.71791858615814], [109.40384215929146, 36.71791858615814], [109.40384215929146, 36.71809824921497]], [[109.40384215929146, 36.71917622755591], [109.40366249623463, 36.71917622755591], [109.40366249623463, 36.718996564499086], [109.40384215929146, 36.718996564499086], [109.40384215929146, 36.71917622755591]]]}, "properties": {"name": "cand04", "ptype": "hall", "confidence": "low", "rank": 4, "area_ha": 2.8, "rise_db": 10.2, "digitised_from": "Sentinel-1 VV rise 2022->2026, orbit 84"}}, {"type": "Feature", "geometry": {"geodesic": false, "type": "Polygon", "coordinates": [[[109.37042483072221, 36.75223423001151], [109.37042483072221, 36.751874903897864], [109.37060449377904, 36.751874903897864], [109.37060449377904, 36.75151557778422], [109.37078415683585, 36.75151557778422], [109.37078415683585, 36.750976588613746], [109.37096381989268, 36.750976588613746], [109.37096381989268, 36.75061726250009], [109.37132314600633, 36.75061726250009], [109.37132314600633, 36.750976588613746], [109.37150280906316, 36.750976588613746], [109.37150280906316, 36.751156251670565], [109.37222146129045, 36.751156251670565], [109.37222146129045, 36.751874903897864], [109.37204179823362, 36.751874903897864], [109.37204179823362, 36.75205456695468], [109.3718621351768, 36.75205456695468], [109.3718621351768, 36.75133591472739], [109.37150280906316, 36.75133591472739], [109.37150280906316, 36.75151557778422], [109.37132314600633, 36.75151557778422], [109.37132314600633, 36.75169524084104], [109.3711434829495, 36.75169524084104], [109.3711434829495, 36.751874903897864], [109.37096381989268, 36.751874903897864], [109.37096381989268, 36.75205456695468], [109.37078415683585, 36.75205456695468], [109.37078415683585, 36.75223423001151], [109.37042483072221, 36.75223423001151]]]}, "properties": {"name": "cand05", "ptype": "hall", "confidence": "low", "rank": 5, "area_ha": 1.6, "rise_db": 5.9, "digitised_from": "Sentinel-1 VV rise 2022->2026, orbit 84"}}, {"type": "Feature", "geometry": {"geodesic": false, "type": "Polygon", "coordinates": [[[109.35443481866488, 36.76588862233013], [109.35443481866488, 36.765708959273304], [109.35425515560806, 36.765708959273304], [109.35425515560806, 36.764990307046006], [109.35407549255123, 36.764990307046006], [109.35407549255123, 36.764810643989186], [109.35425515560806, 36.764810643989186], [109.35425515560806, 36.76445131787553], [109.35443481866488, 36.76445131787553], [109.35443481866488, 36.764271654818714], [109.35479414477854, 36.764271654818714], [109.35479414477854, 36.76445131787553], [109.35497380783535, 36.76445131787553], [109.35497380783535, 36.764810643989186], [109.35479414477854, 36.764810643989186], [109.35479414477854, 36.764990307046006], [109.35497380783535, 36.764990307046006], [109.35497380783535, 36.765708959273304], [109.35461448172171, 36.765708959273304], [109.35461448172171, 36.76588862233013], [109.35443481866488, 36.76588862233013]]]}, "properties": {"name": "cand06", "ptype": "hall", "confidence": "low", "rank": 6, "area_ha": 1.2, "rise_db": 8.7, "digitised_from": "Sentinel-1 VV rise 2022->2026, orbit 84"}}, {"type": "Feature", "geometry": {"geodesic": false, "type": "Polygon", "coordinates": [[[109.40743542042793, 36.76912255735296], [109.40743542042793, 36.76894289429613], [109.40725575737112, 36.76894289429613], [109.40725575737112, 36.76876323123931], [109.40707609431429, 36.76876323123931], [109.40707609431429, 36.768583568182486], [109.40725575737112, 36.768583568182486], [109.40725575737112, 36.76822424206884], [109.40779474654158, 36.76822424206884], [109.40779474654158, 36.76840390512566], [109.40851339876887, 36.76840390512566], [109.40851339876887, 36.76822424206884], [109.40887272488253, 36.76822424206884], [109.40887272488253, 36.76894289429613], [109.40833373571206, 36.76894289429613], [109.40833373571206, 36.76876323123931], [109.40779474654158, 36.76876323123931], [109.40779474654158, 36.76894289429613], [109.40761508348476, 36.76894289429613], [109.40761508348476, 36.76912255735296], [109.40743542042793, 36.76912255735296]]]}, "properties": {"name": "cand07", "ptype": "hall", "confidence": "low", "rank": 7, "area_ha": 1.2, "rise_db": 5.8, "digitised_from": "Sentinel-1 VV rise 2022->2026, orbit 84"}}, {"type": "Feature", "geometry": {"geodesic": false, "type": "Polygon", "coordinates": [[[109.40006923509816, 36.71917622755591], [109.40006923509816, 36.71881690144227], [109.40042856121181, 36.71881690144227], [109.40042856121181, 36.71863723838544], [109.40006923509816, 36.71863723838544], [109.40006923509816, 36.718457575328614], [109.3997099089845, 36.718457575328614], [109.3997099089845, 36.71809824921497], [109.39988957204133, 36.71809824921497], [109.39988957204133, 36.71791858615814], [109.40060822426862, 36.71791858615814], [109.40060822426862, 36.71809824921497], [109.40096755038228, 36.71809824921497], [109.40096755038228, 36.718457575328614], [109.40078788732545, 36.718457575328614], [109.40078788732545, 36.71881690144227], [109.40042856121181, 36.71881690144227], [109.40042856121181, 36.71917622755591], [109.40006923509816, 36.71917622755591]]]}, "properties": {"name": "cand08", "ptype": "hall", "confidence": "low", "rank": 8, "area_ha": 1.1, "rise_db": 10.6, "digitised_from": "Sentinel-1 VV rise 2022->2026, orbit 84"}}, {"type": "Feature", "geometry": {"geodesic": false, "type": "Polygon", "coordinates": [[[109.352278861983, 36.76157670896635], [109.352278861983, 36.76139704590953], [109.35209919892617, 36.76139704590953], [109.35209919892617, 36.761217382852706], [109.352278861983, 36.761217382852706], [109.352278861983, 36.76103771979588], [109.35299751421029, 36.76103771979588], [109.35299751421029, 36.760678393682234], [109.3537161664376, 36.760678393682234], [109.3537161664376, 36.76085805673906], [109.35425515560806, 36.76085805673906], [109.35425515560806, 36.761217382852706], [109.35389582949442, 36.761217382852706], [109.35389582949442, 36.76103771979588], [109.35299751421029, 36.76103771979588], [109.35299751421029, 36.76157670896635], [109.352278861983, 36.76157670896635]]]}, "properties": {"name": "cand09", "ptype": "hall", "confidence": "low", "rank": 9, "area_ha": 1.0, "rise_db": 5.3, "digitised_from": "Sentinel-1 VV rise 2022->2026, orbit 84"}}, {"type": "Feature", "geometry": {"geodesic": false, "type": "Polygon", "coordinates": [[[109.35587212311948, 36.77127851403485], [109.35587212311948, 36.77109885097802], [109.35569246006266, 36.77109885097802], [109.35569246006266, 36.770919187921194], [109.35551279700583, 36.770919187921194], [109.35551279700583, 36.770739524864375], [109.355333133949, 36.770739524864375], [109.355333133949, 36.7702005356939], [109.35623144923312, 36.7702005356939], [109.35623144923312, 36.770919187921194], [109.35641111228995, 36.770919187921194], [109.35641111228995, 36.77109885097802], [109.35623144923312, 36.77109885097802], [109.35623144923312, 36.77127851403485], [109.35587212311948, 36.77127851403485]]]}, "properties": {"name": "cand10", "ptype": "hall", "confidence": "low", "rank": 10, "area_ha": 1.0, "rise_db": 4.9, "digitised_from": "Sentinel-1 VV rise 2022->2026, orbit 84"}}, {"type": "Feature", "geometry": {"geodesic": false, "type": "Polygon", "coordinates": [[[109.35317717726711, 36.764271654818714], [109.35317717726711, 36.76391232870507], [109.35335684032394, 36.76391232870507], [109.35335684032394, 36.76373266564824], [109.35317717726711, 36.76373266564824], [109.35317717726711, 36.763553002591415], [109.35209919892617, 36.763553002591415], [109.35209919892617, 36.76301401342094], [109.35245852503982, 36.76301401342094], [109.35245852503982, 36.76319367647777], [109.35335684032394, 36.76319367647777], [109.35335684032394, 36.763373339534596], [109.35353650338077, 36.763373339534596], [109.35353650338077, 36.763553002591415], [109.3537161664376, 36.763553002591415], [109.3537161664376, 36.76391232870507], [109.35353650338077, 36.76391232870507], [109.35353650338077, 36.76409199176189], [109.35335684032394, 36.76409199176189], [109.35335684032394, 36.764271654818714], [109.35317717726711, 36.764271654818714]]]}, "properties": {"name": "cand11", "ptype": "hall", "confidence": "low", "rank": 11, "area_ha": 1.0, "rise_db": 7.0, "digitised_from": "Sentinel-1 VV rise 2022->2026, orbit 84"}}]}