{"type": "FeatureCollection", "features": [{"type": "Feature", "geometry": {"geodesic": false, "type": "Polygon", "coordinates": [[[113.2448586511297, 29.520796192849364], [113.2448586511297, 29.520616529792537], [113.24360100973195, 29.520616529792537], [113.24360100973195, 29.520436866735714], [113.2432416836183, 29.520436866735714], [113.2432416836183, 29.520616529792537], [113.24000774859546, 29.520616529792537], [113.24000774859546, 29.52025720367889], [113.24288235750464, 29.52025720367889], [113.24288235750464, 29.52007754062207], [113.24306202056147, 29.52007754062207], [113.24306202056147, 29.51846057311065], [113.24288235750464, 29.51846057311065], [113.24288235750464, 29.51828091005383], [113.242523031391, 29.51828091005383], [113.242523031391, 29.51846057311065], [113.24234336833418, 29.51846057311065], [113.24234336833418, 29.518640236167474], [113.2418043791637, 29.518640236167474], [113.2418043791637, 29.5188198992243], [113.24162471610688, 29.5188198992243], [113.24162471610688, 29.518999562281124], [113.24144505305006, 29.518999562281124], [113.24144505305006, 29.519179225337947], [113.24126538999323, 29.519179225337947], [113.24126538999323, 29.519358888394773], [113.24144505305006, 29.519358888394773], [113.24144505305006, 29.519897877565242], [113.24090606387958, 29.519897877565242], [113.24090606387958, 29.5188198992243], [113.2410857269364, 29.5188198992243], [113.2410857269364, 29.518101246997006], [113.24126538999323, 29.518101246997006], [113.24126538999323, 29.51792158394018], [113.24162471610688, 29.51792158394018], [113.24162471610688, 29.518101246997006], [113.24216370527735, 29.518101246997006], [113.24216370527735, 29.517741920883356], [113.24198404222052, 29.517741920883356], [113.24198404222052, 29.517562257826533], [113.24216370527735, 29.517562257826533], [113.24216370527735, 29.517382594769707], [113.24234336833418, 29.517382594769707], [113.24234336833418, 29.517562257826533], [113.2432416836183, 29.517562257826533], [113.2432416836183, 29.517741920883356], [113.24342134667512, 29.517741920883356], [113.24342134667512, 29.51792158394018], [113.2432416836183, 29.51792158394018], [113.2432416836183, 29.51828091005383], [113.24396033584559, 29.51828091005383], [113.24396033584559, 29.518101246997006], [113.24413999890241, 29.518101246997006], [113.24413999890241, 29.51792158394018], [113.24431966195924, 29.51792158394018], [113.24431966195924, 29.517741920883356], [113.24449932501606, 29.517741920883356], [113.24449932501606, 29.517562257826533], [113.24431966195924, 29.517562257826533], [113.24431966195924, 29.517382594769707], [113.24413999890241, 29.517382594769707], [113.24413999890241, 29.517202931712884], [113.24360100973195, 29.517202931712884], [113.24360100973195, 29.51702326865606], [113.24342134667512, 29.51702326865606], [113.24342134667512, 29.51648427948559], [113.2432416836183, 29.51648427948559], [113.2432416836183, 29.516124953371943], [113.24306202056147, 29.516124953371943], [113.24306202056147, 29.515765627258293], [113.2432416836183, 29.515765627258293], [113.2432416836183, 29.515046975030998], [113.24342134667512, 29.515046975030998], [113.24342134667512, 29.514867311974175], [113.24396033584559, 29.514867311974175], [113.24396033584559, 29.51468764891735], [113.24413999890241, 29.51468764891735], [113.24413999890241, 29.514328322803703], [113.24396033584559, 29.514328322803703], [113.24396033584559, 29.51414865974688], [113.24360100973195, 29.51414865974688], [113.24360100973195, 29.514507985860526], [113.2432416836183, 29.514507985860526], [113.2432416836183, 29.514328322803703], [113.24306202056147, 29.514328322803703], [113.24306202056147, 29.51414865974688], [113.24288235750464, 29.51414865974688], [113.24288235750464, 29.513609670576407], [113.24270269444783, 29.513609670576407], [113.24270269444783, 29.513250344462758], [113.24288235750464, 29.513250344462758], [113.24288235750464, 29.512891018349112], [113.24306202056147, 29.512891018349112], [113.24306202056147, 29.512172366121817], [113.2432416836183, 29.512172366121817], [113.2432416836183, 29.51199270306499], [113.24396033584559, 29.51199270306499], [113.24396033584559, 29.511813040008168], [113.24378067278876, 29.511813040008168], [113.24378067278876, 29.511453713894518], [113.24288235750464, 29.511453713894518], [113.24288235750464, 29.51091472472405], [113.24360100973195, 29.51091472472405], [113.24360100973195, 29.510735061667223], [113.24288235750464, 29.510735061667223], [113.24288235750464, 29.5105553986104], [113.24306202056147, 29.5105553986104], [113.24306202056147, 29.510375735553577], [113.2432416836183, 29.510375735553577], [113.2432416836183, 29.510196072496754], [113.24342134667512, 29.510196072496754], [113.24342134667512, 29.510016409439928], [113.2432416836183, 29.510016409439928], [113.2432416836183, 29.50965708332628], [113.24360100973195, 29.50965708332628], [113.24360100973195, 29.509477420269455], [113.24378067278876, 29.509477420269455], [113.24378067278876, 29.50965708332628], [113.24521797724336, 29.50965708332628], [113.24521797724336, 29.50911809415581], [113.24539764030018, 29.50911809415581], [113.24539764030018, 29.508938431098986], [113.24557730335701, 29.508938431098986], [113.24557730335701, 29.50875876804216], [113.24611629252747, 29.50875876804216], [113.24611629252747, 29.508579104985337], [113.2462959555843, 29.508579104985337], [113.2462959555843, 29.508938431098986], [113.24593662947065, 29.508938431098986], [113.24593662947065, 29.50911809415581], [113.24575696641382, 29.50911809415581], [113.24575696641382, 29.50965708332628], [113.24593662947065, 29.50965708332628], [113.24593662947065, 29.509836746383105], [113.24611629252747, 29.509836746383105], [113.24611629252747, 29.510196072496754], [113.24593662947065, 29.510196072496754], [113.24593662947065, 29.5105553986104], [113.24647561864113, 29.5105553986104], [113.24647561864113, 29.510735061667223], [113.24665528169795, 29.510735061667223], [113.24665528169795, 29.51091472472405], [113.24719427086842, 29.51091472472405], [113.24719427086842, 29.511094387780872], [113.24737393392525, 29.511094387780872], [113.24737393392525, 29.511274050837695], [113.24755359698207, 29.511274050837695], [113.24755359698207, 29.511453713894518], [113.24791292309571, 29.511453713894518], [113.24791292309571, 29.511633376951345], [113.24809258615254, 29.511633376951345], [113.24809258615254, 29.511813040008168], [113.24791292309571, 29.511813040008168], [113.24791292309571, 29.51199270306499], [113.24755359698207, 29.51199270306499], [113.24755359698207, 29.511813040008168], [113.24719427086842, 29.511813040008168], [113.24719427086842, 29.511633376951345], [113.24647561864113, 29.511633376951345], [113.24647561864113, 29.511813040008168], [113.2462959555843, 29.511813040008168], [113.2462959555843, 29.512711355292286], [113.2470146078116, 29.512711355292286], [113.2470146078116, 29.51343000751958], [113.2462959555843, 29.51343000751958], [113.2462959555843, 29.51378933363323], [113.24665528169795, 29.51378933363323], [113.24665528169795, 29.513968996690053], [113.24683494475477, 29.513968996690053], [113.24683494475477, 29.51414865974688], [113.24665528169795, 29.51414865974688], [113.24665528169795, 29.514328322803703], [113.24647561864113, 29.514328322803703], [113.24647561864113, 29.514507985860526], [113.24611629252747, 29.514507985860526], [113.24611629252747, 29.51468764891735], [113.24593662947065, 29.51468764891735], [113.24593662947065, 29.514867311974175], [113.24539764030018, 29.514867311974175], [113.24539764030018, 29.515046975030998], [113.24521797724336, 29.515046975030998], [113.24521797724336, 29.51522663808782], [113.24503831418653, 29.51522663808782], [113.24503831418653, 29.516124953371943], [113.2448586511297, 29.516124953371943], [113.2448586511297, 29.516304616428766], [113.24503831418653, 29.516304616428766], [113.24503831418653, 29.51846057311065], [113.2448586511297, 29.51846057311065], [113.2448586511297, 29.518640236167474], [113.24467898807289, 29.518640236167474], [113.24467898807289, 29.5188198992243], [113.2448586511297, 29.5188198992243], [113.2448586511297, 29.519358888394773], [113.24503831418653, 29.519358888394773], [113.24503831418653, 29.519538551451596], [113.24521797724336, 29.519538551451596], [113.24521797724336, 29.52007754062207], [113.24539764030018, 29.52007754062207], [113.24539764030018, 29.52025720367889], [113.24557730335701, 29.52025720367889], [113.24557730335701, 29.520616529792537], [113.24539764030018, 29.520616529792537], [113.24539764030018, 29.520796192849364], [113.2448586511297, 29.520796192849364]], [[113.2448586511297, 29.51199270306499], [113.24431966195924, 29.51199270306499], [113.24431966195924, 29.511813040008168], [113.24413999890241, 29.511813040008168], [113.24413999890241, 29.511633376951345], [113.24431966195924, 29.511633376951345], [113.24431966195924, 29.511453713894518], [113.24449932501606, 29.511453713894518], [113.24449932501606, 29.511274050837695], [113.24467898807289, 29.511274050837695], [113.24467898807289, 29.511094387780872], [113.24521797724336, 29.511094387780872], [113.24521797724336, 29.511274050837695], [113.24539764030018, 29.511274050837695], [113.24539764030018, 29.511453713894518], [113.24557730335701, 29.511453713894518], [113.24557730335701, 29.511633376951345], [113.24575696641382, 29.511633376951345], [113.24575696641382, 29.511813040008168], [113.2448586511297, 29.511813040008168], [113.2448586511297, 29.51199270306499]], [[113.24467898807289, 29.51648427948559], [113.24449932501606, 29.51648427948559], [113.24449932501606, 29.516304616428766], [113.24467898807289, 29.516304616428766], [113.24467898807289, 29.51648427948559]]]}, "properties": {"name": "cand01", "ptype": "hall", "confidence": "low", "rank": 1, "area_ha": 38.0, "rise_db": 8.4, "digitised_from": "Sentinel-1 VV rise 2022->2026, orbit 113"}}, {"type": "Feature", "geometry": {"geodesic": false, "type": "Polygon", "coordinates": [[[113.25114685811855, 29.498338310746373], [113.25114685811855, 29.49815864768955], [113.25096719506172, 29.49815864768955], [113.25096719506172, 29.497799321575904], [113.25078753200489, 29.497799321575904], [113.25078753200489, 29.497619658519078], [113.25060786894808, 29.497619658519078], [113.25060786894808, 29.497799321575904], [113.25042820589125, 29.497799321575904], [113.25042820589125, 29.497978984632727], [113.25024854283443, 29.497978984632727], [113.25024854283443, 29.49815864768955], [113.24970955366395, 29.49815864768955], [113.24970955366395, 29.498338310746373], [113.24952989060714, 29.498338310746373], [113.24952989060714, 29.49815864768955], [113.24935022755031, 29.49815864768955], [113.24935022755031, 29.497619658519078], [113.24952989060714, 29.497619658519078], [113.24952989060714, 29.497439995462255], [113.24935022755031, 29.497439995462255], [113.24935022755031, 29.496901006291782], [113.24899090143666, 29.496901006291782], [113.24899090143666, 29.49708066934861], [113.24881123837983, 29.49708066934861], [113.24881123837983, 29.497439995462255], [113.24899090143666, 29.497439995462255], [113.24899090143666, 29.497799321575904], [113.24881123837983, 29.497799321575904], [113.24881123837983, 29.497978984632727], [113.24827224920936, 29.497978984632727], [113.24827224920936, 29.497260332405432], [113.24809258615254, 29.497260332405432], [113.24809258615254, 29.49672134323496], [113.24827224920936, 29.49672134323496], [113.24827224920936, 29.49636201712131], [113.24845191226619, 29.49636201712131], [113.24845191226619, 29.496182354064487], [113.25060786894808, 29.496182354064487], [113.25060786894808, 29.49636201712131], [113.25078753200489, 29.49636201712131], [113.25078753200489, 29.496541680178137], [113.25096719506172, 29.496541680178137], [113.25096719506172, 29.49672134323496], [113.25114685811855, 29.49672134323496], [113.25114685811855, 29.496541680178137], [113.25132652117537, 29.496541680178137], [113.25132652117537, 29.49672134323496], [113.2515061842322, 29.49672134323496], [113.2515061842322, 29.497260332405432], [113.25168584728901, 29.497260332405432], [113.25168584728901, 29.497619658519078], [113.2515061842322, 29.497619658519078], [113.2515061842322, 29.49815864768955], [113.25132652117537, 29.49815864768955], [113.25132652117537, 29.498338310746373], [113.25114685811855, 29.498338310746373]]]}, "properties": {"name": "cand02", "ptype": "hall", "confidence": "low", "rank": 2, "area_ha": 6.5, "rise_db": 7.6, "digitised_from": "Sentinel-1 VV rise 2022->2026, orbit 113"}}, {"type": "Feature", "geometry": {"geodesic": false, "type": "Polygon", "coordinates": [[[113.21593289898107, 29.53067766097468], [113.21593289898107, 29.530497997917852], [113.21557357286741, 29.530497997917852], [113.21557357286741, 29.53031833486103], [113.21575323592424, 29.53031833486103], [113.21575323592424, 29.530138671804206], [113.21557357286741, 29.530138671804206], [113.21557357286741, 29.529959008747383], [113.21539390981059, 29.529959008747383], [113.21539390981059, 29.529240356520088], [113.21521424675376, 29.529240356520088], [113.21521424675376, 29.52888103040644], [113.21503458369693, 29.52888103040644], [113.21503458369693, 29.528342041235966], [113.21485492064012, 29.528342041235966], [113.21485492064012, 29.52798271512232], [113.2146752575833, 29.52798271512232], [113.2146752575833, 29.52762338900867], [113.21449559452647, 29.52762338900867], [113.21449559452647, 29.527443725951848], [113.21431593146964, 29.527443725951848], [113.21431593146964, 29.526904736781376], [113.21413626841282, 29.526904736781376], [113.21413626841282, 29.526545410667726], [113.213956605356, 29.526545410667726], [113.213956605356, 29.52618608455408], [113.21377694229918, 29.52618608455408], [113.21377694229918, 29.52582675844043], [113.21359727924235, 29.52582675844043], [113.21359727924235, 29.525287769269962], [113.21341761618552, 29.525287769269962], [113.21341761618552, 29.524928443156313], [113.2132379531287, 29.524928443156313], [113.2132379531287, 29.524569117042663], [113.21305829007187, 29.524569117042663], [113.21305829007187, 29.524209790929017], [113.21287862701506, 29.524209790929017], [113.21287862701506, 29.524030127872194], [113.21269896395823, 29.524030127872194], [113.21269896395823, 29.523491138701722], [113.21305829007187, 29.523491138701722], [113.21305829007187, 29.5233114756449], [113.21341761618552, 29.5233114756449], [113.21341761618552, 29.523491138701722], [113.21359727924235, 29.523491138701722], [113.21359727924235, 29.52438945398584], [113.21377694229918, 29.52438945398584], [113.21377694229918, 29.52474878009949], [113.213956605356, 29.52474878009949], [113.213956605356, 29.525108106213136], [113.21413626841282, 29.525108106213136], [113.21413626841282, 29.525647095383608], [113.21449559452647, 29.525647095383608], [113.21449559452647, 29.525467432326785], [113.2146752575833, 29.525467432326785], [113.2146752575833, 29.525647095383608], [113.21485492064012, 29.525647095383608], [113.21485492064012, 29.52582675844043], [113.21431593146964, 29.52582675844043], [113.21431593146964, 29.52618608455408], [113.21449559452647, 29.52618608455408], [113.21449559452647, 29.526365747610903], [113.2146752575833, 29.526365747610903], [113.2146752575833, 29.526725073724553], [113.21485492064012, 29.526725073724553], [113.21485492064012, 29.526904736781376], [113.21521424675376, 29.526904736781376], [113.21521424675376, 29.5270843998382], [113.21539390981059, 29.5270843998382], [113.21539390981059, 29.527264062895025], [113.21503458369693, 29.527264062895025], [113.21503458369693, 29.52762338900867], [113.21521424675376, 29.52762338900867], [113.21521424675376, 29.52798271512232], [113.21539390981059, 29.52798271512232], [113.21539390981059, 29.528342041235966], [113.21557357286741, 29.528342041235966], [113.21557357286741, 29.52852170429279], [113.21575323592424, 29.52852170429279], [113.21575323592424, 29.52888103040644], [113.21593289898107, 29.52888103040644], [113.21593289898107, 29.52942001957691], [113.21611256203788, 29.52942001957691], [113.21611256203788, 29.529779345690557], [113.2162922250947, 29.529779345690557], [113.2162922250947, 29.529959008747383], [113.21647188815153, 29.529959008747383], [113.21647188815153, 29.53031833486103], [113.21665155120836, 29.53031833486103], [113.21665155120836, 29.53067766097468], [113.21593289898107, 29.53067766097468]]]}, "properties": {"name": "cand03", "ptype": "hall", "confidence": "low", "rank": 3, "area_ha": 6.4, "rise_db": 14.4, "digitised_from": "Sentinel-1 VV rise 2022->2026, orbit 113"}}, {"type": "Feature", "geometry": {"geodesic": false, "type": "Polygon", "coordinates": [[[113.21575323592424, 29.52115551896301], [113.21575323592424, 29.520796192849364], [113.21557357286741, 29.520796192849364], [113.21557357286741, 29.520616529792537], [113.21539390981059, 29.520616529792537], [113.21539390981059, 29.520436866735714], [113.21521424675376, 29.520436866735714], [113.21521424675376, 29.52025720367889], [113.21503458369693, 29.52025720367889], [113.21503458369693, 29.51971821450842], [113.21485492064012, 29.51971821450842], [113.21485492064012, 29.519538551451596], [113.2146752575833, 29.519538551451596], [113.2146752575833, 29.519358888394773], [113.21449559452647, 29.519358888394773], [113.21449559452647, 29.518999562281124], [113.2146752575833, 29.518999562281124], [113.2146752575833, 29.5188198992243], [113.21485492064012, 29.5188198992243], [113.21485492064012, 29.518999562281124], [113.21503458369693, 29.518999562281124], [113.21503458369693, 29.519358888394773], [113.21557357286741, 29.519358888394773], [113.21557357286741, 29.519538551451596], [113.21575323592424, 29.519538551451596], [113.21575323592424, 29.519897877565242], [113.21593289898107, 29.519897877565242], [113.21593289898107, 29.52007754062207], [113.2162922250947, 29.52007754062207], [113.2162922250947, 29.519897877565242], [113.21611256203788, 29.519897877565242], [113.21611256203788, 29.519538551451596], [113.21593289898107, 29.519538551451596], [113.21593289898107, 29.518999562281124], [113.21575323592424, 29.518999562281124], [113.21575323592424, 29.5188198992243], [113.21557357286741, 29.5188198992243], [113.21557357286741, 29.51828091005383], [113.21575323592424, 29.51828091005383], [113.21575323592424, 29.518101246997006], [113.21593289898107, 29.518101246997006], [113.21593289898107, 29.51792158394018], [113.21611256203788, 29.51792158394018], [113.21611256203788, 29.517741920883356], [113.21647188815153, 29.517741920883356], [113.21647188815153, 29.518101246997006], [113.2162922250947, 29.518101246997006], [113.2162922250947, 29.5188198992243], [113.21647188815153, 29.5188198992243], [113.21647188815153, 29.518999562281124], [113.21665155120836, 29.518999562281124], [113.21665155120836, 29.5188198992243], [113.21683121426518, 29.5188198992243], [113.21683121426518, 29.518640236167474], [113.217010877322, 29.518640236167474], [113.217010877322, 29.5188198992243], [113.21719054037882, 29.5188198992243], [113.21719054037882, 29.518999562281124], [113.217010877322, 29.518999562281124], [113.217010877322, 29.519179225337947], [113.21683121426518, 29.519179225337947], [113.21683121426518, 29.518999562281124], [113.21665155120836, 29.518999562281124], [113.21665155120836, 29.519358888394773], [113.21683121426518, 29.519358888394773], [113.21683121426518, 29.519538551451596], [113.21719054037882, 29.519538551451596], [113.21719054037882, 29.519179225337947], [113.21737020343565, 29.519179225337947], [113.21737020343565, 29.519358888394773], [113.21754986649248, 29.519358888394773], [113.21754986649248, 29.51971821450842], [113.21719054037882, 29.51971821450842], [113.21719054037882, 29.519897877565242], [113.21737020343565, 29.519897877565242], [113.21737020343565, 29.520436866735714], [113.2177295295493, 29.520436866735714], [113.2177295295493, 29.52025720367889], [113.21808885566294, 29.52025720367889], [113.21808885566294, 29.520616529792537], [113.2177295295493, 29.520616529792537], [113.2177295295493, 29.520796192849364], [113.21754986649248, 29.520796192849364], [113.21754986649248, 29.520975855906187], [113.21719054037882, 29.520975855906187], [113.21719054037882, 29.520616529792537], [113.21683121426518, 29.520616529792537], [113.21683121426518, 29.52025720367889], [113.21647188815153, 29.52025720367889], [113.21647188815153, 29.520436866735714], [113.21665155120836, 29.520436866735714], [113.21665155120836, 29.520616529792537], [113.21647188815153, 29.520616529792537], [113.21647188815153, 29.520796192849364], [113.217010877322, 29.520796192849364], [113.217010877322, 29.520975855906187], [113.21647188815153, 29.520975855906187], [113.21647188815153, 29.52115551896301], [113.21575323592424, 29.52115551896301]], [[113.21647188815153, 29.52025720367889], [113.2162922250947, 29.52025720367889], [113.2162922250947, 29.52007754062207], [113.21647188815153, 29.52007754062207], [113.21647188815153, 29.52025720367889]], [[113.21647188815153, 29.520975855906187], [113.2162922250947, 29.520975855906187], [113.2162922250947, 29.520796192849364], [113.21647188815153, 29.520796192849364], [113.21647188815153, 29.520975855906187]]]}, "properties": {"name": "cand04", "ptype": "hall", "confidence": "low", "rank": 4, "area_ha": 6.0, "rise_db": 9.2, "digitised_from": "Sentinel-1 VV rise 2022->2026, orbit 113"}}, {"type": "Feature", "geometry": {"geodesic": false, "type": "Polygon", "coordinates": [[[113.25078753200489, 29.512891018349112], [113.25078753200489, 29.512711355292286], [113.25060786894808, 29.512711355292286], [113.25060786894808, 29.512531692235463], [113.25024854283443, 29.512531692235463], [113.25024854283443, 29.512711355292286], [113.2500688797776, 29.512711355292286], [113.2500688797776, 29.512891018349112], [113.24988921672077, 29.512891018349112], [113.24988921672077, 29.511453713894518], [113.24970955366395, 29.511453713894518], [113.24970955366395, 29.5105553986104], [113.24952989060714, 29.5105553986104], [113.24952989060714, 29.510375735553577], [113.24935022755031, 29.510375735553577], [113.24935022755031, 29.510196072496754], [113.24899090143666, 29.510196072496754], [113.24899090143666, 29.510375735553577], [113.24863157532302, 29.510375735553577], [113.24863157532302, 29.5105553986104], [113.24809258615254, 29.5105553986104], [113.24809258615254, 29.510375735553577], [113.24791292309571, 29.510375735553577], [113.24791292309571, 29.510196072496754], [113.24809258615254, 29.510196072496754], [113.24809258615254, 29.509836746383105], [113.24773326003888, 29.509836746383105], [113.24773326003888, 29.50965708332628], [113.24737393392525, 29.50965708332628], [113.24737393392525, 29.509477420269455], [113.24755359698207, 29.509477420269455], [113.24755359698207, 29.509297757212632], [113.24863157532302, 29.509297757212632], [113.24863157532302, 29.509477420269455], [113.24935022755031, 29.509477420269455], [113.24935022755031, 29.50965708332628], [113.24952989060714, 29.50965708332628], [113.24952989060714, 29.510016409439928], [113.24970955366395, 29.510016409439928], [113.24970955366395, 29.509836746383105], [113.2500688797776, 29.509836746383105], [113.2500688797776, 29.50965708332628], [113.25042820589125, 29.50965708332628], [113.25042820589125, 29.509836746383105], [113.25114685811855, 29.509836746383105], [113.25114685811855, 29.510196072496754], [113.25078753200489, 29.510196072496754], [113.25078753200489, 29.510016409439928], [113.25060786894808, 29.510016409439928], [113.25060786894808, 29.510196072496754], [113.25024854283443, 29.510196072496754], [113.25024854283443, 29.510375735553577], [113.25042820589125, 29.510375735553577], [113.25042820589125, 29.5105553986104], [113.25060786894808, 29.5105553986104], [113.25060786894808, 29.510735061667223], [113.25078753200489, 29.510735061667223], [113.25078753200489, 29.511094387780872], [113.25096719506172, 29.511094387780872], [113.25096719506172, 29.511453713894518], [113.25114685811855, 29.511453713894518], [113.25114685811855, 29.511633376951345], [113.25096719506172, 29.511633376951345], [113.25096719506172, 29.511813040008168], [113.25078753200489, 29.511813040008168], [113.25078753200489, 29.511633376951345], [113.25024854283443, 29.511633376951345], [113.25024854283443, 29.512172366121817], [113.25096719506172, 29.512172366121817], [113.25096719506172, 29.51235202917864], [113.25114685811855, 29.51235202917864], [113.25114685811855, 29.512531692235463], [113.25132652117537, 29.512531692235463], [113.25132652117537, 29.512711355292286], [113.25114685811855, 29.512711355292286], [113.25114685811855, 29.512891018349112], [113.25078753200489, 29.512891018349112]]]}, "properties": {"name": "cand05", "ptype": "hall", "confidence": "low", "rank": 5, "area_ha": 5.9, "rise_db": 5.8, "digitised_from": "Sentinel-1 VV rise 2022->2026, orbit 113"}}, {"type": "Feature", "geometry": {"geodesic": false, "type": "Polygon", "coordinates": [[[113.24917056449348, 29.518999562281124], [113.24917056449348, 29.518640236167474], [113.24899090143666, 29.518640236167474], [113.24899090143666, 29.51846057311065], [113.24881123837983, 29.51846057311065], [113.24881123837983, 29.51828091005383], [113.24863157532302, 29.51828091005383], [113.24863157532302, 29.518101246997006], [113.24845191226619, 29.518101246997006], [113.24845191226619, 29.51792158394018], [113.24863157532302, 29.51792158394018], [113.24863157532302, 29.517741920883356], [113.24970955366395, 29.517741920883356], [113.24970955366395, 29.517562257826533], [113.24988921672077, 29.517562257826533], [113.24988921672077, 29.517202931712884], [113.2500688797776, 29.517202931712884], [113.2500688797776, 29.51648427948559], [113.25024854283443, 29.51648427948559], [113.25024854283443, 29.516124953371943], [113.24970955366395, 29.516124953371943], [113.24970955366395, 29.515945290315116], [113.24952989060714, 29.515945290315116], [113.24952989060714, 29.515765627258293], [113.24935022755031, 29.515765627258293], [113.24935022755031, 29.515406301144644], [113.24952989060714, 29.515406301144644], [113.24952989060714, 29.515046975030998], [113.24970955366395, 29.515046975030998], [113.24970955366395, 29.514507985860526], [113.24988921672077, 29.514507985860526], [113.24988921672077, 29.514328322803703], [113.25024854283443, 29.514328322803703], [113.25024854283443, 29.514507985860526], [113.25042820589125, 29.514507985860526], [113.25042820589125, 29.515046975030998], [113.25060786894808, 29.515046975030998], [113.25060786894808, 29.515406301144644], [113.25078753200489, 29.515406301144644], [113.25078753200489, 29.516304616428766], [113.25096719506172, 29.516304616428766], [113.25096719506172, 29.51648427948559], [113.25132652117537, 29.51648427948559], [113.25132652117537, 29.516304616428766], [113.25168584728901, 29.516304616428766], [113.25168584728901, 29.516843605599238], [113.25096719506172, 29.516843605599238], [113.25096719506172, 29.51648427948559], [113.25078753200489, 29.51648427948559], [113.25078753200489, 29.51666394254241], [113.25060786894808, 29.51666394254241], [113.25060786894808, 29.516843605599238], [113.25042820589125, 29.516843605599238], [113.25042820589125, 29.51702326865606], [113.25024854283443, 29.51702326865606], [113.25024854283443, 29.517562257826533], [113.25042820589125, 29.517562257826533], [113.25042820589125, 29.517741920883356], [113.25060786894808, 29.517741920883356], [113.25060786894808, 29.51828091005383], [113.25042820589125, 29.51828091005383], [113.25042820589125, 29.51846057311065], [113.2500688797776, 29.51846057311065], [113.2500688797776, 29.518640236167474], [113.24988921672077, 29.518640236167474], [113.24988921672077, 29.5188198992243], [113.24970955366395, 29.5188198992243], [113.24970955366395, 29.518999562281124], [113.24917056449348, 29.518999562281124]], [[113.24988921672077, 29.51828091005383], [113.24952989060714, 29.51828091005383], [113.24952989060714, 29.51792158394018], [113.24988921672077, 29.51792158394018], [113.24988921672077, 29.51828091005383]]]}, "properties": {"name": "cand06", "ptype": "hall", "confidence": "low", "rank": 6, "area_ha": 5.7, "rise_db": 5.9, "digitised_from": "Sentinel-1 VV rise 2022->2026, orbit 113"}}, {"type": "Feature", "geometry": {"geodesic": false, "type": "Polygon", "coordinates": [[[113.2538418039709, 29.48342627702999], [113.2538418039709, 29.483066950916342], [113.25366214091407, 29.483066950916342], [113.25366214091407, 29.48288728785952], [113.25348247785726, 29.48288728785952], [113.25348247785726, 29.4819889725754], [113.25366214091407, 29.4819889725754], [113.25366214091407, 29.481809309518574], [113.25402146702773, 29.481809309518574], [113.25402146702773, 29.48162964646175], [113.25420113008455, 29.48162964646175], [113.25420113008455, 29.48144998340493], [113.25438079314138, 29.48144998340493], [113.25438079314138, 29.481270320348102], [113.2545604561982, 29.481270320348102], [113.2545604561982, 29.48109065729128], [113.25509944536867, 29.48109065729128], [113.25509944536867, 29.480731331177633], [113.2552791084255, 29.480731331177633], [113.2552791084255, 29.480551668120807], [113.25545877148232, 29.480551668120807], [113.25545877148232, 29.480731331177633], [113.25563843453914, 29.480731331177633], [113.25563843453914, 29.480910994234456], [113.25581809759596, 29.480910994234456], [113.25581809759596, 29.481270320348102], [113.25563843453914, 29.481270320348102], [113.25563843453914, 29.48162964646175], [113.25581809759596, 29.48162964646175], [113.25581809759596, 29.481809309518574], [113.25599776065279, 29.481809309518574], [113.25599776065279, 29.482348298689047], [113.25617742370962, 29.482348298689047], [113.25617742370962, 29.48252796174587], [113.25635708676644, 29.48252796174587], [113.25635708676644, 29.48288728785952], [113.25617742370962, 29.48288728785952], [113.25617742370962, 29.483066950916342], [113.25563843453914, 29.483066950916342], [113.25563843453914, 29.48288728785952], [113.25509944536867, 29.48288728785952], [113.25509944536867, 29.482707624802696], [113.25491978231184, 29.482707624802696], [113.25491978231184, 29.48252796174587], [113.25438079314138, 29.48252796174587], [113.25438079314138, 29.483066950916342], [113.25420113008455, 29.483066950916342], [113.25420113008455, 29.48342627702999], [113.2538418039709, 29.48342627702999]]]}, "properties": {"name": "cand07", "ptype": "hall", "confidence": "low", "rank": 7, "area_ha": 5.3, "rise_db": 8.7, "digitised_from": "Sentinel-1 VV rise 2022->2026, orbit 113"}}, {"type": "Feature", "geometry": {"geodesic": false, "type": "Polygon", "coordinates": [[[113.21575323592424, 29.517202931712884], [113.21575323592424, 29.51702326865606], [113.21557357286741, 29.51702326865606], [113.21557357286741, 29.516843605599238], [113.21539390981059, 29.516843605599238], [113.21539390981059, 29.51666394254241], [113.21521424675376, 29.51666394254241], [113.21521424675376, 29.516304616428766], [113.21485492064012, 29.516304616428766], [113.21485492064012, 29.51666394254241], [113.2146752575833, 29.51666394254241], [113.2146752575833, 29.516843605599238], [113.21431593146964, 29.516843605599238], [113.21431593146964, 29.51666394254241], [113.21413626841282, 29.51666394254241], [113.21413626841282, 29.516304616428766], [113.213956605356, 29.516304616428766], [113.213956605356, 29.516124953371943], [113.21377694229918, 29.516124953371943], [113.21377694229918, 29.515765627258293], [113.21359727924235, 29.515765627258293], [113.21359727924235, 29.51558596420147], [113.21341761618552, 29.51558596420147], [113.21341761618552, 29.515406301144644], [113.2132379531287, 29.515406301144644], [113.2132379531287, 29.51522663808782], [113.21341761618552, 29.51522663808782], [113.21341761618552, 29.515046975030998], [113.21359727924235, 29.515046975030998], [113.21359727924235, 29.514867311974175], [113.213956605356, 29.514867311974175], [113.213956605356, 29.515046975030998], [113.21377694229918, 29.515046975030998], [113.21377694229918, 29.51522663808782], [113.213956605356, 29.51522663808782], [113.213956605356, 29.515406301144644], [113.21413626841282, 29.515406301144644], [113.21413626841282, 29.515046975030998], [113.2146752575833, 29.515046975030998], [113.2146752575833, 29.515406301144644], [113.21485492064012, 29.515406301144644], [113.21485492064012, 29.51558596420147], [113.21503458369693, 29.51558596420147], [113.21503458369693, 29.515765627258293], [113.21521424675376, 29.515765627258293], [113.21521424675376, 29.51558596420147], [113.21539390981059, 29.51558596420147], [113.21539390981059, 29.515406301144644], [113.21593289898107, 29.515406301144644], [113.21593289898107, 29.51522663808782], [113.2162922250947, 29.51522663808782], [113.2162922250947, 29.515046975030998], [113.21647188815153, 29.515046975030998], [113.21647188815153, 29.514867311974175], [113.2162922250947, 29.514867311974175], [113.2162922250947, 29.51468764891735], [113.21611256203788, 29.51468764891735], [113.21611256203788, 29.514507985860526], [113.2162922250947, 29.514507985860526], [113.2162922250947, 29.514328322803703], [113.21665155120836, 29.514328322803703], [113.21665155120836, 29.514867311974175], [113.21683121426518, 29.514867311974175], [113.21683121426518, 29.515046975030998], [113.217010877322, 29.515046975030998], [113.217010877322, 29.514867311974175], [113.21719054037882, 29.514867311974175], [113.21719054037882, 29.515406301144644], [113.217010877322, 29.515406301144644], [113.217010877322, 29.51558596420147], [113.21665155120836, 29.51558596420147], [113.21665155120836, 29.515765627258293], [113.2162922250947, 29.515765627258293], [113.2162922250947, 29.51558596420147], [113.21611256203788, 29.51558596420147], [113.21611256203788, 29.515765627258293], [113.21575323592424, 29.515765627258293], [113.21575323592424, 29.515945290315116], [113.21557357286741, 29.515945290315116], [113.21557357286741, 29.516304616428766], [113.21575323592424, 29.516304616428766], [113.21575323592424, 29.51648427948559], [113.21611256203788, 29.51648427948559], [113.21611256203788, 29.516304616428766], [113.2162922250947, 29.516304616428766], [113.2162922250947, 29.51666394254241], [113.21611256203788, 29.51666394254241], [113.21611256203788, 29.51702326865606], [113.21593289898107, 29.51702326865606], [113.21593289898107, 29.517202931712884], [113.21575323592424, 29.517202931712884]], [[113.2146752575833, 29.51648427948559], [113.21431593146964, 29.51648427948559], [113.21431593146964, 29.516124953371943], [113.21449559452647, 29.516124953371943], [113.21449559452647, 29.516304616428766], [113.2146752575833, 29.516304616428766], [113.2146752575833, 29.51648427948559]]]}, "properties": {"name": "cand08", "ptype": "hall", "confidence": "low", "rank": 8, "area_ha": 4.9, "rise_db": 7.4, "digitised_from": "Sentinel-1 VV rise 2022->2026, orbit 113"}}, {"type": "Feature", "geometry": {"geodesic": false, "type": "Polygon", "coordinates": [[[113.25851304344833, 29.507141800530746], [113.25851304344833, 29.506962137473923], [113.2583333803915, 29.506962137473923], [113.2583333803915, 29.506782474417097], [113.25815371733468, 29.506782474417097], [113.25815371733468, 29.506243485246628], [113.2583333803915, 29.506243485246628], [113.2583333803915, 29.5060638221898], [113.25815371733468, 29.5060638221898], [113.25815371733468, 29.505704496076156], [113.25797405427785, 29.505704496076156], [113.25797405427785, 29.50552483301933], [113.25779439122103, 29.50552483301933], [113.25779439122103, 29.50498584384886], [113.25797405427785, 29.50498584384886], [113.25797405427785, 29.50462651773521], [113.25779439122103, 29.50462651773521], [113.25779439122103, 29.504267191621565], [113.2576147281642, 29.504267191621565], [113.2576147281642, 29.50408752856474], [113.25743506510739, 29.50408752856474], [113.25743506510739, 29.503728202451093], [113.25725540205056, 29.503728202451093], [113.25725540205056, 29.503548539394266], [113.25851304344833, 29.503548539394266], [113.25851304344833, 29.503907865507916], [113.25869270650514, 29.503907865507916], [113.25869270650514, 29.50462651773521], [113.25851304344833, 29.50462651773521], [113.25851304344833, 29.504806180792034], [113.25869270650514, 29.504806180792034], [113.25869270650514, 29.505345169962506], [113.25851304344833, 29.505345169962506], [113.25851304344833, 29.505704496076156], [113.25887236956197, 29.505704496076156], [113.25887236956197, 29.50588415913298], [113.2590520326188, 29.50588415913298], [113.2590520326188, 29.505704496076156], [113.25941135873245, 29.505704496076156], [113.25941135873245, 29.50552483301933], [113.2590520326188, 29.50552483301933], [113.2590520326188, 29.505345169962506], [113.25959102178926, 29.505345169962506], [113.25959102178926, 29.50552483301933], [113.25977068484609, 29.50552483301933], [113.25977068484609, 29.50588415913298], [113.25959102178926, 29.50588415913298], [113.25959102178926, 29.506782474417097], [113.25941135873245, 29.506782474417097], [113.25941135873245, 29.506962137473923], [113.25887236956197, 29.506962137473923], [113.25887236956197, 29.507141800530746], [113.25851304344833, 29.507141800530746]]]}, "properties": {"name": "cand09", "ptype": "hall", "confidence": "low", "rank": 9, "area_ha": 4.8, "rise_db": 8.4, "digitised_from": "Sentinel-1 VV rise 2022->2026, orbit 113"}}, {"type": "Feature", "geometry": {"geodesic": false, "type": "Polygon", "coordinates": [[[113.2215024537426, 29.525287769269962], [113.2215024537426, 29.524928443156313], [113.22168211679943, 29.524928443156313], [113.22168211679943, 29.524569117042663], [113.2215024537426, 29.524569117042663], [113.2215024537426, 29.52438945398584], [113.22132279068578, 29.52438945398584], [113.22132279068578, 29.523670801758545], [113.2215024537426, 29.523670801758545], [113.2215024537426, 29.5233114756449], [113.22132279068578, 29.5233114756449], [113.22132279068578, 29.523131812588073], [113.22114312762895, 29.523131812588073], [113.22114312762895, 29.52295214953125], [113.22096346457212, 29.52295214953125], [113.22096346457212, 29.522772486474427], [113.22078380151531, 29.522772486474427], [113.22078380151531, 29.5225928234176], [113.22060413845848, 29.5225928234176], [113.22060413845848, 29.522413160360777], [113.22078380151531, 29.522413160360777], [113.22078380151531, 29.522233497303954], [113.22096346457212, 29.522233497303954], [113.22096346457212, 29.52205383424713], [113.22114312762895, 29.52205383424713], [113.22114312762895, 29.521874171190305], [113.22168211679943, 29.521874171190305], [113.22168211679943, 29.52205383424713], [113.22204144291307, 29.52205383424713], [113.22204144291307, 29.522233497303954], [113.2222211059699, 29.522233497303954], [113.2222211059699, 29.522413160360777], [113.22258043208355, 29.522413160360777], [113.22258043208355, 29.5225928234176], [113.22276009514037, 29.5225928234176], [113.22276009514037, 29.522772486474427], [113.22258043208355, 29.522772486474427], [113.22258043208355, 29.52295214953125], [113.2222211059699, 29.52295214953125], [113.2222211059699, 29.522772486474427], [113.22204144291307, 29.522772486474427], [113.22204144291307, 29.5225928234176], [113.22168211679943, 29.5225928234176], [113.22168211679943, 29.523131812588073], [113.22186177985625, 29.523131812588073], [113.22186177985625, 29.5233114756449], [113.2222211059699, 29.5233114756449], [113.2222211059699, 29.523491138701722], [113.22240076902672, 29.523491138701722], [113.22240076902672, 29.523850464815368], [113.22258043208355, 29.523850464815368], [113.22258043208355, 29.524030127872194], [113.22293975819719, 29.524030127872194], [113.22293975819719, 29.524209790929017], [113.22329908431084, 29.524209790929017], [113.22329908431084, 29.524569117042663], [113.22276009514037, 29.524569117042663], [113.22276009514037, 29.52438945398584], [113.22240076902672, 29.52438945398584], [113.22240076902672, 29.525108106213136], [113.2222211059699, 29.525108106213136], [113.2222211059699, 29.525287769269962], [113.2215024537426, 29.525287769269962]]]}, "properties": {"name": "cand10", "ptype": "hall", "confidence": "low", "rank": 10, "area_ha": 4.6, "rise_db": 9.5, "digitised_from": "Sentinel-1 VV rise 2022->2026, orbit 113"}}, {"type": "Feature", "geometry": {"geodesic": false, "type": "Polygon", "coordinates": [[[113.21826851871977, 29.523670801758545], [113.21826851871977, 29.523491138701722], [113.21808885566294, 29.523491138701722], [113.21808885566294, 29.523670801758545], [113.21754986649248, 29.523670801758545], [113.21754986649248, 29.523491138701722], [113.21737020343565, 29.523491138701722], [113.21737020343565, 29.523131812588073], [113.2177295295493, 29.523131812588073], [113.2177295295493, 29.52295214953125], [113.21790919260613, 29.52295214953125], [113.21790919260613, 29.522772486474427], [113.2177295295493, 29.522772486474427], [113.2177295295493, 29.5225928234176], [113.21737020343565, 29.5225928234176], [113.21737020343565, 29.522772486474427], [113.21683121426518, 29.522772486474427], [113.21683121426518, 29.5225928234176], [113.21665155120836, 29.5225928234176], [113.21665155120836, 29.522413160360777], [113.21647188815153, 29.522413160360777], [113.21647188815153, 29.521874171190305], [113.21665155120836, 29.521874171190305], [113.21665155120836, 29.521694508133482], [113.21683121426518, 29.521694508133482], [113.21683121426518, 29.52151484507666], [113.217010877322, 29.52151484507666], [113.217010877322, 29.521335182019836], [113.21737020343565, 29.521335182019836], [113.21737020343565, 29.52151484507666], [113.2177295295493, 29.52151484507666], [113.2177295295493, 29.521335182019836], [113.21790919260613, 29.521335182019836], [113.21790919260613, 29.52115551896301], [113.21808885566294, 29.52115551896301], [113.21808885566294, 29.520975855906187], [113.21826851871977, 29.520975855906187], [113.21826851871977, 29.521335182019836], [113.21808885566294, 29.521335182019836], [113.21808885566294, 29.52151484507666], [113.21826851871977, 29.52151484507666], [113.21826851871977, 29.521694508133482], [113.21862784483342, 29.521694508133482], [113.21862784483342, 29.521874171190305], [113.21826851871977, 29.521874171190305], [113.21826851871977, 29.522233497303954], [113.2184481817766, 29.522233497303954], [113.2184481817766, 29.5225928234176], [113.21862784483342, 29.5225928234176], [113.21862784483342, 29.522772486474427], [113.21898717094706, 29.522772486474427], [113.21898717094706, 29.523131812588073], [113.21862784483342, 29.523131812588073], [113.21862784483342, 29.5233114756449], [113.2184481817766, 29.5233114756449], [113.2184481817766, 29.523491138701722], [113.21862784483342, 29.523491138701722], [113.21862784483342, 29.523670801758545], [113.21826851871977, 29.523670801758545]]]}, "properties": {"name": "cand11", "ptype": "hall", "confidence": "low", "rank": 11, "area_ha": 4.2, "rise_db": 7.0, "digitised_from": "Sentinel-1 VV rise 2022->2026, orbit 113"}}, {"type": "Feature", "geometry": {"geodesic": false, "type": "Polygon", "coordinates": [[[113.23030594352697, 29.485582233711877], [113.23030594352697, 29.485402570655054], [113.23012628047015, 29.485402570655054], [113.23012628047015, 29.48522290759823], [113.22922796518603, 29.48522290759823], [113.22922796518603, 29.485402570655054], [113.22886863907237, 29.485402570655054], [113.22886863907237, 29.48522290759823], [113.22868897601556, 29.48522290759823], [113.22868897601556, 29.483965266200464], [113.22886863907237, 29.483965266200464], [113.22886863907237, 29.483785603143637], [113.2290483021292, 29.483785603143637], [113.2290483021292, 29.483605940086814], [113.22922796518603, 29.483605940086814], [113.22922796518603, 29.48342627702999], [113.22940762824285, 29.48342627702999], [113.22940762824285, 29.483605940086814], [113.22958729129968, 29.483605940086814], [113.22958729129968, 29.483785603143637], [113.2304856065838, 29.483785603143637], [113.2304856065838, 29.483965266200464], [113.23066526964062, 29.483965266200464], [113.23066526964062, 29.485402570655054], [113.2304856065838, 29.485402570655054], [113.2304856065838, 29.485582233711877], [113.23030594352697, 29.485582233711877]], [[113.23012628047015, 29.48468391842776], [113.22958729129968, 29.48468391842776], [113.22958729129968, 29.48432459231411], [113.23012628047015, 29.48432459231411], [113.23012628047015, 29.48468391842776]]]}, "properties": {"name": "cand12", "ptype": "hall", "confidence": "low", "rank": 12, "area_ha": 3.6, "rise_db": 6.5, "digitised_from": "Sentinel-1 VV rise 2022->2026, orbit 113"}}, {"type": "Feature", "geometry": {"geodesic": false, "type": "Polygon", "coordinates": [[[113.26120798930069, 29.51378933363323], [113.26120798930069, 29.513609670576407], [113.26102832624386, 29.513609670576407], [113.26102832624386, 29.512531692235463], [113.26120798930069, 29.512531692235463], [113.26120798930069, 29.511813040008168], [113.26138765235751, 29.511813040008168], [113.26138765235751, 29.511453713894518], [113.26120798930069, 29.511453713894518], [113.26120798930069, 29.511274050837695], [113.26138765235751, 29.511274050837695], [113.26138765235751, 29.511094387780872], [113.26156731541433, 29.511094387780872], [113.26156731541433, 29.51091472472405], [113.26174697847115, 29.51091472472405], [113.26174697847115, 29.510735061667223], [113.2621063045848, 29.510735061667223], [113.2621063045848, 29.51091472472405], [113.26246563069846, 29.51091472472405], [113.26246563069846, 29.5105553986104], [113.2628249568121, 29.5105553986104], [113.2628249568121, 29.510735061667223], [113.26264529375527, 29.510735061667223], [113.26264529375527, 29.51091472472405], [113.26246563069846, 29.51091472472405], [113.26246563069846, 29.511094387780872], [113.26228596764163, 29.511094387780872], [113.26228596764163, 29.511274050837695], [113.2621063045848, 29.511274050837695], [113.2621063045848, 29.511813040008168], [113.26228596764163, 29.511813040008168], [113.26228596764163, 29.512172366121817], [113.2621063045848, 29.512172366121817], [113.2621063045848, 29.51235202917864], [113.26192664152798, 29.51235202917864], [113.26192664152798, 29.512891018349112], [113.2621063045848, 29.512891018349112], [113.2621063045848, 29.513070681405935], [113.26228596764163, 29.513070681405935], [113.26228596764163, 29.513609670576407], [113.26192664152798, 29.513609670576407], [113.26192664152798, 29.51378933363323], [113.26120798930069, 29.51378933363323]]]}, "properties": {"name": "cand13", "ptype": "hall", "confidence": "low", "rank": 13, "area_ha": 3.6, "rise_db": 8.3, "digitised_from": "Sentinel-1 VV rise 2022->2026, orbit 113"}}, {"type": "Feature", "geometry": {"geodesic": false, "type": "Polygon", "coordinates": [[[113.25222483645949, 29.51666394254241], [113.25222483645949, 29.516304616428766], [113.25276382562996, 29.516304616428766], [113.25276382562996, 29.515945290315116], [113.25258416257314, 29.515945290315116], [113.25258416257314, 29.515765627258293], [113.25222483645949, 29.515765627258293], [113.25222483645949, 29.515945290315116], [113.25186551034584, 29.515945290315116], [113.25186551034584, 29.516124953371943], [113.25168584728901, 29.516124953371943], [113.25168584728901, 29.515945290315116], [113.2515061842322, 29.515945290315116], [113.2515061842322, 29.515765627258293], [113.25132652117537, 29.515765627258293], [113.25132652117537, 29.515406301144644], [113.25186551034584, 29.515406301144644], [113.25186551034584, 29.51522663808782], [113.25222483645949, 29.51522663808782], [113.25222483645949, 29.515406301144644], [113.25258416257314, 29.515406301144644], [113.25258416257314, 29.51558596420147], [113.25294348868678, 29.51558596420147], [113.25294348868678, 29.515406301144644], [113.25312315174361, 29.515406301144644], [113.25312315174361, 29.51522663808782], [113.25330281480043, 29.51522663808782], [113.25330281480043, 29.515046975030998], [113.25348247785726, 29.515046975030998], [113.25348247785726, 29.514867311974175], [113.25366214091407, 29.514867311974175], [113.25366214091407, 29.514507985860526], [113.25402146702773, 29.514507985860526], [113.25402146702773, 29.51522663808782], [113.25420113008455, 29.51522663808782], [113.25420113008455, 29.516124953371943], [113.2538418039709, 29.516124953371943], [113.2538418039709, 29.515945290315116], [113.25366214091407, 29.515945290315116], [113.25366214091407, 29.516304616428766], [113.25330281480043, 29.516304616428766], [113.25330281480043, 29.51648427948559], [113.25294348868678, 29.51648427948559], [113.25294348868678, 29.51666394254241], [113.25222483645949, 29.51666394254241]]]}, "properties": {"name": "cand14", "ptype": "hall", "confidence": "low", "rank": 14, "area_ha": 3.4, "rise_db": 6.1, "digitised_from": "Sentinel-1 VV rise 2022->2026, orbit 113"}}, {"type": "Feature", "geometry": {"geodesic": false, "type": "Polygon", "coordinates": [[[113.23371954160663, 29.539840476872698], [113.23371954160663, 29.53966081381587], [113.2335398785498, 29.53966081381587], [113.2335398785498, 29.53948115075905], [113.23371954160663, 29.53948115075905], [113.23371954160663, 29.539301487702225], [113.23389920466344, 29.539301487702225], [113.23389920466344, 29.539121824645402], [113.23407886772027, 29.539121824645402], [113.23407886772027, 29.538942161588576], [113.2342585307771, 29.538942161588576], [113.2342585307771, 29.538762498531753], [113.23443819383392, 29.538762498531753], [113.23443819383392, 29.53858283547493], [113.23479751994756, 29.53858283547493], [113.23479751994756, 29.538403172418107], [113.23515684606122, 29.538403172418107], [113.23515684606122, 29.53822350936128], [113.23533650911804, 29.53822350936128], [113.23533650911804, 29.538043846304458], [113.2356958352317, 29.538043846304458], [113.2356958352317, 29.537864183247635], [113.23605516134533, 29.537864183247635], [113.23605516134533, 29.53768452019081], [113.23695347662945, 29.53768452019081], [113.23695347662945, 29.538043846304458], [113.23677381357264, 29.538043846304458], [113.23677381357264, 29.53822350936128], [113.23641448745899, 29.53822350936128], [113.23641448745899, 29.538403172418107], [113.23623482440216, 29.538403172418107], [113.23623482440216, 29.53858283547493], [113.23605516134533, 29.53858283547493], [113.23605516134533, 29.538762498531753], [113.23587549828851, 29.538762498531753], [113.23587549828851, 29.538942161588576], [113.23515684606122, 29.538942161588576], [113.23515684606122, 29.539121824645402], [113.23497718300439, 29.539121824645402], [113.23497718300439, 29.539301487702225], [113.23479751994756, 29.539301487702225], [113.23479751994756, 29.53948115075905], [113.23461785689075, 29.53948115075905], [113.23461785689075, 29.53966081381587], [113.2342585307771, 29.53966081381587], [113.2342585307771, 29.539840476872698], [113.23371954160663, 29.539840476872698]]]}, "properties": {"name": "cand15", "ptype": "hall", "confidence": "low", "rank": 15, "area_ha": 3.2, "rise_db": 6.4, "digitised_from": "Sentinel-1 VV rise 2022->2026, orbit 113"}}, {"type": "Feature", "geometry": {"geodesic": false, "type": "Polygon", "coordinates": [[[113.2604893370734, 29.5105553986104], [113.2604893370734, 29.510375735553577], [113.26013001095974, 29.510375735553577], [113.26013001095974, 29.510196072496754], [113.25995034790292, 29.510196072496754], [113.25995034790292, 29.510016409439928], [113.25977068484609, 29.510016409439928], [113.25977068484609, 29.509836746383105], [113.25959102178926, 29.509836746383105], [113.25959102178926, 29.510016409439928], [113.25941135873245, 29.510016409439928], [113.25941135873245, 29.510196072496754], [113.25923169567562, 29.510196072496754], [113.25923169567562, 29.510375735553577], [113.2590520326188, 29.510375735553577], [113.2590520326188, 29.510196072496754], [113.25887236956197, 29.510196072496754], [113.25887236956197, 29.510016409439928], [113.25869270650514, 29.510016409439928], [113.25869270650514, 29.509836746383105], [113.25851304344833, 29.509836746383105], [113.25851304344833, 29.50965708332628], [113.2590520326188, 29.50965708332628], [113.2590520326188, 29.509477420269455], [113.25923169567562, 29.509477420269455], [113.25923169567562, 29.50965708332628], [113.25941135873245, 29.50965708332628], [113.25941135873245, 29.509477420269455], [113.25977068484609, 29.509477420269455], [113.25977068484609, 29.509297757212632], [113.26102832624386, 29.509297757212632], [113.26102832624386, 29.50965708332628], [113.26084866318703, 29.50965708332628], [113.26084866318703, 29.509836746383105], [113.2606690001302, 29.509836746383105], [113.2606690001302, 29.5105553986104], [113.2604893370734, 29.5105553986104]]]}, "properties": {"name": "cand16", "ptype": "hall", "confidence": "low", "rank": 16, "area_ha": 2.1, "rise_db": 6.4, "digitised_from": "Sentinel-1 VV rise 2022->2026, orbit 113"}}, {"type": "Feature", "geometry": {"geodesic": false, "type": "Polygon", "coordinates": [[[113.22868897601556, 29.483066950916342], [113.22868897601556, 29.482348298689047], [113.22850931295874, 29.482348298689047], [113.22850931295874, 29.4819889725754], [113.22868897601556, 29.4819889725754], [113.22868897601556, 29.481809309518574], [113.23012628047015, 29.481809309518574], [113.23012628047015, 29.4819889725754], [113.22994661741332, 29.4819889725754], [113.22994661741332, 29.48288728785952], [113.22940762824285, 29.48288728785952], [113.22940762824285, 29.483066950916342], [113.22868897601556, 29.483066950916342]]]}, "properties": {"name": "cand17", "ptype": "hall", "confidence": "low", "rank": 17, "area_ha": 2.0, "rise_db": 8.5, "digitised_from": "Sentinel-1 VV rise 2022->2026, orbit 113"}}, {"type": "Feature", "geometry": {"geodesic": false, "type": "Polygon", "coordinates": [[[113.26300461986892, 29.503368876337444], [113.26300461986892, 29.50318921328062], [113.2628249568121, 29.50318921328062], [113.2628249568121, 29.503009550223798], [113.26264529375527, 29.503009550223798], [113.26264529375527, 29.50318921328062], [113.2621063045848, 29.50318921328062], [113.2621063045848, 29.502470561053325], [113.2628249568121, 29.502470561053325], [113.2628249568121, 29.502111234939676], [113.2621063045848, 29.502111234939676], [113.2621063045848, 29.501931571882853], [113.26192664152798, 29.501931571882853], [113.26192664152798, 29.50175190882603], [113.26264529375527, 29.50175190882603], [113.26264529375527, 29.501572245769204], [113.26336394598258, 29.501572245769204], [113.26336394598258, 29.50175190882603], [113.26354360903939, 29.50175190882603], [113.26354360903939, 29.501931571882853], [113.26336394598258, 29.501931571882853], [113.26336394598258, 29.502290897996502], [113.26300461986892, 29.502290897996502], [113.26300461986892, 29.502470561053325], [113.26318428292575, 29.502470561053325], [113.26318428292575, 29.50265022411015], [113.26300461986892, 29.50265022411015], [113.26300461986892, 29.50282988716697], [113.26318428292575, 29.50282988716697], [113.26318428292575, 29.503368876337444], [113.26300461986892, 29.503368876337444]]]}, "properties": {"name": "cand18", "ptype": "hall", "confidence": "low", "rank": 18, "area_ha": 1.9, "rise_db": 6.4, "digitised_from": "Sentinel-1 VV rise 2022->2026, orbit 113"}}, {"type": "Feature", "geometry": {"geodesic": false, "type": "Polygon", "coordinates": [[[113.25635708676644, 29.513250344462758], [113.25635708676644, 29.513070681405935], [113.25474011925502, 29.513070681405935], [113.25474011925502, 29.512711355292286], [113.25491978231184, 29.512711355292286], [113.25491978231184, 29.512531692235463], [113.25743506510739, 29.512531692235463], [113.25743506510739, 29.512891018349112], [113.25725540205056, 29.512891018349112], [113.25725540205056, 29.513070681405935], [113.25689607593691, 29.513070681405935], [113.25689607593691, 29.513250344462758], [113.25635708676644, 29.513250344462758]]]}, "properties": {"name": "cand19", "ptype": "hall", "confidence": "low", "rank": 19, "area_ha": 1.8, "rise_db": 6.4, "digitised_from": "Sentinel-1 VV rise 2022->2026, orbit 113"}}, {"type": "Feature", "geometry": {"geodesic": false, "type": "Polygon", "coordinates": [[[113.25617742370962, 29.520975855906187], [113.25617742370962, 29.520796192849364], [113.25545877148232, 29.520796192849364], [113.25545877148232, 29.520616529792537], [113.2545604561982, 29.520616529792537], [113.2545604561982, 29.52025720367889], [113.25509944536867, 29.52025720367889], [113.25509944536867, 29.52007754062207], [113.25617742370962, 29.52007754062207], [113.25617742370962, 29.519897877565242], [113.25653674982327, 29.519897877565242], [113.25653674982327, 29.52007754062207], [113.25671641288008, 29.52007754062207], [113.25671641288008, 29.52025720367889], [113.25689607593691, 29.52025720367889], [113.25689607593691, 29.520436866735714], [113.25671641288008, 29.520436866735714], [113.25671641288008, 29.520616529792537], [113.25653674982327, 29.520616529792537], [113.25653674982327, 29.520975855906187], [113.25617742370962, 29.520975855906187]]]}, "properties": {"name": "cand20", "ptype": "hall", "confidence": "low", "rank": 20, "area_ha": 1.8, "rise_db": 8.3, "digitised_from": "Sentinel-1 VV rise 2022->2026, orbit 113"}}, {"type": "Feature", "geometry": {"geodesic": false, "type": "Polygon", "coordinates": [[[113.2184481817766, 29.527264062895025], [113.2184481817766, 29.526904736781376], [113.21826851871977, 29.526904736781376], [113.21826851871977, 29.526725073724553], [113.21808885566294, 29.526725073724553], [113.21808885566294, 29.526545410667726], [113.21790919260613, 29.526545410667726], [113.21790919260613, 29.52618608455408], [113.2177295295493, 29.52618608455408], [113.2177295295493, 29.526006421497257], [113.21737020343565, 29.526006421497257], [113.21737020343565, 29.52618608455408], [113.21683121426518, 29.52618608455408], [113.21683121426518, 29.52582675844043], [113.21737020343565, 29.52582675844043], [113.21737020343565, 29.525647095383608], [113.21754986649248, 29.525647095383608], [113.21754986649248, 29.525467432326785], [113.21737020343565, 29.525467432326785], [113.21737020343565, 29.525108106213136], [113.21719054037882, 29.525108106213136], [113.21719054037882, 29.52474878009949], [113.21683121426518, 29.52474878009949], [113.21683121426518, 29.52438945398584], [113.21719054037882, 29.52438945398584], [113.21719054037882, 29.52474878009949], [113.21754986649248, 29.52474878009949], [113.21754986649248, 29.524928443156313], [113.2177295295493, 29.524928443156313], [113.2177295295493, 29.525108106213136], [113.21790919260613, 29.525108106213136], [113.21790919260613, 29.525647095383608], [113.21808885566294, 29.525647095383608], [113.21808885566294, 29.526006421497257], [113.21826851871977, 29.526006421497257], [113.21826851871977, 29.526545410667726], [113.2184481817766, 29.526545410667726], [113.2184481817766, 29.526904736781376], [113.21862784483342, 29.526904736781376], [113.21862784483342, 29.5270843998382], [113.21880750789025, 29.5270843998382], [113.21880750789025, 29.527264062895025], [113.2184481817766, 29.527264062895025]]]}, "properties": {"name": "cand21", "ptype": "hall", "confidence": "low", "rank": 21, "area_ha": 1.8, "rise_db": 5.7, "digitised_from": "Sentinel-1 VV rise 2022->2026, orbit 113"}}, {"type": "Feature", "geometry": {"geodesic": false, "type": "Polygon", "coordinates": [[[113.25420113008455, 29.491511114587066], [113.25420113008455, 29.49115178847342], [113.25402146702773, 29.49115178847342], [113.25402146702773, 29.49043313624612], [113.25474011925502, 29.49043313624612], [113.25474011925502, 29.4902534731893], [113.25509944536867, 29.4902534731893], [113.25509944536867, 29.49043313624612], [113.2552791084255, 29.49043313624612], [113.2552791084255, 29.490612799302948], [113.25545877148232, 29.490612799302948], [113.25545877148232, 29.490972125416594], [113.25491978231184, 29.490972125416594], [113.25491978231184, 29.49115178847342], [113.25474011925502, 29.49115178847342], [113.25474011925502, 29.491511114587066], [113.25420113008455, 29.491511114587066]]]}, "properties": {"name": "cand22", "ptype": "hall", "confidence": "low", "rank": 22, "area_ha": 1.4, "rise_db": 9.4, "digitised_from": "Sentinel-1 VV rise 2022->2026, orbit 113"}}, {"type": "Feature", "geometry": {"geodesic": false, "type": "Polygon", "coordinates": [[[113.21485492064012, 29.49582302795084], [113.21485492064012, 29.49492471266672], [113.21503458369693, 29.49492471266672], [113.21503458369693, 29.494565386553074], [113.21521424675376, 29.494565386553074], [113.21521424675376, 29.494206060439424], [113.21557357286741, 29.494206060439424], [113.21557357286741, 29.495104375723546], [113.2162922250947, 29.495104375723546], [113.2162922250947, 29.495463701837192], [113.21539390981059, 29.495463701837192], [113.21539390981059, 29.495643364894015], [113.21521424675376, 29.495643364894015], [113.21521424675376, 29.49582302795084], [113.21485492064012, 29.49582302795084]]]}, "properties": {"name": "cand23", "ptype": "hall", "confidence": "low", "rank": 23, "area_ha": 1.4, "rise_db": 5.1, "digitised_from": "Sentinel-1 VV rise 2022->2026, orbit 113"}}, {"type": "Feature", "geometry": {"geodesic": false, "type": "Polygon", "coordinates": [[[113.25168584728901, 29.519538551451596], [113.25168584728901, 29.519358888394773], [113.25132652117537, 29.519358888394773], [113.25132652117537, 29.519179225337947], [113.2515061842322, 29.519179225337947], [113.2515061842322, 29.518999562281124], [113.25114685811855, 29.518999562281124], [113.25114685811855, 29.518640236167474], [113.25096719506172, 29.518640236167474], [113.25096719506172, 29.51846057311065], [113.25114685811855, 29.51846057311065], [113.25114685811855, 29.51828091005383], [113.25132652117537, 29.51828091005383], [113.25132652117537, 29.51846057311065], [113.25240449951632, 29.51846057311065], [113.25240449951632, 29.518999562281124], [113.25222483645949, 29.518999562281124], [113.25222483645949, 29.519538551451596], [113.25168584728901, 29.519538551451596]]]}, "properties": {"name": "cand24", "ptype": "hall", "confidence": "low", "rank": 24, "area_ha": 1.4, "rise_db": 6.7, "digitised_from": "Sentinel-1 VV rise 2022->2026, orbit 113"}}, {"type": "Feature", "geometry": {"geodesic": false, "type": "Polygon", "coordinates": [[[113.25779439122103, 29.51199270306499], [113.25779439122103, 29.511813040008168], [113.2576147281642, 29.511813040008168], [113.2576147281642, 29.511274050837695], [113.25779439122103, 29.511274050837695], [113.25779439122103, 29.511094387780872], [113.25797405427785, 29.511094387780872], [113.25797405427785, 29.51091472472405], [113.2590520326188, 29.51091472472405], [113.2590520326188, 29.510735061667223], [113.25941135873245, 29.510735061667223], [113.25941135873245, 29.51091472472405], [113.25923169567562, 29.51091472472405], [113.25923169567562, 29.511453713894518], [113.25941135873245, 29.511453713894518], [113.25941135873245, 29.511633376951345], [113.25923169567562, 29.511633376951345], [113.25923169567562, 29.511813040008168], [113.25887236956197, 29.511813040008168], [113.25887236956197, 29.511633376951345], [113.25869270650514, 29.511633376951345], [113.25869270650514, 29.511274050837695], [113.25887236956197, 29.511274050837695], [113.25887236956197, 29.511094387780872], [113.2583333803915, 29.511094387780872], [113.2583333803915, 29.511453713894518], [113.25797405427785, 29.511453713894518], [113.25797405427785, 29.51199270306499], [113.25779439122103, 29.51199270306499]]]}, "properties": {"name": "cand25", "ptype": "hall", "confidence": "low", "rank": 25, "area_ha": 1.3, "rise_db": 4.8, "digitised_from": "Sentinel-1 VV rise 2022->2026, orbit 113"}}, {"type": "Feature", "geometry": {"geodesic": false, "type": "Polygon", "coordinates": [[[113.25168584728901, 29.51235202917864], [113.25168584728901, 29.512172366121817], [113.2515061842322, 29.512172366121817], [113.2515061842322, 29.511633376951345], [113.25168584728901, 29.511633376951345], [113.25168584728901, 29.511453713894518], [113.25222483645949, 29.511453713894518], [113.25222483645949, 29.51091472472405], [113.25258416257314, 29.51091472472405], [113.25258416257314, 29.511094387780872], [113.25276382562996, 29.511094387780872], [113.25276382562996, 29.511813040008168], [113.25222483645949, 29.511813040008168], [113.25222483645949, 29.512172366121817], [113.25204517340266, 29.512172366121817], [113.25204517340266, 29.51235202917864], [113.25168584728901, 29.51235202917864]]]}, "properties": {"name": "cand26", "ptype": "hall", "confidence": "low", "rank": 26, "area_ha": 1.2, "rise_db": 5.3, "digitised_from": "Sentinel-1 VV rise 2022->2026, orbit 113"}}, {"type": "Feature", "geometry": {"geodesic": false, "type": "Polygon", "coordinates": [[[113.25474011925502, 29.511633376951345], [113.25474011925502, 29.511453713894518], [113.2545604561982, 29.511453713894518], [113.2545604561982, 29.511633376951345], [113.25402146702773, 29.511633376951345], [113.25402146702773, 29.511094387780872], [113.25420113008455, 29.511094387780872], [113.25420113008455, 29.51091472472405], [113.2545604561982, 29.51091472472405], [113.2545604561982, 29.511094387780872], [113.25491978231184, 29.511094387780872], [113.25491978231184, 29.51091472472405], [113.25509944536867, 29.51091472472405], [113.25509944536867, 29.510735061667223], [113.2552791084255, 29.510735061667223], [113.2552791084255, 29.51091472472405], [113.25545877148232, 29.51091472472405], [113.25545877148232, 29.511453713894518], [113.2552791084255, 29.511453713894518], [113.2552791084255, 29.511633376951345], [113.25474011925502, 29.511633376951345]]]}, "properties": {"name": "cand27", "ptype": "hall", "confidence": "low", "rank": 27, "area_ha": 1.1, "rise_db": 6.0, "digitised_from": "Sentinel-1 VV rise 2022->2026, orbit 113"}}, {"type": "Feature", "geometry": {"geodesic": false, "type": "Polygon", "coordinates": [[[113.24935022755031, 29.50588415913298], [113.24935022755031, 29.50552483301933], [113.24917056449348, 29.50552483301933], [113.24917056449348, 29.505345169962506], [113.24899090143666, 29.505345169962506], [113.24899090143666, 29.505165506905684], [113.24917056449348, 29.505165506905684], [113.24917056449348, 29.504806180792034], [113.24935022755031, 29.504806180792034], [113.24935022755031, 29.50462651773521], [113.24952989060714, 29.50462651773521], [113.24952989060714, 29.504806180792034], [113.24988921672077, 29.504806180792034], [113.24988921672077, 29.50498584384886], [113.2500688797776, 29.50498584384886], [113.2500688797776, 29.50552483301933], [113.24988921672077, 29.50552483301933], [113.24988921672077, 29.50588415913298], [113.24935022755031, 29.50588415913298]]]}, "properties": {"name": "cand28", "ptype": "hall", "confidence": "low", "rank": 28, "area_ha": 1.1, "rise_db": 6.3, "digitised_from": "Sentinel-1 VV rise 2022->2026, orbit 113"}}, {"type": "Feature", "geometry": {"geodesic": false, "type": "Polygon", "coordinates": [[[113.21862784483342, 29.526006421497257], [113.21862784483342, 29.52582675844043], [113.2184481817766, 29.52582675844043], [113.2184481817766, 29.525108106213136], [113.21862784483342, 29.525108106213136], [113.21862784483342, 29.524928443156313], [113.21952616011754, 29.524928443156313], [113.21952616011754, 29.525108106213136], [113.21934649706071, 29.525108106213136], [113.21934649706071, 29.525287769269962], [113.21916683400389, 29.525287769269962], [113.21916683400389, 29.525467432326785], [113.21934649706071, 29.525467432326785], [113.21934649706071, 29.52582675844043], [113.21916683400389, 29.52582675844043], [113.21916683400389, 29.526006421497257], [113.21862784483342, 29.526006421497257]]]}, "properties": {"name": "cand29", "ptype": "hall", "confidence": "low", "rank": 29, "area_ha": 1.1, "rise_db": 7.3, "digitised_from": "Sentinel-1 VV rise 2022->2026, orbit 113"}}, {"type": "Feature", "geometry": {"geodesic": false, "type": "Polygon", "coordinates": [[[113.24881123837983, 29.507141800530746], [113.24881123837983, 29.506962137473923], [113.24863157532302, 29.506962137473923], [113.24863157532302, 29.506782474417097], [113.24881123837983, 29.506782474417097], [113.24881123837983, 29.50642314830345], [113.24899090143666, 29.50642314830345], [113.24899090143666, 29.506243485246628], [113.24917056449348, 29.506243485246628], [113.24917056449348, 29.5060638221898], [113.24935022755031, 29.5060638221898], [113.24935022755031, 29.506243485246628], [113.24917056449348, 29.506243485246628], [113.24917056449348, 29.50642314830345], [113.24935022755031, 29.50642314830345], [113.24935022755031, 29.506602811360274], [113.24952989060714, 29.506602811360274], [113.24952989060714, 29.506782474417097], [113.24988921672077, 29.506782474417097], [113.24988921672077, 29.506602811360274], [113.25024854283443, 29.506602811360274], [113.25024854283443, 29.506962137473923], [113.24988921672077, 29.506962137473923], [113.24988921672077, 29.507141800530746], [113.24881123837983, 29.507141800530746]]]}, "properties": {"name": "cand30", "ptype": "hall", "confidence": "low", "rank": 30, "area_ha": 1.0, "rise_db": 6.2, "digitised_from": "Sentinel-1 VV rise 2022->2026, orbit 113"}}, {"type": "Feature", "geometry": {"geodesic": false, "type": "Polygon", "coordinates": [[[113.24557730335701, 29.541277781327288], [113.24557730335701, 29.540559129099993], [113.24575696641382, 29.540559129099993], [113.24575696641382, 29.539840476872698], [113.24593662947065, 29.539840476872698], [113.24593662947065, 29.53948115075905], [113.24611629252747, 29.53948115075905], [113.24611629252747, 29.53966081381587], [113.2462959555843, 29.53966081381587], [113.2462959555843, 29.540199802986344], [113.24611629252747, 29.540199802986344], [113.24611629252747, 29.54091845521364], [113.2462959555843, 29.54091845521364], [113.2462959555843, 29.541098118270465], [113.24611629252747, 29.541098118270465], [113.24611629252747, 29.541277781327288], [113.24557730335701, 29.541277781327288]]]}, "properties": {"name": "cand31", "ptype": "hall", "confidence": "low", "rank": 31, "area_ha": 1.0, "rise_db": 6.7, "digitised_from": "Sentinel-1 VV rise 2022->2026, orbit 113"}}]}