{"type": "FeatureCollection", "features": [{"type": "Feature", "geometry": {"geodesic": false, "type": "Polygon", "coordinates": [[[106.45916465794767, 26.38459787293129], [106.45916465794767, 26.384418209874465], [106.45880533183401, 26.384418209874465], [106.45880533183401, 26.38423854681764], [106.4586256687772, 26.38423854681764], [106.4586256687772, 26.38405888376082], [106.45826634266355, 26.38405888376082], [106.45826634266355, 26.383879220703992], [106.45664937515214, 26.383879220703992], [106.45664937515214, 26.38369955764717], [106.45629004903849, 26.38369955764717], [106.45629004903849, 26.383519894590346], [106.45646971209531, 26.383519894590346], [106.45646971209531, 26.383160568476697], [106.45664937515214, 26.383160568476697], [106.45664937515214, 26.382980905419874], [106.45682903820895, 26.382980905419874], [106.45682903820895, 26.38190292707893], [106.45629004903849, 26.38190292707893], [106.45629004903849, 26.38226225319258], [106.45611038598166, 26.38226225319258], [106.45611038598166, 26.3824419162494], [106.45593072292483, 26.3824419162494], [106.45593072292483, 26.382621579306228], [106.455751059868, 26.382621579306228], [106.455751059868, 26.38280124236305], [106.4555713968112, 26.38280124236305], [106.4555713968112, 26.382980905419874], [106.45503240764072, 26.382980905419874], [106.45503240764072, 26.38280124236305], [106.45485274458389, 26.38280124236305], [106.45485274458389, 26.382621579306228], [106.45449341847025, 26.382621579306228], [106.45449341847025, 26.38280124236305], [106.45431375541342, 26.38280124236305], [106.45431375541342, 26.382980905419874], [106.4541340923566, 26.382980905419874], [106.4541340923566, 26.38280124236305], [106.45377476624294, 26.38280124236305], [106.45377476624294, 26.382621579306228], [106.4534154401293, 26.382621579306228], [106.4534154401293, 26.38280124236305], [106.45323577707248, 26.38280124236305], [106.45323577707248, 26.383340231533523], [106.45287645095883, 26.383340231533523], [106.45287645095883, 26.383519894590346], [106.45269678790201, 26.383519894590346], [106.45269678790201, 26.38369955764717], [106.45251712484519, 26.38369955764717], [106.45251712484519, 26.383879220703992], [106.45233746178836, 26.383879220703992], [106.45233746178836, 26.38369955764717], [106.45215779873153, 26.38369955764717], [106.45215779873153, 26.383519894590346], [106.45233746178836, 26.383519894590346], [106.45233746178836, 26.383160568476697], [106.45251712484519, 26.383160568476697], [106.45251712484519, 26.382082590135756], [106.45269678790201, 26.382082590135756], [106.45269678790201, 26.37956730734022], [106.45287645095883, 26.37956730734022], [106.45287645095883, 26.37920798122657], [106.45305611401565, 26.37920798122657], [106.45305611401565, 26.37902831816975], [106.45359510318613, 26.37902831816975], [106.45359510318613, 26.378848655112925], [106.45395442929977, 26.378848655112925], [106.45395442929977, 26.37902831816975], [106.4541340923566, 26.37902831816975], [106.4541340923566, 26.37920798122657], [106.45431375541342, 26.37920798122657], [106.45431375541342, 26.379387644283398], [106.45449341847025, 26.379387644283398], [106.45449341847025, 26.37920798122657], [106.45467308152708, 26.37920798122657], [106.45467308152708, 26.379387644283398], [106.45503240764072, 26.379387644283398], [106.45503240764072, 26.380106296510693], [106.4555713968112, 26.380106296510693], [106.4555713968112, 26.379926633453866], [106.455751059868, 26.379926633453866], [106.455751059868, 26.380106296510693], [106.45593072292483, 26.380106296510693], [106.45593072292483, 26.380285959567516], [106.45629004903849, 26.380285959567516], [106.45629004903849, 26.380106296510693], [106.4571883643226, 26.380106296510693], [106.4571883643226, 26.380285959567516], [106.45772735349307, 26.380285959567516], [106.45772735349307, 26.38046562262434], [106.4579070165499, 26.38046562262434], [106.4579070165499, 26.380824948737988], [106.45808667960672, 26.380824948737988], [106.45808667960672, 26.381184274851634], [106.45772735349307, 26.381184274851634], [106.45772735349307, 26.38136393790846], [106.45754769043626, 26.38136393790846], [106.45754769043626, 26.38100461179481], [106.45736802737943, 26.38100461179481], [106.45736802737943, 26.381543600965284], [106.45754769043626, 26.381543600965284], [106.45754769043626, 26.381723264022106], [106.45772735349307, 26.381723264022106], [106.45772735349307, 26.38190292707893], [106.45754769043626, 26.38190292707893], [106.45754769043626, 26.3824419162494], [106.45772735349307, 26.3824419162494], [106.45772735349307, 26.382621579306228], [106.45754769043626, 26.382621579306228], [106.45754769043626, 26.38280124236305], [106.45772735349307, 26.38280124236305], [106.45772735349307, 26.382980905419874], [106.45844600572038, 26.382980905419874], [106.45844600572038, 26.38280124236305], [106.45898499489084, 26.38280124236305], [106.45898499489084, 26.382980905419874], [106.4593443210045, 26.382980905419874], [106.4593443210045, 26.383160568476697], [106.45970364711813, 26.383160568476697], [106.45970364711813, 26.383519894590346], [106.45988331017496, 26.383519894590346], [106.45988331017496, 26.38369955764717], [106.45970364711813, 26.38369955764717], [106.45970364711813, 26.38405888376082], [106.4593443210045, 26.38405888376082], [106.4593443210045, 26.38459787293129], [106.45916465794767, 26.38459787293129]], [[106.45682903820895, 26.381543600965284], [106.45646971209531, 26.381543600965284], [106.45646971209531, 26.381184274851634], [106.45682903820895, 26.381184274851634], [106.45682903820895, 26.381543600965284]], [[106.45503240764072, 26.38190292707893], [106.45485274458389, 26.38190292707893], [106.45485274458389, 26.381723264022106], [106.45431375541342, 26.381723264022106], [106.45431375541342, 26.38136393790846], [106.4541340923566, 26.38136393790846], [106.4541340923566, 26.381184274851634], [106.45431375541342, 26.381184274851634], [106.45431375541342, 26.38100461179481], [106.45449341847025, 26.38100461179481], [106.45449341847025, 26.380824948737988], [106.45467308152708, 26.380824948737988], [106.45467308152708, 26.38064528568116], [106.45485274458389, 26.38064528568116], [106.45485274458389, 26.38046562262434], [106.45521207069754, 26.38046562262434], [106.45521207069754, 26.380824948737988], [106.45503240764072, 26.380824948737988], [106.45503240764072, 26.381184274851634], [106.45521207069754, 26.381184274851634], [106.45521207069754, 26.381723264022106], [106.45503240764072, 26.381723264022106], [106.45503240764072, 26.38190292707893]], [[106.45449341847025, 26.38226225319258], [106.4541340923566, 26.38226225319258], [106.4541340923566, 26.38190292707893], [106.45449341847025, 26.38190292707893], [106.45449341847025, 26.38226225319258]]]}, "properties": {"name": "structure", "ptype": "hall", "confidence": "low", "site_id": "cn_guian_r01", "note": "Radar-detected new structure 22.4 ha, VV rise 7.8 dB 2021-2026, hall-like score 0.51; unconfirmed, operator unknown.", "digitised_from": "Sentinel-1 candidate scan guian rank 1; outline is the 20 m radar blob"}}]}