{"type": "FeatureCollection", "features": [{"type": "Feature", "geometry": {"geodesic": false, "type": "Polygon", "coordinates": [[[111.84959535183526, 40.565402948042056], [111.84959535183526, 40.564863958871584], [111.85013434100574, 40.564863958871584], [111.85013434100574, 40.56468429581476], [111.84941568877845, 40.56468429581476], [111.84941568877845, 40.564863958871584], [111.84923602572162, 40.564863958871584], [111.84923602572162, 40.56522328498523], [111.84851737349432, 40.56522328498523], [111.84851737349432, 40.56504362192841], [111.84797838432385, 40.56504362192841], [111.84797838432385, 40.564863958871584], [111.84743939515339, 40.564863958871584], [111.84743939515339, 40.56450463275794], [111.8476190582102, 40.56450463275794], [111.8476190582102, 40.564145306644285], [111.84815804738068, 40.564145306644285], [111.84815804738068, 40.563965643587466], [111.84869703655114, 40.563965643587466], [111.84869703655114, 40.56342665441699], [111.84851737349432, 40.56342665441699], [111.84851737349432, 40.56324699136017], [111.8483377104375, 40.56324699136017], [111.8483377104375, 40.56306732830335], [111.84851737349432, 40.56306732830335], [111.84851737349432, 40.562708002189694], [111.84869703655114, 40.562708002189694], [111.84869703655114, 40.562528339132875], [111.84887669960797, 40.562528339132875], [111.84887669960797, 40.56234867607605], [111.8490563626648, 40.56234867607605], [111.8490563626648, 40.562528339132875], [111.84923602572162, 40.562528339132875], [111.84923602572162, 40.56288766524652], [111.8490563626648, 40.56288766524652], [111.8490563626648, 40.56306732830335], [111.84923602572162, 40.56306732830335], [111.84923602572162, 40.56324699136017], [111.84977501489209, 40.56324699136017], [111.84977501489209, 40.56288766524652], [111.85031400406257, 40.56288766524652], [111.85031400406257, 40.56360631747382], [111.85085299323303, 40.56360631747382], [111.85085299323303, 40.56378598053064], [111.85103265628986, 40.56378598053064], [111.85103265628986, 40.56360631747382], [111.85121231934669, 40.56360631747382], [111.85121231934669, 40.564145306644285], [111.85103265628986, 40.564145306644285], [111.85103265628986, 40.56432496970111], [111.85085299323303, 40.56432496970111], [111.85085299323303, 40.564145306644285], [111.8506733301762, 40.564145306644285], [111.8506733301762, 40.56450463275794], [111.85103265628986, 40.56450463275794], [111.85103265628986, 40.564863958871584], [111.85013434100574, 40.564863958871584], [111.85013434100574, 40.56522328498523], [111.84977501489209, 40.56522328498523], [111.84977501489209, 40.565402948042056], [111.84959535183526, 40.565402948042056]], [[111.84995467794892, 40.563965643587466], [111.84977501489209, 40.563965643587466], [111.84977501489209, 40.56378598053064], [111.84995467794892, 40.56378598053064], [111.84995467794892, 40.563965643587466]], [[111.84941568877845, 40.564145306644285], [111.8490563626648, 40.564145306644285], [111.8490563626648, 40.563965643587466], [111.84923602572162, 40.563965643587466], [111.84923602572162, 40.56360631747382], [111.84941568877845, 40.56360631747382], [111.84941568877845, 40.564145306644285]], [[111.85031400406257, 40.56450463275794], [111.85013434100574, 40.56450463275794], [111.85013434100574, 40.56432496970111], [111.85031400406257, 40.56432496970111], [111.85031400406257, 40.56450463275794]], [[111.8490563626648, 40.564863958871584], [111.84887669960797, 40.564863958871584], [111.84887669960797, 40.56468429581476], [111.8483377104375, 40.56468429581476], [111.8483377104375, 40.56450463275794], [111.84797838432385, 40.56450463275794], [111.84797838432385, 40.56432496970111], [111.84815804738068, 40.56432496970111], [111.84815804738068, 40.564145306644285], [111.84851737349432, 40.564145306644285], [111.84851737349432, 40.56432496970111], [111.84869703655114, 40.56432496970111], [111.84869703655114, 40.56450463275794], [111.8490563626648, 40.56450463275794], [111.8490563626648, 40.564863958871584]]]}, "properties": {"name": "structure", "ptype": "hall", "confidence": "low", "site_id": "cn_horinger_r23", "note": "Radar-detected new structure 6.3 ha, VV rise 11.9 dB 2021-2026, hall-like score 0.84; unconfirmed, operator unknown.", "digitised_from": "Sentinel-1 candidate scan horinger rank 23; outline is the 20 m radar blob"}}]}