{"type": "FeatureCollection", "features": [{"type": "Feature", "geometry": {"geodesic": false, "type": "Polygon", "coordinates": [[[111.800906663436, 40.540968772314], [111.800906663436, 40.54078910925718], [111.80018801120869, 40.54078910925718], [111.80018801120869, 40.54042978314353], [111.80054733732234, 40.54042978314353], [111.80054733732234, 40.53989079397306], [111.80072700037917, 40.53989079397306], [111.80072700037917, 40.53953146785941], [111.800906663436, 40.53953146785941], [111.800906663436, 40.539172141745766], [111.80072700037917, 40.539172141745766], [111.80072700037917, 40.53899247868894], [111.79964902203822, 40.53899247868894], [111.79964902203822, 40.539172141745766], [111.7994693589814, 40.539172141745766], [111.7994693589814, 40.53881281563212], [111.79928969592457, 40.53881281563212], [111.79928969592457, 40.538633152575294], [111.7987507067541, 40.538633152575294], [111.7987507067541, 40.53845348951847], [111.79839138064045, 40.53845348951847], [111.79839138064045, 40.53881281563212], [111.79821171758363, 40.53881281563212], [111.79821171758363, 40.53899247868894], [111.7980320545268, 40.53899247868894], [111.7980320545268, 40.539172141745766], [111.79821171758363, 40.539172141745766], [111.79821171758363, 40.53953146785941], [111.79785239146999, 40.53953146785941], [111.79785239146999, 40.53989079397306], [111.79731340229951, 40.53989079397306], [111.79731340229951, 40.53971113091624], [111.79659475007222, 40.53971113091624], [111.79659475007222, 40.53953146785941], [111.79623542395856, 40.53953146785941], [111.79623542395856, 40.53935180480259], [111.79641508701539, 40.53935180480259], [111.79641508701539, 40.539172141745766], [111.79713373924268, 40.539172141745766], [111.79713373924268, 40.53881281563212], [111.79731340229951, 40.53881281563212], [111.79731340229951, 40.53809416340482], [111.79713373924268, 40.53809416340482], [111.79713373924268, 40.537914500347995], [111.79695407618587, 40.537914500347995], [111.79695407618587, 40.537734837291175], [111.79677441312904, 40.537734837291175], [111.79677441312904, 40.53755517423435], [111.79695407618587, 40.53755517423435], [111.79695407618587, 40.5371958481207], [111.79713373924268, 40.5371958481207], [111.79713373924268, 40.53701618506388], [111.79731340229951, 40.53701618506388], [111.79731340229951, 40.53683652200706], [111.79749306535633, 40.53683652200706], [111.79749306535633, 40.53665685895023], [111.79731340229951, 40.53665685895023], [111.79731340229951, 40.536297532836585], [111.79821171758363, 40.536297532836585], [111.79821171758363, 40.536477195893404], [111.79857104369728, 40.536477195893404], [111.79857104369728, 40.53683652200706], [111.7987507067541, 40.53683652200706], [111.7987507067541, 40.53665685895023], [111.79893036981093, 40.53665685895023], [111.79893036981093, 40.53683652200706], [111.79911003286774, 40.53683652200706], [111.79911003286774, 40.5371958481207], [111.79893036981093, 40.5371958481207], [111.79893036981093, 40.53755517423435], [111.7987507067541, 40.53755517423435], [111.7987507067541, 40.53809416340482], [111.79928969592457, 40.53809416340482], [111.79928969592457, 40.537914500347995], [111.79964902203822, 40.537914500347995], [111.79964902203822, 40.537734837291175], [111.79982868509505, 40.537734837291175], [111.79982868509505, 40.537914500347995], [111.80000834815188, 40.537914500347995], [111.80000834815188, 40.53827382646165], [111.80018801120869, 40.53827382646165], [111.80018801120869, 40.53845348951847], [111.80036767426552, 40.53845348951847], [111.80036767426552, 40.53827382646165], [111.80072700037917, 40.53827382646165], [111.80072700037917, 40.53845348951847], [111.800906663436, 40.53845348951847], [111.800906663436, 40.53881281563212], [111.80108632649281, 40.53881281563212], [111.80108632649281, 40.538633152575294], [111.80126598954963, 40.538633152575294], [111.80126598954963, 40.53827382646165], [111.80144565260646, 40.53827382646165], [111.80144565260646, 40.53809416340482], [111.80162531566329, 40.53809416340482], [111.80162531566329, 40.537914500347995], [111.80216430483375, 40.537914500347995], [111.80216430483375, 40.537734837291175], [111.80234396789058, 40.537734837291175], [111.80234396789058, 40.537914500347995], [111.8025236309474, 40.537914500347995], [111.8025236309474, 40.53809416340482], [111.80342194623152, 40.53809416340482], [111.80342194623152, 40.537914500347995], [111.80378127234518, 40.537914500347995], [111.80378127234518, 40.53809416340482], [111.80360160928835, 40.53809416340482], [111.80360160928835, 40.53827382646165], [111.8032422831747, 40.53827382646165], [111.8032422831747, 40.53845348951847], [111.80306262011787, 40.53845348951847], [111.80306262011787, 40.53953146785941], [111.80288295706106, 40.53953146785941], [111.80288295706106, 40.53971113091624], [111.80270329400423, 40.53971113091624], [111.80270329400423, 40.53989079397306], [111.80234396789058, 40.53989079397306], [111.80234396789058, 40.53953146785941], [111.80180497872011, 40.53953146785941], [111.80180497872011, 40.53971113091624], [111.80162531566329, 40.53971113091624], [111.80162531566329, 40.53989079397306], [111.80144565260646, 40.53989079397306], [111.80144565260646, 40.54025012008671], [111.80126598954963, 40.54025012008671], [111.80126598954963, 40.54042978314353], [111.80108632649281, 40.54042978314353], [111.80108632649281, 40.540968772314], [111.800906663436, 40.540968772314]], [[111.79857104369728, 40.53701618506388], [111.79821171758363, 40.53701618506388], [111.79821171758363, 40.53683652200706], [111.79857104369728, 40.53683652200706], [111.79857104369728, 40.53701618506388]], [[111.7980320545268, 40.53755517423435], [111.79785239146999, 40.53755517423435], [111.79785239146999, 40.53737551117753], [111.7980320545268, 40.53737551117753], [111.7980320545268, 40.53755517423435]], [[111.8025236309474, 40.53827382646165], [111.80216430483375, 40.53827382646165], [111.80216430483375, 40.53809416340482], [111.8025236309474, 40.53809416340482], [111.8025236309474, 40.53827382646165]], [[111.80234396789058, 40.53881281563212], [111.80216430483375, 40.53881281563212], [111.80216430483375, 40.53845348951847], [111.80234396789058, 40.53845348951847], [111.80234396789058, 40.53881281563212]], [[111.79749306535633, 40.53953146785941], [111.79731340229951, 40.53953146785941], [111.79731340229951, 40.53935180480259], [111.79749306535633, 40.53935180480259], [111.79749306535633, 40.53953146785941]]]}, "properties": {"name": "structure", "ptype": "hall", "confidence": "low", "site_id": "cn_horinger_r11", "note": "Radar-detected new structure 13.9 ha, VV rise 11.2 dB 2021-2026, hall-like score 0.62; unconfirmed, operator unknown.", "digitised_from": "Sentinel-1 candidate scan horinger rank 11; outline is the 20 m radar blob"}}]}