{"type": "FeatureCollection", "features": [{"type": "Feature", "geometry": {"geodesic": false, "type": "Polygon", "coordinates": [[[111.86414805943801, 40.58408790595174], [111.86414805943801, 40.58390824289492], [111.86396839638118, 40.58390824289492], [111.86396839638118, 40.583728579838095], [111.86378873332436, 40.583728579838095], [111.86378873332436, 40.58336925372445], [111.86307008109706, 40.58336925372445], [111.86307008109706, 40.58318959066762], [111.86289041804024, 40.58318959066762], [111.86289041804024, 40.58336925372445], [111.86271075498341, 40.58336925372445], [111.86271075498341, 40.58354891678127], [111.86253109192658, 40.58354891678127], [111.86253109192658, 40.58336925372445], [111.86181243969929, 40.58336925372445], [111.86181243969929, 40.58318959066762], [111.861093787472, 40.58318959066762], [111.861093787472, 40.583009927610796], [111.86055479830152, 40.583009927610796], [111.86055479830152, 40.58283026455398], [111.85983614607423, 40.58283026455398], [111.85983614607423, 40.583009927610796], [111.85947681996058, 40.583009927610796], [111.85947681996058, 40.58283026455398], [111.85983614607423, 40.58283026455398], [111.85983614607423, 40.58265060149715], [111.85947681996058, 40.58265060149715], [111.85947681996058, 40.58247093844032], [111.85893783079011, 40.58247093844032], [111.85893783079011, 40.582291275383504], [111.85875816773328, 40.582291275383504], [111.85875816773328, 40.58193194926986], [111.85839884161963, 40.58193194926986], [111.85839884161963, 40.58211161232668], [111.85785985244917, 40.58211161232668], [111.85785985244917, 40.58175228621303], [111.85768018939234, 40.58175228621303], [111.85768018939234, 40.581572623156205], [111.85750052633551, 40.581572623156205], [111.85750052633551, 40.58121329704256], [111.85768018939234, 40.58121329704256], [111.85768018939234, 40.580853970928914], [111.85785985244917, 40.580853970928914], [111.85785985244917, 40.58031498175844], [111.85750052633551, 40.58031498175844], [111.85750052633551, 40.580135318701615], [111.85714120022188, 40.580135318701615], [111.85714120022188, 40.58049464481526], [111.85750052633551, 40.58049464481526], [111.85750052633551, 40.58103363398573], [111.85714120022188, 40.58103363398573], [111.85714120022188, 40.580853970928914], [111.85678187410822, 40.580853970928914], [111.85678187410822, 40.58067430787209], [111.8566022110514, 40.58067430787209], [111.8566022110514, 40.58031498175844], [111.85678187410822, 40.58031498175844], [111.85678187410822, 40.580135318701615], [111.85696153716505, 40.580135318701615], [111.85696153716505, 40.57977599258797], [111.8573208632787, 40.57977599258797], [111.8573208632787, 40.57941666647432], [111.85785985244917, 40.57941666647432], [111.85785985244917, 40.5792370034175], [111.85768018939234, 40.5792370034175], [111.85768018939234, 40.57905734036067], [111.85821917856282, 40.57905734036067], [111.85821917856282, 40.5792370034175], [111.85875816773328, 40.5792370034175], [111.85875816773328, 40.57905734036067], [111.85893783079011, 40.57905734036067], [111.85893783079011, 40.578698014247024], [111.85929715690376, 40.578698014247024], [111.85929715690376, 40.5785183511902], [111.85893783079011, 40.5785183511902], [111.85893783079011, 40.57815902507655], [111.8596564830174, 40.57815902507655], [111.8596564830174, 40.57833868813338], [111.85929715690376, 40.57833868813338], [111.85929715690376, 40.5785183511902], [111.8596564830174, 40.5785183511902], [111.8596564830174, 40.57905734036067], [111.85929715690376, 40.57905734036067], [111.85929715690376, 40.57941666647432], [111.85911749384694, 40.57941666647432], [111.85911749384694, 40.57959632953114], [111.85893783079011, 40.57959632953114], [111.85893783079011, 40.57995565564479], [111.85911749384694, 40.57995565564479], [111.85911749384694, 40.57977599258797], [111.85929715690376, 40.57977599258797], [111.85929715690376, 40.57959632953114], [111.85947681996058, 40.57959632953114], [111.85947681996058, 40.57995565564479], [111.8596564830174, 40.57995565564479], [111.8596564830174, 40.57977599258797], [111.85983614607423, 40.57977599258797], [111.85983614607423, 40.57941666647432], [111.86001580913106, 40.57941666647432], [111.86001580913106, 40.57887767730385], [111.86019547218788, 40.57887767730385], [111.86019547218788, 40.57905734036067], [111.8603751352447, 40.57905734036067], [111.8603751352447, 40.57887767730385], [111.86055479830152, 40.57887767730385], [111.86055479830152, 40.5792370034175], [111.8603751352447, 40.5792370034175], [111.8603751352447, 40.57941666647432], [111.86019547218788, 40.57941666647432], [111.86019547218788, 40.57977599258797], [111.86001580913106, 40.57977599258797], [111.86001580913106, 40.57995565564479], [111.86019547218788, 40.57995565564479], [111.86019547218788, 40.58031498175844], [111.86091412441517, 40.58031498175844], [111.86091412441517, 40.580135318701615], [111.86073446135835, 40.580135318701615], [111.86073446135835, 40.57977599258797], [111.86091412441517, 40.57977599258797], [111.86091412441517, 40.57941666647432], [111.861093787472, 40.57941666647432], [111.861093787472, 40.57887767730385], [111.86127345052883, 40.57887767730385], [111.86127345052883, 40.578698014247024], [111.86145311358564, 40.578698014247024], [111.86145311358564, 40.5785183511902], [111.861093787472, 40.5785183511902], [111.861093787472, 40.57833868813338], [111.86091412441517, 40.57833868813338], [111.86091412441517, 40.577979362019725], [111.861093787472, 40.577979362019725], [111.861093787472, 40.577799698962906], [111.86073446135835, 40.577799698962906], [111.86073446135835, 40.57762003590608], [111.86163277664247, 40.57762003590608], [111.86163277664247, 40.577979362019725], [111.86181243969929, 40.577979362019725], [111.86181243969929, 40.57815902507655], [111.86145311358564, 40.57815902507655], [111.86145311358564, 40.5785183511902], [111.86163277664247, 40.5785183511902], [111.86163277664247, 40.57887767730385], [111.86199210275612, 40.57887767730385], [111.86199210275612, 40.5792370034175], [111.86181243969929, 40.5792370034175], [111.86181243969929, 40.57941666647432], [111.86235142886976, 40.57941666647432], [111.86235142886976, 40.5792370034175], [111.86271075498341, 40.5792370034175], [111.86271075498341, 40.57941666647432], [111.86307008109706, 40.57941666647432], [111.86307008109706, 40.57959632953114], [111.86360907026753, 40.57959632953114], [111.86360907026753, 40.57977599258797], [111.86378873332436, 40.57977599258797], [111.86378873332436, 40.57995565564479], [111.86414805943801, 40.57995565564479], [111.86414805943801, 40.57977599258797], [111.86450738555165, 40.57977599258797], [111.86450738555165, 40.580135318701615], [111.86468704860847, 40.580135318701615], [111.86468704860847, 40.58049464481526], [111.8648667116653, 40.58049464481526], [111.8648667116653, 40.58031498175844], [111.86504637472213, 40.58031498175844], [111.86504637472213, 40.57995565564479], [111.86540570083577, 40.57995565564479], [111.86540570083577, 40.580135318701615], [111.86594469000624, 40.580135318701615], [111.86594469000624, 40.580853970928914], [111.86522603777895, 40.580853970928914], [111.86522603777895, 40.58121329704256], [111.86540570083577, 40.58121329704256], [111.86540570083577, 40.58175228621303], [111.86558536389259, 40.58175228621303], [111.86558536389259, 40.58193194926986], [111.86522603777895, 40.58193194926986], [111.86522603777895, 40.58318959066762], [111.86504637472213, 40.58318959066762], [111.86504637472213, 40.58336925372445], [111.8648667116653, 40.58336925372445], [111.8648667116653, 40.583728579838095], [111.86468704860847, 40.583728579838095], [111.86468704860847, 40.58408790595174], [111.86414805943801, 40.58408790595174]], [[111.85857850467646, 40.57959632953114], [111.858039515506, 40.57959632953114], [111.858039515506, 40.57941666647432], [111.85857850467646, 40.57941666647432], [111.85857850467646, 40.57959632953114]], [[111.85768018939234, 40.57995565564479], [111.85750052633551, 40.57995565564479], [111.85750052633551, 40.57977599258797], [111.85768018939234, 40.57977599258797], [111.85768018939234, 40.57995565564479]], [[111.86145311358564, 40.57995565564479], [111.861093787472, 40.57995565564479], [111.861093787472, 40.57977599258797], [111.86127345052883, 40.57977599258797], [111.86127345052883, 40.57959632953114], [111.86145311358564, 40.57959632953114], [111.86145311358564, 40.57941666647432], [111.86181243969929, 40.57941666647432], [111.86181243969929, 40.57959632953114], [111.86163277664247, 40.57959632953114], [111.86163277664247, 40.57977599258797], [111.86145311358564, 40.57977599258797], [111.86145311358564, 40.57995565564479]], [[111.86235142886976, 40.580135318701615], [111.86217176581295, 40.580135318701615], [111.86217176581295, 40.57995565564479], [111.86235142886976, 40.57995565564479], [111.86235142886976, 40.580135318701615]], [[111.85947681996058, 40.581572623156205], [111.85857850467646, 40.581572623156205], [111.85857850467646, 40.581392960099386], [111.85839884161963, 40.581392960099386], [111.85839884161963, 40.580853970928914], [111.85857850467646, 40.580853970928914], [111.85857850467646, 40.58049464481526], [111.85911749384694, 40.58049464481526], [111.85911749384694, 40.580853970928914], [111.85929715690376, 40.580853970928914], [111.85929715690376, 40.58067430787209], [111.85947681996058, 40.58067430787209], [111.85947681996058, 40.581572623156205]], [[111.86396839638118, 40.58175228621303], [111.8634294072107, 40.58175228621303], [111.8634294072107, 40.581392960099386], [111.86360907026753, 40.581392960099386], [111.86360907026753, 40.58121329704256], [111.86378873332436, 40.58121329704256], [111.86378873332436, 40.580853970928914], [111.86432772249482, 40.580853970928914], [111.86432772249482, 40.58103363398573], [111.86414805943801, 40.58103363398573], [111.86414805943801, 40.581392960099386], [111.86396839638118, 40.581392960099386], [111.86396839638118, 40.58175228621303]], [[111.8648667116653, 40.58175228621303], [111.86414805943801, 40.58175228621303], [111.86414805943801, 40.581392960099386], [111.86432772249482, 40.581392960099386], [111.86432772249482, 40.581572623156205], [111.86450738555165, 40.581572623156205], [111.86450738555165, 40.581392960099386], [111.86468704860847, 40.581392960099386], [111.86468704860847, 40.581572623156205], [111.8648667116653, 40.581572623156205], [111.8648667116653, 40.58175228621303]], [[111.86001580913106, 40.58193194926986], [111.85983614607423, 40.58193194926986], [111.85983614607423, 40.58175228621303], [111.85947681996058, 40.58175228621303], [111.85947681996058, 40.581572623156205], [111.8596564830174, 40.581572623156205], [111.8596564830174, 40.581392960099386], [111.85983614607423, 40.581392960099386], [111.85983614607423, 40.58121329704256], [111.86001580913106, 40.58121329704256], [111.86001580913106, 40.581572623156205], [111.86019547218788, 40.581572623156205], [111.86019547218788, 40.58175228621303], [111.86001580913106, 40.58175228621303], [111.86001580913106, 40.58193194926986]], [[111.85983614607423, 40.58211161232668], [111.85947681996058, 40.58211161232668], [111.85947681996058, 40.58193194926986], [111.85983614607423, 40.58193194926986], [111.85983614607423, 40.58211161232668]], [[111.86073446135835, 40.582291275383504], [111.86055479830152, 40.582291275383504], [111.86055479830152, 40.58211161232668], [111.86073446135835, 40.58211161232668], [111.86073446135835, 40.582291275383504]], [[111.86253109192658, 40.582291275383504], [111.86235142886976, 40.582291275383504], [111.86235142886976, 40.58211161232668], [111.86253109192658, 40.58211161232668], [111.86253109192658, 40.582291275383504]], [[111.86324974415389, 40.58283026455398], [111.86289041804024, 40.58283026455398], [111.86289041804024, 40.58247093844032], [111.86324974415389, 40.58247093844032], [111.86324974415389, 40.58283026455398]], [[111.86414805943801, 40.58354891678127], [111.86396839638118, 40.58354891678127], [111.86396839638118, 40.58336925372445], [111.86414805943801, 40.58336925372445], [111.86414805943801, 40.58354891678127]], [[111.86468704860847, 40.583728579838095], [111.86450738555165, 40.583728579838095], [111.86450738555165, 40.58354891678127], [111.86468704860847, 40.58354891678127], [111.86468704860847, 40.583728579838095]]]}, "properties": {"name": "structure", "ptype": "hall", "confidence": "low", "site_id": "cn_horinger_r03", "note": "Radar-detected new structure 33.2 ha, VV rise 11.6 dB 2021-2026, hall-like score 0.93; unconfirmed, operator unknown.", "digitised_from": "Sentinel-1 candidate scan horinger rank 3; outline is the 20 m radar blob"}}]}