{"type": "FeatureCollection", "features": [{"type": "Feature", "geometry": {"geodesic": false, "type": "Polygon", "coordinates": [[[111.79300148893574, 40.542945065939065], [111.79300148893574, 40.542765402882246], [111.79282182587892, 40.542765402882246], [111.79282182587892, 40.54240607676859], [111.79300148893574, 40.54240607676859], [111.79300148893574, 40.542226413711774], [111.79282182587892, 40.542226413711774], [111.79282182587892, 40.541507761484475], [111.79300148893574, 40.541507761484475], [111.79300148893574, 40.541328098427655], [111.79318115199256, 40.541328098427655], [111.79318115199256, 40.540968772314], [111.79336081504938, 40.540968772314], [111.79336081504938, 40.54114843537083], [111.79354047810621, 40.54114843537083], [111.79354047810621, 40.541328098427655], [111.79372014116304, 40.541328098427655], [111.79372014116304, 40.541507761484475], [111.79354047810621, 40.541507761484475], [111.79354047810621, 40.5416874245413], [111.79318115199256, 40.5416874245413], [111.79318115199256, 40.542226413711774], [111.79354047810621, 40.542226413711774], [111.79354047810621, 40.54240607676859], [111.79372014116304, 40.54240607676859], [111.79372014116304, 40.542226413711774], [111.79389980421986, 40.542226413711774], [111.79389980421986, 40.54186708759812], [111.79407946727667, 40.54186708759812], [111.79407946727667, 40.541507761484475], [111.7942591303335, 40.541507761484475], [111.7942591303335, 40.54114843537083], [111.79407946727667, 40.54114843537083], [111.79407946727667, 40.540968772314], [111.7942591303335, 40.540968772314], [111.7942591303335, 40.54078910925718], [111.79443879339033, 40.54078910925718], [111.79443879339033, 40.54060944620036], [111.7942591303335, 40.54060944620036], [111.7942591303335, 40.54025012008671], [111.79389980421986, 40.54025012008671], [111.79389980421986, 40.540070457029884], [111.79354047810621, 40.540070457029884], [111.79354047810621, 40.53989079397306], [111.79336081504938, 40.53989079397306], [111.79336081504938, 40.53971113091624], [111.79300148893574, 40.53971113091624], [111.79300148893574, 40.53953146785941], [111.79264216282209, 40.53953146785941], [111.79264216282209, 40.539172141745766], [111.79318115199256, 40.539172141745766], [111.79318115199256, 40.53935180480259], [111.79389980421986, 40.53935180480259], [111.79389980421986, 40.53953146785941], [111.7942591303335, 40.53953146785941], [111.7942591303335, 40.53971113091624], [111.79443879339033, 40.53971113091624], [111.79443879339033, 40.53989079397306], [111.79461845644715, 40.53989079397306], [111.79461845644715, 40.53971113091624], [111.79479811950398, 40.53971113091624], [111.79479811950398, 40.53989079397306], [111.79551677173127, 40.53989079397306], [111.79551677173127, 40.54025012008671], [111.7956964347881, 40.54025012008671], [111.7956964347881, 40.540070457029884], [111.79587609784492, 40.540070457029884], [111.79587609784492, 40.54025012008671], [111.79659475007222, 40.54025012008671], [111.79659475007222, 40.540968772314], [111.79641508701539, 40.540968772314], [111.79641508701539, 40.541507761484475], [111.79623542395856, 40.541507761484475], [111.79623542395856, 40.5416874245413], [111.79515744561762, 40.5416874245413], [111.79515744561762, 40.541507761484475], [111.79479811950398, 40.541507761484475], [111.79479811950398, 40.54114843537083], [111.7949777825608, 40.54114843537083], [111.7949777825608, 40.540968772314], [111.79515744561762, 40.540968772314], [111.79515744561762, 40.54078910925718], [111.7949777825608, 40.54078910925718], [111.7949777825608, 40.54060944620036], [111.79461845644715, 40.54060944620036], [111.79461845644715, 40.54078910925718], [111.79479811950398, 40.54078910925718], [111.79479811950398, 40.540968772314], [111.79461845644715, 40.540968772314], [111.79461845644715, 40.541328098427655], [111.79443879339033, 40.541328098427655], [111.79443879339033, 40.54204675065495], [111.7942591303335, 40.54204675065495], [111.7942591303335, 40.54240607676859], [111.79407946727667, 40.54240607676859], [111.79407946727667, 40.54258573982542], [111.79389980421986, 40.54258573982542], [111.79389980421986, 40.542765402882246], [111.79336081504938, 40.542765402882246], [111.79336081504938, 40.542945065939065], [111.79300148893574, 40.542945065939065]], [[111.79443879339033, 40.54025012008671], [111.7942591303335, 40.54025012008671], [111.7942591303335, 40.540070457029884], [111.79443879339033, 40.540070457029884], [111.79443879339033, 40.54025012008671]], [[111.79623542395856, 40.541328098427655], [111.79605576090174, 40.541328098427655], [111.79605576090174, 40.54114843537083], [111.79623542395856, 40.54114843537083], [111.79623542395856, 40.541328098427655]]]}, "properties": {"name": "structure", "ptype": "hall", "confidence": "low", "site_id": "cn_horinger_r21", "note": "Radar-detected new structure 7.0 ha, VV rise 8.8 dB 2021-2026, hall-like score 0.89; unconfirmed, operator unknown.", "digitised_from": "Sentinel-1 candidate scan horinger rank 21; outline is the 20 m radar blob"}}]}