{"type": "FeatureCollection", "features": [{"type": "Feature", "geometry": {"geodesic": false, "type": "Polygon", "coordinates": [[[111.83594095951665, 40.542945065939065], [111.83594095951665, 40.54240607676859], [111.8363002856303, 40.54240607676859], [111.8363002856303, 40.54204675065495], [111.83612062257347, 40.54204675065495], [111.83612062257347, 40.542226413711774], [111.83576129645982, 40.542226413711774], [111.83576129645982, 40.54204675065495], [111.83540197034618, 40.54204675065495], [111.83540197034618, 40.54186708759812], [111.83504264423253, 40.54186708759812], [111.83504264423253, 40.5416874245413], [111.83522230728936, 40.5416874245413], [111.83522230728936, 40.541328098427655], [111.83594095951665, 40.541328098427655], [111.83594095951665, 40.54114843537083], [111.83558163340301, 40.54114843537083], [111.83558163340301, 40.540968772314], [111.83540197034618, 40.540968772314], [111.83540197034618, 40.54078910925718], [111.83468331811888, 40.54078910925718], [111.83468331811888, 40.540968772314], [111.83432399200524, 40.540968772314], [111.83432399200524, 40.54078910925718], [111.83468331811888, 40.54078910925718], [111.83468331811888, 40.54060944620036], [111.83450365506206, 40.54060944620036], [111.83450365506206, 40.540070457029884], [111.83468331811888, 40.540070457029884], [111.83468331811888, 40.53989079397306], [111.83504264423253, 40.53989079397306], [111.83504264423253, 40.540070457029884], [111.83558163340301, 40.540070457029884], [111.83558163340301, 40.53989079397306], [111.83540197034618, 40.53989079397306], [111.83540197034618, 40.53953146785941], [111.83522230728936, 40.53953146785941], [111.83522230728936, 40.53935180480259], [111.83540197034618, 40.53935180480259], [111.83540197034618, 40.539172141745766], [111.83612062257347, 40.539172141745766], [111.83612062257347, 40.53935180480259], [111.83647994868713, 40.53935180480259], [111.83647994868713, 40.539172141745766], [111.83683927480077, 40.539172141745766], [111.83683927480077, 40.53935180480259], [111.8370189378576, 40.53935180480259], [111.8370189378576, 40.53953146785941], [111.83719860091442, 40.53953146785941], [111.83719860091442, 40.540070457029884], [111.8370189378576, 40.540070457029884], [111.8370189378576, 40.54025012008671], [111.83683927480077, 40.54025012008671], [111.83683927480077, 40.54060944620036], [111.8370189378576, 40.54060944620036], [111.8370189378576, 40.54042978314353], [111.83719860091442, 40.54042978314353], [111.83719860091442, 40.54025012008671], [111.83773759008488, 40.54025012008671], [111.83773759008488, 40.54060944620036], [111.83755792702807, 40.54060944620036], [111.83755792702807, 40.54078910925718], [111.83737826397125, 40.54078910925718], [111.83737826397125, 40.541328098427655], [111.83719860091442, 40.541328098427655], [111.83719860091442, 40.541507761484475], [111.8370189378576, 40.541507761484475], [111.8370189378576, 40.54186708759812], [111.83683927480077, 40.54186708759812], [111.83683927480077, 40.542226413711774], [111.83665961174394, 40.542226413711774], [111.83665961174394, 40.54240607676859], [111.8370189378576, 40.54240607676859], [111.8370189378576, 40.542765402882246], [111.83665961174394, 40.542765402882246], [111.83665961174394, 40.54258573982542], [111.83647994868713, 40.54258573982542], [111.83647994868713, 40.542945065939065], [111.83594095951665, 40.542945065939065]], [[111.83665961174394, 40.53971113091624], [111.83647994868713, 40.53971113091624], [111.83647994868713, 40.53935180480259], [111.83665961174394, 40.53935180480259], [111.83665961174394, 40.53971113091624]], [[111.8348629811757, 40.54042978314353], [111.83468331811888, 40.54042978314353], [111.83468331811888, 40.540070457029884], [111.8348629811757, 40.540070457029884], [111.8348629811757, 40.54042978314353]], [[111.83558163340301, 40.54060944620036], [111.83522230728936, 40.54060944620036], [111.83522230728936, 40.54042978314353], [111.83558163340301, 40.54042978314353], [111.83558163340301, 40.54060944620036]], [[111.8363002856303, 40.54060944620036], [111.83612062257347, 40.54060944620036], [111.83612062257347, 40.54042978314353], [111.8363002856303, 40.54042978314353], [111.8363002856303, 40.54060944620036]], [[111.83683927480077, 40.540968772314], [111.83612062257347, 40.540968772314], [111.83612062257347, 40.54078910925718], [111.83665961174394, 40.54078910925718], [111.83665961174394, 40.54060944620036], [111.83683927480077, 40.54060944620036], [111.83683927480077, 40.540968772314]], [[111.83719860091442, 40.540968772314], [111.8370189378576, 40.540968772314], [111.8370189378576, 40.54078910925718], [111.83719860091442, 40.54078910925718], [111.83719860091442, 40.540968772314]], [[111.83665961174394, 40.541507761484475], [111.8363002856303, 40.541507761484475], [111.8363002856303, 40.541328098427655], [111.83665961174394, 40.541328098427655], [111.83665961174394, 40.541507761484475]]]}, "properties": {"name": "structure", "ptype": "hall", "confidence": "low", "site_id": "cn_horinger_r20", "note": "Radar-detected new structure 7.5 ha, VV rise 8.5 dB 2021-2026, hall-like score 0.87; unconfirmed, operator unknown.", "digitised_from": "Sentinel-1 candidate scan horinger rank 20; outline is the 20 m radar blob"}}]}