{"type": "FeatureCollection", "features": [{"type": "Feature", "geometry": {"geodesic": false, "type": "Polygon", "coordinates": [[[111.82228656719803, 40.56468429581476], [111.82228656719803, 40.56450463275794], [111.82210690414121, 40.56450463275794], [111.82210690414121, 40.56432496970111], [111.82156791497074, 40.56432496970111], [111.82156791497074, 40.564145306644285], [111.82138825191392, 40.564145306644285], [111.82138825191392, 40.56306732830335], [111.82174757802757, 40.56306732830335], [111.82174757802757, 40.56288766524652], [111.82192724108438, 40.56288766524652], [111.82192724108438, 40.562528339132875], [111.82228656719803, 40.562528339132875], [111.82228656719803, 40.56234867607605], [111.82246623025486, 40.56234867607605], [111.82246623025486, 40.56216901301922], [111.82264589331169, 40.56216901301922], [111.82264589331169, 40.56234867607605], [111.82300521942533, 40.56234867607605], [111.82300521942533, 40.562528339132875], [111.82372387165263, 40.562528339132875], [111.82372387165263, 40.562708002189694], [111.82408319776627, 40.562708002189694], [111.82408319776627, 40.56324699136017], [111.82390353470944, 40.56324699136017], [111.82390353470944, 40.56360631747382], [111.82372387165263, 40.56360631747382], [111.82372387165263, 40.56378598053064], [111.8235442085958, 40.56378598053064], [111.8235442085958, 40.56342665441699], [111.82336454553898, 40.56342665441699], [111.82336454553898, 40.56378598053064], [111.82318488248215, 40.56378598053064], [111.82318488248215, 40.563965643587466], [111.8228255563685, 40.563965643587466], [111.8228255563685, 40.564145306644285], [111.82318488248215, 40.564145306644285], [111.82318488248215, 40.56450463275794], [111.82300521942533, 40.56450463275794], [111.82300521942533, 40.56468429581476], [111.82228656719803, 40.56468429581476]], [[111.82336454553898, 40.56288766524652], [111.82318488248215, 40.56288766524652], [111.82318488248215, 40.562708002189694], [111.82336454553898, 40.562708002189694], [111.82336454553898, 40.56288766524652]], [[111.8228255563685, 40.56306732830335], [111.82246623025486, 40.56306732830335], [111.82246623025486, 40.56288766524652], [111.8228255563685, 40.56288766524652], [111.8228255563685, 40.56306732830335]], [[111.82246623025486, 40.563965643587466], [111.82210690414121, 40.563965643587466], [111.82210690414121, 40.56360631747382], [111.82228656719803, 40.56360631747382], [111.82228656719803, 40.56378598053064], [111.82246623025486, 40.56378598053064], [111.82246623025486, 40.563965643587466]], [[111.8228255563685, 40.56432496970111], [111.82264589331169, 40.56432496970111], [111.82264589331169, 40.564145306644285], [111.8228255563685, 40.564145306644285], [111.8228255563685, 40.56432496970111]]]}, "properties": {"name": "structure", "ptype": "hall", "confidence": "low", "site_id": "cn_horinger_r27", "note": "Radar-detected new structure 5.0 ha, VV rise 10.3 dB 2021-2026, hall-like score 0.95; unconfirmed, operator unknown.", "digitised_from": "Sentinel-1 candidate scan horinger rank 27; outline is the 20 m radar blob"}}]}