{"type": "FeatureCollection", "features": [{"type": "Feature", "geometry": {"geodesic": false, "type": "Polygon", "coordinates": [[[111.7371262782635, 40.531266967245514], [111.7371262782635, 40.53108730418869], [111.73694661520668, 40.53108730418869], [111.73694661520668, 40.53072797807504], [111.73640762603621, 40.53072797807504], [111.73640762603621, 40.530548315018216], [111.73622796297938, 40.530548315018216], [111.73622796297938, 40.53072797807504], [111.73514998463844, 40.53072797807504], [111.73514998463844, 40.530548315018216], [111.73479065852479, 40.530548315018216], [111.73479065852479, 40.530368651961396], [111.73461099546797, 40.530368651961396], [111.73461099546797, 40.53000932584774], [111.73479065852479, 40.53000932584774], [111.73479065852479, 40.53018898890457], [111.73532964769527, 40.53018898890457], [111.73532964769527, 40.529829662790924], [111.73497032158161, 40.529829662790924], [111.73497032158161, 40.5296499997341], [111.73479065852479, 40.5296499997341], [111.73479065852479, 40.52947033667728], [111.73461099546797, 40.52947033667728], [111.73461099546797, 40.52929067362045], [111.73479065852479, 40.52929067362045], [111.73479065852479, 40.528931347506806], [111.73497032158161, 40.528931347506806], [111.73497032158161, 40.52875168444998], [111.73514998463844, 40.52875168444998], [111.73514998463844, 40.52857202139315], [111.73532964769527, 40.52857202139315], [111.73532964769527, 40.52875168444998], [111.7355093107521, 40.52875168444998], [111.7355093107521, 40.528931347506806], [111.73568897380892, 40.528931347506806], [111.73568897380892, 40.52875168444998], [111.73604829992256, 40.52875168444998], [111.73604829992256, 40.528931347506806], [111.73622796297938, 40.528931347506806], [111.73622796297938, 40.52929067362045], [111.73640762603621, 40.52929067362045], [111.73640762603621, 40.52947033667728], [111.73676695214985, 40.52947033667728], [111.73676695214985, 40.52929067362045], [111.7371262782635, 40.52929067362045], [111.7371262782635, 40.52947033667728], [111.73730594132033, 40.52947033667728], [111.73730594132033, 40.53000932584774], [111.7371262782635, 40.53000932584774], [111.7371262782635, 40.530548315018216], [111.73694661520668, 40.530548315018216], [111.73694661520668, 40.53072797807504], [111.73766526743398, 40.53072797807504], [111.73766526743398, 40.53108730418869], [111.73748560437716, 40.53108730418869], [111.73748560437716, 40.531266967245514], [111.7371262782635, 40.531266967245514]], [[111.7355093107521, 40.52947033667728], [111.73514998463844, 40.52947033667728], [111.73514998463844, 40.529111010563625], [111.73532964769527, 40.529111010563625], [111.73532964769527, 40.528931347506806], [111.7355093107521, 40.528931347506806], [111.7355093107521, 40.52947033667728]]]}, "properties": {"name": "structure", "ptype": "hall", "confidence": "low", "site_id": "cn_horinger_r26", "note": "Radar-detected new structure 5.0 ha, VV rise 11.6 dB 2021-2026, hall-like score 0.90; unconfirmed, operator unknown.", "digitised_from": "Sentinel-1 candidate scan horinger rank 26; outline is the 20 m radar blob"}}]}