{"type": "FeatureCollection", "features": [{"type": "Feature", "geometry": {"geodesic": false, "type": "Polygon", "coordinates": [[[111.84743939515339, 40.57312845948548], [111.84743939515339, 40.57294879642866], [111.84708006903973, 40.57294879642866], [111.84708006903973, 40.572769133371835], [111.84690040598291, 40.572769133371835], [111.84690040598291, 40.57258947031501], [111.84672074292608, 40.57258947031501], [111.84672074292608, 40.57223014420136], [111.84618175375562, 40.57223014420136], [111.84618175375562, 40.57205048114454], [111.84600209069879, 40.57205048114454], [111.84600209069879, 40.57169115503089], [111.84636141681244, 40.57169115503089], [111.84636141681244, 40.57151149197407], [111.84600209069879, 40.57151149197407], [111.84600209069879, 40.57115216586042], [111.84672074292608, 40.57115216586042], [111.84672074292608, 40.57079283974677], [111.84690040598291, 40.57079283974677], [111.84690040598291, 40.570613176689946], [111.84708006903973, 40.570613176689946], [111.84708006903973, 40.5702538505763], [111.8476190582102, 40.5702538505763], [111.8476190582102, 40.57043351363313], [111.84851737349432, 40.57043351363313], [111.84851737349432, 40.570613176689946], [111.84869703655114, 40.570613176689946], [111.84869703655114, 40.57079283974677], [111.84851737349432, 40.57079283974677], [111.84851737349432, 40.5709725028036], [111.8490563626648, 40.5709725028036], [111.8490563626648, 40.57115216586042], [111.84887669960797, 40.57115216586042], [111.84887669960797, 40.571331828917245], [111.84869703655114, 40.571331828917245], [111.84869703655114, 40.57151149197407], [111.84887669960797, 40.57151149197407], [111.84887669960797, 40.57169115503089], [111.84869703655114, 40.57169115503089], [111.84869703655114, 40.57187081808772], [111.84815804738068, 40.57187081808772], [111.84815804738068, 40.57169115503089], [111.84797838432385, 40.57169115503089], [111.84797838432385, 40.57187081808772], [111.84779872126703, 40.57187081808772], [111.84779872126703, 40.57205048114454], [111.8476190582102, 40.57205048114454], [111.8476190582102, 40.57240980725819], [111.84797838432385, 40.57240980725819], [111.84797838432385, 40.57258947031501], [111.84815804738068, 40.57258947031501], [111.84815804738068, 40.57312845948548], [111.84743939515339, 40.57312845948548]], [[111.84743939515339, 40.571331828917245], [111.84725973209656, 40.571331828917245], [111.84725973209656, 40.5709725028036], [111.84779872126703, 40.5709725028036], [111.84779872126703, 40.57115216586042], [111.84743939515339, 40.57115216586042], [111.84743939515339, 40.571331828917245]], [[111.84851737349432, 40.57151149197407], [111.8483377104375, 40.57151149197407], [111.8483377104375, 40.571331828917245], [111.84815804738068, 40.571331828917245], [111.84815804738068, 40.57115216586042], [111.84851737349432, 40.57115216586042], [111.84851737349432, 40.57151149197407]], [[111.84725973209656, 40.57169115503089], [111.84708006903973, 40.57169115503089], [111.84708006903973, 40.57151149197407], [111.84725973209656, 40.57151149197407], [111.84725973209656, 40.57169115503089]], [[111.84708006903973, 40.57187081808772], [111.84690040598291, 40.57187081808772], [111.84690040598291, 40.57169115503089], [111.84708006903973, 40.57169115503089], [111.84708006903973, 40.57187081808772]], [[111.8476190582102, 40.57205048114454], [111.84743939515339, 40.57205048114454], [111.84743939515339, 40.57187081808772], [111.8476190582102, 40.57187081808772], [111.8476190582102, 40.57205048114454]]]}, "properties": {"name": "structure", "ptype": "hall", "confidence": "low", "site_id": "cn_horinger_r24", "note": "Radar-detected new structure 5.6 ha, VV rise 11.0 dB 2021-2026, hall-like score 0.90; unconfirmed, operator unknown.", "digitised_from": "Sentinel-1 candidate scan horinger rank 24; outline is the 20 m radar blob"}}]}