{"type": "FeatureCollection", "features": [{"type": "Feature", "geometry": {"geodesic": false, "type": "Polygon", "coordinates": [[[111.84204950344866, 40.54240607676859], [111.84204950344866, 40.542226413711774], [111.84186984039184, 40.542226413711774], [111.84186984039184, 40.54186708759812], [111.84169017733501, 40.54186708759812], [111.84169017733501, 40.54204675065495], [111.84115118816455, 40.54204675065495], [111.84115118816455, 40.54186708759812], [111.84061219899407, 40.54186708759812], [111.84061219899407, 40.54204675065495], [111.84043253593725, 40.54204675065495], [111.84043253593725, 40.542226413711774], [111.84025287288043, 40.542226413711774], [111.84025287288043, 40.54186708759812], [111.8400732098236, 40.54186708759812], [111.8400732098236, 40.5416874245413], [111.83935455759631, 40.5416874245413], [111.83935455759631, 40.541507761484475], [111.838635905369, 40.541507761484475], [111.838635905369, 40.541328098427655], [111.83827657925536, 40.541328098427655], [111.83827657925536, 40.540968772314], [111.83845624231219, 40.540968772314], [111.83845624231219, 40.54025012008671], [111.83881556842583, 40.54025012008671], [111.83881556842583, 40.540070457029884], [111.83899523148266, 40.540070457029884], [111.83899523148266, 40.53989079397306], [111.83971388370995, 40.53989079397306], [111.83971388370995, 40.54025012008671], [111.84061219899407, 40.54025012008671], [111.84061219899407, 40.54042978314353], [111.84097152510772, 40.54042978314353], [111.84097152510772, 40.54060944620036], [111.84115118816455, 40.54060944620036], [111.84115118816455, 40.540968772314], [111.84133085122137, 40.540968772314], [111.84133085122137, 40.541328098427655], [111.84169017733501, 40.541328098427655], [111.84169017733501, 40.5416874245413], [111.84222916650549, 40.5416874245413], [111.84222916650549, 40.541507761484475], [111.84258849261913, 40.541507761484475], [111.84258849261913, 40.54186708759812], [111.84240882956232, 40.54186708759812], [111.84240882956232, 40.54240607676859], [111.84204950344866, 40.54240607676859]]]}, "properties": {"name": "structure", "ptype": "hall", "confidence": "low", "site_id": "cn_horinger_r22", "note": "Radar-detected new structure 6.4 ha, VV rise 12.8 dB 2021-2026, hall-like score 0.70; unconfirmed, operator unknown.", "digitised_from": "Sentinel-1 candidate scan horinger rank 22; outline is the 20 m radar blob"}}]}