{"type": "FeatureCollection", "features": [{"type": "Feature", "geometry": {"geodesic": false, "type": "Polygon", "coordinates": [[[111.8558835588241, 40.55803676271228], [111.8558835588241, 40.55785709965545], [111.85534456965364, 40.55785709965545], [111.85534456965364, 40.55767743659863], [111.85516490659681, 40.55767743659863], [111.85516490659681, 40.557497773541805], [111.8542665913127, 40.557497773541805], [111.8542665913127, 40.55731811048498], [111.85408692825587, 40.55731811048498], [111.85408692825587, 40.55713844742816], [111.85390726519904, 40.55713844742816], [111.85390726519904, 40.55731811048498], [111.85354793908539, 40.55731811048498], [111.85354793908539, 40.55713844742816], [111.8528292868581, 40.55713844742816], [111.8528292868581, 40.556779121314506], [111.85229029768763, 40.556779121314506], [111.85229029768763, 40.55624013214403], [111.85246996074444, 40.55624013214403], [111.85246996074444, 40.556060469087214], [111.8528292868581, 40.556060469087214], [111.8528292868581, 40.55624013214403], [111.85264962380127, 40.55624013214403], [111.85264962380127, 40.556599458257686], [111.8528292868581, 40.556599458257686], [111.8528292868581, 40.556779121314506], [111.85300894991492, 40.556779121314506], [111.85300894991492, 40.556599458257686], [111.85318861297175, 40.556599458257686], [111.85318861297175, 40.556779121314506], [111.85354793908539, 40.556779121314506], [111.85354793908539, 40.55695878437133], [111.85390726519904, 40.55695878437133], [111.85390726519904, 40.556599458257686], [111.85408692825587, 40.556599458257686], [111.85408692825587, 40.55641979520086], [111.85372760214221, 40.55641979520086], [111.85372760214221, 40.55624013214403], [111.85354793908539, 40.55624013214403], [111.85354793908539, 40.55588080603039], [111.85336827602858, 40.55588080603039], [111.85336827602858, 40.55552147991674], [111.85354793908539, 40.55552147991674], [111.85354793908539, 40.55570114297357], [111.85372760214221, 40.55570114297357], [111.85372760214221, 40.555341816859915], [111.85318861297175, 40.555341816859915], [111.85318861297175, 40.55588080603039], [111.8528292868581, 40.55588080603039], [111.8528292868581, 40.55570114297357], [111.85264962380127, 40.55570114297357], [111.85264962380127, 40.55552147991674], [111.8528292868581, 40.55552147991674], [111.8528292868581, 40.555341816859915], [111.85318861297175, 40.555341816859915], [111.85318861297175, 40.555162153803096], [111.85300894991492, 40.555162153803096], [111.85300894991492, 40.55498249074627], [111.85336827602858, 40.55498249074627], [111.85336827602858, 40.55480282768944], [111.85318861297175, 40.55480282768944], [111.85318861297175, 40.55462316463262], [111.85354793908539, 40.55462316463262], [111.85354793908539, 40.553724849348505], [111.85372760214221, 40.553724849348505], [111.85372760214221, 40.55318586017803], [111.85390726519904, 40.55318586017803], [111.85390726519904, 40.553006197121206], [111.85408692825587, 40.553006197121206], [111.85408692825587, 40.55282653406438], [111.8542665913127, 40.55282653406438], [111.8542665913127, 40.55210788183709], [111.85480558048316, 40.55210788183709], [111.85480558048316, 40.552467207950734], [111.85516490659681, 40.552467207950734], [111.85516490659681, 40.55264687100756], [111.85606322188093, 40.55264687100756], [111.85606322188093, 40.55282653406438], [111.85624288493776, 40.55282653406438], [111.85624288493776, 40.55318586017803], [111.85642254799457, 40.55318586017803], [111.85642254799457, 40.55354518629168], [111.8566022110514, 40.55354518629168], [111.8566022110514, 40.553904512405325], [111.85642254799457, 40.553904512405325], [111.85642254799457, 40.55408417546215], [111.8566022110514, 40.55408417546215], [111.8566022110514, 40.55426383851897], [111.85678187410822, 40.55426383851897], [111.85678187410822, 40.55408417546215], [111.8573208632787, 40.55408417546215], [111.8573208632787, 40.55462316463262], [111.85768018939234, 40.55462316463262], [111.85768018939234, 40.5544435015758], [111.85750052633551, 40.5544435015758], [111.85750052633551, 40.55426383851897], [111.858039515506, 40.55426383851897], [111.858039515506, 40.55462316463262], [111.85821917856282, 40.55462316463262], [111.85821917856282, 40.55480282768944], [111.85857850467646, 40.55480282768944], [111.85857850467646, 40.555162153803096], [111.85893783079011, 40.555162153803096], [111.85893783079011, 40.555341816859915], [111.85929715690376, 40.555341816859915], [111.85929715690376, 40.55570114297357], [111.85947681996058, 40.55570114297357], [111.85947681996058, 40.55624013214403], [111.85929715690376, 40.55624013214403], [111.85929715690376, 40.55641979520086], [111.85839884161963, 40.55641979520086], [111.85839884161963, 40.55695878437133], [111.85768018939234, 40.55695878437133], [111.85768018939234, 40.55713844742816], [111.85750052633551, 40.55713844742816], [111.85750052633551, 40.55767743659863], [111.8573208632787, 40.55767743659863], [111.8573208632787, 40.557497773541805], [111.85714120022188, 40.557497773541805], [111.85714120022188, 40.55713844742816], [111.8566022110514, 40.55713844742816], [111.8566022110514, 40.55695878437133], [111.85642254799457, 40.55695878437133], [111.85642254799457, 40.556779121314506], [111.8558835588241, 40.556779121314506], [111.8558835588241, 40.556599458257686], [111.85534456965364, 40.556599458257686], [111.85534456965364, 40.55641979520086], [111.85516490659681, 40.55641979520086], [111.85516490659681, 40.55624013214403], [111.8558835588241, 40.55624013214403], [111.8558835588241, 40.55641979520086], [111.85624288493776, 40.55641979520086], [111.85624288493776, 40.55624013214403], [111.85642254799457, 40.55624013214403], [111.85642254799457, 40.556060469087214], [111.85678187410822, 40.556060469087214], [111.85678187410822, 40.55641979520086], [111.85642254799457, 40.55641979520086], [111.85642254799457, 40.556599458257686], [111.85714120022188, 40.556599458257686], [111.85714120022188, 40.556779121314506], [111.8573208632787, 40.556779121314506], [111.8573208632787, 40.556599458257686], [111.85750052633551, 40.556599458257686], [111.85750052633551, 40.55641979520086], [111.8573208632787, 40.55641979520086], [111.8573208632787, 40.55624013214403], [111.85714120022188, 40.55624013214403], [111.85714120022188, 40.55552147991674], [111.8573208632787, 40.55552147991674], [111.8573208632787, 40.555341816859915], [111.85750052633551, 40.555341816859915], [111.85750052633551, 40.55552147991674], [111.85768018939234, 40.55552147991674], [111.85768018939234, 40.555162153803096], [111.85750052633551, 40.555162153803096], [111.85750052633551, 40.55498249074627], [111.85714120022188, 40.55498249074627], [111.85714120022188, 40.55480282768944], [111.85696153716505, 40.55480282768944], [111.85696153716505, 40.55498249074627], [111.85678187410822, 40.55498249074627], [111.85678187410822, 40.55480282768944], [111.85624288493776, 40.55480282768944], [111.85624288493776, 40.55462316463262], [111.85606322188093, 40.55462316463262], [111.85606322188093, 40.5544435015758], [111.8558835588241, 40.5544435015758], [111.8558835588241, 40.55426383851897], [111.85570389576728, 40.55426383851897], [111.85570389576728, 40.5544435015758], [111.85516490659681, 40.5544435015758], [111.85516490659681, 40.55426383851897], [111.85462591742633, 40.55426383851897], [111.85462591742633, 40.55408417546215], [111.85480558048316, 40.55408417546215], [111.85480558048316, 40.553904512405325], [111.8544462543695, 40.553904512405325], [111.8544462543695, 40.55408417546215], [111.85408692825587, 40.55408417546215], [111.85408692825587, 40.5544435015758], [111.85372760214221, 40.5544435015758], [111.85372760214221, 40.55462316463262], [111.85354793908539, 40.55462316463262], [111.85354793908539, 40.55480282768944], [111.85498524353999, 40.55480282768944], [111.85498524353999, 40.555162153803096], [111.85516490659681, 40.555162153803096], [111.85516490659681, 40.555341816859915], [111.85570389576728, 40.555341816859915], [111.85570389576728, 40.55552147991674], [111.85606322188093, 40.55552147991674], [111.85606322188093, 40.55570114297357], [111.85624288493776, 40.55570114297357], [111.85624288493776, 40.556060469087214], [111.85570389576728, 40.556060469087214], [111.85570389576728, 40.55588080603039], [111.85480558048316, 40.55588080603039], [111.85480558048316, 40.556060469087214], [111.85498524353999, 40.556060469087214], [111.85498524353999, 40.556779121314506], [111.85516490659681, 40.556779121314506], [111.85516490659681, 40.55695878437133], [111.85534456965364, 40.55695878437133], [111.85534456965364, 40.55713844742816], [111.85552423271045, 40.55713844742816], [111.85552423271045, 40.55695878437133], [111.85570389576728, 40.55695878437133], [111.85570389576728, 40.55713844742816], [111.8558835588241, 40.55713844742816], [111.8558835588241, 40.55731811048498], [111.8566022110514, 40.55731811048498], [111.8566022110514, 40.557497773541805], [111.85678187410822, 40.557497773541805], [111.85678187410822, 40.55803676271228], [111.8558835588241, 40.55803676271228]], [[111.85462591742633, 40.556060469087214], [111.8544462543695, 40.556060469087214], [111.8544462543695, 40.55588080603039], [111.85462591742633, 40.55588080603039], [111.85462591742633, 40.556060469087214]], [[111.85839884161963, 40.55641979520086], [111.85768018939234, 40.55641979520086], [111.85768018939234, 40.556060469087214], [111.858039515506, 40.556060469087214], [111.858039515506, 40.55588080603039], [111.85821917856282, 40.55588080603039], [111.85821917856282, 40.556060469087214], [111.85857850467646, 40.556060469087214], [111.85857850467646, 40.55624013214403], [111.85839884161963, 40.55624013214403], [111.85839884161963, 40.55641979520086]]]}, "properties": {"name": "structure", "ptype": "hall", "confidence": "low", "site_id": "cn_horinger_r05", "note": "Radar-detected new structure 20.6 ha, VV rise 13.3 dB 2021-2026, hall-like score 0.77; unconfirmed, operator unknown.", "digitised_from": "Sentinel-1 candidate scan horinger rank 5; outline is the 20 m radar blob"}}]}