{"type": "FeatureCollection", "features": [{"type": "Feature", "geometry": {"geodesic": false, "type": "Polygon", "coordinates": [[[111.83737826397125, 40.54761630541649], [111.83737826397125, 40.547256979302844], [111.83665961174394, 40.547256979302844], [111.83665961174394, 40.54689765318919], [111.83647994868713, 40.54689765318919], [111.83647994868713, 40.54671799013237], [111.8363002856303, 40.54671799013237], [111.8363002856303, 40.546538327075545], [111.83612062257347, 40.546538327075545], [111.83612062257347, 40.5461790009619], [111.83647994868713, 40.5461790009619], [111.83647994868713, 40.54564001179143], [111.83612062257347, 40.54564001179143], [111.83612062257347, 40.54492135956413], [111.8363002856303, 40.54492135956413], [111.8363002856303, 40.54474169650731], [111.83665961174394, 40.54474169650731], [111.83665961174394, 40.54456203345048], [111.8370189378576, 40.54456203345048], [111.8370189378576, 40.544382370393656], [111.83683927480077, 40.544382370393656], [111.83683927480077, 40.54402304428001], [111.8370189378576, 40.54402304428001], [111.8370189378576, 40.543663718166364], [111.83719860091442, 40.543663718166364], [111.83719860091442, 40.54348405510954], [111.83791725314171, 40.54348405510954], [111.83791725314171, 40.543663718166364], [111.83845624231219, 40.543663718166364], [111.83845624231219, 40.54384338122318], [111.83917489453948, 40.54384338122318], [111.83917489453948, 40.54402304428001], [111.83935455759631, 40.54402304428001], [111.83935455759631, 40.54420270733684], [111.83971388370995, 40.54420270733684], [111.83971388370995, 40.54402304428001], [111.8400732098236, 40.54402304428001], [111.8400732098236, 40.54384338122318], [111.84043253593725, 40.54384338122318], [111.84043253593725, 40.54402304428001], [111.84061219899407, 40.54402304428001], [111.84061219899407, 40.54420270733684], [111.84079186205089, 40.54420270733684], [111.84079186205089, 40.54456203345048], [111.84061219899407, 40.54456203345048], [111.84061219899407, 40.54492135956413], [111.84043253593725, 40.54492135956413], [111.84043253593725, 40.545101022620955], [111.84025287288043, 40.545101022620955], [111.84025287288043, 40.54528068567778], [111.8400732098236, 40.54528068567778], [111.8400732098236, 40.54474169650731], [111.84025287288043, 40.54474169650731], [111.84025287288043, 40.544382370393656], [111.83989354676677, 40.544382370393656], [111.83989354676677, 40.54456203345048], [111.83971388370995, 40.54456203345048], [111.83971388370995, 40.54492135956413], [111.83899523148266, 40.54492135956413], [111.83899523148266, 40.54474169650731], [111.83881556842583, 40.54474169650731], [111.83881556842583, 40.54456203345048], [111.83809691619854, 40.54456203345048], [111.83809691619854, 40.54492135956413], [111.83791725314171, 40.54492135956413], [111.83791725314171, 40.545101022620955], [111.83773759008488, 40.545101022620955], [111.83773759008488, 40.54528068567778], [111.83755792702807, 40.54528068567778], [111.83755792702807, 40.54564001179143], [111.83773759008488, 40.54564001179143], [111.83773759008488, 40.54599933790507], [111.83827657925536, 40.54599933790507], [111.83827657925536, 40.54564001179143], [111.83845624231219, 40.54564001179143], [111.83845624231219, 40.5454603487346], [111.83917489453948, 40.5454603487346], [111.83917489453948, 40.54581967484825], [111.83953422065314, 40.54581967484825], [111.83953422065314, 40.54599933790507], [111.83971388370995, 40.54599933790507], [111.83971388370995, 40.546538327075545], [111.83953422065314, 40.546538327075545], [111.83953422065314, 40.54671799013237], [111.83917489453948, 40.54671799013237], [111.83917489453948, 40.546538327075545], [111.83899523148266, 40.546538327075545], [111.83899523148266, 40.54671799013237], [111.838635905369, 40.54671799013237], [111.838635905369, 40.547256979302844], [111.83845624231219, 40.547256979302844], [111.83845624231219, 40.54743664235966], [111.83827657925536, 40.54743664235966], [111.83827657925536, 40.54761630541649], [111.83737826397125, 40.54761630541649]], [[111.83935455759631, 40.54456203345048], [111.83899523148266, 40.54456203345048], [111.83899523148266, 40.544382370393656], [111.83935455759631, 40.544382370393656], [111.83935455759631, 40.54456203345048]], [[111.83791725314171, 40.547256979302844], [111.83737826397125, 40.547256979302844], [111.83737826397125, 40.54707731624602], [111.83773759008488, 40.54707731624602], [111.83773759008488, 40.54689765318919], [111.83791725314171, 40.54689765318919], [111.83791725314171, 40.547256979302844]]]}, "properties": {"name": "structure", "ptype": "hall", "confidence": "low", "site_id": "cn_horinger_r14", "note": "Radar-detected new structure 12.0 ha, VV rise 11.4 dB 2021-2026, hall-like score 0.83; unconfirmed, operator unknown.", "digitised_from": "Sentinel-1 candidate scan horinger rank 14; outline is the 20 m radar blob"}}]}