{"type": "FeatureCollection", "features": [{"type": "Feature", "geometry": {"geodesic": false, "type": "Polygon", "coordinates": [[[111.83953422065314, 40.556060469087214], [111.83953422065314, 40.55570114297357], [111.83881556842583, 40.55570114297357], [111.83881556842583, 40.55552147991674], [111.838635905369, 40.55552147991674], [111.838635905369, 40.555341816859915], [111.83773759008488, 40.555341816859915], [111.83773759008488, 40.55552147991674], [111.83755792702807, 40.55552147991674], [111.83755792702807, 40.555162153803096], [111.83737826397125, 40.555162153803096], [111.83737826397125, 40.55498249074627], [111.83719860091442, 40.55498249074627], [111.83719860091442, 40.55480282768944], [111.83737826397125, 40.55480282768944], [111.83737826397125, 40.5544435015758], [111.83683927480077, 40.5544435015758], [111.83683927480077, 40.55426383851897], [111.83665961174394, 40.55426383851897], [111.83665961174394, 40.553904512405325], [111.83683927480077, 40.553904512405325], [111.83683927480077, 40.553724849348505], [111.8370189378576, 40.553724849348505], [111.8370189378576, 40.55336552323485], [111.83737826397125, 40.55336552323485], [111.83737826397125, 40.55318586017803], [111.83773759008488, 40.55318586017803], [111.83773759008488, 40.553006197121206], [111.83809691619854, 40.553006197121206], [111.83809691619854, 40.55264687100756], [111.83827657925536, 40.55264687100756], [111.83827657925536, 40.552467207950734], [111.83845624231219, 40.552467207950734], [111.83845624231219, 40.55354518629168], [111.83917489453948, 40.55354518629168], [111.83917489453948, 40.553724849348505], [111.83935455759631, 40.553724849348505], [111.83935455759631, 40.55408417546215], [111.83971388370995, 40.55408417546215], [111.83971388370995, 40.553904512405325], [111.83989354676677, 40.553904512405325], [111.83989354676677, 40.55408417546215], [111.8400732098236, 40.55408417546215], [111.8400732098236, 40.553904512405325], [111.84043253593725, 40.553904512405325], [111.84043253593725, 40.55408417546215], [111.84061219899407, 40.55408417546215], [111.84061219899407, 40.5544435015758], [111.84043253593725, 40.5544435015758], [111.84043253593725, 40.55462316463262], [111.8400732098236, 40.55462316463262], [111.8400732098236, 40.55480282768944], [111.83989354676677, 40.55480282768944], [111.83989354676677, 40.555162153803096], [111.83971388370995, 40.555162153803096], [111.83971388370995, 40.555341816859915], [111.83989354676677, 40.555341816859915], [111.83989354676677, 40.55570114297357], [111.83971388370995, 40.55570114297357], [111.83971388370995, 40.556060469087214], [111.83953422065314, 40.556060469087214]], [[111.83755792702807, 40.55408417546215], [111.8370189378576, 40.55408417546215], [111.8370189378576, 40.553904512405325], [111.83719860091442, 40.553904512405325], [111.83719860091442, 40.553724849348505], [111.83737826397125, 40.553724849348505], [111.83737826397125, 40.553904512405325], [111.83755792702807, 40.553904512405325], [111.83755792702807, 40.55408417546215]], [[111.83953422065314, 40.55480282768944], [111.83899523148266, 40.55480282768944], [111.83899523148266, 40.55462316463262], [111.83881556842583, 40.55462316463262], [111.83881556842583, 40.5544435015758], [111.83935455759631, 40.5544435015758], [111.83935455759631, 40.55462316463262], [111.83953422065314, 40.55462316463262], [111.83953422065314, 40.55480282768944]]]}, "properties": {"name": "structure", "ptype": "hall", "confidence": "low", "site_id": "cn_horinger_r19", "note": "Radar-detected new structure 7.6 ha, VV rise 11.1 dB 2021-2026, hall-like score 0.89; unconfirmed, operator unknown.", "digitised_from": "Sentinel-1 candidate scan horinger rank 19; outline is the 20 m radar blob"}}]}