{"type": "FeatureCollection", "features": [{"type": "Feature", "geometry": {"geodesic": false, "type": "Polygon", "coordinates": [[[111.85103265628986, 40.58822015625869], [111.85103265628986, 40.588040493201866], [111.8506733301762, 40.588040493201866], [111.8506733301762, 40.58786083014505], [111.84995467794892, 40.58786083014505], [111.84995467794892, 40.58768116708822], [111.84941568877845, 40.58768116708822], [111.84941568877845, 40.587501504031394], [111.8490563626648, 40.587501504031394], [111.8490563626648, 40.58714217791775], [111.84887669960797, 40.58714217791775], [111.84887669960797, 40.587501504031394], [111.84869703655114, 40.587501504031394], [111.84869703655114, 40.58714217791775], [111.84887669960797, 40.58714217791775], [111.84887669960797, 40.58696251486092], [111.84851737349432, 40.58696251486092], [111.84851737349432, 40.5867828518041], [111.84869703655114, 40.5867828518041], [111.84869703655114, 40.58642352569045], [111.84887669960797, 40.58642352569045], [111.84887669960797, 40.58624386263363], [111.8483377104375, 40.58624386263363], [111.8483377104375, 40.5860641995768], [111.84797838432385, 40.5860641995768], [111.84797838432385, 40.585884536519984], [111.84708006903973, 40.585884536519984], [111.84708006903973, 40.5860641995768], [111.84690040598291, 40.5860641995768], [111.84690040598291, 40.58642352569045], [111.84672074292608, 40.58642352569045], [111.84672074292608, 40.586603188747276], [111.84708006903973, 40.586603188747276], [111.84708006903973, 40.58624386263363], [111.84725973209656, 40.58624386263363], [111.84725973209656, 40.5860641995768], [111.84743939515339, 40.5860641995768], [111.84743939515339, 40.58642352569045], [111.84725973209656, 40.58642352569045], [111.84725973209656, 40.586603188747276], [111.84708006903973, 40.586603188747276], [111.84708006903973, 40.5867828518041], [111.84672074292608, 40.5867828518041], [111.84672074292608, 40.586603188747276], [111.84654107986925, 40.586603188747276], [111.84654107986925, 40.58624386263363], [111.84636141681244, 40.58624386263363], [111.84636141681244, 40.586603188747276], [111.84618175375562, 40.586603188747276], [111.84618175375562, 40.58642352569045], [111.84582242764196, 40.58642352569045], [111.84582242764196, 40.58624386263363], [111.84456478624419, 40.58624386263363], [111.84456478624419, 40.5860641995768], [111.84420546013055, 40.5860641995768], [111.84420546013055, 40.585884536519984], [111.84366647096007, 40.585884536519984], [111.84366647096007, 40.5860641995768], [111.84348680790326, 40.5860641995768], [111.84348680790326, 40.58570487346316], [111.84330714484643, 40.58570487346316], [111.84330714484643, 40.58552521040633], [111.84312748178961, 40.58552521040633], [111.84312748178961, 40.58534554734951], [111.84294781873278, 40.58534554734951], [111.84294781873278, 40.58498622123586], [111.84330714484643, 40.58498622123586], [111.84330714484643, 40.58480655817904], [111.84366647096007, 40.58480655817904], [111.84366647096007, 40.58462689512221], [111.84348680790326, 40.58462689512221], [111.84348680790326, 40.58426756900857], [111.84366647096007, 40.58426756900857], [111.84366647096007, 40.58408790595174], [111.8438461340169, 40.58408790595174], [111.8438461340169, 40.58390824289492], [111.84420546013055, 40.58390824289492], [111.84420546013055, 40.583728579838095], [111.84402579707373, 40.583728579838095], [111.84402579707373, 40.58336925372445], [111.8438461340169, 40.58336925372445], [111.8438461340169, 40.58318959066762], [111.84402579707373, 40.58318959066762], [111.84402579707373, 40.583009927610796], [111.84420546013055, 40.583009927610796], [111.84420546013055, 40.58283026455398], [111.84438512318738, 40.58283026455398], [111.84438512318738, 40.58265060149715], [111.84474444930102, 40.58265060149715], [111.84474444930102, 40.58283026455398], [111.84492411235784, 40.58283026455398], [111.84492411235784, 40.58265060149715], [111.84510377541467, 40.58265060149715], [111.84510377541467, 40.58211161232668], [111.84564276458514, 40.58211161232668], [111.84564276458514, 40.58193194926986], [111.84546310152832, 40.58193194926986], [111.84546310152832, 40.58175228621303], [111.84492411235784, 40.58175228621303], [111.84492411235784, 40.58193194926986], [111.84456478624419, 40.58193194926986], [111.84456478624419, 40.58211161232668], [111.84420546013055, 40.58211161232668], [111.84420546013055, 40.58193194926986], [111.84402579707373, 40.58193194926986], [111.84402579707373, 40.58175228621303], [111.84366647096007, 40.58175228621303], [111.84366647096007, 40.581572623156205], [111.84348680790326, 40.581572623156205], [111.84348680790326, 40.58121329704256], [111.84366647096007, 40.58121329704256], [111.84366647096007, 40.58103363398573], [111.84348680790326, 40.58103363398573], [111.84348680790326, 40.580853970928914], [111.84330714484643, 40.580853970928914], [111.84330714484643, 40.58067430787209], [111.84312748178961, 40.58067430787209], [111.84312748178961, 40.58031498175844], [111.84330714484643, 40.58031498175844], [111.84330714484643, 40.58049464481526], [111.84348680790326, 40.58049464481526], [111.84348680790326, 40.580853970928914], [111.84366647096007, 40.580853970928914], [111.84366647096007, 40.58067430787209], [111.84438512318738, 40.58067430787209], [111.84438512318738, 40.58049464481526], [111.84456478624419, 40.58049464481526], [111.84456478624419, 40.58067430787209], [111.84546310152832, 40.58067430787209], [111.84546310152832, 40.58103363398573], [111.84492411235784, 40.58103363398573], [111.84492411235784, 40.580853970928914], [111.84420546013055, 40.580853970928914], [111.84420546013055, 40.58103363398573], [111.8438461340169, 40.58103363398573], [111.8438461340169, 40.58121329704256], [111.84402579707373, 40.58121329704256], [111.84402579707373, 40.581392960099386], [111.84420546013055, 40.581392960099386], [111.84420546013055, 40.58121329704256], [111.84456478624419, 40.58121329704256], [111.84456478624419, 40.581392960099386], [111.84510377541467, 40.581392960099386], [111.84510377541467, 40.581572623156205], [111.84546310152832, 40.581572623156205], [111.84546310152832, 40.581392960099386], [111.84618175375562, 40.581392960099386], [111.84618175375562, 40.581572623156205], [111.84600209069879, 40.581572623156205], [111.84600209069879, 40.58175228621303], [111.84618175375562, 40.58175228621303], [111.84618175375562, 40.58193194926986], [111.84636141681244, 40.58193194926986], [111.84636141681244, 40.58175228621303], [111.84654107986925, 40.58175228621303], [111.84654107986925, 40.58211161232668], [111.84672074292608, 40.58211161232668], [111.84672074292608, 40.58193194926986], [111.84690040598291, 40.58193194926986], [111.84690040598291, 40.581572623156205], [111.84708006903973, 40.581572623156205], [111.84708006903973, 40.581392960099386], [111.84690040598291, 40.581392960099386], [111.84690040598291, 40.58103363398573], [111.84708006903973, 40.58103363398573], [111.84708006903973, 40.58121329704256], [111.84725973209656, 40.58121329704256], [111.84725973209656, 40.581572623156205], [111.84743939515339, 40.581572623156205], [111.84743939515339, 40.58175228621303], [111.84779872126703, 40.58175228621303], [111.84779872126703, 40.581572623156205], [111.84869703655114, 40.581572623156205], [111.84869703655114, 40.58175228621303], [111.84887669960797, 40.58175228621303], [111.84887669960797, 40.582291275383504], [111.84941568877845, 40.582291275383504], [111.84941568877845, 40.58211161232668], [111.85013434100574, 40.58211161232668], [111.85013434100574, 40.58175228621303], [111.85031400406257, 40.58175228621303], [111.85031400406257, 40.58211161232668], [111.85013434100574, 40.58211161232668], [111.85013434100574, 40.58265060149715], [111.85031400406257, 40.58265060149715], [111.85031400406257, 40.58247093844032], [111.85049366711938, 40.58247093844032], [111.85049366711938, 40.58265060149715], [111.85085299323303, 40.58265060149715], [111.85085299323303, 40.58283026455398], [111.85121231934669, 40.58283026455398], [111.85121231934669, 40.583009927610796], [111.85139198240351, 40.583009927610796], [111.85139198240351, 40.58283026455398], [111.85175130851715, 40.58283026455398], [111.85175130851715, 40.583009927610796], [111.85193097157398, 40.583009927610796], [111.85193097157398, 40.58336925372445], [111.85175130851715, 40.58336925372445], [111.85175130851715, 40.583728579838095], [111.85157164546033, 40.583728579838095], [111.85157164546033, 40.58426756900857], [111.85139198240351, 40.58426756900857], [111.85139198240351, 40.584447232065386], [111.85121231934669, 40.584447232065386], [111.85121231934669, 40.58426756900857], [111.85103265628986, 40.58426756900857], [111.85103265628986, 40.58390824289492], [111.84977501489209, 40.58390824289492], [111.84977501489209, 40.58408790595174], [111.84959535183526, 40.58408790595174], [111.84959535183526, 40.58390824289492], [111.8490563626648, 40.58390824289492], [111.8490563626648, 40.58408790595174], [111.84923602572162, 40.58408790595174], [111.84923602572162, 40.584447232065386], [111.84941568877845, 40.584447232065386], [111.84941568877845, 40.58498622123586], [111.84923602572162, 40.58498622123586], [111.84923602572162, 40.58534554734951], [111.8490563626648, 40.58534554734951], [111.8490563626648, 40.58570487346316], [111.84887669960797, 40.58570487346316], [111.84887669960797, 40.5860641995768], [111.84923602572162, 40.5860641995768], [111.84923602572162, 40.585884536519984], [111.84959535183526, 40.585884536519984], [111.84959535183526, 40.5860641995768], [111.84941568877845, 40.5860641995768], [111.84941568877845, 40.58642352569045], [111.84959535183526, 40.58642352569045], [111.84959535183526, 40.586603188747276], [111.84977501489209, 40.586603188747276], [111.84977501489209, 40.58624386263363], [111.84995467794892, 40.58624386263363], [111.84995467794892, 40.586603188747276], [111.85013434100574, 40.586603188747276], [111.85013434100574, 40.5867828518041], [111.85031400406257, 40.5867828518041], [111.85031400406257, 40.586603188747276], [111.8506733301762, 40.586603188747276], [111.8506733301762, 40.5867828518041], [111.85085299323303, 40.5867828518041], [111.85085299323303, 40.586603188747276], [111.85121231934669, 40.586603188747276], [111.85121231934669, 40.5867828518041], [111.85175130851715, 40.5867828518041], [111.85175130851715, 40.58696251486092], [111.8521106346308, 40.58696251486092], [111.8521106346308, 40.5867828518041], [111.85229029768763, 40.5867828518041], [111.85229029768763, 40.587321840974575], [111.8521106346308, 40.587321840974575], [111.8521106346308, 40.587501504031394], [111.85193097157398, 40.587501504031394], [111.85193097157398, 40.587321840974575], [111.85175130851715, 40.587321840974575], [111.85175130851715, 40.58696251486092], [111.85157164546033, 40.58696251486092], [111.85157164546033, 40.58714217791775], [111.85139198240351, 40.58714217791775], [111.85139198240351, 40.58822015625869], [111.85103265628986, 40.58822015625869]], [[111.84725973209656, 40.58175228621303], [111.84708006903973, 40.58175228621303], [111.84708006903973, 40.581572623156205], [111.84725973209656, 40.581572623156205], [111.84725973209656, 40.58175228621303]], [[111.84815804738068, 40.582291275383504], [111.84797838432385, 40.582291275383504], [111.84797838432385, 40.58193194926986], [111.84815804738068, 40.58193194926986], [111.84815804738068, 40.582291275383504]], [[111.84582242764196, 40.58247093844032], [111.84564276458514, 40.58247093844032], [111.84564276458514, 40.582291275383504], [111.84582242764196, 40.582291275383504], [111.84582242764196, 40.58247093844032]], [[111.84743939515339, 40.58247093844032], [111.84725973209656, 40.58247093844032], [111.84725973209656, 40.582291275383504], [111.84743939515339, 40.582291275383504], [111.84743939515339, 40.58247093844032]], [[111.84869703655114, 40.58265060149715], [111.84851737349432, 40.58265060149715], [111.84851737349432, 40.58247093844032], [111.84869703655114, 40.58247093844032], [111.84869703655114, 40.58265060149715]], [[111.84564276458514, 40.58283026455398], [111.8452834384715, 40.58283026455398], [111.8452834384715, 40.58265060149715], [111.84546310152832, 40.58265060149715], [111.84546310152832, 40.58247093844032], [111.84564276458514, 40.58247093844032], [111.84564276458514, 40.58283026455398]], [[111.84600209069879, 40.583009927610796], [111.84564276458514, 40.583009927610796], [111.84564276458514, 40.58283026455398], [111.84600209069879, 40.58283026455398], [111.84600209069879, 40.583009927610796]], [[111.84743939515339, 40.583009927610796], [111.84725973209656, 40.583009927610796], [111.84725973209656, 40.58283026455398], [111.84708006903973, 40.58283026455398], [111.84708006903973, 40.58265060149715], [111.84690040598291, 40.58265060149715], [111.84690040598291, 40.58247093844032], [111.84725973209656, 40.58247093844032], [111.84725973209656, 40.58265060149715], [111.84743939515339, 40.58265060149715], [111.84743939515339, 40.583009927610796]], [[111.84743939515339, 40.58354891678127], [111.84725973209656, 40.58354891678127], [111.84725973209656, 40.58336925372445], [111.84743939515339, 40.58336925372445], [111.84743939515339, 40.58354891678127]], [[111.8483377104375, 40.58390824289492], [111.84815804738068, 40.58390824289492], [111.84815804738068, 40.583728579838095], [111.8476190582102, 40.583728579838095], [111.8476190582102, 40.58354891678127], [111.8483377104375, 40.58354891678127], [111.8483377104375, 40.58390824289492]], [[111.84887669960797, 40.58390824289492], [111.84851737349432, 40.58390824289492], [111.84851737349432, 40.583728579838095], [111.84887669960797, 40.583728579838095], [111.84887669960797, 40.58390824289492]], [[111.84690040598291, 40.58408790595174], [111.84654107986925, 40.58408790595174], [111.84654107986925, 40.58390824289492], [111.84672074292608, 40.58390824289492], [111.84672074292608, 40.58336925372445], [111.84618175375562, 40.58336925372445], [111.84618175375562, 40.583009927610796], [111.84672074292608, 40.583009927610796], [111.84672074292608, 40.58318959066762], [111.84725973209656, 40.58318959066762], [111.84725973209656, 40.58336925372445], [111.84708006903973, 40.58336925372445], [111.84708006903973, 40.583728579838095], [111.84690040598291, 40.583728579838095], [111.84690040598291, 40.58408790595174]], [[111.8483377104375, 40.584447232065386], [111.84815804738068, 40.584447232065386], [111.84815804738068, 40.58408790595174], [111.84851737349432, 40.58408790595174], [111.84851737349432, 40.58426756900857], [111.8483377104375, 40.58426756900857], [111.8483377104375, 40.584447232065386]], [[111.84654107986925, 40.58462689512221], [111.84636141681244, 40.58462689512221], [111.84636141681244, 40.584447232065386], [111.84654107986925, 40.584447232065386], [111.84654107986925, 40.58462689512221]], [[111.84636141681244, 40.58480655817904], [111.84618175375562, 40.58480655817904], [111.84618175375562, 40.58462689512221], [111.84636141681244, 40.58462689512221], [111.84636141681244, 40.58480655817904]], [[111.84797838432385, 40.58498622123586], [111.84779872126703, 40.58498622123586], [111.84779872126703, 40.58462689512221], [111.84797838432385, 40.58462689512221], [111.84797838432385, 40.584447232065386], [111.84815804738068, 40.584447232065386], [111.84815804738068, 40.58480655817904], [111.84797838432385, 40.58480655817904], [111.84797838432385, 40.58498622123586]], [[111.84618175375562, 40.585165884292685], [111.84600209069879, 40.585165884292685], [111.84600209069879, 40.58498622123586], [111.84618175375562, 40.58498622123586], [111.84618175375562, 40.585165884292685]], [[111.84779872126703, 40.58534554734951], [111.8476190582102, 40.58534554734951], [111.8476190582102, 40.58498622123586], [111.84779872126703, 40.58498622123586], [111.84779872126703, 40.58534554734951]], [[111.84618175375562, 40.58552521040633], [111.84600209069879, 40.58552521040633], [111.84600209069879, 40.58534554734951], [111.84618175375562, 40.58534554734951], [111.84618175375562, 40.58552521040633]], [[111.84582242764196, 40.5860641995768], [111.84546310152832, 40.5860641995768], [111.84546310152832, 40.585884536519984], [111.84564276458514, 40.585884536519984], [111.84564276458514, 40.58570487346316], [111.84582242764196, 40.58570487346316], [111.84582242764196, 40.58552521040633], [111.84600209069879, 40.58552521040633], [111.84600209069879, 40.585884536519984], [111.84582242764196, 40.585884536519984], [111.84582242764196, 40.5860641995768]]]}, "properties": {"name": "structure", "ptype": "hall", "confidence": "low", "site_id": "cn_horinger_r02", "note": "Radar-detected new structure 38.4 ha, VV rise 11.6 dB 2021-2026, hall-like score 0.90; unconfirmed, operator unknown.", "digitised_from": "Sentinel-1 candidate scan horinger rank 2; outline is the 20 m radar blob"}}]}