{"type": "FeatureCollection", "features": [{"type": "Feature", "geometry": {"geodesic": false, "type": "Polygon", "coordinates": [[[111.79713373924268, 40.535578880609286], [111.79713373924268, 40.53539921755247], [111.79731340229951, 40.53539921755247], [111.79731340229951, 40.53521955449564], [111.79749306535633, 40.53521955449564], [111.79749306535633, 40.535039891438814], [111.79695407618587, 40.535039891438814], [111.79695407618587, 40.534860228381994], [111.79659475007222, 40.534860228381994], [111.79659475007222, 40.53468056532517], [111.79587609784492, 40.53468056532517], [111.79587609784492, 40.53450090226834], [111.79551677173127, 40.53450090226834], [111.79551677173127, 40.53432123921152], [111.79533710867445, 40.53432123921152], [111.79533710867445, 40.53360258698422], [111.79551677173127, 40.53360258698422], [111.79551677173127, 40.533422923927404], [111.7956964347881, 40.533422923927404], [111.7956964347881, 40.53324326087058], [111.79605576090174, 40.53324326087058], [111.79605576090174, 40.533422923927404], [111.79623542395856, 40.533422923927404], [111.79623542395856, 40.53360258698422], [111.79677441312904, 40.53360258698422], [111.79677441312904, 40.53378225004105], [111.79695407618587, 40.53378225004105], [111.79695407618587, 40.534141576154695], [111.79677441312904, 40.534141576154695], [111.79677441312904, 40.53432123921152], [111.79731340229951, 40.53432123921152], [111.79731340229951, 40.53450090226834], [111.79767272841316, 40.53450090226834], [111.79767272841316, 40.53432123921152], [111.79749306535633, 40.53432123921152], [111.79749306535633, 40.534141576154695], [111.79713373924268, 40.534141576154695], [111.79713373924268, 40.53396191309787], [111.79731340229951, 40.53396191309787], [111.79731340229951, 40.53378225004105], [111.79713373924268, 40.53378225004105], [111.79713373924268, 40.53360258698422], [111.79731340229951, 40.53360258698422], [111.79731340229951, 40.53324326087058], [111.79659475007222, 40.53324326087058], [111.79659475007222, 40.53306359781375], [111.79587609784492, 40.53306359781375], [111.79587609784492, 40.53288393475693], [111.7956964347881, 40.53288393475693], [111.7956964347881, 40.53252460864328], [111.79587609784492, 40.53252460864328], [111.79587609784492, 40.53234494558646], [111.79623542395856, 40.53234494558646], [111.79623542395856, 40.53216528252963], [111.79641508701539, 40.53216528252963], [111.79641508701539, 40.531985619472806], [111.79659475007222, 40.531985619472806], [111.79659475007222, 40.53180595641599], [111.79641508701539, 40.53180595641599], [111.79641508701539, 40.531266967245514], [111.79659475007222, 40.531266967245514], [111.79659475007222, 40.53108730418869], [111.79695407618587, 40.53108730418869], [111.79695407618587, 40.531266967245514], [111.79731340229951, 40.531266967245514], [111.79731340229951, 40.53162629335916], [111.79713373924268, 40.53162629335916], [111.79713373924268, 40.53180595641599], [111.79749306535633, 40.53180595641599], [111.79749306535633, 40.53144663030234], [111.79767272841316, 40.53144663030234], [111.79767272841316, 40.53162629335916], [111.79785239146999, 40.53162629335916], [111.79785239146999, 40.531985619472806], [111.79767272841316, 40.531985619472806], [111.79767272841316, 40.53216528252963], [111.79749306535633, 40.53216528252963], [111.79749306535633, 40.53234494558646], [111.79767272841316, 40.53234494558646], [111.79767272841316, 40.532704271700105], [111.79785239146999, 40.532704271700105], [111.79785239146999, 40.53306359781375], [111.79857104369728, 40.53306359781375], [111.79857104369728, 40.53288393475693], [111.7987507067541, 40.53288393475693], [111.7987507067541, 40.532704271700105], [111.79893036981093, 40.532704271700105], [111.79893036981093, 40.53216528252963], [111.79911003286774, 40.53216528252963], [111.79911003286774, 40.531985619472806], [111.79964902203822, 40.531985619472806], [111.79964902203822, 40.53234494558646], [111.7994693589814, 40.53234494558646], [111.7994693589814, 40.53252460864328], [111.80000834815188, 40.53252460864328], [111.80000834815188, 40.53234494558646], [111.80036767426552, 40.53234494558646], [111.80036767426552, 40.53252460864328], [111.80018801120869, 40.53252460864328], [111.80018801120869, 40.532704271700105], [111.80036767426552, 40.532704271700105], [111.80036767426552, 40.53306359781375], [111.80018801120869, 40.53306359781375], [111.80018801120869, 40.53288393475693], [111.79982868509505, 40.53288393475693], [111.79982868509505, 40.53306359781375], [111.79964902203822, 40.53306359781375], [111.79964902203822, 40.53324326087058], [111.7994693589814, 40.53324326087058], [111.7994693589814, 40.533422923927404], [111.79964902203822, 40.533422923927404], [111.79964902203822, 40.53378225004105], [111.79982868509505, 40.53378225004105], [111.79982868509505, 40.53396191309787], [111.80000834815188, 40.53396191309787], [111.80000834815188, 40.534141576154695], [111.79982868509505, 40.534141576154695], [111.79982868509505, 40.53450090226834], [111.7994693589814, 40.53450090226834], [111.7994693589814, 40.53432123921152], [111.79928969592457, 40.53432123921152], [111.79928969592457, 40.534141576154695], [111.7994693589814, 40.534141576154695], [111.7994693589814, 40.53396191309787], [111.79911003286774, 40.53396191309787], [111.79911003286774, 40.53378225004105], [111.79839138064045, 40.53378225004105], [111.79839138064045, 40.53360258698422], [111.79821171758363, 40.53360258698422], [111.79821171758363, 40.533422923927404], [111.7980320545268, 40.533422923927404], [111.7980320545268, 40.53378225004105], [111.79785239146999, 40.53378225004105], [111.79785239146999, 40.53396191309787], [111.79839138064045, 40.53396191309787], [111.79839138064045, 40.534141576154695], [111.79857104369728, 40.534141576154695], [111.79857104369728, 40.53432123921152], [111.79911003286774, 40.53432123921152], [111.79911003286774, 40.53450090226834], [111.79928969592457, 40.53450090226834], [111.79928969592457, 40.53468056532517], [111.79911003286774, 40.53468056532517], [111.79911003286774, 40.534860228381994], [111.79893036981093, 40.534860228381994], [111.79893036981093, 40.53539921755247], [111.79785239146999, 40.53539921755247], [111.79785239146999, 40.53521955449564], [111.79749306535633, 40.53521955449564], [111.79749306535633, 40.535578880609286], [111.79713373924268, 40.535578880609286]], [[111.79623542395856, 40.534141576154695], [111.79587609784492, 40.534141576154695], [111.79587609784492, 40.53396191309787], [111.79623542395856, 40.53396191309787], [111.79623542395856, 40.534141576154695]], [[111.79695407618587, 40.53288393475693], [111.79659475007222, 40.53288393475693], [111.79659475007222, 40.532704271700105], [111.79677441312904, 40.532704271700105], [111.79677441312904, 40.53252460864328], [111.79695407618587, 40.53252460864328], [111.79695407618587, 40.53288393475693]], [[111.79749306535633, 40.53288393475693], [111.79713373924268, 40.53288393475693], [111.79713373924268, 40.532704271700105], [111.79749306535633, 40.532704271700105], [111.79749306535633, 40.53288393475693]]]}, "properties": {"name": "structure", "ptype": "hall", "confidence": "low", "site_id": "cn_horinger_r12", "note": "Radar-detected new structure 12.5 ha, VV rise 12.6 dB 2021-2026, hall-like score 0.59; unconfirmed, operator unknown.", "digitised_from": "Sentinel-1 candidate scan horinger rank 12; outline is the 20 m radar blob"}}]}