{"type": "FeatureCollection", "features": [{"type": "Feature", "geometry": {"geodesic": false, "type": "Polygon", "coordinates": [[[111.83001207864146, 40.553904512405325], [111.83001207864146, 40.553724849348505], [111.82983241558463, 40.553724849348505], [111.82983241558463, 40.55336552323485], [111.82965275252782, 40.55336552323485], [111.82965275252782, 40.55318586017803], [111.82857477418688, 40.55318586017803], [111.82857477418688, 40.553006197121206], [111.8280357850164, 40.553006197121206], [111.8280357850164, 40.55282653406438], [111.82767645890276, 40.55282653406438], [111.82767645890276, 40.553006197121206], [111.82749679584593, 40.553006197121206], [111.82749679584593, 40.55318586017803], [111.8273171327891, 40.55318586017803], [111.8273171327891, 40.55336552323485], [111.82695780667545, 40.55336552323485], [111.82695780667545, 40.553006197121206], [111.82713746973228, 40.553006197121206], [111.82713746973228, 40.55264687100756], [111.8273171327891, 40.55264687100756], [111.8273171327891, 40.55192821878026], [111.82749679584593, 40.55192821878026], [111.82749679584593, 40.551568892666616], [111.82767645890276, 40.551568892666616], [111.82767645890276, 40.55120956655297], [111.82785612195957, 40.55120956655297], [111.82785612195957, 40.55102990349614], [111.82695780667545, 40.55102990349614], [111.82695780667545, 40.55138922960979], [111.82713746973228, 40.55138922960979], [111.82713746973228, 40.551568892666616], [111.82659848056181, 40.551568892666616], [111.82659848056181, 40.55174855572344], [111.82641881750499, 40.55174855572344], [111.82641881750499, 40.55192821878026], [111.82623915444816, 40.55192821878026], [111.82623915444816, 40.55174855572344], [111.82605949139133, 40.55174855572344], [111.82605949139133, 40.55120956655297], [111.82623915444816, 40.55120956655297], [111.82623915444816, 40.55102990349614], [111.82641881750499, 40.55102990349614], [111.82641881750499, 40.5506705773825], [111.82623915444816, 40.5506705773825], [111.82623915444816, 40.550131588212025], [111.82659848056181, 40.550131588212025], [111.82659848056181, 40.5499519251552], [111.82677814361863, 40.5499519251552], [111.82677814361863, 40.550131588212025], [111.82695780667545, 40.550131588212025], [111.82695780667545, 40.550311251268845], [111.82677814361863, 40.550311251268845], [111.82677814361863, 40.55049091432567], [111.82695780667545, 40.55049091432567], [111.82695780667545, 40.5506705773825], [111.8273171327891, 40.5506705773825], [111.8273171327891, 40.55049091432567], [111.82749679584593, 40.55049091432567], [111.82749679584593, 40.550131588212025], [111.82767645890276, 40.550131588212025], [111.82767645890276, 40.5499519251552], [111.82785612195957, 40.5499519251552], [111.82785612195957, 40.550131588212025], [111.8280357850164, 40.550131588212025], [111.8280357850164, 40.55049091432567], [111.82785612195957, 40.55049091432567], [111.82785612195957, 40.55102990349614], [111.8280357850164, 40.55102990349614], [111.8280357850164, 40.55085024043932], [111.82821544807322, 40.55085024043932], [111.82821544807322, 40.55049091432567], [111.82839511113005, 40.55049091432567], [111.82839511113005, 40.550311251268845], [111.82857477418688, 40.550311251268845], [111.82857477418688, 40.550131588212025], [111.82911376335734, 40.550131588212025], [111.82911376335734, 40.55049091432567], [111.82875443724369, 40.55049091432567], [111.82875443724369, 40.5506705773825], [111.82893410030051, 40.5506705773825], [111.82893410030051, 40.55085024043932], [111.829473089471, 40.55085024043932], [111.829473089471, 40.55102990349614], [111.83001207864146, 40.55102990349614], [111.83001207864146, 40.551568892666616], [111.83037140475511, 40.551568892666616], [111.83037140475511, 40.55138922960979], [111.83055106781194, 40.55138922960979], [111.83055106781194, 40.551568892666616], [111.83091039392558, 40.551568892666616], [111.83091039392558, 40.55174855572344], [111.83126972003923, 40.55174855572344], [111.83126972003923, 40.55192821878026], [111.83162904615288, 40.55192821878026], [111.83162904615288, 40.55228754489391], [111.83144938309606, 40.55228754489391], [111.83144938309606, 40.55282653406438], [111.83126972003923, 40.55282653406438], [111.83126972003923, 40.553006197121206], [111.8310900569824, 40.553006197121206], [111.8310900569824, 40.55318586017803], [111.83091039392558, 40.55318586017803], [111.83091039392558, 40.55336552323485], [111.83073073086875, 40.55336552323485], [111.83073073086875, 40.55354518629168], [111.83037140475511, 40.55354518629168], [111.83037140475511, 40.553724849348505], [111.83019174169829, 40.553724849348505], [111.83019174169829, 40.553904512405325], [111.83001207864146, 40.553904512405325]], [[111.829473089471, 40.55228754489391], [111.82911376335734, 40.55228754489391], [111.82911376335734, 40.55210788183709], [111.82893410030051, 40.55210788183709], [111.82893410030051, 40.55192821878026], [111.82911376335734, 40.55192821878026], [111.82911376335734, 40.55138922960979], [111.82893410030051, 40.55138922960979], [111.82893410030051, 40.55120956655297], [111.82929342641417, 40.55120956655297], [111.82929342641417, 40.55138922960979], [111.829473089471, 40.55138922960979], [111.829473089471, 40.551568892666616], [111.83001207864146, 40.551568892666616], [111.83001207864146, 40.55174855572344], [111.82983241558463, 40.55174855572344], [111.82983241558463, 40.55192821878026], [111.82965275252782, 40.55192821878026], [111.82965275252782, 40.55210788183709], [111.829473089471, 40.55210788183709], [111.829473089471, 40.55228754489391]], [[111.83073073086875, 40.55336552323485], [111.83037140475511, 40.55336552323485], [111.83037140475511, 40.55318586017803], [111.83055106781194, 40.55318586017803], [111.83055106781194, 40.553006197121206], [111.83073073086875, 40.553006197121206], [111.83073073086875, 40.55336552323485]], [[111.83019174169829, 40.55354518629168], [111.83001207864146, 40.55354518629168], [111.83001207864146, 40.55336552323485], [111.83019174169829, 40.55336552323485], [111.83019174169829, 40.55354518629168]]]}, "properties": {"name": "structure", "ptype": "hall", "confidence": "low", "site_id": "cn_horinger_r13", "note": "Radar-detected new structure 12.4 ha, VV rise 9.2 dB 2021-2026, hall-like score 0.94; unconfirmed, operator unknown.", "digitised_from": "Sentinel-1 candidate scan horinger rank 13; outline is the 20 m radar blob"}}]}