{"type": "FeatureCollection", "features": [{"type": "Feature", "geometry": {"geodesic": false, "type": "Polygon", "coordinates": [[[111.82893410030051, 40.50323953038099], [111.82893410030051, 40.50305986732416], [111.82821544807322, 40.50305986732416], [111.82821544807322, 40.502880204267335], [111.82767645890276, 40.502880204267335], [111.82767645890276, 40.502700541210515], [111.8273171327891, 40.502700541210515], [111.8273171327891, 40.50252087815369], [111.82659848056181, 40.50252087815369], [111.82659848056181, 40.50234121509686], [111.82587982833451, 40.50234121509686], [111.82587982833451, 40.50216155204004], [111.82552050222087, 40.50216155204004], [111.82552050222087, 40.50198188898322], [111.82516117610722, 40.50198188898322], [111.82516117610722, 40.50162256286957], [111.82534083916404, 40.50162256286957], [111.82534083916404, 40.5010835736991], [111.8257001652777, 40.5010835736991], [111.8257001652777, 40.50090391064227], [111.82605949139133, 40.50090391064227], [111.82605949139133, 40.50018525841498], [111.82623915444816, 40.50018525841498], [111.82623915444816, 40.500005595358154], [111.82641881750499, 40.500005595358154], [111.82641881750499, 40.50018525841498], [111.82659848056181, 40.50018525841498], [111.82659848056181, 40.5003649214718], [111.8273171327891, 40.5003649214718], [111.8273171327891, 40.500544584528626], [111.8280357850164, 40.500544584528626], [111.8280357850164, 40.50072424758545], [111.82875443724369, 40.50072424758545], [111.82875443724369, 40.50090391064227], [111.82893410030051, 40.50090391064227], [111.82893410030051, 40.501263236755925], [111.82911376335734, 40.501263236755925], [111.82911376335734, 40.501442899812744], [111.829473089471, 40.501442899812744], [111.829473089471, 40.50180222592639], [111.82929342641417, 40.50180222592639], [111.82929342641417, 40.50198188898322], [111.82965275252782, 40.50198188898322], [111.82965275252782, 40.50216155204004], [111.82983241558463, 40.50216155204004], [111.82983241558463, 40.50252087815369], [111.82965275252782, 40.50252087815369], [111.82965275252782, 40.502880204267335], [111.829473089471, 40.502880204267335], [111.829473089471, 40.50305986732416], [111.82929342641417, 40.50305986732416], [111.82929342641417, 40.50323953038099], [111.82893410030051, 40.50323953038099]], [[111.82839511113005, 40.501263236755925], [111.8280357850164, 40.501263236755925], [111.8280357850164, 40.5010835736991], [111.82839511113005, 40.5010835736991], [111.82839511113005, 40.501263236755925]]]}, "properties": {"name": "structure", "ptype": "hall", "confidence": "low", "site_id": "cn_horinger_r17", "note": "Radar-detected new structure 10.4 ha, VV rise 14.1 dB 2021-2026, hall-like score 0.85; unconfirmed, operator unknown.", "digitised_from": "Sentinel-1 candidate scan horinger rank 17; outline is the 20 m radar blob"}}]}