{"type": "FeatureCollection", "features": [{"type": "Feature", "geometry": {"geodesic": false, "type": "Polygon", "coordinates": [[[111.80521857679976, 40.547256979302844], [111.80521857679976, 40.54707731624602], [111.8046795876293, 40.54707731624602], [111.8046795876293, 40.547256979302844], [111.80449992457247, 40.547256979302844], [111.80449992457247, 40.54707731624602], [111.8046795876293, 40.54707731624602], [111.8046795876293, 40.54689765318919], [111.80449992457247, 40.54689765318919], [111.80449992457247, 40.54635866401872], [111.8046795876293, 40.54635866401872], [111.8046795876293, 40.5461790009619], [111.80485925068612, 40.5461790009619], [111.80485925068612, 40.54581967484825], [111.80503891374293, 40.54581967484825], [111.80503891374293, 40.54564001179143], [111.80485925068612, 40.54564001179143], [111.80485925068612, 40.5454603487346], [111.80503891374293, 40.5454603487346], [111.80503891374293, 40.54528068567778], [111.80557790291341, 40.54528068567778], [111.80557790291341, 40.545101022620955], [111.80593722902707, 40.545101022620955], [111.80593722902707, 40.54528068567778], [111.80575756597024, 40.54528068567778], [111.80575756597024, 40.5454603487346], [111.80593722902707, 40.5454603487346], [111.80593722902707, 40.54564001179143], [111.80539823985659, 40.54564001179143], [111.80539823985659, 40.54581967484825], [111.80557790291341, 40.54581967484825], [111.80557790291341, 40.5461790009619], [111.80575756597024, 40.5461790009619], [111.80575756597024, 40.54581967484825], [111.80611689208388, 40.54581967484825], [111.80611689208388, 40.5454603487346], [111.8062965551407, 40.5454603487346], [111.8062965551407, 40.545101022620955], [111.80611689208388, 40.545101022620955], [111.80611689208388, 40.54492135956413], [111.80575756597024, 40.54492135956413], [111.80575756597024, 40.544382370393656], [111.80557790291341, 40.544382370393656], [111.80557790291341, 40.54420270733684], [111.80575756597024, 40.54420270733684], [111.80575756597024, 40.54402304428001], [111.80593722902707, 40.54402304428001], [111.80593722902707, 40.54420270733684], [111.80611689208388, 40.54420270733684], [111.80611689208388, 40.54402304428001], [111.80665588125436, 40.54402304428001], [111.80665588125436, 40.54420270733684], [111.80719487042482, 40.54420270733684], [111.80719487042482, 40.54402304428001], [111.80755419653848, 40.54402304428001], [111.80755419653848, 40.54384338122318], [111.8077338595953, 40.54384338122318], [111.8077338595953, 40.54402304428001], [111.80755419653848, 40.54402304428001], [111.80755419653848, 40.54420270733684], [111.8077338595953, 40.54420270733684], [111.8077338595953, 40.54456203345048], [111.807015207368, 40.54456203345048], [111.807015207368, 40.544382370393656], [111.80683554431118, 40.544382370393656], [111.80683554431118, 40.54456203345048], [111.80665588125436, 40.54456203345048], [111.80665588125436, 40.54474169650731], [111.8062965551407, 40.54474169650731], [111.8062965551407, 40.54492135956413], [111.80647621819753, 40.54492135956413], [111.80647621819753, 40.54528068567778], [111.80665588125436, 40.54528068567778], [111.80665588125436, 40.54564001179143], [111.807015207368, 40.54564001179143], [111.807015207368, 40.54599933790507], [111.80719487042482, 40.54599933790507], [111.80719487042482, 40.54581967484825], [111.8077338595953, 40.54581967484825], [111.8077338595953, 40.54564001179143], [111.80791352265213, 40.54564001179143], [111.80791352265213, 40.54581967484825], [111.80809318570894, 40.54581967484825], [111.80809318570894, 40.5454603487346], [111.80827284876577, 40.5454603487346], [111.80827284876577, 40.54492135956413], [111.8084525118226, 40.54492135956413], [111.8084525118226, 40.54474169650731], [111.80863217487942, 40.54474169650731], [111.80863217487942, 40.54492135956413], [111.80899150099306, 40.54492135956413], [111.80899150099306, 40.545101022620955], [111.80953049016354, 40.545101022620955], [111.80953049016354, 40.54456203345048], [111.80971015322037, 40.54456203345048], [111.80971015322037, 40.544382370393656], [111.810069479334, 40.544382370393656], [111.810069479334, 40.545101022620955], [111.80988981627719, 40.545101022620955], [111.80988981627719, 40.54528068567778], [111.80953049016354, 40.54528068567778], [111.80953049016354, 40.5454603487346], [111.80971015322037, 40.5454603487346], [111.80971015322037, 40.54581967484825], [111.80953049016354, 40.54581967484825], [111.80953049016354, 40.54564001179143], [111.80935082710671, 40.54564001179143], [111.80935082710671, 40.54581967484825], [111.80917116404989, 40.54581967484825], [111.80917116404989, 40.54599933790507], [111.80881183793625, 40.54599933790507], [111.80881183793625, 40.54564001179143], [111.8084525118226, 40.54564001179143], [111.8084525118226, 40.54581967484825], [111.80827284876577, 40.54581967484825], [111.80827284876577, 40.5461790009619], [111.80863217487942, 40.5461790009619], [111.80863217487942, 40.54635866401872], [111.80809318570894, 40.54635866401872], [111.80809318570894, 40.546538327075545], [111.80737453348165, 40.546538327075545], [111.80737453348165, 40.54689765318919], [111.80683554431118, 40.54689765318919], [111.80683554431118, 40.546538327075545], [111.80665588125436, 40.546538327075545], [111.80665588125436, 40.54671799013237], [111.80647621819753, 40.54671799013237], [111.80647621819753, 40.54689765318919], [111.80575756597024, 40.54689765318919], [111.80575756597024, 40.54707731624602], [111.80557790291341, 40.54707731624602], [111.80557790291341, 40.547256979302844], [111.80521857679976, 40.547256979302844]], [[111.80539823985659, 40.54599933790507], [111.80521857679976, 40.54599933790507], [111.80521857679976, 40.54581967484825], [111.80539823985659, 40.54581967484825], [111.80539823985659, 40.54599933790507]], [[111.80521857679976, 40.5461790009619], [111.80503891374293, 40.5461790009619], [111.80503891374293, 40.54599933790507], [111.80521857679976, 40.54599933790507], [111.80521857679976, 40.5461790009619]], [[111.80737453348165, 40.5461790009619], [111.80719487042482, 40.5461790009619], [111.80719487042482, 40.54599933790507], [111.80737453348165, 40.54599933790507], [111.80737453348165, 40.5461790009619]], [[111.80809318570894, 40.54635866401872], [111.8077338595953, 40.54635866401872], [111.8077338595953, 40.5461790009619], [111.80809318570894, 40.5461790009619], [111.80809318570894, 40.54635866401872]], [[111.807015207368, 40.546538327075545], [111.80683554431118, 40.546538327075545], [111.80683554431118, 40.54635866401872], [111.8062965551407, 40.54635866401872], [111.8062965551407, 40.5461790009619], [111.80611689208388, 40.5461790009619], [111.80611689208388, 40.54581967484825], [111.80683554431118, 40.54581967484825], [111.80683554431118, 40.54599933790507], [111.80665588125436, 40.54599933790507], [111.80665588125436, 40.5461790009619], [111.80719487042482, 40.5461790009619], [111.80719487042482, 40.54635866401872], [111.807015207368, 40.54635866401872], [111.807015207368, 40.546538327075545]], [[111.80557790291341, 40.54689765318919], [111.80503891374293, 40.54689765318919], [111.80503891374293, 40.54671799013237], [111.80485925068612, 40.54671799013237], [111.80485925068612, 40.5461790009619], [111.80503891374293, 40.5461790009619], [111.80503891374293, 40.54635866401872], [111.80521857679976, 40.54635866401872], [111.80521857679976, 40.546538327075545], [111.80557790291341, 40.546538327075545], [111.80557790291341, 40.54689765318919]]]}, "properties": {"name": "structure", "ptype": "hall", "confidence": "low", "site_id": "cn_horinger_r18", "note": "Radar-detected new structure 8.0 ha, VV rise 8.5 dB 2021-2026, hall-like score 0.79; unconfirmed, operator unknown.", "digitised_from": "Sentinel-1 candidate scan horinger rank 18; outline is the 20 m radar blob"}}]}