{"type": "FeatureCollection", "features": [{"type": "Feature", "geometry": {"geodesic": false, "type": "Polygon", "coordinates": [[[111.77719113993524, 40.495334355880736], [111.77719113993524, 40.49515469282391], [111.77701147687841, 40.49515469282391], [111.77701147687841, 40.494795366710264], [111.77719113993524, 40.494795366710264], [111.77719113993524, 40.49461570365344], [111.77701147687841, 40.49461570365344], [111.77701147687841, 40.49443604059661], [111.77665215076476, 40.49443604059661], [111.77665215076476, 40.494076714482965], [111.77719113993524, 40.494076714482965], [111.77719113993524, 40.49425637753979], [111.77755046604888, 40.49425637753979], [111.77755046604888, 40.494076714482965], [111.7777301291057, 40.494076714482965], [111.7777301291057, 40.49335806225567], [111.77790979216253, 40.49335806225567], [111.77790979216253, 40.49317839919885], [111.77808945521936, 40.49317839919885], [111.77808945521936, 40.49245974697155], [111.77826911827617, 40.49245974697155], [111.77826911827617, 40.4921004208579], [111.778448781333, 40.4921004208579], [111.778448781333, 40.491920757801076], [111.77880810744665, 40.491920757801076], [111.77880810744665, 40.4921004208579], [111.7791674335603, 40.4921004208579], [111.7791674335603, 40.49228008391473], [111.77970642273077, 40.49228008391473], [111.77970642273077, 40.49245974697155], [111.7798860857876, 40.49245974697155], [111.7798860857876, 40.49317839919885], [111.77970642273077, 40.49317839919885], [111.77970642273077, 40.49335806225567], [111.77952675967394, 40.49335806225567], [111.77952675967394, 40.49371738836932], [111.77826911827617, 40.49371738836932], [111.77826911827617, 40.494076714482965], [111.77808945521936, 40.494076714482965], [111.77808945521936, 40.49425637753979], [111.77826911827617, 40.49425637753979], [111.77826911827617, 40.49443604059661], [111.77808945521936, 40.49443604059661], [111.77808945521936, 40.49461570365344], [111.77790979216253, 40.49461570365344], [111.77790979216253, 40.494795366710264], [111.7777301291057, 40.494795366710264], [111.7777301291057, 40.495334355880736], [111.77719113993524, 40.495334355880736]]]}, "properties": {"name": "structure", "ptype": "hall", "confidence": "low", "site_id": "cn_horinger_r25", "note": "Radar-detected new structure 5.1 ha, VV rise 10.5 dB 2021-2026, hall-like score 0.54; unconfirmed, operator unknown.", "digitised_from": "Sentinel-1 candidate scan horinger rank 25; outline is the 20 m radar blob"}}]}