{"type": "FeatureCollection", "features": [{"type": "Feature", "geometry": {"geodesic": false, "type": "Polygon", "coordinates": [[[111.83091039392558, 40.52210415134749], [111.83091039392558, 40.52192448829067], [111.83019174169829, 40.52192448829067], [111.83019174169829, 40.521565162177026], [111.82983241558463, 40.521565162177026], [111.82983241558463, 40.52120583606337], [111.82965275252782, 40.52120583606337], [111.82965275252782, 40.521026173006554], [111.82929342641417, 40.521026173006554], [111.82929342641417, 40.52120583606337], [111.82911376335734, 40.52120583606337], [111.82911376335734, 40.5213854991202], [111.82857477418688, 40.5213854991202], [111.82857477418688, 40.52120583606337], [111.82839511113005, 40.52120583606337], [111.82839511113005, 40.52084650994973], [111.82857477418688, 40.52084650994973], [111.82857477418688, 40.5206668468929], [111.82839511113005, 40.5206668468929], [111.82839511113005, 40.52048718383608], [111.82857477418688, 40.52048718383608], [111.82857477418688, 40.520307520779255], [111.82875443724369, 40.520307520779255], [111.82875443724369, 40.52012785772243], [111.82893410030051, 40.52012785772243], [111.82893410030051, 40.51994819466561], [111.82875443724369, 40.51994819466561], [111.82875443724369, 40.51976853160878], [111.82893410030051, 40.51976853160878], [111.82893410030051, 40.51958886855196], [111.82911376335734, 40.51958886855196], [111.82911376335734, 40.51976853160878], [111.829473089471, 40.51976853160878], [111.829473089471, 40.51958886855196], [111.82965275252782, 40.51958886855196], [111.82965275252782, 40.51940920549514], [111.82911376335734, 40.51940920549514], [111.82911376335734, 40.51922954243831], [111.829473089471, 40.51922954243831], [111.829473089471, 40.518870216324665], [111.82965275252782, 40.518870216324665], [111.82965275252782, 40.51904987938149], [111.83037140475511, 40.51904987938149], [111.83037140475511, 40.51851089021102], [111.83055106781194, 40.51851089021102], [111.83055106781194, 40.51869055326784], [111.83126972003923, 40.51869055326784], [111.83126972003923, 40.518870216324665], [111.8310900569824, 40.518870216324665], [111.8310900569824, 40.51922954243831], [111.83144938309606, 40.51922954243831], [111.83144938309606, 40.518870216324665], [111.83216803532335, 40.518870216324665], [111.83216803532335, 40.51904987938149], [111.832527361437, 40.51904987938149], [111.832527361437, 40.51922954243831], [111.83270702449381, 40.51922954243831], [111.83270702449381, 40.51958886855196], [111.832527361437, 40.51958886855196], [111.832527361437, 40.51994819466561], [111.83234769838018, 40.51994819466561], [111.83234769838018, 40.52012785772243], [111.83216803532335, 40.52012785772243], [111.83216803532335, 40.520307520779255], [111.83198837226652, 40.520307520779255], [111.83198837226652, 40.5206668468929], [111.8318087092097, 40.5206668468929], [111.8318087092097, 40.52120583606337], [111.83162904615288, 40.52120583606337], [111.83162904615288, 40.5213854991202], [111.83144938309606, 40.5213854991202], [111.83144938309606, 40.521565162177026], [111.83126972003923, 40.521565162177026], [111.83126972003923, 40.52192448829067], [111.8310900569824, 40.52192448829067], [111.8310900569824, 40.52210415134749], [111.83091039392558, 40.52210415134749]], [[111.82983241558463, 40.52012785772243], [111.82965275252782, 40.52012785772243], [111.82965275252782, 40.51994819466561], [111.82983241558463, 40.51994819466561], [111.82983241558463, 40.52012785772243]], [[111.83162904615288, 40.520307520779255], [111.83144938309606, 40.520307520779255], [111.83144938309606, 40.52012785772243], [111.83162904615288, 40.52012785772243], [111.83162904615288, 40.520307520779255]], [[111.83037140475511, 40.521565162177026], [111.83019174169829, 40.521565162177026], [111.83019174169829, 40.5213854991202], [111.83037140475511, 40.5213854991202], [111.83037140475511, 40.521565162177026]]]}, "properties": {"name": "structure", "ptype": "hall", "confidence": "low", "site_id": "cn_horinger_r16", "note": "Radar-detected new structure 10.8 ha, VV rise 12.0 dB 2021-2026, hall-like score 0.94; unconfirmed, operator unknown.", "digitised_from": "Sentinel-1 candidate scan horinger rank 16; outline is the 20 m radar blob"}}]}