{
 "type": "FeatureCollection",
 "name": "cn_horinger_cloud_valley",
 "features": [
  {
   "type": "Feature",
   "properties": {
    "name": "block_a",
    "ptype": "hall",
    "confidence": "low",
    "note": "Hand-digitised on a 10 m Sentinel-2 chip; large white multi-hall complex, operator not attributed.",
    "site_id": "cn_horinger_cloud_valley",
    "digitised_from": "Sentinel-2 chip S2B_49TEE_20250924, offsets rel. 40.545,111.805"
   },
   "geometry": {
    "type": "Polygon",
    "coordinates": [
     [
      [
       111.80081878218351,
       40.54097509013759
      ],
      [
       111.80554185424633,
       40.540942256537
      ],
      [
       111.8055742297627,
       40.54364467560631
      ],
      [
       111.80085096792457,
       40.54367751232165
      ],
      [
       111.80081878218351,
       40.54097509013759
      ]
     ]
    ]
   }
  },
  {
   "type": "Feature",
   "properties": {
    "name": "block_b",
    "ptype": "hall",
    "confidence": "low",
    "note": "Hand-digitised on a 10 m Sentinel-2 chip; large white multi-hall complex, operator not attributed.",
    "site_id": "cn_horinger_cloud_valley",
    "digitised_from": "Sentinel-2 chip S2B_49TEE_20250924, offsets rel. 40.545,111.805"
   },
   "geometry": {
    "type": "Polygon",
    "coordinates": [
     [
      [
       111.80784927979396,
       40.53642173530509
      ],
      [
       111.8137527087101,
       40.5363803077389
      ],
      [
       111.81378540894391,
       40.53908272346314
      ],
      [
       111.80788174286464,
       40.539124154959445
      ],
      [
       111.80784927979396,
       40.53642173530509
      ]
     ]
    ]
   }
  },
  {
   "type": "Feature",
   "properties": {
    "name": "block_c",
    "ptype": "hall",
    "confidence": "low",
    "note": "Hand-digitised on a 10 m Sentinel-2 chip; large white multi-hall complex, operator not attributed.",
    "site_id": "cn_horinger_cloud_valley",
    "digitised_from": "Sentinel-2 chip S2B_49TEE_20250924, offsets rel. 40.545,111.805"
   },
   "geometry": {
    "type": "Polygon",
    "coordinates": [
     [
      [
       111.81376360829567,
       40.53728111312363
      ],
      [
       111.81966710395378,
       40.53723938266009
      ],
      [
       111.8197000428367,
       40.53994179399557
      ],
      [
       111.81379631000664,
       40.53998352841791
      ],
      [
       111.81376360829567,
       40.53728111312363
      ]
     ]
    ]
   }
  },
  {
   "type": "Feature",
   "properties": {
    "name": "block_d",
    "ptype": "hall",
    "confidence": "low",
    "note": "Hand-digitised on a 10 m Sentinel-2 chip; large white multi-hall complex, operator not attributed.",
    "site_id": "cn_horinger_cloud_valley",
    "digitised_from": "Sentinel-2 chip S2B_49TEE_20250924, offsets rel. 40.545,111.805"
   },
   "geometry": {
    "type": "Polygon",
    "coordinates": [
     [
      [
       111.8085804311154,
       40.54812808027704
      ],
      [
       111.81448488674297,
       40.548086605507855
      ],
      [
       111.81451762991557,
       40.55078901524774
      ],
      [
       111.8086129369858,
       40.55083049395124
      ],
      [
       111.8085804311154,
       40.54812808027704
      ]
     ]
    ]
   }
  },
  {
   "type": "Feature",
   "properties": {
    "name": "campus",
    "ptype": "campus",
    "confidence": "low",
    "site_id": "cn_horinger_cloud_valley",
    "digitised_from": "derived"
   },
   "geometry": {
    "type": "Polygon",
    "coordinates": [
     [
      [
       111.81418393798668,
       40.53341146262488
      ],
      [
       111.81395838523846,
       40.533387366515676
      ],
      [
       111.8137316565995,
       40.533380381605035
      ],
      [
       111.80782822768336,
       40.53342180917122
      ],
      [
       111.80754489752083,
       40.533437216678614
      ],
      [
       111.80726429034087,
       40.53347932348147
      ],
      [
       111.80698891643577,
       40.53354775289528
      ],
      [
       111.80672123928126,
       40.533641892755284
      ],
      [
       111.80646365349851,
       40.53376090089285
      ],
      [
       111.80621846343195,
       40.533903712669485
      ],
      [
       111.7991879658215,
       40.53845706750199
      ],
      [
       111.79894286172154,
       40.53863395314451
      ],
      [
       111.7987168012471,
       40.538834605112434
      ],
      [
       111.79851207927742,
       40.539056986463905
      ],
      [
       111.7983307740715,
       40.53929883966866
      ],
      [
       111.7981747261703,
       40.53955770952569
      ],
      [
       111.79804551971229,
       40.53983096808741
      ],
      [
       111.79794446635191,
       40.540115841337645
      ],
      [
       111.79787259194414,
       40.54040943735235
      ],
      [
       111.79783062613042,
       40.54070877565732
      ],
      [
       111.79781899493162,
       40.541010817484825
      ],
      [
       111.79785118067268,
       40.54371323966888
      ],
      [
       111.79787033738441,
       40.54401786740538
      ],
      [
       111.79792034860235,
       40.544318971898086
      ],
      [
       111.79800069662684,
       40.544613436212416
      ],
      [
       111.79811054972157,
       40.5448982121507
      ],
      [
       111.79824877072348,
       40.54517035180618
      ],
      [
       111.79841392881423,
       40.545427038078714
      ],
      [
       111.79860431433164,
       40.545665613836505
      ],
      [
       111.79881795646752,
       40.54588360942184
      ],
      [
       111.80657992552874,
       40.55303659105143
      ],
      [
       111.80679585367592,
       40.55321758595721
      ],
      [
       111.80702780932987,
       40.55337752561857
      ],
      [
       111.80727374653547,
       40.55351499929446
      ],
      [
       111.80753149601402,
       40.55362879440411
      ],
      [
       111.80779878429706,
       40.55371790722256
      ],
      [
       111.8080732537796,
       40.553781551733955
      ],
      [
       111.8083524835151,
       40.55381916656456
      ],
      [
       111.80863401056945,
       40.553830419934336
      ],
      [
       111.81453870349922,
       40.553788941230835
      ],
      [
       111.81484299078204,
       40.55377131977722
      ],
      [
       111.81514391957191,
       40.55372291389397
      ],
      [
       111.81543838357267,
       40.55364422324418
      ],
      [
       111.81572334322004,
       40.553536060101294
      ],
      [
       111.81599585705712,
       40.55339954096452
      ],
      [
       111.8162531120972,
       40.55323607503394
      ],
      [
       111.8164924528604,
       40.553047349664205
      ],
      [
       111.81671140878449,
       40.55283531294707
      ],
      [
       111.81690771972697,
       40.55260215360248
      ],
      [
       111.81707935929505,
       40.5523502783858
      ],
      [
       111.81722455576283,
       40.55208228724443
      ],
      [
       111.82240696868396,
       40.54123506599226
      ],
      [
       111.82251389539519,
       40.540982098652435
      ],
      [
       111.82259724020966,
       40.54072041288956
      ],
      [
       111.82265630464417,
       40.54045220179887
      ],
      [
       111.82269059370071,
       40.54017971316206
      ],
      [
       111.82269982001489,
       40.53990523060939
      ],
      [
       111.82266688113197,
       40.537202819273915
      ],
      [
       111.82264789829749,
       40.5369004651473
      ],
      [
       111.82259851852591,
       40.536601567164624
      ],
      [
       111.8225192453722,
       40.53630917336683
      ],
      [
       111.82241088723198,
       40.536026265467804
      ],
      [
       111.8222745490978,
       40.53575572844805
      ],
      [
       111.8221116212909,
       40.535500321134876
      ],
      [
       111.82192376528327,
       40.53526264806891
      ],
      [
       111.82171289675462,
       40.53504513294413
      ],
      [
       111.82148116605705,
       40.534849993891925
      ],
      [
       111.82123093628667,
       40.53467922086157
      ],
      [
       111.8209647591856,
       40.53453455532747
      ],
      [
       111.82068534912047,
       40.534417472530315
      ],
      [
       111.82039555540229,
       40.53432916643322
      ],
      [
       111.82009833323036,
       40.53427053754607
      ],
      [
       111.81418393798668,
       40.53341146262488
      ]
     ]
    ]
   }
  }
 ]
}