{"type": "FeatureCollection", "features": [{"type": "Feature", "geometry": {"geodesic": false, "type": "Polygon", "coordinates": [[[111.83019174169829, 40.54959259904155], [111.83019174169829, 40.549412935984726], [111.829473089471, 40.549412935984726], [111.829473089471, 40.54959259904155], [111.82929342641417, 40.54959259904155], [111.82929342641417, 40.549412935984726], [111.82911376335734, 40.549412935984726], [111.82911376335734, 40.54905360987108], [111.82857477418688, 40.54905360987108], [111.82857477418688, 40.54923327292791], [111.82839511113005, 40.54923327292791], [111.82839511113005, 40.54905360987108], [111.82821544807322, 40.54905360987108], [111.82821544807322, 40.548873946814254], [111.82713746973228, 40.548873946814254], [111.82713746973228, 40.548694283757435], [111.82695780667545, 40.548694283757435], [111.82695780667545, 40.54833495764378], [111.82713746973228, 40.54833495764378], [111.82713746973228, 40.547975631530136], [111.8273171327891, 40.547975631530136], [111.8273171327891, 40.54779596847331], [111.82713746973228, 40.54779596847331], [111.82713746973228, 40.547256979302844], [111.8273171327891, 40.547256979302844], [111.8273171327891, 40.54743664235966], [111.82749679584593, 40.54743664235966], [111.82749679584593, 40.54707731624602], [111.82695780667545, 40.54707731624602], [111.82695780667545, 40.54689765318919], [111.82659848056181, 40.54689765318919], [111.82659848056181, 40.547256979302844], [111.82641881750499, 40.547256979302844], [111.82641881750499, 40.54743664235966], [111.82623915444816, 40.54743664235966], [111.82623915444816, 40.547256979302844], [111.82605949139133, 40.547256979302844], [111.82605949139133, 40.54707731624602], [111.82623915444816, 40.54707731624602], [111.82623915444816, 40.54671799013237], [111.82587982833451, 40.54671799013237], [111.82587982833451, 40.54635866401872], [111.82677814361863, 40.54635866401872], [111.82677814361863, 40.546538327075545], [111.82713746973228, 40.546538327075545], [111.82713746973228, 40.54671799013237], [111.8280357850164, 40.54671799013237], [111.8280357850164, 40.546538327075545], [111.82821544807322, 40.546538327075545], [111.82821544807322, 40.5461790009619], [111.82839511113005, 40.5461790009619], [111.82839511113005, 40.54581967484825], [111.82875443724369, 40.54581967484825], [111.82875443724369, 40.54599933790507], [111.82893410030051, 40.54599933790507], [111.82893410030051, 40.5461790009619], [111.82929342641417, 40.5461790009619], [111.82929342641417, 40.54635866401872], [111.829473089471, 40.54635866401872], [111.829473089471, 40.54689765318919], [111.82929342641417, 40.54689765318919], [111.82929342641417, 40.547256979302844], [111.82911376335734, 40.547256979302844], [111.82911376335734, 40.54761630541649], [111.82929342641417, 40.54761630541649], [111.82929342641417, 40.54779596847331], [111.82911376335734, 40.54779596847331], [111.82911376335734, 40.54851462070061], [111.82893410030051, 40.54851462070061], [111.82893410030051, 40.548694283757435], [111.82875443724369, 40.548694283757435], [111.82875443724369, 40.548873946814254], [111.82929342641417, 40.548873946814254], [111.82929342641417, 40.54851462070061], [111.829473089471, 40.54851462070061], [111.829473089471, 40.547975631530136], [111.82965275252782, 40.547975631530136], [111.82965275252782, 40.54779596847331], [111.82983241558463, 40.54779596847331], [111.82983241558463, 40.54815529458696], [111.83091039392558, 40.54815529458696], [111.83091039392558, 40.54833495764378], [111.8310900569824, 40.54833495764378], [111.8310900569824, 40.54851462070061], [111.83144938309606, 40.54851462070061], [111.83144938309606, 40.54833495764378], [111.83198837226652, 40.54833495764378], [111.83198837226652, 40.54779596847331], [111.8318087092097, 40.54779596847331], [111.8318087092097, 40.547975631530136], [111.83162904615288, 40.547975631530136], [111.83162904615288, 40.54815529458696], [111.83144938309606, 40.54815529458696], [111.83144938309606, 40.547975631530136], [111.83162904615288, 40.547975631530136], [111.83162904615288, 40.54743664235966], [111.8318087092097, 40.54743664235966], [111.8318087092097, 40.547256979302844], [111.83198837226652, 40.547256979302844], [111.83198837226652, 40.54743664235966], [111.83216803532335, 40.54743664235966], [111.83216803532335, 40.54761630541649], [111.832527361437, 40.54761630541649], [111.832527361437, 40.54707731624602], [111.83288668755064, 40.54707731624602], [111.83288668755064, 40.547256979302844], [111.83270702449381, 40.547256979302844], [111.83270702449381, 40.54743664235966], [111.83288668755064, 40.54743664235966], [111.83288668755064, 40.54761630541649], [111.83306635060747, 40.54761630541649], [111.83306635060747, 40.54779596847331], [111.8332460136643, 40.54779596847331], [111.8332460136643, 40.547975631530136], [111.83342567672112, 40.547975631530136], [111.83342567672112, 40.54815529458696], [111.8332460136643, 40.54815529458696], [111.8332460136643, 40.54833495764378], [111.83306635060747, 40.54833495764378], [111.83306635060747, 40.54851462070061], [111.83342567672112, 40.54851462070061], [111.83342567672112, 40.548873946814254], [111.83216803532335, 40.548873946814254], [111.83216803532335, 40.548694283757435], [111.83162904615288, 40.548694283757435], [111.83162904615288, 40.548873946814254], [111.8310900569824, 40.548873946814254], [111.8310900569824, 40.548694283757435], [111.83091039392558, 40.548694283757435], [111.83091039392558, 40.54851462070061], [111.83037140475511, 40.54851462070061], [111.83037140475511, 40.548694283757435], [111.83019174169829, 40.548694283757435], [111.83019174169829, 40.548873946814254], [111.83037140475511, 40.548873946814254], [111.83037140475511, 40.54905360987108], [111.83091039392558, 40.54905360987108], [111.83091039392558, 40.549412935984726], [111.83037140475511, 40.549412935984726], [111.83037140475511, 40.54959259904155], [111.83019174169829, 40.54959259904155]], [[111.82839511113005, 40.54671799013237], [111.82821544807322, 40.54671799013237], [111.82821544807322, 40.546538327075545], [111.82839511113005, 40.546538327075545], [111.82839511113005, 40.54671799013237]], [[111.82875443724369, 40.54707731624602], [111.82857477418688, 40.54707731624602], [111.82857477418688, 40.54689765318919], [111.82839511113005, 40.54689765318919], [111.82839511113005, 40.54671799013237], [111.82857477418688, 40.54671799013237], [111.82857477418688, 40.546538327075545], [111.82875443724369, 40.546538327075545], [111.82875443724369, 40.54635866401872], [111.82893410030051, 40.54635866401872], [111.82893410030051, 40.54689765318919], [111.82875443724369, 40.54689765318919], [111.82875443724369, 40.54707731624602]], [[111.82893410030051, 40.54779596847331], [111.82839511113005, 40.54779596847331], [111.82839511113005, 40.54761630541649], [111.82893410030051, 40.54761630541649], [111.82893410030051, 40.54779596847331]], [[111.82767645890276, 40.547975631530136], [111.82749679584593, 40.547975631530136], [111.82749679584593, 40.54779596847331], [111.82767645890276, 40.54779596847331], [111.82767645890276, 40.547975631530136]], [[111.8280357850164, 40.547975631530136], [111.82785612195957, 40.547975631530136], [111.82785612195957, 40.54779596847331], [111.8280357850164, 40.54779596847331], [111.8280357850164, 40.547975631530136]], [[111.82749679584593, 40.54815529458696], [111.8273171327891, 40.54815529458696], [111.8273171327891, 40.547975631530136], [111.82749679584593, 40.547975631530136], [111.82749679584593, 40.54815529458696]], [[111.82839511113005, 40.548694283757435], [111.82821544807322, 40.548694283757435], [111.82821544807322, 40.54815529458696], [111.82839511113005, 40.54815529458696], [111.82839511113005, 40.54833495764378], [111.82857477418688, 40.54833495764378], [111.82857477418688, 40.54851462070061], [111.82839511113005, 40.54851462070061], [111.82839511113005, 40.548694283757435]], [[111.83288668755064, 40.54833495764378], [111.83270702449381, 40.54833495764378], [111.83270702449381, 40.547975631530136], [111.83306635060747, 40.547975631530136], [111.83306635060747, 40.54815529458696], [111.83288668755064, 40.54815529458696], [111.83288668755064, 40.54833495764378]], [[111.83270702449381, 40.54851462070061], [111.83216803532335, 40.54851462070061], [111.83216803532335, 40.54833495764378], [111.83234769838018, 40.54833495764378], [111.83234769838018, 40.54815529458696], [111.832527361437, 40.54815529458696], [111.832527361437, 40.54833495764378], [111.83270702449381, 40.54833495764378], [111.83270702449381, 40.54851462070061]]]}, "properties": {"name": "structure", "ptype": "hall", "confidence": "low", "site_id": "cn_horinger_r15", "note": "Radar-detected new structure 11.9 ha, VV rise 8.1 dB 2021-2026, hall-like score 0.95; unconfirmed, operator unknown.", "digitised_from": "Sentinel-1 candidate scan horinger rank 15; outline is the 20 m radar blob"}}]}