{"type": "FeatureCollection", "features": [{"type": "Feature", "geometry": {"geodesic": false, "type": "Polygon", "coordinates": [[[111.82767645890276, 40.540968772314], [111.82767645890276, 40.54025012008671], [111.8273171327891, 40.54025012008671], [111.8273171327891, 40.54078910925718], [111.82749679584593, 40.54078910925718], [111.82749679584593, 40.540968772314], [111.82695780667545, 40.540968772314], [111.82695780667545, 40.540070457029884], [111.82659848056181, 40.540070457029884], [111.82659848056181, 40.54025012008671], [111.82623915444816, 40.54025012008671], [111.82623915444816, 40.54042978314353], [111.82605949139133, 40.54042978314353], [111.82605949139133, 40.54060944620036], [111.82587982833451, 40.54060944620036], [111.82587982833451, 40.54078910925718], [111.8257001652777, 40.54078910925718], [111.8257001652777, 40.540968772314], [111.82534083916404, 40.540968772314], [111.82534083916404, 40.54078910925718], [111.82498151305039, 40.54078910925718], [111.82498151305039, 40.54060944620036], [111.82480184999356, 40.54060944620036], [111.82480184999356, 40.540070457029884], [111.82498151305039, 40.540070457029884], [111.82498151305039, 40.53989079397306], [111.82516117610722, 40.53989079397306], [111.82516117610722, 40.53971113091624], [111.82552050222087, 40.53971113091624], [111.82552050222087, 40.53953146785941], [111.82498151305039, 40.53953146785941], [111.82498151305039, 40.53935180480259], [111.82480184999356, 40.53935180480259], [111.82480184999356, 40.53845348951847], [111.82516117610722, 40.53845348951847], [111.82516117610722, 40.538633152575294], [111.82552050222087, 40.538633152575294], [111.82552050222087, 40.53881281563212], [111.82587982833451, 40.53881281563212], [111.82587982833451, 40.53845348951847], [111.82605949139133, 40.53845348951847], [111.82605949139133, 40.53827382646165], [111.82552050222087, 40.53827382646165], [111.82552050222087, 40.53809416340482], [111.82516117610722, 40.53809416340482], [111.82516117610722, 40.53755517423435], [111.82534083916404, 40.53755517423435], [111.82534083916404, 40.53737551117753], [111.82552050222087, 40.53737551117753], [111.82552050222087, 40.53665685895023], [111.82587982833451, 40.53665685895023], [111.82587982833451, 40.53611786977976], [111.82605949139133, 40.53611786977976], [111.82605949139133, 40.53593820672293], [111.82641881750499, 40.53593820672293], [111.82641881750499, 40.53575854366611], [111.82695780667545, 40.53575854366611], [111.82695780667545, 40.53593820672293], [111.8273171327891, 40.53593820672293], [111.8273171327891, 40.53611786977976], [111.82821544807322, 40.53611786977976], [111.82821544807322, 40.536477195893404], [111.82839511113005, 40.536477195893404], [111.82839511113005, 40.536297532836585], [111.82875443724369, 40.536297532836585], [111.82875443724369, 40.536477195893404], [111.829473089471, 40.536477195893404], [111.829473089471, 40.53665685895023], [111.83019174169829, 40.53665685895023], [111.83019174169829, 40.53683652200706], [111.83055106781194, 40.53683652200706], [111.83055106781194, 40.53701618506388], [111.83073073086875, 40.53701618506388], [111.83073073086875, 40.5371958481207], [111.8310900569824, 40.5371958481207], [111.8310900569824, 40.53737551117753], [111.83091039392558, 40.53737551117753], [111.83091039392558, 40.53755517423435], [111.83055106781194, 40.53755517423435], [111.83055106781194, 40.5371958481207], [111.83037140475511, 40.5371958481207], [111.83037140475511, 40.53737551117753], [111.83019174169829, 40.53737551117753], [111.83019174169829, 40.537734837291175], [111.83073073086875, 40.537734837291175], [111.83073073086875, 40.537914500347995], [111.83091039392558, 40.537914500347995], [111.83091039392558, 40.53827382646165], [111.8310900569824, 40.53827382646165], [111.8310900569824, 40.537914500347995], [111.83126972003923, 40.537914500347995], [111.83126972003923, 40.53809416340482], [111.83144938309606, 40.53809416340482], [111.83144938309606, 40.53845348951847], [111.83162904615288, 40.53845348951847], [111.83162904615288, 40.538633152575294], [111.83144938309606, 40.538633152575294], [111.83144938309606, 40.53899247868894], [111.83162904615288, 40.53899247868894], [111.83162904615288, 40.53881281563212], [111.8318087092097, 40.53881281563212], [111.8318087092097, 40.53899247868894], [111.83216803532335, 40.53899247868894], [111.83216803532335, 40.539172141745766], [111.83234769838018, 40.539172141745766], [111.83234769838018, 40.53953146785941], [111.83216803532335, 40.53953146785941], [111.83216803532335, 40.53971113091624], [111.83198837226652, 40.53971113091624], [111.83198837226652, 40.53989079397306], [111.8318087092097, 40.53989079397306], [111.8318087092097, 40.540070457029884], [111.83144938309606, 40.540070457029884], [111.83144938309606, 40.53971113091624], [111.83126972003923, 40.53971113091624], [111.83126972003923, 40.53953146785941], [111.8310900569824, 40.53953146785941], [111.8310900569824, 40.53971113091624], [111.83037140475511, 40.53971113091624], [111.83037140475511, 40.53989079397306], [111.83019174169829, 40.53989079397306], [111.83019174169829, 40.53971113091624], [111.829473089471, 40.53971113091624], [111.829473089471, 40.53989079397306], [111.82965275252782, 40.53989079397306], [111.82965275252782, 40.540070457029884], [111.83001207864146, 40.540070457029884], [111.83001207864146, 40.54060944620036], [111.82983241558463, 40.54060944620036], [111.82983241558463, 40.54078910925718], [111.82911376335734, 40.54078910925718], [111.82911376335734, 40.54060944620036], [111.82893410030051, 40.54060944620036], [111.82893410030051, 40.54078910925718], [111.82875443724369, 40.54078910925718], [111.82875443724369, 40.54060944620036], [111.82857477418688, 40.54060944620036], [111.82857477418688, 40.54042978314353], [111.82839511113005, 40.54042978314353], [111.82839511113005, 40.54060944620036], [111.82821544807322, 40.54060944620036], [111.82821544807322, 40.54078910925718], [111.8280357850164, 40.54078910925718], [111.8280357850164, 40.540968772314], [111.82767645890276, 40.540968772314]], [[111.82713746973228, 40.53701618506388], [111.82695780667545, 40.53701618506388], [111.82695780667545, 40.53683652200706], [111.82713746973228, 40.53683652200706], [111.82713746973228, 40.53701618506388]], [[111.82911376335734, 40.53701618506388], [111.82857477418688, 40.53701618506388], [111.82857477418688, 40.53683652200706], [111.82839511113005, 40.53683652200706], [111.82839511113005, 40.53665685895023], [111.82893410030051, 40.53665685895023], [111.82893410030051, 40.53683652200706], [111.82911376335734, 40.53683652200706], [111.82911376335734, 40.53701618506388]], [[111.82713746973228, 40.53809416340482], [111.82659848056181, 40.53809416340482], [111.82659848056181, 40.537914500347995], [111.82641881750499, 40.537914500347995], [111.82641881750499, 40.537734837291175], [111.82695780667545, 40.537734837291175], [111.82695780667545, 40.537914500347995], [111.82713746973228, 40.537914500347995], [111.82713746973228, 40.53809416340482]], [[111.82552050222087, 40.53899247868894], [111.82534083916404, 40.53899247868894], [111.82534083916404, 40.53881281563212], [111.82552050222087, 40.53881281563212], [111.82552050222087, 40.53899247868894]], [[111.82534083916404, 40.539172141745766], [111.82516117610722, 40.539172141745766], [111.82516117610722, 40.53899247868894], [111.82534083916404, 40.53899247868894], [111.82534083916404, 40.539172141745766]], [[111.82785612195957, 40.539172141745766], [111.82749679584593, 40.539172141745766], [111.82749679584593, 40.53899247868894], [111.8273171327891, 40.53899247868894], [111.8273171327891, 40.538633152575294], [111.8280357850164, 40.538633152575294], [111.8280357850164, 40.53827382646165], [111.82767645890276, 40.53827382646165], [111.82767645890276, 40.53809416340482], [111.82785612195957, 40.53809416340482], [111.82785612195957, 40.537914500347995], [111.82767645890276, 40.537914500347995], [111.82767645890276, 40.537734837291175], [111.82821544807322, 40.537734837291175], [111.82821544807322, 40.53755517423435], [111.8280357850164, 40.53755517423435], [111.8280357850164, 40.53737551117753], [111.82821544807322, 40.53737551117753], [111.82821544807322, 40.5371958481207], [111.82857477418688, 40.5371958481207], [111.82857477418688, 40.53737551117753], [111.82875443724369, 40.53737551117753], [111.82875443724369, 40.53755517423435], [111.82857477418688, 40.53755517423435], [111.82857477418688, 40.53827382646165], [111.82875443724369, 40.53827382646165], [111.82875443724369, 40.53809416340482], [111.82965275252782, 40.53809416340482], [111.82965275252782, 40.53827382646165], [111.83001207864146, 40.53827382646165], [111.83001207864146, 40.53845348951847], [111.829473089471, 40.53845348951847], [111.829473089471, 40.538633152575294], [111.82929342641417, 40.538633152575294], [111.82929342641417, 40.53845348951847], [111.82839511113005, 40.53845348951847], [111.82839511113005, 40.538633152575294], [111.82821544807322, 40.538633152575294], [111.82821544807322, 40.53881281563212], [111.82785612195957, 40.53881281563212], [111.82785612195957, 40.539172141745766]], [[111.82893410030051, 40.539172141745766], [111.82875443724369, 40.539172141745766], [111.82875443724369, 40.53899247868894], [111.82893410030051, 40.53899247868894], [111.82893410030051, 40.539172141745766]], [[111.82911376335734, 40.53953146785941], [111.82893410030051, 40.53953146785941], [111.82893410030051, 40.53935180480259], [111.82911376335734, 40.53935180480259], [111.82911376335734, 40.53953146785941]], [[111.83037140475511, 40.53953146785941], [111.83019174169829, 40.53953146785941], [111.83019174169829, 40.53935180480259], [111.83001207864146, 40.53935180480259], [111.83001207864146, 40.539172141745766], [111.83091039392558, 40.539172141745766], [111.83091039392558, 40.53935180480259], [111.83037140475511, 40.53935180480259], [111.83037140475511, 40.53953146785941]], [[111.82749679584593, 40.53989079397306], [111.82695780667545, 40.53989079397306], [111.82695780667545, 40.53971113091624], [111.82713746973228, 40.53971113091624], [111.82713746973228, 40.53935180480259], [111.82749679584593, 40.53935180480259], [111.82749679584593, 40.53989079397306]], [[111.82623915444816, 40.540070457029884], [111.82605949139133, 40.540070457029884], [111.82605949139133, 40.53989079397306], [111.82587982833451, 40.53989079397306], [111.82587982833451, 40.53971113091624], [111.82623915444816, 40.53971113091624], [111.82623915444816, 40.540070457029884]], [[111.82875443724369, 40.54042978314353], [111.82857477418688, 40.54042978314353], [111.82857477418688, 40.540070457029884], [111.82767645890276, 40.540070457029884], [111.82767645890276, 40.53989079397306], [111.82857477418688, 40.53989079397306], [111.82857477418688, 40.53971113091624], [111.82875443724369, 40.53971113091624], [111.82875443724369, 40.53953146785941], [111.82893410030051, 40.53953146785941], [111.82893410030051, 40.54025012008671], [111.82875443724369, 40.54025012008671], [111.82875443724369, 40.54042978314353]], [[111.8280357850164, 40.54060944620036], [111.82785612195957, 40.54060944620036], [111.82785612195957, 40.54042978314353], [111.8280357850164, 40.54042978314353], [111.8280357850164, 40.54060944620036]], [[111.82983241558463, 40.54060944620036], [111.82929342641417, 40.54060944620036], [111.82929342641417, 40.54025012008671], [111.82983241558463, 40.54025012008671], [111.82983241558463, 40.54060944620036]]]}, "properties": {"name": "structure", "ptype": "hall", "confidence": "low", "site_id": "cn_horinger_r04", "note": "Radar-detected new structure 26.6 ha, VV rise 10.9 dB 2021-2026, hall-like score 0.93; unconfirmed, operator unknown.", "digitised_from": "Sentinel-1 candidate scan horinger rank 4; outline is the 20 m radar blob"}}]}