{"type": "FeatureCollection", "features": [{"type": "Feature", "geometry": {"geodesic": false, "type": "Polygon", "coordinates": [[[111.81743566466379, 40.506473465403815], [111.81743566466379, 40.50593447623334], [111.81725600160696, 40.50593447623334], [111.81725600160696, 40.505754813176516], [111.81689667549331, 40.505754813176516], [111.81689667549331, 40.50593447623334], [111.81653734937967, 40.50593447623334], [111.81653734937967, 40.505754813176516], [111.81617802326602, 40.505754813176516], [111.81617802326602, 40.50611413929017], [111.81581869715238, 40.50611413929017], [111.81581869715238, 40.50539548706287], [111.81545937103873, 40.50539548706287], [111.81545937103873, 40.50521582400605], [111.81492038186825, 40.50521582400605], [111.81492038186825, 40.50539548706287], [111.81474071881144, 40.50539548706287], [111.81474071881144, 40.505754813176516], [111.81438139269778, 40.505754813176516], [111.81438139269778, 40.50521582400605], [111.81402206658413, 40.50521582400605], [111.81402206658413, 40.5055751501197], [111.81384240352732, 40.5055751501197], [111.81384240352732, 40.50539548706287], [111.81348307741366, 40.50539548706287], [111.81348307741366, 40.50521582400605], [111.81330341435684, 40.50521582400605], [111.81330341435684, 40.505036160949224], [111.81348307741366, 40.505036160949224], [111.81348307741366, 40.5048564978924], [111.81330341435684, 40.5048564978924], [111.81330341435684, 40.504137845665106], [111.81348307741366, 40.504137845665106], [111.81348307741366, 40.50395818260828], [111.81366274047049, 40.50395818260828], [111.81366274047049, 40.50377851955145], [111.81384240352732, 40.50377851955145], [111.81384240352732, 40.50395818260828], [111.81402206658413, 40.50395818260828], [111.81402206658413, 40.50377851955145], [111.81420172964096, 40.50377851955145], [111.81420172964096, 40.503598856494634], [111.81438139269778, 40.503598856494634], [111.81438139269778, 40.50395818260828], [111.81545937103873, 40.50395818260828], [111.81545937103873, 40.50377851955145], [111.81563903409555, 40.50377851955145], [111.81563903409555, 40.50395818260828], [111.81581869715238, 40.50395818260828], [111.81581869715238, 40.504317508721925], [111.81563903409555, 40.504317508721925], [111.81563903409555, 40.50449717177875], [111.81617802326602, 40.50449717177875], [111.81617802326602, 40.504317508721925], [111.81599836020919, 40.504317508721925], [111.81599836020919, 40.504137845665106], [111.81653734937967, 40.504137845665106], [111.81653734937967, 40.504317508721925], [111.8167170124365, 40.504317508721925], [111.8167170124365, 40.504137845665106], [111.81725600160696, 40.504137845665106], [111.81725600160696, 40.504317508721925], [111.81743566466379, 40.504317508721925], [111.81743566466379, 40.5048564978924], [111.81797465383426, 40.5048564978924], [111.81797465383426, 40.50467683483558], [111.81833397994791, 40.50467683483558], [111.81833397994791, 40.50521582400605], [111.81887296911837, 40.50521582400605], [111.81887296911837, 40.505036160949224], [111.81869330606156, 40.505036160949224], [111.81869330606156, 40.5048564978924], [111.81923229523203, 40.5048564978924], [111.81923229523203, 40.50467683483558], [111.8190526321752, 40.50467683483558], [111.8190526321752, 40.504317508721925], [111.81941195828885, 40.504317508721925], [111.81941195828885, 40.50449717177875], [111.8197712844025, 40.50449717177875], [111.8197712844025, 40.50467683483558], [111.81995094745932, 40.50467683483558], [111.81995094745932, 40.504137845665106], [111.8197712844025, 40.504137845665106], [111.8197712844025, 40.503598856494634], [111.81959162134568, 40.503598856494634], [111.81959162134568, 40.50323953038099], [111.8197712844025, 40.50323953038099], [111.8197712844025, 40.502700541210515], [111.81995094745932, 40.502700541210515], [111.81995094745932, 40.50252087815369], [111.82013061051614, 40.50252087815369], [111.82013061051614, 40.50234121509686], [111.82031027357297, 40.50234121509686], [111.82031027357297, 40.50198188898322], [111.8204899366298, 40.50198188898322], [111.8204899366298, 40.50180222592639], [111.82084926274344, 40.50180222592639], [111.82084926274344, 40.50162256286957], [111.82120858885709, 40.50162256286957], [111.82120858885709, 40.501442899812744], [111.82192724108438, 40.501442899812744], [111.82192724108438, 40.50180222592639], [111.82210690414121, 40.50180222592639], [111.82210690414121, 40.50216155204004], [111.82228656719803, 40.50216155204004], [111.82228656719803, 40.50234121509686], [111.82210690414121, 40.50234121509686], [111.82210690414121, 40.50252087815369], [111.82192724108438, 40.50252087815369], [111.82192724108438, 40.502880204267335], [111.82210690414121, 40.502880204267335], [111.82210690414121, 40.50305986732416], [111.82192724108438, 40.50305986732416], [111.82192724108438, 40.50341919343781], [111.82174757802757, 40.50341919343781], [111.82174757802757, 40.50377851955145], [111.82156791497074, 40.50377851955145], [111.82156791497074, 40.50395818260828], [111.82138825191392, 40.50395818260828], [111.82138825191392, 40.504137845665106], [111.82102892580026, 40.504137845665106], [111.82102892580026, 40.50395818260828], [111.82066959968662, 40.50395818260828], [111.82066959968662, 40.504137845665106], [111.8204899366298, 40.504137845665106], [111.8204899366298, 40.504317508721925], [111.82031027357297, 40.504317508721925], [111.82031027357297, 40.50467683483558], [111.82013061051614, 40.50467683483558], [111.82013061051614, 40.505036160949224], [111.81995094745932, 40.505036160949224], [111.81995094745932, 40.5048564978924], [111.81959162134568, 40.5048564978924], [111.81959162134568, 40.50521582400605], [111.81941195828885, 40.50521582400605], [111.81941195828885, 40.50539548706287], [111.8190526321752, 40.50539548706287], [111.8190526321752, 40.50521582400605], [111.81887296911837, 40.50521582400605], [111.81887296911837, 40.50539548706287], [111.81851364300474, 40.50539548706287], [111.81851364300474, 40.5055751501197], [111.81815431689108, 40.5055751501197], [111.81815431689108, 40.505754813176516], [111.81833397994791, 40.505754813176516], [111.81833397994791, 40.50593447623334], [111.81851364300474, 40.50593447623334], [111.81851364300474, 40.50611413929017], [111.81833397994791, 40.50611413929017], [111.81833397994791, 40.50629380234699], [111.81797465383426, 40.50629380234699], [111.81797465383426, 40.506473465403815], [111.81743566466379, 40.506473465403815]], [[111.82174757802757, 40.50216155204004], [111.82138825191392, 40.50216155204004], [111.82138825191392, 40.50180222592639], [111.82156791497074, 40.50180222592639], [111.82156791497074, 40.50198188898322], [111.82174757802757, 40.50198188898322], [111.82174757802757, 40.50216155204004]], [[111.82102892580026, 40.50234121509686], [111.82084926274344, 40.50234121509686], [111.82084926274344, 40.50216155204004], [111.82102892580026, 40.50216155204004], [111.82102892580026, 40.50234121509686]], [[111.82156791497074, 40.502700541210515], [111.82138825191392, 40.502700541210515], [111.82138825191392, 40.50252087815369], [111.82156791497074, 40.50252087815369], [111.82156791497074, 40.502700541210515]]]}, "properties": {"name": "structure", "ptype": "hall", "confidence": "low", "site_id": "cn_horinger_r08", "note": "Radar-detected new structure 16.9 ha, VV rise 11.2 dB 2021-2026, hall-like score 0.71; unconfirmed, operator unknown.", "digitised_from": "Sentinel-1 candidate scan horinger rank 8; outline is the 20 m radar blob"}}]}