{"type": "FeatureCollection", "features": [{"type": "Feature", "geometry": {"geodesic": false, "type": "Polygon", "coordinates": [[[111.81060846850448, 40.544382370393656], [111.81060846850448, 40.54420270733684], [111.81042880544766, 40.54420270733684], [111.81042880544766, 40.54384338122318], [111.80988981627719, 40.54384338122318], [111.80988981627719, 40.543663718166364], [111.80917116404989, 40.543663718166364], [111.80917116404989, 40.54348405510954], [111.80881183793625, 40.54348405510954], [111.80881183793625, 40.54330439205272], [111.80755419653848, 40.54330439205272], [111.80755419653848, 40.54312472899589], [111.80719487042482, 40.54312472899589], [111.80719487042482, 40.542945065939065], [111.807015207368, 40.542945065939065], [111.807015207368, 40.542765402882246], [111.80683554431118, 40.542765402882246], [111.80683554431118, 40.542945065939065], [111.80665588125436, 40.542945065939065], [111.80665588125436, 40.542765402882246], [111.80647621819753, 40.542765402882246], [111.80647621819753, 40.54240607676859], [111.80665588125436, 40.54240607676859], [111.80665588125436, 40.54204675065495], [111.80683554431118, 40.54204675065495], [111.80683554431118, 40.541507761484475], [111.807015207368, 40.541507761484475], [111.807015207368, 40.540968772314], [111.80719487042482, 40.540968772314], [111.80719487042482, 40.54078910925718], [111.80737453348165, 40.54078910925718], [111.80737453348165, 40.54060944620036], [111.80755419653848, 40.54060944620036], [111.80755419653848, 40.54025012008671], [111.8077338595953, 40.54025012008671], [111.8077338595953, 40.53989079397306], [111.80809318570894, 40.53989079397306], [111.80809318570894, 40.53971113091624], [111.80827284876577, 40.53971113091624], [111.80827284876577, 40.53953146785941], [111.80791352265213, 40.53953146785941], [111.80791352265213, 40.53935180480259], [111.8084525118226, 40.53935180480259], [111.8084525118226, 40.539172141745766], [111.80881183793625, 40.539172141745766], [111.80881183793625, 40.53935180480259], [111.80917116404989, 40.53935180480259], [111.80917116404989, 40.53953146785941], [111.80935082710671, 40.53953146785941], [111.80935082710671, 40.53971113091624], [111.80953049016354, 40.53971113091624], [111.80953049016354, 40.53989079397306], [111.80971015322037, 40.53989079397306], [111.80971015322037, 40.540070457029884], [111.80988981627719, 40.540070457029884], [111.80988981627719, 40.54025012008671], [111.810069479334, 40.54025012008671], [111.810069479334, 40.54060944620036], [111.81024914239083, 40.54060944620036], [111.81024914239083, 40.54042978314353], [111.81042880544766, 40.54042978314353], [111.81042880544766, 40.54025012008671], [111.81060846850448, 40.54025012008671], [111.81060846850448, 40.540070457029884], [111.81078813156131, 40.540070457029884], [111.81078813156131, 40.53989079397306], [111.81096779461812, 40.53989079397306], [111.81096779461812, 40.540070457029884], [111.81132712073178, 40.540070457029884], [111.81132712073178, 40.54025012008671], [111.81168644684543, 40.54025012008671], [111.81168644684543, 40.54042978314353], [111.81240509907272, 40.54042978314353], [111.81240509907272, 40.54025012008671], [111.81276442518637, 40.54025012008671], [111.81276442518637, 40.54060944620036], [111.81258476212955, 40.54060944620036], [111.81258476212955, 40.54078910925718], [111.81240509907272, 40.54078910925718], [111.81240509907272, 40.54114843537083], [111.81276442518637, 40.54114843537083], [111.81276442518637, 40.541328098427655], [111.8122254360159, 40.541328098427655], [111.8122254360159, 40.541507761484475], [111.81204577295907, 40.541507761484475], [111.81204577295907, 40.54186708759812], [111.81186610990225, 40.54186708759812], [111.81186610990225, 40.54204675065495], [111.81168644684543, 40.54204675065495], [111.81168644684543, 40.542226413711774], [111.8115067837886, 40.542226413711774], [111.8115067837886, 40.54204675065495], [111.81132712073178, 40.54204675065495], [111.81132712073178, 40.542226413711774], [111.81096779461812, 40.542226413711774], [111.81096779461812, 40.54204675065495], [111.81114745767495, 40.54204675065495], [111.81114745767495, 40.54186708759812], [111.81078813156131, 40.54186708759812], [111.81078813156131, 40.54204675065495], [111.81042880544766, 40.54204675065495], [111.81042880544766, 40.542226413711774], [111.81060846850448, 40.542226413711774], [111.81060846850448, 40.54258573982542], [111.81042880544766, 40.54258573982542], [111.81042880544766, 40.542945065939065], [111.80953049016354, 40.542945065939065], [111.80953049016354, 40.542765402882246], [111.80899150099306, 40.542765402882246], [111.80899150099306, 40.54258573982542], [111.8084525118226, 40.54258573982542], [111.8084525118226, 40.542765402882246], [111.80827284876577, 40.542765402882246], [111.80827284876577, 40.542945065939065], [111.80899150099306, 40.542945065939065], [111.80899150099306, 40.54312472899589], [111.80935082710671, 40.54312472899589], [111.80935082710671, 40.54330439205272], [111.810069479334, 40.54330439205272], [111.810069479334, 40.54348405510954], [111.81024914239083, 40.54348405510954], [111.81024914239083, 40.543663718166364], [111.81042880544766, 40.543663718166364], [111.81042880544766, 40.54384338122318], [111.81078813156131, 40.54384338122318], [111.81078813156131, 40.54402304428001], [111.81096779461812, 40.54402304428001], [111.81096779461812, 40.544382370393656], [111.81060846850448, 40.544382370393656]], [[111.80953049016354, 40.54060944620036], [111.80899150099306, 40.54060944620036], [111.80899150099306, 40.54025012008671], [111.80953049016354, 40.54025012008671], [111.80953049016354, 40.54060944620036]], [[111.80899150099306, 40.54114843537083], [111.80863217487942, 40.54114843537083], [111.80863217487942, 40.540968772314], [111.80899150099306, 40.540968772314], [111.80899150099306, 40.54114843537083]], [[111.81186610990225, 40.541328098427655], [111.8115067837886, 40.541328098427655], [111.8115067837886, 40.54114843537083], [111.81132712073178, 40.54114843537083], [111.81132712073178, 40.540968772314], [111.81186610990225, 40.540968772314], [111.81186610990225, 40.541328098427655]], [[111.80719487042482, 40.54258573982542], [111.807015207368, 40.54258573982542], [111.807015207368, 40.54240607676859], [111.80719487042482, 40.54240607676859], [111.80719487042482, 40.54258573982542]], [[111.8077338595953, 40.542765402882246], [111.80719487042482, 40.542765402882246], [111.80719487042482, 40.54258573982542], [111.80755419653848, 40.54258573982542], [111.80755419653848, 40.54240607676859], [111.8077338595953, 40.54240607676859], [111.8077338595953, 40.542765402882246]]]}, "properties": {"name": "structure", "ptype": "hall", "confidence": "low", "site_id": "cn_horinger_r06", "note": "Radar-detected new structure 18.4 ha, VV rise 11.0 dB 2021-2026, hall-like score 0.84; unconfirmed, operator unknown.", "digitised_from": "Sentinel-1 candidate scan horinger rank 6; outline is the 20 m radar blob"}}]}