{"type": "FeatureCollection", "features": [{"type": "Feature", "geometry": {"geodesic": false, "type": "Polygon", "coordinates": [[[107.7002770544872, 35.73444301310409], [107.7002770544872, 35.73426335004727], [107.70009739143038, 35.73426335004727], [107.70009739143038, 35.734083686990445], [107.69991772837355, 35.734083686990445], [107.69991772837355, 35.7337243608768], [107.70063638060084, 35.7337243608768], [107.70063638060084, 35.73354469781997], [107.70081604365767, 35.73354469781997], [107.70081604365767, 35.7330057086495], [107.70063638060084, 35.7330057086495], [107.70063638060084, 35.73282604559268], [107.70081604365767, 35.73282604559268], [107.70081604365767, 35.732646382535854], [107.7009957067145, 35.732646382535854], [107.7009957067145, 35.73246671947903], [107.70135503282815, 35.73246671947903], [107.70135503282815, 35.73210739336538], [107.70153469588496, 35.73210739336538], [107.70153469588496, 35.731927730308556], [107.70171435894179, 35.731927730308556], [107.70171435894179, 35.731748067251736], [107.70153469588496, 35.731748067251736], [107.70153469588496, 35.73156840419491], [107.7009957067145, 35.73156840419491], [107.7009957067145, 35.731209078081264], [107.70189402199861, 35.731209078081264], [107.70189402199861, 35.73138874113808], [107.70207368505544, 35.73138874113808], [107.70207368505544, 35.73156840419491], [107.70279233728273, 35.73156840419491], [107.70279233728273, 35.731927730308556], [107.70297200033956, 35.731927730308556], [107.70297200033956, 35.73228705642221], [107.70279233728273, 35.73228705642221], [107.70279233728273, 35.732646382535854], [107.7026126742259, 35.732646382535854], [107.7026126742259, 35.733365034763146], [107.70243301116909, 35.733365034763146], [107.70243301116909, 35.7337243608768], [107.70225334811227, 35.7337243608768], [107.70225334811227, 35.73390402393362], [107.70207368505544, 35.73390402393362], [107.70207368505544, 35.734083686990445], [107.70171435894179, 35.734083686990445], [107.70171435894179, 35.73390402393362], [107.70153469588496, 35.73390402393362], [107.70153469588496, 35.734083686990445], [107.70117536977132, 35.734083686990445], [107.70117536977132, 35.73426335004727], [107.70045671754403, 35.73426335004727], [107.70045671754403, 35.73444301310409], [107.7002770544872, 35.73444301310409]], [[107.70117536977132, 35.73282604559268], [107.7009957067145, 35.73282604559268], [107.7009957067145, 35.732646382535854], [107.70117536977132, 35.732646382535854], [107.70117536977132, 35.73282604559268]]]}, "properties": {"name": "structure", "ptype": "hall", "confidence": "low", "site_id": "cn_qingyang_r11", "note": "Radar-detected new structure 6.0 ha, VV rise 8.1 dB 2021-2026, hall-like score 0.51; unconfirmed, operator unknown.", "digitised_from": "Sentinel-1 candidate scan qingyang rank 11; outline is the 20 m radar blob"}}]}