{"type": "FeatureCollection", "features": [{"type": "Feature", "geometry": {"geodesic": false, "type": "Polygon", "coordinates": [[[107.69830076086214, 35.73857526341104], [107.69830076086214, 35.73839560035422], [107.69812109780531, 35.73839560035422], [107.69812109780531, 35.737676948126925], [107.69776177169166, 35.737676948126925], [107.69776177169166, 35.7374972850701], [107.69758210863483, 35.7374972850701], [107.69758210863483, 35.73731762201327], [107.6972227825212, 35.73731762201327], [107.6972227825212, 35.736239643672334], [107.69740244557802, 35.736239643672334], [107.69740244557802, 35.73605998061551], [107.69758210863483, 35.73605998061551], [107.69758210863483, 35.73659896978598], [107.69794143474849, 35.73659896978598], [107.69794143474849, 35.73570065450186], [107.69812109780531, 35.73570065450186], [107.69812109780531, 35.73534132838821], [107.69830076086214, 35.73534132838821], [107.69830076086214, 35.73516166533139], [107.69848042391897, 35.73516166533139], [107.69848042391897, 35.73498200227456], [107.6988397500326, 35.73498200227456], [107.6988397500326, 35.73516166533139], [107.69901941308943, 35.73516166533139], [107.69901941308943, 35.735520991445036], [107.69919907614626, 35.735520991445036], [107.69919907614626, 35.73588031755868], [107.69937873920308, 35.73588031755868], [107.69937873920308, 35.73605998061551], [107.69919907614626, 35.73605998061551], [107.69919907614626, 35.736239643672334], [107.69901941308943, 35.736239643672334], [107.69901941308943, 35.736419306729154], [107.6988397500326, 35.736419306729154], [107.6988397500326, 35.73677863284281], [107.69901941308943, 35.73677863284281], [107.69901941308943, 35.736958295899626], [107.6988397500326, 35.736958295899626], [107.6988397500326, 35.73713795895645], [107.69866008697578, 35.73713795895645], [107.69866008697578, 35.7374972850701], [107.6988397500326, 35.7374972850701], [107.6988397500326, 35.737676948126925], [107.69901941308943, 35.737676948126925], [107.69901941308943, 35.737856611183744], [107.69919907614626, 35.737856611183744], [107.69919907614626, 35.7382159372974], [107.69901941308943, 35.7382159372974], [107.69901941308943, 35.73839560035422], [107.6988397500326, 35.73839560035422], [107.6988397500326, 35.73857526341104], [107.69830076086214, 35.73857526341104]]]}, "properties": {"name": "structure", "ptype": "hall", "confidence": "low", "site_id": "cn_qingyang_r12", "note": "Radar-detected new structure 5.1 ha, VV rise 9.1 dB 2021-2026, hall-like score 0.66; unconfirmed, operator unknown.", "digitised_from": "Sentinel-1 candidate scan qingyang rank 12; outline is the 20 m radar blob"}}]}