{"type": "FeatureCollection", "features": [{"type": "Feature", "geometry": {"geodesic": false, "type": "Polygon", "coordinates": [[[107.69901941308943, 35.72725649083114], [107.69901941308943, 35.72707682777431], [107.69830076086214, 35.72707682777431], [107.69830076086214, 35.726717501660666], [107.69812109780531, 35.726717501660666], [107.69812109780531, 35.72635817554702], [107.69794143474849, 35.72635817554702], [107.69794143474849, 35.72617851249019], [107.69776177169166, 35.72617851249019], [107.69776177169166, 35.72599884943337], [107.69758210863483, 35.72599884943337], [107.69758210863483, 35.72617851249019], [107.69740244557802, 35.72617851249019], [107.69740244557802, 35.72653783860384], [107.69704311946437, 35.72653783860384], [107.69704311946437, 35.726717501660666], [107.69686345640754, 35.726717501660666], [107.69686345640754, 35.72653783860384], [107.69668379335072, 35.72653783860384], [107.69668379335072, 35.72635817554702], [107.69686345640754, 35.72635817554702], [107.69686345640754, 35.72617851249019], [107.69704311946437, 35.72617851249019], [107.69704311946437, 35.72581918637655], [107.6972227825212, 35.72581918637655], [107.6972227825212, 35.72366322969466], [107.69740244557802, 35.72366322969466], [107.69740244557802, 35.72330390358101], [107.69758210863483, 35.72330390358101], [107.69758210863483, 35.723124240524186], [107.69794143474849, 35.723124240524186], [107.69794143474849, 35.72330390358101], [107.69812109780531, 35.72330390358101], [107.69812109780531, 35.72348356663783], [107.69830076086214, 35.72348356663783], [107.69830076086214, 35.72330390358101], [107.69866008697578, 35.72330390358101], [107.69866008697578, 35.72348356663783], [107.69848042391897, 35.72348356663783], [107.69848042391897, 35.72366322969466], [107.69830076086214, 35.72366322969466], [107.69830076086214, 35.72420221886513], [107.69812109780531, 35.72420221886513], [107.69812109780531, 35.72438188192196], [107.69794143474849, 35.72438188192196], [107.69794143474849, 35.72510053414925], [107.69812109780531, 35.72510053414925], [107.69812109780531, 35.725280197206075], [107.6988397500326, 35.725280197206075], [107.6988397500326, 35.725459860262895], [107.69901941308943, 35.725459860262895], [107.69901941308943, 35.725280197206075], [107.6995584022599, 35.725280197206075], [107.6995584022599, 35.725459860262895], [107.69973806531672, 35.725459860262895], [107.69973806531672, 35.72581918637655], [107.69991772837355, 35.72581918637655], [107.69991772837355, 35.72617851249019], [107.7002770544872, 35.72617851249019], [107.7002770544872, 35.725459860262895], [107.70063638060084, 35.725459860262895], [107.70063638060084, 35.72563952331972], [107.70081604365767, 35.72563952331972], [107.70081604365767, 35.725459860262895], [107.7009957067145, 35.725459860262895], [107.7009957067145, 35.72581918637655], [107.70081604365767, 35.72581918637655], [107.70081604365767, 35.72653783860384], [107.70063638060084, 35.72653783860384], [107.70063638060084, 35.726717501660666], [107.70009739143038, 35.726717501660666], [107.70009739143038, 35.72689716471749], [107.6995584022599, 35.72689716471749], [107.6995584022599, 35.72707682777431], [107.69937873920308, 35.72707682777431], [107.69937873920308, 35.72725649083114], [107.69901941308943, 35.72725649083114]]]}, "properties": {"name": "structure", "ptype": "hall", "confidence": "low", "site_id": "cn_qingyang_r07", "note": "Radar-detected new structure 8.6 ha, VV rise 7.7 dB 2021-2026, hall-like score 0.53; unconfirmed, operator unknown.", "digitised_from": "Sentinel-1 candidate scan qingyang rank 7; outline is the 20 m radar blob"}}]}