{"type": "FeatureCollection", "features": [{"type": "Feature", "geometry": {"geodesic": false, "type": "Polygon", "coordinates": [[[107.61062518913207, 35.70246298898944], [107.61062518913207, 35.70228332593261], [107.61044552607524, 35.70228332593261], [107.61044552607524, 35.701923999818966], [107.61080485218889, 35.701923999818966], [107.61080485218889, 35.70156467370532], [107.61098451524572, 35.70156467370532], [107.61098451524572, 35.70102568453485], [107.61116417830254, 35.70102568453485], [107.61116417830254, 35.700486695364376], [107.61134384135937, 35.700486695364376], [107.61134384135937, 35.69976804313708], [107.61080485218889, 35.69976804313708], [107.61080485218889, 35.69958838008026], [107.61062518913207, 35.69958838008026], [107.61062518913207, 35.69940871702343], [107.61044552607524, 35.69940871702343], [107.61044552607524, 35.699229053966604], [107.61062518913207, 35.699229053966604], [107.61062518913207, 35.699049390909785], [107.61044552607524, 35.699049390909785], [107.61044552607524, 35.69869006479614], [107.61062518913207, 35.69869006479614], [107.61062518913207, 35.698330738682486], [107.61098451524572, 35.698330738682486], [107.61098451524572, 35.69815107562567], [107.61116417830254, 35.69815107562567], [107.61116417830254, 35.69797141256884], [107.61152350441618, 35.69797141256884], [107.61152350441618, 35.69869006479614], [107.61206249358666, 35.69869006479614], [107.61206249358666, 35.69851040173931], [107.61224215664349, 35.69851040173931], [107.61224215664349, 35.69797141256884], [107.61206249358666, 35.69797141256884], [107.61206249358666, 35.697612086455194], [107.61224215664349, 35.697612086455194], [107.61224215664349, 35.697791749512014], [107.6124218197003, 35.697791749512014], [107.6124218197003, 35.69797141256884], [107.61260148275713, 35.69797141256884], [107.61260148275713, 35.69815107562567], [107.61278114581395, 35.69815107562567], [107.61278114581395, 35.698330738682486], [107.61314047192761, 35.698330738682486], [107.61314047192761, 35.69851040173931], [107.61332013498443, 35.69851040173931], [107.61332013498443, 35.69869006479614], [107.61349979804125, 35.69869006479614], [107.61349979804125, 35.69886972785296], [107.61367946109807, 35.69886972785296], [107.61367946109807, 35.699049390909785], [107.6138591241549, 35.699049390909785], [107.6138591241549, 35.69958838008026], [107.61367946109807, 35.69958838008026], [107.61367946109807, 35.69976804313708], [107.61349979804125, 35.69976804313708], [107.61349979804125, 35.70012736925073], [107.61332013498443, 35.70012736925073], [107.61332013498443, 35.700486695364376], [107.61439811332536, 35.700486695364376], [107.61439811332536, 35.70084602147802], [107.61421845026855, 35.70084602147802], [107.61421845026855, 35.70102568453485], [107.61403878721173, 35.70102568453485], [107.61403878721173, 35.70156467370532], [107.6138591241549, 35.70156467370532], [107.6138591241549, 35.70174433676214], [107.61367946109807, 35.70174433676214], [107.61367946109807, 35.70156467370532], [107.61278114581395, 35.70156467370532], [107.61278114581395, 35.701385010648494], [107.6124218197003, 35.701385010648494], [107.6124218197003, 35.70084602147802], [107.61206249358666, 35.70084602147802], [107.61206249358666, 35.70102568453485], [107.61188283052984, 35.70102568453485], [107.61188283052984, 35.70120534759167], [107.61170316747301, 35.70120534759167], [107.61170316747301, 35.70156467370532], [107.61188283052984, 35.70156467370532], [107.61188283052984, 35.701923999818966], [107.61170316747301, 35.701923999818966], [107.61170316747301, 35.70210366287579], [107.61116417830254, 35.70210366287579], [107.61116417830254, 35.70228332593261], [107.61098451524572, 35.70228332593261], [107.61098451524572, 35.70246298898944], [107.61062518913207, 35.70246298898944]], [[107.6124218197003, 35.7006663584212], [107.61224215664349, 35.7006663584212], [107.61224215664349, 35.700486695364376], [107.6124218197003, 35.700486695364376], [107.6124218197003, 35.7006663584212]], [[107.61332013498443, 35.70102568453485], [107.61314047192761, 35.70102568453485], [107.61314047192761, 35.70084602147802], [107.61332013498443, 35.70084602147802], [107.61332013498443, 35.70102568453485]]]}, "properties": {"name": "structure", "ptype": "hall", "confidence": "low", "site_id": "cn_qingyang_r03", "note": "Radar-detected new structure 12.0 ha, VV rise 7.1 dB 2021-2026, hall-like score 0.60; unconfirmed, operator unknown.", "digitised_from": "Sentinel-1 candidate scan qingyang rank 3; outline is the 20 m radar blob"}}]}