{"type": "FeatureCollection", "features": [{"type": "Feature", "geometry": {"geodesic": false, "type": "Polygon", "coordinates": [[[113.19113939713937, 41.02246576460207], [113.19113939713937, 41.02210643848842], [113.19095973408254, 41.02210643848842], [113.19095973408254, 41.021926775431595], [113.19131906019618, 41.021926775431595], [113.19131906019618, 41.02156744931795], [113.19095973408254, 41.02156744931795], [113.19095973408254, 41.02138778626112], [113.19024108185525, 41.02138778626112], [113.19024108185525, 41.0212081232043], [113.18970209268477, 41.0212081232043], [113.18970209268477, 41.02102846014748], [113.1898817557416, 41.02102846014748], [113.1898817557416, 41.020489470977004], [113.18952242962794, 41.020489470977004], [113.18952242962794, 41.02066913403383], [113.1891631035143, 41.02066913403383], [113.1891631035143, 41.020489470977004], [113.18898344045748, 41.020489470977004], [113.18898344045748, 41.02013014486336], [113.188444451287, 41.02013014486336], [113.188444451287, 41.01995048180653], [113.18826478823019, 41.01995048180653], [113.18826478823019, 41.019591155692886], [113.188444451287, 41.019591155692886], [113.188444451287, 41.01923182957924], [113.18862411434382, 41.01923182957924], [113.18862411434382, 41.01887250346559], [113.18880377740065, 41.01887250346559], [113.18880377740065, 41.01869284040877], [113.18898344045748, 41.01869284040877], [113.18898344045748, 41.01851317735194], [113.1891631035143, 41.01851317735194], [113.1891631035143, 41.01797418818147], [113.18934276657112, 41.01797418818147], [113.18934276657112, 41.018153851238296], [113.18970209268477, 41.018153851238296], [113.18970209268477, 41.018333514295115], [113.19042074491206, 41.018333514295115], [113.19042074491206, 41.018153851238296], [113.19060040796889, 41.018153851238296], [113.19060040796889, 41.01851317735194], [113.19078007102571, 41.01851317735194], [113.19078007102571, 41.01887250346559], [113.19060040796889, 41.01887250346559], [113.19060040796889, 41.01923182957924], [113.19042074491206, 41.01923182957924], [113.19042074491206, 41.019591155692886], [113.19095973408254, 41.019591155692886], [113.19095973408254, 41.01995048180653], [113.19078007102571, 41.01995048180653], [113.19078007102571, 41.02013014486336], [113.19095973408254, 41.02013014486336], [113.19095973408254, 41.02030980792018], [113.19167838630983, 41.02030980792018], [113.19167838630983, 41.020489470977004], [113.191498723253, 41.020489470977004], [113.191498723253, 41.02066913403383], [113.19113939713937, 41.02066913403383], [113.19113939713937, 41.020489470977004], [113.19095973408254, 41.020489470977004], [113.19095973408254, 41.02066913403383], [113.19078007102571, 41.02066913403383], [113.19078007102571, 41.02084879709065], [113.19042074491206, 41.02084879709065], [113.19042074491206, 41.02102846014748], [113.19095973408254, 41.02102846014748], [113.19095973408254, 41.0212081232043], [113.191498723253, 41.0212081232043], [113.191498723253, 41.02102846014748], [113.19167838630983, 41.02102846014748], [113.19167838630983, 41.02084879709065], [113.19203771242348, 41.02084879709065], [113.19203771242348, 41.02102846014748], [113.19185804936666, 41.02102846014748], [113.19185804936666, 41.02138778626112], [113.19167838630983, 41.02138778626112], [113.19167838630983, 41.021747112374776], [113.191498723253, 41.021747112374776], [113.191498723253, 41.021926775431595], [113.19203771242348, 41.021926775431595], [113.19203771242348, 41.02210643848842], [113.191498723253, 41.02210643848842], [113.191498723253, 41.02228610154524], [113.19131906019618, 41.02228610154524], [113.19131906019618, 41.02246576460207], [113.19113939713937, 41.02246576460207]]]}, "properties": {"name": "structure", "ptype": "hall", "confidence": "low", "site_id": "cn_ulanqab_r03", "note": "Radar-detected new structure 8.0 ha, VV rise 11.4 dB 2021-2026, hall-like score 0.73; unconfirmed, operator unknown.", "digitised_from": "Sentinel-1 candidate scan ulanqab rank 3; outline is the 20 m radar blob"}}]}