{"type": "FeatureCollection", "features": [{"type": "Feature", "geometry": {"geodesic": false, "type": "Polygon", "coordinates": [[[113.10094854261376, 41.06360860461474], [113.10094854261376, 41.063428941557916], [113.10076887955694, 41.063428941557916], [113.10076887955694, 41.062889952387444], [113.10112820567059, 41.062889952387444], [113.10112820567059, 41.06306961544427], [113.1013078687274, 41.06306961544427], [113.1013078687274, 41.0632492785011], [113.10148753178423, 41.0632492785011], [113.10148753178423, 41.06306961544427], [113.10166719484106, 41.06306961544427], [113.10166719484106, 41.062889952387444], [113.1013078687274, 41.062889952387444], [113.1013078687274, 41.062710289330624], [113.10094854261376, 41.062710289330624], [113.10094854261376, 41.0625306262738], [113.10112820567059, 41.0625306262738], [113.10112820567059, 41.06217130016015], [113.10040955344328, 41.06217130016015], [113.10040955344328, 41.06235096321697], [113.10076887955694, 41.06235096321697], [113.10076887955694, 41.0625306262738], [113.10040955344328, 41.0625306262738], [113.10040955344328, 41.06235096321697], [113.10022989038646, 41.06235096321697], [113.10022989038646, 41.0625306262738], [113.10005022732965, 41.0625306262738], [113.10005022732965, 41.06217130016015], [113.099690901216, 41.06217130016015], [113.099690901216, 41.061991637103326], [113.10058921650011, 41.061991637103326], [113.10058921650011, 41.061811974046506], [113.10094854261376, 41.061811974046506], [113.10094854261376, 41.06163231098968], [113.10076887955694, 41.06163231098968], [113.10076887955694, 41.06145264793285], [113.1013078687274, 41.06145264793285], [113.1013078687274, 41.061811974046506], [113.10112820567059, 41.061811974046506], [113.10112820567059, 41.06217130016015], [113.1013078687274, 41.06217130016015], [113.1013078687274, 41.061991637103326], [113.10148753178423, 41.061991637103326], [113.10148753178423, 41.06163231098968], [113.10184685789788, 41.06163231098968], [113.10184685789788, 41.06145264793285], [113.10166719484106, 41.06145264793285], [113.10166719484106, 41.061272984876034], [113.10184685789788, 41.061272984876034], [113.10184685789788, 41.06091365876238], [113.10166719484106, 41.06091365876238], [113.10166719484106, 41.06109332181921], [113.10148753178423, 41.06109332181921], [113.10148753178423, 41.06091365876238], [113.1013078687274, 41.06091365876238], [113.1013078687274, 41.061272984876034], [113.10094854261376, 41.061272984876034], [113.10094854261376, 41.06091365876238], [113.10076887955694, 41.06091365876238], [113.10076887955694, 41.06109332181921], [113.10058921650011, 41.06109332181921], [113.10058921650011, 41.06145264793285], [113.10040955344328, 41.06145264793285], [113.10040955344328, 41.061811974046506], [113.10022989038646, 41.061811974046506], [113.10022989038646, 41.06163231098968], [113.10005022732965, 41.06163231098968], [113.10005022732965, 41.06109332181921], [113.10040955344328, 41.06109332181921], [113.10040955344328, 41.06091365876238], [113.10022989038646, 41.06091365876238], [113.10022989038646, 41.06073399570556], [113.10058921650011, 41.06073399570556], [113.10058921650011, 41.060554332648735], [113.10076887955694, 41.060554332648735], [113.10076887955694, 41.06037466959191], [113.10094854261376, 41.06037466959191], [113.10094854261376, 41.06019500653509], [113.10040955344328, 41.06019500653509], [113.10040955344328, 41.05983568042144], [113.10094854261376, 41.05983568042144], [113.10094854261376, 41.06001534347826], [113.1013078687274, 41.06001534347826], [113.1013078687274, 41.05965601736462], [113.10148753178423, 41.05965601736462], [113.10148753178423, 41.05983568042144], [113.10166719484106, 41.05983568042144], [113.10166719484106, 41.06001534347826], [113.10184685789788, 41.06001534347826], [113.10184685789788, 41.05983568042144], [113.10202652095471, 41.05983568042144], [113.10202652095471, 41.06019500653509], [113.10166719484106, 41.06019500653509], [113.10166719484106, 41.060554332648735], [113.10220618401152, 41.060554332648735], [113.10220618401152, 41.06037466959191], [113.10238584706835, 41.06037466959191], [113.10238584706835, 41.06019500653509], [113.10256551012517, 41.06019500653509], [113.10256551012517, 41.06001534347826], [113.10310449929565, 41.06001534347826], [113.10310449929565, 41.06037466959191], [113.10292483623883, 41.06037466959191], [113.10292483623883, 41.06073399570556], [113.10328416235247, 41.06073399570556], [113.10328416235247, 41.06091365876238], [113.10346382540929, 41.06091365876238], [113.10346382540929, 41.061272984876034], [113.10328416235247, 41.061272984876034], [113.10328416235247, 41.06145264793285], [113.10310449929565, 41.06145264793285], [113.10310449929565, 41.06163231098968], [113.10292483623883, 41.06163231098968], [113.10292483623883, 41.06145264793285], [113.102745173182, 41.06145264793285], [113.102745173182, 41.061272984876034], [113.10238584706835, 41.061272984876034], [113.10238584706835, 41.06145264793285], [113.10220618401152, 41.06145264793285], [113.10220618401152, 41.061811974046506], [113.102745173182, 41.061811974046506], [113.102745173182, 41.061991637103326], [113.10256551012517, 41.061991637103326], [113.10256551012517, 41.06217130016015], [113.10220618401152, 41.06217130016015], [113.10220618401152, 41.06235096321697], [113.10184685789788, 41.06235096321697], [113.10184685789788, 41.06217130016015], [113.10166719484106, 41.06217130016015], [113.10166719484106, 41.062889952387444], [113.10184685789788, 41.062889952387444], [113.10184685789788, 41.06306961544427], [113.10202652095471, 41.06306961544427], [113.10202652095471, 41.0632492785011], [113.10220618401152, 41.0632492785011], [113.10220618401152, 41.06360860461474], [113.10094854261376, 41.06360860461474]], [[113.10148753178423, 41.06019500653509], [113.1013078687274, 41.06019500653509], [113.1013078687274, 41.06001534347826], [113.10148753178423, 41.06001534347826], [113.10148753178423, 41.06019500653509]], [[113.10256551012517, 41.060554332648735], [113.10238584706835, 41.060554332648735], [113.10238584706835, 41.06037466959191], [113.10256551012517, 41.06037466959191], [113.10256551012517, 41.060554332648735]], [[113.10094854261376, 41.06073399570556], [113.10076887955694, 41.06073399570556], [113.10076887955694, 41.060554332648735], [113.10094854261376, 41.060554332648735], [113.10094854261376, 41.06073399570556]], [[113.10148753178423, 41.06073399570556], [113.10112820567059, 41.06073399570556], [113.10112820567059, 41.06037466959191], [113.10148753178423, 41.06037466959191], [113.10148753178423, 41.06073399570556]], [[113.10202652095471, 41.06091365876238], [113.10184685789788, 41.06091365876238], [113.10184685789788, 41.06073399570556], [113.10202652095471, 41.06073399570556], [113.10202652095471, 41.06091365876238]], [[113.10184685789788, 41.061991637103326], [113.10166719484106, 41.061991637103326], [113.10166719484106, 41.061811974046506], [113.10184685789788, 41.061811974046506], [113.10184685789788, 41.061991637103326]], [[113.10148753178423, 41.062710289330624], [113.1013078687274, 41.062710289330624], [113.1013078687274, 41.0625306262738], [113.10148753178423, 41.0625306262738], [113.10148753178423, 41.062710289330624]], [[113.10184685789788, 41.063428941557916], [113.10148753178423, 41.063428941557916], [113.10148753178423, 41.0632492785011], [113.10166719484106, 41.0632492785011], [113.10166719484106, 41.06306961544427], [113.10184685789788, 41.06306961544427], [113.10184685789788, 41.063428941557916]]]}, "properties": {"name": "structure", "ptype": "hall", "confidence": "low", "site_id": "cn_ulanqab_r05", "note": "Radar-detected new structure 7.0 ha, VV rise 5.1 dB 2021-2026, hall-like score 0.87; unconfirmed, operator unknown.", "digitised_from": "Sentinel-1 candidate scan ulanqab rank 5; outline is the 20 m radar blob"}}]}