{"type": "FeatureCollection", "features": [{"type": "Feature", "geometry": {"geodesic": false, "type": "Polygon", "coordinates": [[[113.14586430681973, 41.07402906191053], [113.14586430681973, 41.0738493988537], [113.14532531764927, 41.0738493988537], [113.14532531764927, 41.073669735796884], [113.14496599153561, 41.073669735796884], [113.14496599153561, 41.07349007274006], [113.14424733930832, 41.07349007274006], [113.14424733930832, 41.07313074662641], [113.1440676762515, 41.07313074662641], [113.1440676762515, 41.07331040968323], [113.14370835013786, 41.07331040968323], [113.14370835013786, 41.072951083569585], [113.1433490240242, 41.072951083569585], [113.1433490240242, 41.07223243134229], [113.14316936096738, 41.07223243134229], [113.14316936096738, 41.07205276828547], [113.14298969791055, 41.07205276828547], [113.14298969791055, 41.07223243134229], [113.14281003485372, 41.07223243134229], [113.14281003485372, 41.07241209439911], [113.14263037179691, 41.07241209439911], [113.14263037179691, 41.07223243134229], [113.14209138262643, 41.07223243134229], [113.14209138262643, 41.07205276828547], [113.1417320565128, 41.07205276828547], [113.1417320565128, 41.07187310522864], [113.14155239345597, 41.07187310522864], [113.14155239345597, 41.071513779114994], [113.1417320565128, 41.071513779114994], [113.1417320565128, 41.07133411605817], [113.14209138262643, 41.07133411605817], [113.14209138262643, 41.071513779114994], [113.14227104568326, 41.071513779114994], [113.14227104568326, 41.07169344217182], [113.14245070874009, 41.07169344217182], [113.14245070874009, 41.07187310522864], [113.14298969791055, 41.07187310522864], [113.14298969791055, 41.07169344217182], [113.14316936096738, 41.07169344217182], [113.14316936096738, 41.07133411605817], [113.1433490240242, 41.07133411605817], [113.1433490240242, 41.07115445300135], [113.14352868708103, 41.07115445300135], [113.14352868708103, 41.07097478994452], [113.1440676762515, 41.07097478994452], [113.1440676762515, 41.071513779114994], [113.14424733930832, 41.071513779114994], [113.14424733930832, 41.07169344217182], [113.14442700236515, 41.07169344217182], [113.14442700236515, 41.07187310522864], [113.14460666542197, 41.07187310522864], [113.14460666542197, 41.07205276828547], [113.14478632847879, 41.07205276828547], [113.14478632847879, 41.07187310522864], [113.14514565459244, 41.07187310522864], [113.14514565459244, 41.07241209439911], [113.14460666542197, 41.07241209439911], [113.14460666542197, 41.07259175745594], [113.14442700236515, 41.07259175745594], [113.14442700236515, 41.072951083569585], [113.14460666542197, 41.072951083569585], [113.14460666542197, 41.07313074662641], [113.14478632847879, 41.07313074662641], [113.14478632847879, 41.07331040968323], [113.14532531764927, 41.07331040968323], [113.14532531764927, 41.07349007274006], [113.1455049807061, 41.07349007274006], [113.1455049807061, 41.073669735796884], [113.14586430681973, 41.073669735796884], [113.14586430681973, 41.07349007274006], [113.14604396987656, 41.07349007274006], [113.14604396987656, 41.07331040968323], [113.14586430681973, 41.07331040968323], [113.14586430681973, 41.07313074662641], [113.14568464376292, 41.07313074662641], [113.14568464376292, 41.07277142051276], [113.1455049807061, 41.07277142051276], [113.1455049807061, 41.07259175745594], [113.14604396987656, 41.07259175745594], [113.14604396987656, 41.07277142051276], [113.14640329599021, 41.07277142051276], [113.14640329599021, 41.07187310522864], [113.14694228516068, 41.07187310522864], [113.14694228516068, 41.07205276828547], [113.1471219482175, 41.07205276828547], [113.1471219482175, 41.07223243134229], [113.14730161127433, 41.07223243134229], [113.14730161127433, 41.07241209439911], [113.1471219482175, 41.07241209439911], [113.1471219482175, 41.07259175745594], [113.14730161127433, 41.07259175745594], [113.14730161127433, 41.07277142051276], [113.14748127433116, 41.07277142051276], [113.14748127433116, 41.072951083569585], [113.14730161127433, 41.072951083569585], [113.14730161127433, 41.07331040968323], [113.1471219482175, 41.07331040968323], [113.1471219482175, 41.07349007274006], [113.14694228516068, 41.07349007274006], [113.14694228516068, 41.073669735796884], [113.14676262210385, 41.073669735796884], [113.14676262210385, 41.0738493988537], [113.14658295904704, 41.0738493988537], [113.14658295904704, 41.073669735796884], [113.14640329599021, 41.073669735796884], [113.14640329599021, 41.0738493988537], [113.14622363293338, 41.0738493988537], [113.14622363293338, 41.07402906191053], [113.14586430681973, 41.07402906191053]], [[113.14694228516068, 41.07277142051276], [113.14676262210385, 41.07277142051276], [113.14676262210385, 41.07259175745594], [113.14694228516068, 41.07259175745594], [113.14694228516068, 41.07277142051276]]]}, "properties": {"name": "structure", "ptype": "hall", "confidence": "low", "site_id": "cn_ulanqab_r04", "note": "Radar-detected new structure 7.6 ha, VV rise 8.2 dB 2021-2026, hall-like score 0.86; unconfirmed, operator unknown.", "digitised_from": "Sentinel-1 candidate scan ulanqab rank 4; outline is the 20 m radar blob"}}]}