{"type": "FeatureCollection", "features": [{"type": "Feature", "geometry": {"geodesic": false, "type": "Polygon", "coordinates": [[[113.17155612394555, 41.04851690784153], [113.17155612394555, 41.047977918671066], [113.17101713477508, 41.047977918671066], [113.17101713477508, 41.048157581727885], [113.17065780866143, 41.048157581727885], [113.17065780866143, 41.04779825561424], [113.17029848254779, 41.04779825561424], [113.17029848254779, 41.04761859255741], [113.17011881949097, 41.04761859255741], [113.17011881949097, 41.04707960338694], [113.17029848254779, 41.04707960338694], [113.17029848254779, 41.04654061421647], [113.1704781456046, 41.04654061421647], [113.1704781456046, 41.04636095115965], [113.17065780866143, 41.04636095115965], [113.17065780866143, 41.04618128810282], [113.17119679783191, 41.04618128810282], [113.17119679783191, 41.046001625046], [113.17137646088874, 41.046001625046], [113.17137646088874, 41.045821961989176], [113.1719154500592, 41.045821961989176], [113.1719154500592, 41.046001625046], [113.17245443922968, 41.046001625046], [113.17245443922968, 41.04564229893235], [113.17317309145697, 41.04564229893235], [113.17317309145697, 41.045821961989176], [113.1733527545138, 41.045821961989176], [113.1733527545138, 41.046001625046], [113.17317309145697, 41.046001625046], [113.17317309145697, 41.04636095115965], [113.17209511311603, 41.04636095115965], [113.17209511311603, 41.04654061421647], [113.1719154500592, 41.04654061421647], [113.1719154500592, 41.04725926644377], [113.17227477617286, 41.04725926644377], [113.17227477617286, 41.04743892950059], [113.17245443922968, 41.04743892950059], [113.17245443922968, 41.04761859255741], [113.17227477617286, 41.04761859255741], [113.17227477617286, 41.04779825561424], [113.17209511311603, 41.04779825561424], [113.17209511311603, 41.047977918671066], [113.17227477617286, 41.047977918671066], [113.17227477617286, 41.048157581727885], [113.17209511311603, 41.048157581727885], [113.17209511311603, 41.04833724478471], [113.1719154500592, 41.04833724478471], [113.1719154500592, 41.04851690784153], [113.17155612394555, 41.04851690784153]]]}, "properties": {"name": "structure", "ptype": "hall", "confidence": "low", "site_id": "cn_ulanqab_r07", "note": "Radar-detected new structure 5.5 ha, VV rise 7.4 dB 2021-2026, hall-like score 0.68; unconfirmed, operator unknown.", "digitised_from": "Sentinel-1 candidate scan ulanqab rank 7; outline is the 20 m radar blob"}}]}