{"type": "FeatureCollection", "features": [{"type": "Feature", "geometry": {"geodesic": false, "type": "Polygon", "coordinates": [[[113.14963723101305, 41.06666287658075], [113.14963723101305, 41.066483213523924], [113.14909824184257, 41.066483213523924], [113.14909824184257, 41.0663035504671], [113.14873891572891, 41.0663035504671], [113.14873891572891, 41.06612388741028], [113.14819992655845, 41.06612388741028], [113.14819992655845, 41.065584898239806], [113.14802026350162, 41.065584898239806], [113.14802026350162, 41.06540523518298], [113.14766093738798, 41.06540523518298], [113.14766093738798, 41.065584898239806], [113.14730161127433, 41.065584898239806], [113.14730161127433, 41.06522557212616], [113.14694228516068, 41.06522557212616], [113.14694228516068, 41.06504590906933], [113.14676262210385, 41.06504590906933], [113.14676262210385, 41.06486624601251], [113.14640329599021, 41.06486624601251], [113.14640329599021, 41.06468658295569], [113.14622363293338, 41.06468658295569], [113.14622363293338, 41.064327256842034], [113.14658295904704, 41.064327256842034], [113.14658295904704, 41.06450691989886], [113.14694228516068, 41.06450691989886], [113.14694228516068, 41.064327256842034], [113.14676262210385, 41.064327256842034], [113.14676262210385, 41.064147593785215], [113.14658295904704, 41.064147593785215], [113.14658295904704, 41.06396793072839], [113.1471219482175, 41.06396793072839], [113.1471219482175, 41.06378826767157], [113.14694228516068, 41.06378826767157], [113.14694228516068, 41.063428941557916], [113.14730161127433, 41.063428941557916], [113.14730161127433, 41.06360860461474], [113.14766093738798, 41.06360860461474], [113.14766093738798, 41.06378826767157], [113.14802026350162, 41.06378826767157], [113.14802026350162, 41.06396793072839], [113.14837958961527, 41.06396793072839], [113.14837958961527, 41.064147593785215], [113.1485592526721, 41.064147593785215], [113.1485592526721, 41.064327256842034], [113.14891857878574, 41.064327256842034], [113.14891857878574, 41.06450691989886], [113.14873891572891, 41.06450691989886], [113.14873891572891, 41.06468658295569], [113.14837958961527, 41.06468658295569], [113.14837958961527, 41.06504590906933], [113.1485592526721, 41.06504590906933], [113.1485592526721, 41.06486624601251], [113.14891857878574, 41.06486624601251], [113.14891857878574, 41.06468658295569], [113.14945756795622, 41.06468658295569], [113.14945756795622, 41.06450691989886], [113.14963723101305, 41.06450691989886], [113.14963723101305, 41.06468658295569], [113.14981689406986, 41.06468658295569], [113.14981689406986, 41.06504590906933], [113.15035588324034, 41.06504590906933], [113.15035588324034, 41.06522557212616], [113.15053554629716, 41.06522557212616], [113.15053554629716, 41.06540523518298], [113.15071520935398, 41.06540523518298], [113.15071520935398, 41.06576456129663], [113.15035588324034, 41.06576456129663], [113.15035588324034, 41.06594422435345], [113.15053554629716, 41.06594422435345], [113.15053554629716, 41.06612388741028], [113.14981689406986, 41.06612388741028], [113.14981689406986, 41.0663035504671], [113.14999655712668, 41.0663035504671], [113.14999655712668, 41.06666287658075], [113.14963723101305, 41.06666287658075]], [[113.14748127433116, 41.064147593785215], [113.1471219482175, 41.064147593785215], [113.1471219482175, 41.06396793072839], [113.14748127433116, 41.06396793072839], [113.14748127433116, 41.064147593785215]], [[113.14802026350162, 41.06450691989886], [113.14766093738798, 41.06450691989886], [113.14766093738798, 41.064327256842034], [113.14748127433116, 41.064327256842034], [113.14748127433116, 41.064147593785215], [113.1478406004448, 41.064147593785215], [113.1478406004448, 41.064327256842034], [113.14802026350162, 41.064327256842034], [113.14802026350162, 41.06450691989886]], [[113.14730161127433, 41.06468658295569], [113.14694228516068, 41.06468658295569], [113.14694228516068, 41.06450691989886], [113.14730161127433, 41.06450691989886], [113.14730161127433, 41.06468658295569]], [[113.14837958961527, 41.06468658295569], [113.14802026350162, 41.06468658295569], [113.14802026350162, 41.06450691989886], [113.14837958961527, 41.06450691989886], [113.14837958961527, 41.06468658295569]], [[113.1478406004448, 41.06504590906933], [113.14748127433116, 41.06504590906933], [113.14748127433116, 41.06486624601251], [113.14730161127433, 41.06486624601251], [113.14730161127433, 41.06468658295569], [113.14766093738798, 41.06468658295569], [113.14766093738798, 41.06486624601251], [113.1478406004448, 41.06486624601251], [113.1478406004448, 41.06504590906933]], [[113.14819992655845, 41.06540523518298], [113.14802026350162, 41.06540523518298], [113.14802026350162, 41.06504590906933], [113.14837958961527, 41.06504590906933], [113.14837958961527, 41.06522557212616], [113.14819992655845, 41.06522557212616], [113.14819992655845, 41.06540523518298]], [[113.14963723101305, 41.06540523518298], [113.14945756795622, 41.06540523518298], [113.14945756795622, 41.06522557212616], [113.14963723101305, 41.06522557212616], [113.14963723101305, 41.06540523518298]], [[113.14999655712668, 41.065584898239806], [113.14963723101305, 41.065584898239806], [113.14963723101305, 41.06540523518298], [113.14999655712668, 41.06540523518298], [113.14999655712668, 41.065584898239806]], [[113.14909824184257, 41.06576456129663], [113.14873891572891, 41.06576456129663], [113.14873891572891, 41.065584898239806], [113.1485592526721, 41.065584898239806], [113.1485592526721, 41.06540523518298], [113.14891857878574, 41.06540523518298], [113.14891857878574, 41.065584898239806], [113.14909824184257, 41.065584898239806], [113.14909824184257, 41.06576456129663]], [[113.15035588324034, 41.06576456129663], [113.15017622018351, 41.06576456129663], [113.15017622018351, 41.065584898239806], [113.15035588324034, 41.065584898239806], [113.15035588324034, 41.06576456129663]], [[113.14981689406986, 41.06612388741028], [113.14945756795622, 41.06612388741028], [113.14945756795622, 41.06594422435345], [113.14927790489939, 41.06594422435345], [113.14927790489939, 41.06576456129663], [113.14963723101305, 41.06576456129663], [113.14963723101305, 41.06594422435345], [113.14981689406986, 41.06594422435345], [113.14981689406986, 41.06612388741028]]]}, "properties": {"name": "structure", "ptype": "hall", "confidence": "low", "site_id": "cn_ulanqab_r06", "note": "Radar-detected new structure 6.7 ha, VV rise 11.5 dB 2021-2026, hall-like score 0.67; unconfirmed, operator unknown.", "digitised_from": "Sentinel-1 candidate scan ulanqab rank 6; outline is the 20 m radar blob"}}]}