{
 "type": "FeatureCollection",
 "name": "cn_ulanqab_park",
 "features": [
  {
   "type": "Feature",
   "properties": {
    "name": "long_halls",
    "ptype": "hall",
    "confidence": "low",
    "note": "Hand-digitised on a 10 m Sentinel-2 chip; large white multi-hall complex, operator not attributed.",
    "site_id": "cn_ulanqab_park",
    "digitised_from": "Sentinel-2 chip S2C_49TFF_20250906, offsets rel. 41.055,113.16"
   },
   "geometry": {
    "type": "Polygon",
    "coordinates": [
     [
      [
       113.16026515140612,
       41.063101559773116
      ],
      [
       113.165617111184,
       41.06300107185042
      ],
      [
       113.16576482864632,
       41.067501917251796
      ],
      [
       113.16041250446442,
       41.06760242100843
      ],
      [
       113.16026515140612,
       41.063101559773116
      ]
     ]
    ]
   }
  },
  {
   "type": "Feature",
   "properties": {
    "name": "white_block",
    "ptype": "hall",
    "confidence": "low",
    "note": "Hand-digitised on a 10 m Sentinel-2 chip; large white multi-hall complex, operator not attributed.",
    "site_id": "cn_ulanqab_park",
    "digitised_from": "Sentinel-2 chip S2C_49TFF_20250906, offsets rel. 41.055,113.16"
   },
   "geometry": {
    "type": "Polygon",
    "coordinates": [
     [
      [
       113.16371507487301,
       41.0594339120184
      ],
      [
       113.16728284472401,
       41.05936684573953
      ],
      [
       113.16737152799031,
       41.06206735218773
      ],
      [
       113.16380361241205,
       41.06213442480711
      ],
      [
       113.16371507487301,
       41.0594339120184
      ]
     ]
    ]
   }
  },
  {
   "type": "Feature",
   "properties": {
    "name": "campus",
    "ptype": "campus",
    "confidence": "low",
    "site_id": "cn_ulanqab_park",
    "digitised_from": "derived"
   },
   "geometry": {
    "type": "Polygon",
    "coordinates": [
     [
      [
       113.17028122838265,
       41.059268380336256
      ],
      [
       113.1702574815895,
       41.05897757010646
      ],
      [
       113.17020559654945,
       41.058690442186254
      ],
      [
       113.17012606406328,
       41.0584097126303
      ],
      [
       113.17001963645971,
       41.05813803696864
      ],
      [
       113.16988732047882,
       41.057877985087
      ],
      [
       113.16973036774893,
       41.057632016917275
      ],
      [
       113.16955026294694,
       41.05740245916802
      ],
      [
       113.16934870975423,
       41.05719148331526
      ],
      [
       113.16912761474082,
       41.05700108506163
      ],
      [
       113.16888906933042,
       41.05683306545826
      ],
      [
       113.16863533001683,
       41.0566890138679
      ],
      [
       113.1683687970189,
       41.05657029293059
      ],
      [
       113.1680919915759,
       41.05647802567382
      ],
      [
       113.16780753209818,
       41.05641308488946
      ],
      [
       113.16751810939854,
       41.056376084877655
      ],
      [
       113.16722646123885,
       41.056367375635894
      ],
      [
       113.16365869138785,
       41.05643444191476
      ],
      [
       113.16336057477994,
       41.0564549307019
      ],
      [
       113.16306597533693,
       41.056504975386744
      ],
      [
       113.1627778159207,
       41.05658407945203
      ],
      [
       113.16249895549859,
       41.05669145806853
      ],
      [
       113.16223216077813,
       41.05682604588165
      ],
      [
       113.1619800787573,
       41.056986507581364
      ],
      [
       113.1617452104623,
       41.057171251150436
      ],
      [
       113.16152988613379,
       41.05737844365961
      ],
      [
       113.1580799626669,
       41.061046091414326
      ],
      [
       113.15788852240138,
       41.06127081277426
      ],
      [
       113.15772009557978,
       41.06151326167741
      ],
      [
       113.15757631311766,
       41.06177109043543
      ],
      [
       113.15745856729359,
       41.0620418024333
      ],
      [
       113.1573679982674,
       41.062322776304626
      ],
      [
       113.15730548303975,
       41.06261129131495
      ],
      [
       113.15727162695993,
       41.06290455370725
      ],
      [
       113.15726675786411,
       41.06319972375447
      ],
      [
       113.1574141109224,
       41.06770058498979
      ],
      [
       113.15743783043337,
       41.067991412536564
      ],
      [
       113.15748969144381,
       41.068278560081836
      ],
      [
       113.15756920332973,
       41.068559311105275
      ],
      [
       113.15767561387969,
       41.06883100959997
      ],
      [
       113.15780791641119,
       41.06909108519922
      ],
      [
       113.15796485929405,
       41.06933707749316
      ],
      [
       113.1581449577915,
       41.06956665930512
      ],
      [
       113.15834650810616,
       41.06977765870755
      ],
      [
       113.15856760349865,
       41.06996807956928
      ],
      [
       113.15880615232606,
       41.07013612043962
      ],
      [
       113.15905989782962,
       41.07028019159075
      ],
      [
       113.15932643948447,
       41.07039893005711
      ],
      [
       113.1596032557095,
       41.07049121252958
      ],
      [
       113.15988772772242,
       41.07055616598237
      ],
      [
       113.1601771643144,
       41.07059317593215
      ],
      [
       113.1604688273099,
       41.07060189225135
      ],
      [
       113.1658211514918,
       41.07050138849471
      ],
      [
       113.16611219651935,
       41.07048173864926
      ],
      [
       113.16639995724833,
       41.07043391514724
      ],
      [
       113.16668171295463,
       41.07035837015096
      ],
      [
       113.16695479969047,
       41.070255817924306
      ],
      [
       113.16721663547163,
       41.07012722807948
      ],
      [
       113.16746474468955,
       41.06997381640952
      ],
      [
       113.16769678151773,
       41.069797033393215
      ],
      [
       113.1679105520912,
       41.069598550481075
      ],
      [
       113.16810403524894,
       41.06938024429207
      ],
      [
       113.16827540164375,
       41.06914417887059
      ],
      [
       113.16842303103826,
       41.06889258617123
      ],
      [
       113.16854552762402,
       41.06862784495614
      ],
      [
       113.16864173321862,
       41.06835245830422
      ],
      [
       113.17024843256262,
       41.062917893240154
      ],
      [
       113.17032268514669,
       41.0626064917229
      ],
      [
       113.17036333246115,
       41.06228895094283
      ],
      [
       113.17036991164895,
       41.061968886784456
      ],
      [
       113.17028122838265,
       41.059268380336256
      ]
     ]
    ]
   }
  }
 ]
}