{"type": "FeatureCollection", "features": [{"type": "Feature", "geometry": {"geodesic": false, "type": "Polygon", "coordinates": [[[114.6952785088691, 41.19134903801654], [114.6952785088691, 41.19116937495971], [114.69509884581227, 41.19116937495971], [114.69509884581227, 41.19134903801654], [114.69455985664179, 41.19134903801654], [114.69455985664179, 41.19116937495971], [114.69420053052815, 41.19116937495971], [114.69420053052815, 41.19098971190289], [114.69402086747132, 41.19098971190289], [114.69402086747132, 41.19081004884607], [114.69366154135767, 41.19081004884607], [114.69366154135767, 41.19063038578924], [114.69348187830084, 41.19063038578924], [114.69348187830084, 41.19045072273242], [114.69330221524403, 41.19045072273242], [114.69330221524403, 41.190271059675595], [114.69294288913038, 41.190271059675595], [114.69294288913038, 41.19045072273242], [114.69276322607355, 41.19045072273242], [114.69276322607355, 41.18991173356195], [114.69258356301673, 41.18991173356195], [114.69258356301673, 41.189552407448296], [114.6924038999599, 41.189552407448296], [114.6924038999599, 41.18937274439148], [114.69258356301673, 41.18937274439148], [114.69258356301673, 41.189013418277824], [114.69276322607355, 41.189013418277824], [114.69276322607355, 41.188833755221005], [114.69294288913038, 41.188833755221005], [114.69294288913038, 41.18865409216418], [114.6931225521872, 41.18865409216418], [114.6931225521872, 41.18847442910736], [114.69366154135767, 41.18847442910736], [114.69366154135767, 41.18829476605053], [114.69348187830084, 41.18829476605053], [114.69348187830084, 41.188115102993706], [114.69438019358496, 41.188115102993706], [114.69438019358496, 41.187935439936886], [114.69455985664179, 41.187935439936886], [114.69455985664179, 41.18775577688006], [114.69438019358496, 41.18775577688006], [114.69438019358496, 41.18757611382323], [114.69420053052815, 41.18757611382323], [114.69420053052815, 41.18721678770959], [114.69402086747132, 41.18721678770959], [114.69402086747132, 41.187396450766414], [114.6938412044145, 41.187396450766414], [114.6938412044145, 41.18721678770959], [114.69402086747132, 41.18721678770959], [114.69402086747132, 41.18703712465276], [114.6938412044145, 41.18703712465276], [114.6938412044145, 41.186677798539115], [114.69402086747132, 41.186677798539115], [114.69402086747132, 41.18631847242547], [114.69420053052815, 41.18631847242547], [114.69420053052815, 41.18613880936864], [114.69473951969862, 41.18613880936864], [114.69473951969862, 41.18595914631182], [114.69491918275544, 41.18595914631182], [114.69491918275544, 41.18613880936864], [114.69473951969862, 41.18613880936864], [114.69473951969862, 41.18631847242547], [114.69491918275544, 41.18631847242547], [114.69491918275544, 41.186677798539115], [114.69509884581227, 41.186677798539115], [114.69509884581227, 41.18685746159594], [114.6952785088691, 41.18685746159594], [114.6952785088691, 41.186677798539115], [114.69581749803956, 41.186677798539115], [114.69581749803956, 41.18685746159594], [114.69599716109639, 41.18685746159594], [114.69599716109639, 41.18721678770959], [114.69563783498273, 41.18721678770959], [114.69563783498273, 41.18703712465276], [114.69509884581227, 41.18703712465276], [114.69509884581227, 41.18721678770959], [114.69455985664179, 41.18721678770959], [114.69455985664179, 41.187396450766414], [114.69491918275544, 41.187396450766414], [114.69491918275544, 41.187935439936886], [114.6954581719259, 41.187935439936886], [114.6954581719259, 41.18775577688006], [114.69581749803956, 41.18775577688006], [114.69581749803956, 41.187935439936886], [114.69599716109639, 41.187935439936886], [114.69599716109639, 41.188115102993706], [114.69581749803956, 41.188115102993706], [114.69581749803956, 41.18829476605053], [114.69563783498273, 41.18829476605053], [114.69563783498273, 41.18847442910736], [114.69599716109639, 41.18847442910736], [114.69599716109639, 41.188833755221005], [114.69635648721002, 41.188833755221005], [114.69635648721002, 41.189552407448296], [114.69653615026685, 41.189552407448296], [114.69653615026685, 41.18973207050512], [114.69707513943733, 41.18973207050512], [114.69707513943733, 41.189552407448296], [114.69743446555097, 41.189552407448296], [114.69743446555097, 41.18937274439148], [114.6976141286078, 41.18937274439148], [114.6976141286078, 41.18973207050512], [114.69743446555097, 41.18973207050512], [114.69743446555097, 41.19009139661877], [114.6976141286078, 41.19009139661877], [114.6976141286078, 41.18991173356195], [114.69815311777828, 41.18991173356195], [114.69815311777828, 41.19009139661877], [114.69833278083509, 41.19009139661877], [114.69833278083509, 41.19045072273242], [114.69815311777828, 41.19045072273242], [114.69815311777828, 41.19063038578924], [114.69797345472145, 41.19063038578924], [114.69797345472145, 41.19098971190289], [114.69779379166462, 41.19098971190289], [114.69779379166462, 41.19116937495971], [114.69725480249416, 41.19116937495971], [114.69725480249416, 41.19098971190289], [114.69707513943733, 41.19098971190289], [114.69707513943733, 41.19116937495971], [114.69671581332368, 41.19116937495971], [114.69671581332368, 41.19081004884607], [114.69635648721002, 41.19081004884607], [114.69635648721002, 41.19116937495971], [114.69617682415321, 41.19116937495971], [114.69617682415321, 41.19134903801654], [114.6952785088691, 41.19134903801654]], [[114.6954581719259, 41.18919308133465], [114.69509884581227, 41.18919308133465], [114.69509884581227, 41.189013418277824], [114.69491918275544, 41.189013418277824], [114.69491918275544, 41.188833755221005], [114.69473951969862, 41.188833755221005], [114.69473951969862, 41.18865409216418], [114.69509884581227, 41.18865409216418], [114.69509884581227, 41.188833755221005], [114.6952785088691, 41.188833755221005], [114.6952785088691, 41.189013418277824], [114.6954581719259, 41.189013418277824], [114.6954581719259, 41.18919308133465]], [[114.69671581332368, 41.190271059675595], [114.69653615026685, 41.190271059675595], [114.69653615026685, 41.19009139661877], [114.69671581332368, 41.19009139661877], [114.69671581332368, 41.190271059675595]], [[114.69779379166462, 41.190271059675595], [114.6976141286078, 41.190271059675595], [114.6976141286078, 41.19009139661877], [114.69779379166462, 41.19009139661877], [114.69779379166462, 41.190271059675595]], [[114.6952785088691, 41.19081004884607], [114.69491918275544, 41.19081004884607], [114.69491918275544, 41.19063038578924], [114.69509884581227, 41.19063038578924], [114.69509884581227, 41.19045072273242], [114.6952785088691, 41.19045072273242], [114.6952785088691, 41.190271059675595], [114.69563783498273, 41.190271059675595], [114.69563783498273, 41.19009139661877], [114.69581749803956, 41.19009139661877], [114.69581749803956, 41.18991173356195], [114.69563783498273, 41.18991173356195], [114.69563783498273, 41.18973207050512], [114.6954581719259, 41.18973207050512], [114.6954581719259, 41.189552407448296], [114.69581749803956, 41.189552407448296], [114.69581749803956, 41.18973207050512], [114.69599716109639, 41.18973207050512], [114.69599716109639, 41.18991173356195], [114.69617682415321, 41.18991173356195], [114.69617682415321, 41.19045072273242], [114.6954581719259, 41.19045072273242], [114.6954581719259, 41.19063038578924], [114.6952785088691, 41.19063038578924], [114.6952785088691, 41.19081004884607]]]}, "properties": {"name": "structure", "ptype": "hall", "confidence": "low", "site_id": "cn_zhangbei_r02", "note": "Radar-detected new structure 16.8 ha, VV rise 11.4 dB 2021-2026, hall-like score 0.61; unconfirmed, operator unknown.", "digitised_from": "Sentinel-1 candidate scan zhangbei rank 2; outline is the 20 m radar blob"}}]}