{"type": "FeatureCollection", "features": [{"type": "Feature", "geometry": {"geodesic": false, "type": "Polygon", "coordinates": [[[114.71809571708572, 41.163321601152006], [114.71809571708572, 41.16314193809519], [114.71755672791525, 41.16314193809519], [114.71755672791525, 41.16296227503836], [114.71683807568796, 41.16296227503836], [114.71683807568796, 41.16314193809519], [114.7164787495743, 41.16314193809519], [114.7164787495743, 41.16296227503836], [114.71593976040384, 41.16296227503836], [114.71593976040384, 41.162782611981534], [114.71576009734702, 41.162782611981534], [114.71576009734702, 41.16206395975424], [114.71593976040384, 41.16206395975424], [114.71593976040384, 41.161884296697416], [114.7164787495743, 41.161884296697416], [114.7164787495743, 41.16152497058377], [114.71611942346065, 41.16152497058377], [114.71611942346065, 41.161704633640596], [114.71593976040384, 41.161704633640596], [114.71593976040384, 41.16152497058377], [114.71576009734702, 41.16152497058377], [114.71576009734702, 41.160446992242825], [114.71593976040384, 41.160446992242825], [114.71593976040384, 41.160267329186006], [114.71576009734702, 41.160267329186006], [114.71576009734702, 41.16008766612918], [114.71611942346065, 41.16008766612918], [114.71611942346065, 41.16080631835647], [114.71629908651748, 41.16080631835647], [114.71629908651748, 41.1609859814133], [114.7164787495743, 41.1609859814133], [114.7164787495743, 41.161165644470124], [114.71665841263113, 41.161165644470124], [114.71665841263113, 41.16134530752694], [114.7171974018016, 41.16134530752694], [114.7171974018016, 41.161704633640596], [114.71683807568796, 41.161704633640596], [114.71683807568796, 41.16206395975424], [114.71773639097208, 41.16206395975424], [114.71773639097208, 41.16242328586789], [114.71665841263113, 41.16242328586789], [114.71665841263113, 41.16224362281107], [114.71629908651748, 41.16224362281107], [114.71629908651748, 41.162602948924714], [114.7164787495743, 41.162602948924714], [114.7164787495743, 41.162782611981534], [114.71701773874479, 41.162782611981534], [114.71701773874479, 41.162602948924714], [114.71737706485843, 41.162602948924714], [114.71737706485843, 41.162782611981534], [114.71809571708572, 41.162782611981534], [114.71809571708572, 41.16242328586789], [114.71845504319937, 41.16242328586789], [114.71845504319937, 41.16224362281107], [114.7186347062562, 41.16224362281107], [114.7186347062562, 41.161884296697416], [114.71845504319937, 41.161884296697416], [114.71845504319937, 41.161704633640596], [114.71827538014254, 41.161704633640596], [114.71827538014254, 41.16134530752694], [114.7186347062562, 41.16134530752694], [114.7186347062562, 41.161165644470124], [114.71917369542666, 41.161165644470124], [114.71917369542666, 41.16134530752694], [114.71899403236985, 41.16134530752694], [114.71899403236985, 41.16152497058377], [114.71971268459714, 41.16152497058377], [114.71971268459714, 41.161704633640596], [114.71989234765397, 41.161704633640596], [114.71989234765397, 41.162602948924714], [114.71953302154031, 41.162602948924714], [114.71953302154031, 41.162782611981534], [114.72007201071078, 41.162782611981534], [114.72007201071078, 41.16314193809519], [114.71971268459714, 41.16314193809519], [114.71971268459714, 41.16296227503836], [114.71953302154031, 41.16296227503836], [114.71953302154031, 41.162782611981534], [114.71899403236985, 41.162782611981534], [114.71899403236985, 41.16296227503836], [114.71881436931302, 41.16296227503836], [114.71881436931302, 41.16314193809519], [114.7186347062562, 41.16314193809519], [114.7186347062562, 41.163321601152006], [114.71809571708572, 41.163321601152006]]]}, "properties": {"name": "structure", "ptype": "hall", "confidence": "low", "site_id": "cn_zhangbei_r06", "note": "Radar-detected new structure 6.6 ha, VV rise 5.8 dB 2021-2026, hall-like score 0.85; unconfirmed, operator unknown.", "digitised_from": "Sentinel-1 candidate scan zhangbei rank 6; outline is the 20 m radar blob"}}]}