{"type": "FeatureCollection", "features": [{"type": "Feature", "geometry": {"geodesic": false, "type": "Polygon", "coordinates": [[[114.73354673997258, 41.2211731054493], [114.73354673997258, 41.22099344239248], [114.73318741385893, 41.22099344239248], [114.73318741385893, 41.22081377933566], [114.73264842468846, 41.22081377933566], [114.73264842468846, 41.22063411627884], [114.73210943551798, 41.22063411627884], [114.73210943551798, 41.22045445322201], [114.73175010940435, 41.22045445322201], [114.73175010940435, 41.220274790165185], [114.7306721310634, 41.220274790165185], [114.7306721310634, 41.220095127108365], [114.73031280494975, 41.220095127108365], [114.73031280494975, 41.21991546405154], [114.73013314189292, 41.21991546405154], [114.73013314189292, 41.220274790165185], [114.7299534788361, 41.220274790165185], [114.7299534788361, 41.21991546405154], [114.73013314189292, 41.21991546405154], [114.73013314189292, 41.21955613793789], [114.73031280494975, 41.21955613793789], [114.73031280494975, 41.21937647488107], [114.73049246800657, 41.21937647488107], [114.73049246800657, 41.21919681182424], [114.7306721310634, 41.21919681182424], [114.7306721310634, 41.218837485710594], [114.73085179412023, 41.218837485710594], [114.73085179412023, 41.218657822653775], [114.73103145717704, 41.218657822653775], [114.73103145717704, 41.21847815959695], [114.73192977246116, 41.21847815959695], [114.73192977246116, 41.218657822653775], [114.73228909857481, 41.218657822653775], [114.73228909857481, 41.21901714876742], [114.73264842468846, 41.21901714876742], [114.73264842468846, 41.21919681182424], [114.73282808774529, 41.21919681182424], [114.73282808774529, 41.21937647488107], [114.73336707691575, 41.21937647488107], [114.73336707691575, 41.21955613793789], [114.73372640302941, 41.21955613793789], [114.73372640302941, 41.21973580099471], [114.73390606608622, 41.21973580099471], [114.73390606608622, 41.21955613793789], [114.73408572914305, 41.21955613793789], [114.73408572914305, 41.21937647488107], [114.73426539219987, 41.21937647488107], [114.73426539219987, 41.21973580099471], [114.73462471831353, 41.21973580099471], [114.73462471831353, 41.220095127108365], [114.7344450552567, 41.220095127108365], [114.7344450552567, 41.22045445322201], [114.73426539219987, 41.22045445322201], [114.73426539219987, 41.22081377933566], [114.73408572914305, 41.22081377933566], [114.73408572914305, 41.22099344239248], [114.73390606608622, 41.22099344239248], [114.73390606608622, 41.2211731054493], [114.73354673997258, 41.2211731054493]]]}, "properties": {"name": "structure", "ptype": "hall", "confidence": "low", "site_id": "cn_zhangbei_r05", "note": "Radar-detected new structure 8.0 ha, VV rise 7.7 dB 2021-2026, hall-like score 0.85; unconfirmed, operator unknown.", "digitised_from": "Sentinel-1 candidate scan zhangbei rank 5; outline is the 20 m radar blob"}}]}