{"type": "FeatureCollection", "features": [{"type": "Feature", "geometry": {"geodesic": false, "type": "Polygon", "coordinates": [[[114.72869583743834, 41.16457924254978], [114.72869583743834, 41.16421991643613], [114.72833651132468, 41.16421991643613], [114.72833651132468, 41.16386059032248], [114.72815684826786, 41.16386059032248], [114.72815684826786, 41.16421991643613], [114.72779752215422, 41.16421991643613], [114.72779752215422, 41.164040253379305], [114.72653988075645, 41.164040253379305], [114.72653988075645, 41.16386059032248], [114.7261805546428, 41.16386059032248], [114.7261805546428, 41.16368092726566], [114.72600089158597, 41.16368092726566], [114.72600089158597, 41.16296227503836], [114.7261805546428, 41.16296227503836], [114.7261805546428, 41.162602948924714], [114.72600089158597, 41.162602948924714], [114.72600089158597, 41.16242328586789], [114.7261805546428, 41.16242328586789], [114.7261805546428, 41.16206395975424], [114.72636021769962, 41.16206395975424], [114.72636021769962, 41.161704633640596], [114.72707886992691, 41.161704633640596], [114.72707886992691, 41.161884296697416], [114.72779752215422, 41.161884296697416], [114.72779752215422, 41.16206395975424], [114.72725853298374, 41.16206395975424], [114.72725853298374, 41.16224362281107], [114.72707886992691, 41.16224362281107], [114.72707886992691, 41.162602948924714], [114.7268992068701, 41.162602948924714], [114.7268992068701, 41.16296227503836], [114.72743819604057, 41.16296227503836], [114.72743819604057, 41.162782611981534], [114.72797718521103, 41.162782611981534], [114.72797718521103, 41.16296227503836], [114.72833651132468, 41.16296227503836], [114.72833651132468, 41.163321601152006], [114.72815684826786, 41.163321601152006], [114.72815684826786, 41.16350126420883], [114.72869583743834, 41.16350126420883], [114.72869583743834, 41.16368092726566], [114.72887550049516, 41.16368092726566], [114.72887550049516, 41.16386059032248], [114.72869583743834, 41.16386059032248], [114.72869583743834, 41.164040253379305], [114.72887550049516, 41.164040253379305], [114.72887550049516, 41.16421991643613], [114.72905516355198, 41.16421991643613], [114.72905516355198, 41.16457924254978], [114.72869583743834, 41.16457924254978]], [[114.72743819604057, 41.163321601152006], [114.72725853298374, 41.163321601152006], [114.72725853298374, 41.16314193809519], [114.72743819604057, 41.16314193809519], [114.72743819604057, 41.163321601152006]], [[114.72779752215422, 41.16350126420883], [114.72743819604057, 41.16350126420883], [114.72743819604057, 41.163321601152006], [114.72779752215422, 41.163321601152006], [114.72779752215422, 41.16350126420883]]]}, "properties": {"name": "structure", "ptype": "hall", "confidence": "low", "site_id": "cn_zhangbei_r07", "note": "Radar-detected new structure 5.0 ha, VV rise 6.5 dB 2021-2026, hall-like score 0.77; unconfirmed, operator unknown.", "digitised_from": "Sentinel-1 candidate scan zhangbei rank 7; outline is the 20 m radar blob"}}]}