{"type": "FeatureCollection", "features": [{"type": "Feature", "geometry": {"geodesic": false, "type": "Polygon", "coordinates": [[[114.69887177000557, 41.18452184185723], [114.69887177000557, 41.18434217880041], [114.69869210694874, 41.18434217880041], [114.69869210694874, 41.18416251574358], [114.69851244389191, 41.18416251574358], [114.69851244389191, 41.18398285268676], [114.69797345472145, 41.18398285268676], [114.69797345472145, 41.183803189629934], [114.69779379166462, 41.183803189629934], [114.69779379166462, 41.18326420045946], [114.69797345472145, 41.18326420045946], [114.69797345472145, 41.182904874345816], [114.69815311777828, 41.182904874345816], [114.69815311777828, 41.18254554823217], [114.69833278083509, 41.18254554823217], [114.69833278083509, 41.18218622211852], [114.69815311777828, 41.18218622211852], [114.69815311777828, 41.181647232948045], [114.69833278083509, 41.181647232948045], [114.69833278083509, 41.18092858072075], [114.69851244389191, 41.18092858072075], [114.69851244389191, 41.18074891766393], [114.69869210694874, 41.18074891766393], [114.69869210694874, 41.18056925460711], [114.6990514330624, 41.18056925460711], [114.6990514330624, 41.180209928493454], [114.7006684005738, 41.180209928493454], [114.7006684005738, 41.18038959155028], [114.70084806363063, 41.18038959155028], [114.70084806363063, 41.18056925460711], [114.70102772668746, 41.18056925460711], [114.70102772668746, 41.18074891766393], [114.70120738974428, 41.18074891766393], [114.70120738974428, 41.18056925460711], [114.70174637891475, 41.18056925460711], [114.70174637891475, 41.18074891766393], [114.70228536808521, 41.18074891766393], [114.70228536808521, 41.18056925460711], [114.70246503114204, 41.18056925460711], [114.70246503114204, 41.18074891766393], [114.70264469419887, 41.18074891766393], [114.70264469419887, 41.18092858072075], [114.7028243572557, 41.18092858072075], [114.7028243572557, 41.1812879068344], [114.70264469419887, 41.1812879068344], [114.70264469419887, 41.181467569891225], [114.7028243572557, 41.181467569891225], [114.7028243572557, 41.18218622211852], [114.70264469419887, 41.18218622211852], [114.70264469419887, 41.182365885175344], [114.7028243572557, 41.182365885175344], [114.7028243572557, 41.18254554823217], [114.70300402031252, 41.18254554823217], [114.70300402031252, 41.182904874345816], [114.70246503114204, 41.182904874345816], [114.70246503114204, 41.183084537402635], [114.70228536808521, 41.183084537402635], [114.70228536808521, 41.18326420045946], [114.70120738974428, 41.18326420045946], [114.70120738974428, 41.183084537402635], [114.70102772668746, 41.183084537402635], [114.70102772668746, 41.18272521128899], [114.70084806363063, 41.18272521128899], [114.70084806363063, 41.18254554823217], [114.7006684005738, 41.18254554823217], [114.7006684005738, 41.182365885175344], [114.70048873751698, 41.182365885175344], [114.70048873751698, 41.18218622211852], [114.70030907446015, 41.18218622211852], [114.70030907446015, 41.18182689600487], [114.70012941140334, 41.18182689600487], [114.70012941140334, 41.18254554823217], [114.69994974834651, 41.18254554823217], [114.69994974834651, 41.182904874345816], [114.70012941140334, 41.182904874345816], [114.70012941140334, 41.18326420045946], [114.70030907446015, 41.18326420045946], [114.70030907446015, 41.18362352657311], [114.70048873751698, 41.18362352657311], [114.70048873751698, 41.18398285268676], [114.70030907446015, 41.18398285268676], [114.70030907446015, 41.18434217880041], [114.70012941140334, 41.18434217880041], [114.70012941140334, 41.18452184185723], [114.69887177000557, 41.18452184185723]], [[114.69923109611922, 41.181467569891225], [114.69887177000557, 41.181467569891225], [114.69887177000557, 41.1812879068344], [114.6990514330624, 41.1812879068344], [114.6990514330624, 41.18092858072075], [114.69923109611922, 41.18092858072075], [114.69923109611922, 41.181467569891225]], [[114.69994974834651, 41.1820065590617], [114.69977008528969, 41.1820065590617], [114.69977008528969, 41.18182689600487], [114.69994974834651, 41.18182689600487], [114.69994974834651, 41.1820065590617]], [[114.7021057050284, 41.182365885175344], [114.70192604197157, 41.182365885175344], [114.70192604197157, 41.18218622211852], [114.7021057050284, 41.18218622211852], [114.7021057050284, 41.182365885175344]]]}, "properties": {"name": "structure", "ptype": "hall", "confidence": "low", "site_id": "cn_zhangbei_r01", "note": "Radar-detected new structure 17.4 ha, VV rise 11.7 dB 2021-2026, hall-like score 0.85; unconfirmed, operator unknown.", "digitised_from": "Sentinel-1 candidate scan zhangbei rank 1; outline is the 20 m radar blob"}}]}