{"type": "FeatureCollection", "features": [{"type": "Feature", "geometry": {"geodesic": false, "type": "Polygon", "coordinates": [[[114.75187237176861, 41.181647232948045], [114.75187237176861, 41.181467569891225], [114.75151304565497, 41.181467569891225], [114.75151304565497, 41.1812879068344], [114.74935708897308, 41.1812879068344], [114.74935708897308, 41.18110824377757], [114.74845877368897, 41.18110824377757], [114.74845877368897, 41.1812879068344], [114.74827911063214, 41.1812879068344], [114.74827911063214, 41.18110824377757], [114.74791978451849, 41.18110824377757], [114.74791978451849, 41.1812879068344], [114.74756045840485, 41.1812879068344], [114.74756045840485, 41.18110824377757], [114.74666214312073, 41.18110824377757], [114.74666214312073, 41.1812879068344], [114.74684180617754, 41.1812879068344], [114.74684180617754, 41.181647232948045], [114.74666214312073, 41.181647232948045], [114.74666214312073, 41.181467569891225], [114.74630281700708, 41.181467569891225], [114.74630281700708, 41.1812879068344], [114.74612315395025, 41.1812879068344], [114.74612315395025, 41.18110824377757], [114.74558416477979, 41.18110824377757], [114.74558416477979, 41.18092858072075], [114.74522483866613, 41.18092858072075], [114.74522483866613, 41.1812879068344], [114.7450451756093, 41.1812879068344], [114.7450451756093, 41.18110824377757], [114.74468584949567, 41.18110824377757], [114.74468584949567, 41.1812879068344], [114.74288921892742, 41.1812879068344], [114.74288921892742, 41.18110824377757], [114.7427095558706, 41.18110824377757], [114.7427095558706, 41.180209928493454], [114.74306888198424, 41.180209928493454], [114.74306888198424, 41.18056925460711], [114.74324854504107, 41.18056925460711], [114.74324854504107, 41.18092858072075], [114.74396719726836, 41.18092858072075], [114.74396719726836, 41.18110824377757], [114.74414686032519, 41.18110824377757], [114.74414686032519, 41.180209928493454], [114.74432652338201, 41.180209928493454], [114.74432652338201, 41.180030265436635], [114.74576382783661, 41.180030265436635], [114.74576382783661, 41.180209928493454], [114.74774012146167, 41.180209928493454], [114.74774012146167, 41.18038959155028], [114.7488180998026, 41.18038959155028], [114.7488180998026, 41.18056925460711], [114.74953675202991, 41.18056925460711], [114.74953675202991, 41.18038959155028], [114.74989607814355, 41.18038959155028], [114.74989607814355, 41.18056925460711], [114.75007574120038, 41.18056925460711], [114.75007574120038, 41.180209928493454], [114.7502554042572, 41.180209928493454], [114.7502554042572, 41.18038959155028], [114.75043506731403, 41.18038959155028], [114.75043506731403, 41.18056925460711], [114.75241136093909, 41.18056925460711], [114.75241136093909, 41.18074891766393], [114.75277068705273, 41.18074891766393], [114.75277068705273, 41.18092858072075], [114.75295035010956, 41.18092858072075], [114.75295035010956, 41.18110824377757], [114.75277068705273, 41.18110824377757], [114.75277068705273, 41.1812879068344], [114.75259102399592, 41.1812879068344], [114.75259102399592, 41.181467569891225], [114.75205203482544, 41.181467569891225], [114.75205203482544, 41.181647232948045], [114.75187237176861, 41.181647232948045]]]}, "properties": {"name": "structure", "ptype": "hall", "confidence": "low", "site_id": "cn_zhangbei_r03", "note": "Radar-detected new structure 10.6 ha, VV rise 13.7 dB 2021-2026, hall-like score 0.93; unconfirmed, operator unknown.", "digitised_from": "Sentinel-1 candidate scan zhangbei rank 3; outline is the 20 m radar blob"}}]}