{
 "type": "FeatureCollection",
 "name": "cn_zhangbei_alibaba",
 "features": [
  {
   "type": "Feature",
   "properties": {
    "name": "west_halls",
    "ptype": "hall",
    "confidence": "low",
    "note": "Hand-digitised on a 10 m Sentinel-2 chip; large white multi-hall complex, operator not attributed.",
    "site_id": "cn_zhangbei_alibaba",
    "digitised_from": "Sentinel-2 chip S2B_50TLL_20250928, offsets rel. 41.2,114.73"
   },
   "geometry": {
    "type": "Polygon",
    "coordinates": [
     [
      [
       114.71601261741434,
       41.190716306466314
      ],
      [
       114.72197030246306,
       41.19083437374609
      ],
      [
       114.72187663879787,
       41.193534614539054
      ],
      [
       114.71591870933538,
       41.19341653610521
      ],
      [
       114.71601261741434,
       41.190716306466314
      ]
     ]
    ]
   }
  },
  {
   "type": "Feature",
   "properties": {
    "name": "campus",
    "ptype": "campus",
    "confidence": "low",
    "site_id": "cn_zhangbei_alibaba",
    "digitised_from": "derived"
   },
   "geometry": {
    "type": "Polygon",
    "coordinates": [
     [
      [
       114.71607205867423,
       41.18771689540135
      ],
      [
       114.71578057314515,
       41.18772529401947
      ],
      [
       114.71549128003093,
       41.18776195250433
      ],
      [
       114.71520691264847,
       41.187826524496984
      ],
      [
       114.71493015777506,
       41.187918399904376
      ],
      [
       114.714663630263,
       41.188036710663674
      ],
      [
       114.71440984833386,
       41.188180338943916
      ],
      [
       114.71417120978556,
       41.1883479277076
      ],
      [
       114.71394996933745,
       41.188537893532335
      ],
      [
       114.71374821732705,
       41.18874844157138
      ],
      [
       114.71356785996005,
       41.18897758251188
      ],
      [
       114.71341060129996,
       41.18922315137039
      ],
      [
       114.71327792716764,
       41.1894828279482
      ],
      [
       114.71317109110298,
       41.18975415875318
      ],
      [
       114.713091102521,
       41.190034580181035
      ],
      [
       114.71303871717473,
       41.19032144273687
      ],
      [
       114.71301443001457,
       41.190612036068345
      ],
      [
       114.71292052193562,
       41.19331226570724
      ],
      [
       114.71292491765008,
       41.193609438528895
      ],
      [
       114.71295869610212,
       41.193904718098814
      ],
      [
       114.71302152577117,
       41.19419520637899
      ],
      [
       114.71311279001193,
       41.1944780523558
      ],
      [
       114.71323159310633,
       41.19475048002142
      ],
      [
       114.71337676905472,
       41.19500981561914
      ],
      [
       114.71354689301953,
       41.1952535138851
      ],
      [
       114.7137402953095,
       41.19547918302891
      ],
      [
       114.71395507776695,
       41.195684608208
      ],
      [
       114.71418913239732,
       41.19586777326536
      ],
      [
       114.71444016205821,
       41.196026880517195
      ],
      [
       114.71470570300485,
       41.196160368396384
      ],
      [
       114.71498314907063,
       41.19626692677861
      ],
      [
       114.71526977724545,
       41.19634550984061
      ],
      [
       114.71556277440091,
       41.19639534632448
      ],
      [
       114.71585926489989,
       41.19641594710724
      ],
      [
       114.72181719436237,
       41.196534025541084
      ],
      [
       114.7221086970255,
       41.19652562590296
      ],
      [
       114.7223980068839,
       41.196488963082956
      ],
      [
       114.72268239014082,
       41.196424383521745
      ],
      [
       114.72295915955279,
       41.196332497455685
      ],
      [
       114.72322569982241,
       41.19621417315048
      ],
      [
       114.72347949231128,
       41.196070528696616
      ],
      [
       114.72371813883953,
       41.19590292144411
      ],
      [
       114.7239393843471,
       41.1957129351764
      ],
      [
       114.72414113820268,
       41.19550236514459
      ],
      [
       114.72432149395884,
       41.19527320110344
      ],
      [
       114.72447874736677,
       41.195027608509434
      ],
      [
       114.7246114124804,
       41.1947679080586
      ],
      [
       114.72471823569755,
       41.19449655375734
      ],
      [
       114.72479820760584,
       41.19421610973365
      ],
      [
       114.72485057252086,
       41.19392922600771
      ],
      [
       114.72487483562702,
       41.19363861345083
      ],
      [
       114.72496849929222,
       41.19093837265787
      ],
      [
       114.72496407774919,
       41.190641216980254
      ],
      [
       114.72493027694314,
       41.19034595683683
      ],
      [
       114.7248674285766,
       41.19005548974815
      ],
      [
       114.72477614940884,
       41.189772666198365
      ],
      [
       114.72465733520336,
       41.18950026166213
      ],
      [
       114.7245121519374,
       41.18924094936765
      ],
      [
       114.72434202435963,
       41.18899727406307
      ],
      [
       114.72414862200846,
       41.188771627043714
      ],
      [
       114.72393384282812,
       41.188566222685246
      ],
      [
       114.7236997945433,
       41.188383076713
      ],
      [
       114.72344877397502,
       41.188223986420745
      ],
      [
       114.72318324450103,
       41.18809051303305
      ],
      [
       114.72290581188142,
       41.1879839663843
      ],
      [
       114.72261919868724,
       41.18790539206465
      ],
      [
       114.72232621758265,
       41.18785556115923
      ],
      [
       114.72202974372296,
       41.18783496268113
      ],
      [
       114.71607205867423,
       41.18771689540135
      ]
     ]
    ]
   }
  }
 ]
}