{
 "type": "FeatureCollection",
 "name": "colossus_memphis",
 "features": [
  {
   "type": "Feature",
   "properties": {
    "name": "electrolux_hall",
    "ptype": "hall",
    "confidence": "high",
    "note": "Former Electrolux plant, single 785,000 sq ft building.",
    "site_id": "colossus_memphis",
    "digitised_from": "Sentinel-2 L2A 10 m true colour, S2C_15SYU_20250708"
   },
   "geometry": {
    "type": "Polygon",
    "coordinates": [
     [
      [
       -90.157454,
       35.0621745
      ],
      [
       -90.1550423,
       35.0621745
      ],
      [
       -90.1550423,
       35.0571268
      ],
      [
       -90.157454,
       35.0571268
      ],
      [
       -90.157454,
       35.0621745
      ]
     ]
    ]
   }
  },
  {
   "type": "Feature",
   "properties": {
    "name": "east_yard",
    "ptype": "cooling",
    "confidence": "low",
    "note": "Equipment yard east of the hall; reported to hold chillers and the on-site gas turbines, which are not separable at 10 m.",
    "site_id": "colossus_memphis",
    "digitised_from": "Sentinel-2 L2A 10 m true colour, S2C_15SYU_20250708"
   },
   "geometry": {
    "type": "Polygon",
    "coordinates": [
     [
      [
       -90.154823,
       35.0623548
      ],
      [
       -90.1529594,
       35.0623548
      ],
      [
       -90.1529594,
       35.0601014
      ],
      [
       -90.154823,
       35.0601014
      ],
      [
       -90.154823,
       35.0623548
      ]
     ]
    ]
   }
  },
  {
   "type": "Feature",
   "properties": {
    "name": "campus",
    "ptype": "campus",
    "confidence": "high",
    "site_id": "colossus_memphis",
    "digitised_from": "Sentinel-2 L2A 10 m true colour, S2C_15SYU_20250708"
   },
   "geometry": {
    "type": "Polygon",
    "coordinates": [
     [
      [
       -90.1589887,
       35.0560452
      ],
      [
       -90.1518632,
       35.0560452
      ],
      [
       -90.1518632,
       35.0632562
      ],
      [
       -90.1589887,
       35.0632562
      ],
      [
       -90.1589887,
       35.0560452
      ]
     ]
    ]
   }
  },
  {
   "type": "Feature",
   "properties": {
    "name": "hall_surround",
    "ptype": "cooling",
    "confidence": "low",
    "site_id": "colossus_memphis",
    "digitised_from": "derived: 35-150 m ring around the hall footprints, clipped to the campus, minus digitised yards",
    "note": "Ring around the halls where chillers, dry coolers and switchgear are normally placed, together with adjacent paving and laydown. Measured to ask whether load-related heat is visible next to the halls at night when the roofs show none. Not a clean heat-rejection polygon."
   },
   "geometry": {
    "type": "Polygon",
    "coordinates": [
     [
      [
       -90.1589057783038,
       35.062950491670314
      ],
      [
       -90.15882272711002,
       35.06308905421605
      ],
      [
       -90.15872649432593,
       35.06321880910475
      ],
      [
       -90.15869260519388,
       35.0632562
      ],
      [
       -90.15380369480613,
       35.0632562
      ],
      [
       -90.15376980567407,
       35.06321880910475
      ],
      [
       -90.15367357288999,
       35.06308905421605
      ],
      [
       -90.1535905216962,
       35.062950491670314
      ],
      [
       -90.1535214519211,
       35.06280445590059
      ],
      [
       -90.15346702874439,
       35.06265235331117
      ],
      [
       -90.15342777629098,
       35.06249564873315
      ],
      [
       -90.15342316228131,
       35.062464543606566
      ],
      [
       -90.15479104608309,
       35.062464543606566
      ],
      [
       -90.15479862787556,
       35.06247141534271
      ],
      [
       -90.15482890401626,
       35.062493869659
      ],
      [
       -90.15486123527693,
       35.06251324827088
      ],
      [
       -90.15489531028987,
       35.06252936455174
      ],
      [
       -90.15493080089406,
       35.06254206329297
      ],
      [
       -90.1549673652956,
       35.06255122219877
      ],
      [
       -90.1550046513593,
       35.06255675306385
      ],
      [
       -90.1550423,
       35.062558602622964
      ],
      [
       -90.157454,
       35.062558602622964
      ],
      [
       -90.1574916486407,
       35.06255675306385
      ],
      [
       -90.1575289347044,
       35.06255122219877
      ],
      [
       -90.15756549910594,
       35.06254206329297
      ],
      [
       -90.15760098971013,
       35.06252936455174
      ],
      [
       -90.15763506472308,
       35.06251324827088
      ],
      [
       -90.15766739598375,
       35.062493869659
      ],
      [
       -90.15769767212444,
       35.06247141534271
      ],
      [
       -90.15772560156937,
       35.06244610156937
      ],
      [
       -90.15775091534272,
       35.06241817212444
      ],
      [
       -90.15777336965901,
       35.06238789598375
      ],
      [
       -90.1577927482709,
       35.06235556472307
      ],
      [
       -90.15780886455174,
       35.062321489710136
      ],
      [
       -90.15782156329298,
       35.06228599910594
      ],
      [
       -90.15783072219877,
       35.0622494347044
      ],
      [
       -90.15783625306385,
       35.0622121486407
      ],
      [
       -90.15783810262297,
       35.0621745
      ],
      [
       -90.15783810262297,
       35.0571268
      ],
      [
       -90.15783625306385,
       35.0570891513593
      ],
      [
       -90.15783072219877,
       35.0570518652956
      ],
      [
       -90.15782156329298,
       35.05701530089406
      ],
      [
       -90.15780886455174,
       35.05697981028986
      ],
      [
       -90.1577927482709,
       35.056945735276926
      ],
      [
       -90.15777336965901,
       35.05691340401625
      ],
      [
       -90.15775091534272,
       35.05688312787556
      ],
      [
       -90.15772560156937,
       35.056855198430625
      ],
      [
       -90.15769767212444,
       35.05682988465728
      ],
      [
       -90.15766739598375,
       35.056807430340996
      ],
      [
       -90.15763506472308,
       35.056788051729114
      ],
      [
       -90.15760098971013,
       35.05677193544825
      ],
      [
       -90.15756549910594,
       35.05675923670702
      ],
      [
       -90.1575289347044,
       35.056750077801226
      ],
      [
       -90.1574916486407,
       35.056744546936145
      ],
      [
       -90.157454,
       35.05674269737703
      ],
      [
       -90.1550423,
       35.05674269737703
      ],
      [
       -90.1550046513593,
       35.056744546936145
      ],
      [
       -90.1549673652956,
       35.056750077801226
      ],
      [
       -90.15493080089406,
       35.05675923670702
      ],
      [
       -90.15489531028987,
       35.05677193544825
      ],
      [
       -90.15486123527693,
       35.056788051729114
      ],
      [
       -90.15482890401626,
       35.056807430340996
      ],
      [
       -90.15479862787556,
       35.05682988465728
      ],
      [
       -90.15477069843064,
       35.056855198430625
      ],
      [
       -90.15474538465729,
       35.05688312787556
      ],
      [
       -90.154722930341,
       35.05691340401625
      ],
      [
       -90.15470355172911,
       35.056945735276926
      ],
      [
       -90.15468743544827,
       35.05697981028986
      ],
      [
       -90.15467473670702,
       35.05701530089406
      ],
      [
       -90.15466557780124,
       35.0570518652956
      ],
      [
       -90.15466004693616,
       35.0570891513593
      ],
      [
       -90.15465819737703,
       35.0571268
      ],
      [
       -90.15465819737703,
       35.059991656393436
      ],
      [
       -90.15339614590157,
       35.059991656393436
      ],
      [
       -90.15339614590157,
       35.0571268
      ],
      [
       -90.1534040725835,
       35.05696544868273
      ],
      [
       -90.15342777629098,
       35.05680565126685
      ],
      [
       -90.15346702874439,
       35.056648946688824
      ],
      [
       -90.1535214519211,
       35.05649684409941
      ],
      [
       -90.1535905216962,
       35.05635080832968
      ],
      [
       -90.15367357288999,
       35.05621224578395
      ],
      [
       -90.15376980567407,
       35.05608249089525
      ],
      [
       -90.15380360417142,
       35.0560452
      ],
      [
       -90.15869269582859,
       35.0560452
      ],
      [
       -90.15872649432593,
       35.05608249089525
      ],
      [
       -90.15882272711002,
       35.05621224578395
      ],
      [
       -90.1589057783038,
       35.05635080832968
      ],
      [
       -90.15897484807891,
       35.05649684409941
      ],
      [
       -90.1589887,
       35.05653555762538
      ],
      [
       -90.1589887,
       35.062765742374616
      ],
      [
       -90.15897484807891,
       35.06280445590059
      ],
      [
       -90.1589057783038,
       35.062950491670314
      ]
     ]
    ]
   }
  }
 ]
}