{
 "type": "FeatureCollection",
 "name": "ctrl_memphis_a",
 "features": [
  {
   "type": "Feature",
   "properties": {
    "name": "roof",
    "ptype": "hall",
    "confidence": "high",
    "note": "CONTROL (not a data centre): Large unnamed roof 1.3 km from Colossus, Memphis. OSM building footprint.",
    "site_id": "ctrl_memphis_a",
    "digitised_from": "OSM way 1420300296"
   },
   "geometry": {
    "type": "Polygon",
    "coordinates": [
     [
      [
       -90.1590577,
       35.0487915
      ],
      [
       -90.1591314,
       35.0487914
      ],
      [
       -90.159131,
       35.0486662
      ],
      [
       -90.1590393,
       35.0486664
      ],
      [
       -90.1590389,
       35.0485324
      ],
      [
       -90.1592666,
       35.048532
      ],
      [
       -90.1592642,
       35.0477035
      ],
      [
       -90.1594937,
       35.047703
      ],
      [
       -90.1594935,
       35.0476508
      ],
      [
       -90.1596167,
       35.0476505
      ],
      [
       -90.1596169,
       35.0477028
      ],
      [
       -90.1596169,
       35.0477073
      ],
      [
       -90.1598952,
       35.0477068
      ],
      [
       -90.1598954,
       35.0477842
      ],
      [
       -90.1596171,
       35.0477847
      ],
      [
       -90.1596192,
       35.0485313
      ],
      [
       -90.1596195,
       35.0486468
      ],
      [
       -90.161477,
       35.0486433
      ],
      [
       -90.1614783,
       35.0490893
      ],
      [
       -90.1616342,
       35.049089
      ],
      [
       -90.1616339,
       35.0489902
      ],
      [
       -90.1624742,
       35.0489886
      ],
      [
       -90.1624745,
       35.0490874
      ],
      [
       -90.162711,
       35.0490869
      ],
      [
       -90.1627108,
       35.0490391
      ],
      [
       -90.1627654,
       35.049039
      ],
      [
       -90.1627652,
       35.0489886
      ],
      [
       -90.1628016,
       35.0489885
      ],
      [
       -90.1628014,
       35.0489062
      ],
      [
       -90.1629976,
       35.0489059
      ],
      [
       -90.1629978,
       35.0489881
      ],
      [
       -90.1633873,
       35.0489874
      ],
      [
       -90.1633868,
       35.048797
      ],
      [
       -90.1636062,
       35.0487966
      ],
      [
       -90.1636067,
       35.048987
      ],
      [
       -90.1637225,
       35.0489868
      ],
      [
       -90.163722,
       35.048808
      ],
      [
       -90.163806,
       35.0488078
      ],
      [
       -90.1638065,
       35.0489722
      ],
      [
       -90.1638273,
       35.0489721
      ],
      [
       -90.1638274,
       35.0489866
      ],
      [
       -90.1641975,
       35.0489858
      ],
      [
       -90.1641947,
       35.0480051
      ],
      [
       -90.1646367,
       35.0480043
      ],
      [
       -90.1646414,
       35.0496767
      ],
      [
       -90.1641995,
       35.0496775
      ],
      [
       -90.1641981,
       35.0491972
      ],
      [
       -90.1640748,
       35.0491974
      ],
      [
       -90.1640751,
       35.0493046
      ],
      [
       -90.1638615,
       35.049305
      ],
      [
       -90.1638617,
       35.0493881
      ],
      [
       -90.1640761,
       35.0493877
      ],
      [
       -90.1640764,
       35.0494971
      ],
      [
       -90.1638621,
       35.0494975
      ],
      [
       -90.1638627,
       35.0497174
      ],
      [
       -90.1640251,
       35.049717
      ],
      [
       -90.1640256,
       35.0498649
      ],
      [
       -90.1638631,
       35.0498653
      ],
      [
       -90.1638666,
       35.0510974
      ],
      [
       -90.1634552,
       35.0510982
      ],
      [
       -90.1634512,
       35.0497233
      ],
      [
       -90.1632902,
       35.0497236
      ],
      [
       -90.163289,
       35.0493061
      ],
      [
       -90.1629759,
       35.0493067
      ],
      [
       -90.1629764,
       35.0494623
      ],
      [
       -90.1625392,
       35.0494632
      ],
      [
       -90.1625394,
       35.0495506
      ],
      [
       -90.1621905,
       35.0495513
      ],
      [
       -90.1621902,
       35.0494638
      ],
      [
       -90.1621393,
       35.0494639
      ],
      [
       -90.1621395,
       35.0495546
      ],
      [
       -90.1612551,
       35.0495562
      ],
      [
       -90.1612548,
       35.0494656
      ],
      [
       -90.1612548,
       35.0494413
      ],
      [
       -90.1611592,
       35.0494415
      ],
      [
       -90.1611588,
       35.0493101
      ],
      [
       -90.1607931,
       35.0493108
      ],
      [
       -90.160793,
       35.0492747
      ],
      [
       -90.1591328,
       35.0492779
      ],
      [
       -90.1591316,
       35.0488717
      ],
      [
       -90.1590579,
       35.0488718
      ],
      [
       -90.1590577,
       35.0487915
      ]
     ]
    ]
   }
  }
 ]
}