{
 "type": "FeatureCollection",
 "name": "ctrl_newcarlisle_mfg",
 "features": [
  {
   "type": "Feature",
   "properties": {
    "name": "roof",
    "ptype": "hall",
    "confidence": "high",
    "note": "CONTROL (not a data centre): Manufacturing plant 2.3 km from Rainier, New Carlisle. OSM building footprint.",
    "site_id": "ctrl_newcarlisle_mfg",
    "digitised_from": "OSM way 422875023"
   },
   "geometry": {
    "type": "Polygon",
    "coordinates": [
     [
      [
       -86.4608614,
       41.6998394
      ],
      [
       -86.4608675,
       41.6995982
      ],
      [
       -86.4609292,
       41.6995991
      ],
      [
       -86.4609308,
       41.6995398
      ],
      [
       -86.461071,
       41.699542
      ],
      [
       -86.4610901,
       41.6988776
      ],
      [
       -86.4609343,
       41.6988751
      ],
      [
       -86.4609387,
       41.6987272
      ],
      [
       -86.4611284,
       41.6987304
      ],
      [
       -86.4611406,
       41.6983221
      ],
      [
       -86.4612676,
       41.6983242
      ],
      [
       -86.4612612,
       41.6985309
      ],
      [
       -86.4615674,
       41.6985362
      ],
      [
       -86.461566,
       41.6985795
      ],
      [
       -86.4619398,
       41.6985864
      ],
      [
       -86.4619416,
       41.6985356
      ],
      [
       -86.461998,
       41.6985367
      ],
      [
       -86.4620003,
       41.6984722
      ],
      [
       -86.4629839,
       41.6984925
      ],
      [
       -86.4629784,
       41.6986386
      ],
      [
       -86.4632245,
       41.6986438
      ],
      [
       -86.4632268,
       41.6985853
      ],
      [
       -86.4634593,
       41.6985904
      ],
      [
       -86.4634681,
       41.6983696
      ],
      [
       -86.4635699,
       41.6983719
      ],
      [
       -86.4635639,
       41.6985171
      ],
      [
       -86.4638208,
       41.6985231
      ],
      [
       -86.4638264,
       41.6983886
      ],
      [
       -86.4638379,
       41.6981135
      ],
      [
       -86.4642188,
       41.6981223
      ],
      [
       -86.4642251,
       41.6979711
      ],
      [
       -86.4640944,
       41.6979681
      ],
      [
       -86.464097,
       41.6979062
      ],
      [
       -86.4638181,
       41.6978997
      ],
      [
       -86.46382,
       41.6978531
      ],
      [
       -86.4635644,
       41.6978473
      ],
      [
       -86.4635586,
       41.697987
      ],
      [
       -86.4634619,
       41.6979848
      ],
      [
       -86.4634631,
       41.6979552
      ],
      [
       -86.4631898,
       41.6979495
      ],
      [
       -86.4631948,
       41.697816
      ],
      [
       -86.4630571,
       41.6978131
      ],
      [
       -86.4630594,
       41.6977481
      ],
      [
       -86.4629751,
       41.6977465
      ],
      [
       -86.4629773,
       41.6976799
      ],
      [
       -86.4628753,
       41.697678
      ],
      [
       -86.462874,
       41.6977221
      ],
      [
       -86.4623379,
       41.6977136
      ],
      [
       -86.462342,
       41.6975642
      ],
      [
       -86.462135,
       41.6975611
      ],
      [
       -86.462132,
       41.6976745
      ],
      [
       -86.4617975,
       41.6976696
      ],
      [
       -86.4617952,
       41.6977612
      ],
      [
       -86.4603288,
       41.6977413
      ],
      [
       -86.4603254,
       41.6978849
      ],
      [
       -86.459941,
       41.6978798
      ],
      [
       -86.4599149,
       41.6989776
      ],
      [
       -86.4599658,
       41.6989782
      ],
      [
       -86.4602957,
       41.6989826
      ],
      [
       -86.4602817,
       41.6995717
      ],
      [
       -86.4602118,
       41.6995707
      ],
      [
       -86.46021,
       41.6996422
      ],
      [
       -86.4602053,
       41.6998303
      ],
      [
       -86.4608614,
       41.6998394
      ]
     ]
    ]
   }
  }
 ]
}