{
 "type": "FeatureCollection",
 "name": "ctrl_racine_mke1",
 "features": [
  {
   "type": "Feature",
   "properties": {
    "name": "roof",
    "ptype": "hall",
    "confidence": "high",
    "note": "CONTROL (not a data centre): Amazon Fulfillment Center MKE1, Kenosha/Racine. OSM building footprint.",
    "site_id": "ctrl_racine_mke1",
    "digitised_from": "OSM way 366221766"
   },
   "geometry": {
    "type": "Polygon",
    "coordinates": [
     [
      [
       -87.9489607,
       42.6100177
      ],
      [
       -87.9491504,
       42.6100211
      ],
      [
       -87.9491531,
       42.6099378
      ],
      [
       -87.9491392,
       42.6099376
      ],
      [
       -87.9491406,
       42.6098924
      ],
      [
       -87.9491292,
       42.6098922
      ],
      [
       -87.9491331,
       42.6097742
      ],
      [
       -87.9491728,
       42.6097749
      ],
      [
       -87.9491743,
       42.6097288
      ],
      [
       -87.9491747,
       42.609719
      ],
      [
       -87.949136,
       42.6097184
      ],
      [
       -87.9491431,
       42.6095008
      ],
      [
       -87.9491475,
       42.6093643
      ],
      [
       -87.9491873,
       42.609365
      ],
      [
       -87.9491888,
       42.6093174
      ],
      [
       -87.9491892,
       42.6093069
      ],
      [
       -87.9491465,
       42.6093061
      ],
      [
       -87.949152,
       42.6091389
      ],
      [
       -87.9491581,
       42.6089508
      ],
      [
       -87.9491986,
       42.6089515
      ],
      [
       -87.9492001,
       42.6089052
      ],
      [
       -87.9492004,
       42.608897
      ],
      [
       -87.9491586,
       42.6088963
      ],
      [
       -87.9491641,
       42.6087272
      ],
      [
       -87.9491663,
       42.6086615
      ],
      [
       -87.9491698,
       42.6085526
      ],
      [
       -87.9491703,
       42.6085383
      ],
      [
       -87.9492141,
       42.6085391
      ],
      [
       -87.9492155,
       42.6084946
      ],
      [
       -87.9492159,
       42.6084837
      ],
      [
       -87.9491753,
       42.608483
      ],
      [
       -87.9491789,
       42.6083718
      ],
      [
       -87.9491901,
       42.608372
      ],
      [
       -87.9491923,
       42.6083059
      ],
      [
       -87.9491948,
       42.6082258
      ],
      [
       -87.9491819,
       42.6082256
      ],
      [
       -87.9491918,
       42.6079184
      ],
      [
       -87.9491959,
       42.6077904
      ],
      [
       -87.9492032,
       42.6075608
      ],
      [
       -87.9492044,
       42.6075237
      ],
      [
       -87.9492085,
       42.6073953
      ],
      [
       -87.9492174,
       42.6071174
      ],
      [
       -87.9492244,
       42.6071175
      ],
      [
       -87.9492266,
       42.6070483
      ],
      [
       -87.949229,
       42.6069755
      ],
      [
       -87.9492233,
       42.6069754
      ],
      [
       -87.9492341,
       42.6066347
      ],
      [
       -87.9492792,
       42.6066355
      ],
      [
       -87.9492795,
       42.6066254
      ],
      [
       -87.9492811,
       42.6065763
      ],
      [
       -87.9492408,
       42.6065757
      ],
      [
       -87.9492406,
       42.6065644
      ],
      [
       -87.9492447,
       42.6064571
      ],
      [
       -87.9492468,
       42.6063905
      ],
      [
       -87.9492519,
       42.6062249
      ],
      [
       -87.9492943,
       42.6062256
      ],
      [
       -87.9492946,
       42.6062127
      ],
      [
       -87.9492961,
       42.6061661
      ],
      [
       -87.9492534,
       42.6061654
      ],
      [
       -87.9492593,
       42.605979
      ],
      [
       -87.9492646,
       42.605813
      ],
      [
       -87.9493093,
       42.6058138
      ],
      [
       -87.9493097,
       42.6058013
      ],
      [
       -87.9493112,
       42.6057531
      ],
      [
       -87.9492706,
       42.6057524
      ],
      [
       -87.9492749,
       42.6056166
      ],
      [
       -87.9492816,
       42.6054033
      ],
      [
       -87.9493237,
       42.605404
      ],
      [
       -87.9493242,
       42.605389
      ],
      [
       -87.9493258,
       42.6053387
      ],
      [
       -87.949286,
       42.6053381
      ],
      [
       -87.9492894,
       42.6052297
      ],
      [
       -87.9493004,
       42.6052299
      ],
      [
       -87.9493019,
       42.6051847
      ],
      [
       -87.9493184,
       42.605185
      ],
      [
       -87.9493214,
       42.6050937
      ],
      [
       -87.949118,
       42.6050901
      ],
      [
       -87.9491174,
       42.6051075
      ],
      [
       -87.9490096,
       42.6051056
      ],
      [
       -87.9486516,
       42.6050993
      ],
      [
       -87.9482986,
       42.6050931
      ],
      [
       -87.9479277,
       42.6050865
      ],
      [
       -87.9475834,
       42.6050804
      ],
      [
       -87.9473395,
       42.6050761
      ],
      [
       -87.9471693,
       42.6050731
      ],
      [
       -87.9471662,
       42.6051669
      ],
      [
       -87.9471598,
       42.605365
      ],
      [
       -87.9471445,
       42.6053647
      ],
      [
       -87.9470348,
       42.6087001
      ],
      [
       -87.9470027,
       42.6096751
      ],
      [
       -87.9470143,
       42.6096753
      ],
      [
       -87.9470071,
       42.6098952
      ],
      [
       -87.9470048,
       42.6099647
      ],
      [
       -87.9471793,
       42.6099678
      ],
      [
       -87.9474213,
       42.6099721
      ],
      [
       -87.9477625,
       42.6099782
      ],
      [
       -87.9481393,
       42.609985
      ],
      [
       -87.9484911,
       42.6099912
      ],
      [
       -87.9488459,
       42.6099976
      ],
      [
       -87.9489613,
       42.6099996
      ],
      [
       -87.9489607,
       42.6100177
      ]
     ]
    ]
   }
  }
 ]
}