{
 "type": "FeatureCollection",
 "name": "ctrl_racine_b",
 "features": [
  {
   "type": "Feature",
   "properties": {
    "name": "roof",
    "ptype": "hall",
    "confidence": "high",
    "note": "CONTROL (not a data centre): Unnamed 8 ha industrial roof 2.2 km from Fairwater (Foxconn parcel). OSM building footprint.",
    "site_id": "ctrl_racine_b",
    "digitised_from": "OSM way 903983676"
   },
   "geometry": {
    "type": "Polygon",
    "coordinates": [
     [
      [
       -87.9280388,
       42.6802284
      ],
      [
       -87.9280389,
       42.6787855
      ],
      [
       -87.9256329,
       42.6787853
      ],
      [
       -87.9256329,
       42.6787079
      ],
      [
       -87.92548,
       42.6787079
      ],
      [
       -87.92548,
       42.6787853
      ],
      [
       -87.9250267,
       42.6787853
      ],
      [
       -87.9250267,
       42.6787079
      ],
      [
       -87.9243266,
       42.6787079
      ],
      [
       -87.9243266,
       42.6787852
      ],
      [
       -87.9218556,
       42.6787851
      ],
      [
       -87.9218554,
       42.680228
      ],
      [
       -87.9249784,
       42.6802282
      ],
      [
       -87.9249784,
       42.6802597
      ],
      [
       -87.9256141,
       42.6802597
      ],
      [
       -87.9256141,
       42.6802282
      ],
      [
       -87.9280388,
       42.6802284
      ]
     ]
    ]
   }
  }
 ]
}