{
 "type": "FeatureCollection",
 "name": "ctrl_memphis_navy",
 "features": [
  {
   "type": "Feature",
   "properties": {
    "name": "roof",
    "ptype": "hall",
    "confidence": "high",
    "note": "CONTROL (not a data centre): William B. Morgan Large Cavitation Channel (Navy test facility), Memphis. OSM building footprint.",
    "site_id": "ctrl_memphis_navy",
    "digitised_from": "OSM way 119295434"
   },
   "geometry": {
    "type": "Polygon",
    "coordinates": [
     [
      [
       -90.1429492,
       35.0872708
      ],
      [
       -90.1421508,
       35.0883373
      ],
      [
       -90.1420741,
       35.0884398
      ],
      [
       -90.142107,
       35.0884563
      ],
      [
       -90.142016,
       35.088578
      ],
      [
       -90.1420308,
       35.0885854
      ],
      [
       -90.142018,
       35.0886025
      ],
      [
       -90.1422581,
       35.0887228
      ],
      [
       -90.142145,
       35.0888741
      ],
      [
       -90.1421738,
       35.0888885
      ],
      [
       -90.1421433,
       35.0889293
      ],
      [
       -90.142025,
       35.08887
      ],
      [
       -90.1420117,
       35.0888877
      ],
      [
       -90.1419968,
       35.0889076
      ],
      [
       -90.1420527,
       35.0889356
      ],
      [
       -90.142028,
       35.0889687
      ],
      [
       -90.141806,
       35.0888576
      ],
      [
       -90.1418385,
       35.0888141
      ],
      [
       -90.1418106,
       35.0888001
      ],
      [
       -90.141719,
       35.0889225
      ],
      [
       -90.1417425,
       35.0889343
      ],
      [
       -90.1417534,
       35.0889196
      ],
      [
       -90.141902,
       35.088994
      ],
      [
       -90.1417433,
       35.0892062
      ],
      [
       -90.141594,
       35.0891314
      ],
      [
       -90.141716,
       35.0889684
      ],
      [
       -90.1416905,
       35.0889556
      ],
      [
       -90.1414399,
       35.0892904
      ],
      [
       -90.141268,
       35.08952
      ],
      [
       -90.1411947,
       35.0896179
      ],
      [
       -90.1399315,
       35.0889848
      ],
      [
       -90.1407319,
       35.0879156
      ],
      [
       -90.1409283,
       35.0880141
      ],
      [
       -90.141038,
       35.0878676
      ],
      [
       -90.1410915,
       35.087796
      ],
      [
       -90.141276,
       35.0875495
      ],
      [
       -90.1410789,
       35.0874507
      ],
      [
       -90.1416871,
       35.0866382
      ],
      [
       -90.1423281,
       35.0869595
      ],
      [
       -90.1424402,
       35.0870157
      ],
      [
       -90.1424723,
       35.0870318
      ],
      [
       -90.1425637,
       35.0870776
      ],
      [
       -90.1425917,
       35.0870916
      ],
      [
       -90.1427067,
       35.0871493
      ],
      [
       -90.1427357,
       35.0871638
      ],
      [
       -90.1429492,
       35.0872708
      ]
     ]
    ]
   }
  }
 ]
}