{
 "type": "FeatureCollection",
 "name": "ctrl_abilene_a",
 "features": [
  {
   "type": "Feature",
   "properties": {
    "name": "roof",
    "ptype": "hall",
    "confidence": "high",
    "note": "CONTROL (not a data centre): Unnamed 6.7 ha roof, Abilene. OSM building footprint.",
    "site_id": "ctrl_abilene_a",
    "digitised_from": "OSM way 733930019"
   },
   "geometry": {
    "type": "Polygon",
    "coordinates": [
     [
      [
       -99.704116,
       32.4859424
      ],
      [
       -99.7041163,
       32.4872092
      ],
      [
       -99.7038036,
       32.4872093
      ],
      [
       -99.7038037,
       32.4873473
      ],
      [
       -99.7036412,
       32.4873474
      ],
      [
       -99.7036405,
       32.4865087
      ],
      [
       -99.703328,
       32.486509
      ],
      [
       -99.7033279,
       32.4863661
      ],
      [
       -99.7026212,
       32.4863668
      ],
      [
       -99.7026216,
       32.4866389
      ],
      [
       -99.7019466,
       32.4866396
      ],
      [
       -99.7019475,
       32.4872615
      ],
      [
       -99.7020893,
       32.4872613
      ],
      [
       -99.7020897,
       32.4875291
      ],
      [
       -99.7009214,
       32.4875305
      ],
      [
       -99.7009225,
       32.4881882
      ],
      [
       -99.7035893,
       32.4881852
      ],
      [
       -99.7035886,
       32.4877017
      ],
      [
       -99.7037783,
       32.4877015
      ],
      [
       -99.7037782,
       32.4875624
      ],
      [
       -99.7042976,
       32.4875621
      ],
      [
       -99.7042975,
       32.487417
      ],
      [
       -99.7047488,
       32.4874169
      ],
      [
       -99.7047491,
       32.4882208
      ],
      [
       -99.7052515,
       32.4882207
      ],
      [
       -99.7052513,
       32.4874048
      ],
      [
       -99.7057392,
       32.4874047
      ],
      [
       -99.705739,
       32.486083
      ],
      [
       -99.705801,
       32.486083
      ],
      [
       -99.705801,
       32.48602
      ],
      [
       -99.70567,
       32.48602
      ],
      [
       -99.7056699,
       32.4859421
      ],
      [
       -99.704116,
       32.4859424
      ]
     ]
    ]
   }
  }
 ]
}