{
 "type": "FeatureCollection",
 "name": "epoch_microsoft_narvik_norway",
 "features": [
  {
   "type": "Feature",
   "geometry": {
    "type": "Polygon",
    "coordinates": [
     [
      [
       17.579609,
       68.575749
      ],
      [
       17.577422,
       68.573853
      ],
      [
       17.578477,
       68.573692
      ],
      [
       17.580679,
       68.575594
      ],
      [
       17.579609,
       68.575749
      ]
     ]
    ]
   },
   "properties": {
    "site_id": "epoch_microsoft_narvik_norway",
    "name": "epoch_building_000",
    "ptype": "hall",
    "confidence": "medium",
    "geometry_repair": "",
    "digitised_from": "Epoch AI public map annotation: Microsoft Narvik Norway, feature 0",
    "source_url": "https://epoch.ai/data/ai-data-centers/map",
    "epoch_building_number": 1,
    "epoch_complete": 0,
    "roof_date_required": true,
    "note": "Epoch AI Building annotation (CC BY 4.0); identity and boundary not independently field-verified. Includes planned footprints. Completion flag is not a roof date or operating evidence."
   }
  },
  {
   "type": "Feature",
   "geometry": {
    "type": "Polygon",
    "coordinates": [
     [
      [
       17.580675,
       68.576793
      ],
      [
       17.579849,
       68.575931
      ],
      [
       17.580879,
       68.575814
      ],
      [
       17.58175,
       68.576656
      ],
      [
       17.580675,
       68.576793
      ]
     ]
    ]
   },
   "properties": {
    "site_id": "epoch_microsoft_narvik_norway",
    "name": "epoch_building_001",
    "ptype": "hall",
    "confidence": "medium",
    "geometry_repair": "",
    "digitised_from": "Epoch AI public map annotation: Microsoft Narvik Norway, feature 1",
    "source_url": "https://epoch.ai/data/ai-data-centers/map",
    "epoch_building_number": 2,
    "epoch_complete": 0,
    "roof_date_required": true,
    "note": "Epoch AI Building annotation (CC BY 4.0); identity and boundary not independently field-verified. Includes planned footprints. Completion flag is not a roof date or operating evidence."
   }
  },
  {
   "type": "Feature",
   "geometry": {
    "type": "Polygon",
    "coordinates": [
     [
      [
       17.590845,
       68.578885
      ],
      [
       17.589124,
       68.578228
      ],
      [
       17.589908,
       68.577947
      ],
      [
       17.591658,
       68.578598
      ],
      [
       17.590845,
       68.578885
      ]
     ]
    ]
   },
   "properties": {
    "site_id": "epoch_microsoft_narvik_norway",
    "name": "epoch_building_006",
    "ptype": "hall",
    "confidence": "medium",
    "geometry_repair": "",
    "digitised_from": "Epoch AI public map annotation: Microsoft Narvik Norway, feature 6",
    "source_url": "https://epoch.ai/data/ai-data-centers/map",
    "epoch_building_number": 3,
    "epoch_complete": 0,
    "roof_date_required": true,
    "note": "Epoch AI Building annotation (CC BY 4.0); identity and boundary not independently field-verified. Includes planned footprints. Completion flag is not a roof date or operating evidence."
   }
  }
 ]
}
