{
 "type": "FeatureCollection",
 "name": "epoch_aws_berwick",
 "features": [
  {
   "type": "Feature",
   "geometry": {
    "type": "Polygon",
    "coordinates": [
     [
      [
       -76.144684,
       41.0858812
      ],
      [
       -76.1446494,
       41.0852324
      ],
      [
       -76.1424647,
       41.0852878
      ],
      [
       -76.1424907,
       41.0859367
      ],
      [
       -76.144684,
       41.0858812
      ]
     ]
    ]
   },
   "properties": {
    "site_id": "epoch_aws_berwick",
    "name": "epoch_building_002",
    "ptype": "hall",
    "confidence": "medium",
    "geometry_repair": "",
    "digitised_from": "Epoch AI public map annotation: AWS Berwick, feature 2",
    "source_url": "https://epoch.ai/data/ai-data-centers/map",
    "epoch_building_number": 2,
    "epoch_complete": 1,
    "roof_date_required": true,
    "note": "Epoch AI Building annotation (CC BY 4.0); identity and boundary not independently field-verified. Includes planned footprints. Completion flag is not a roof date or operating evidence."
   }
  },
  {
   "type": "Feature",
   "geometry": {
    "type": "Polygon",
    "coordinates": [
     [
      [
       -76.1442427,
       41.0846633
      ],
      [
       -76.1441453,
       41.0829489
      ],
      [
       -76.1427718,
       41.0829893
      ],
      [
       -76.1428546,
       41.0846816
      ],
      [
       -76.1424163,
       41.0847
      ],
      [
       -76.142426,
       41.0848579
      ],
      [
       -76.1428498,
       41.0848468
      ],
      [
       -76.1428644,
       41.084979
      ],
      [
       -76.1439797,
       41.084968
      ],
      [
       -76.1439846,
       41.0846743
      ],
      [
       -76.1442427,
       41.0846633
      ]
     ]
    ]
   },
   "properties": {
    "site_id": "epoch_aws_berwick",
    "name": "epoch_building_004",
    "ptype": "hall",
    "confidence": "medium",
    "geometry_repair": "",
    "digitised_from": "Epoch AI public map annotation: AWS Berwick, feature 4",
    "source_url": "https://epoch.ai/data/ai-data-centers/map",
    "epoch_building_number": 1,
    "epoch_complete": 1,
    "roof_date_required": true,
    "note": "Epoch AI Building annotation (CC BY 4.0); identity and boundary not independently field-verified. Includes planned footprints. Completion flag is not a roof date or operating evidence."
   }
  },
  {
   "type": "Feature",
   "geometry": {
    "type": "Polygon",
    "coordinates": [
     [
      [
       -76.1545215,
       41.0845909
      ],
      [
       -76.1550988,
       41.084454
      ],
      [
       -76.1549575,
       41.0841436
      ],
      [
       -76.1551594,
       41.0840675
      ],
      [
       -76.1547314,
       41.0832155
      ],
      [
       -76.1539442,
       41.0834376
      ],
      [
       -76.1545215,
       41.0845909
      ]
     ]
    ]
   },
   "properties": {
    "site_id": "epoch_aws_berwick",
    "name": "epoch_building_007",
    "ptype": "hall",
    "confidence": "medium",
    "geometry_repair": "",
    "digitised_from": "Epoch AI public map annotation: AWS Berwick, feature 7",
    "source_url": "https://epoch.ai/data/ai-data-centers/map",
    "epoch_building_number": 3,
    "epoch_complete": 0,
    "roof_date_required": true,
    "note": "Epoch AI Building annotation (CC BY 4.0); identity and boundary not independently field-verified. Includes planned footprints. Completion flag is not a roof date or operating evidence."
   }
  },
  {
   "type": "Feature",
   "geometry": {
    "type": "Polygon",
    "coordinates": [
     [
      [
       -76.1464823,
       41.0819913
      ],
      [
       -76.146435,
       41.0813567
      ],
      [
       -76.1435124,
       41.0814352
      ],
      [
       -76.1435313,
       41.0820483
      ],
      [
       -76.1464823,
       41.0819913
      ]
     ]
    ]
   },
   "properties": {
    "site_id": "epoch_aws_berwick",
    "name": "epoch_building_010",
    "ptype": "hall",
    "confidence": "medium",
    "geometry_repair": "",
    "digitised_from": "Epoch AI public map annotation: AWS Berwick, feature 10",
    "source_url": "https://epoch.ai/data/ai-data-centers/map",
    "epoch_building_number": 4,
    "epoch_complete": 0,
    "roof_date_required": true,
    "note": "Epoch AI Building annotation (CC BY 4.0); identity and boundary not independently field-verified. Includes planned footprints. Completion flag is not a roof date or operating evidence."
   }
  }
 ]
}
