{
 "type": "FeatureCollection",
 "name": "epoch_google_kansas_city_east",
 "features": [
  {
   "type": "Feature",
   "geometry": {
    "type": "Polygon",
    "coordinates": [
     [
      [
       -94.4634735,
       39.1749884
      ],
      [
       -94.4634735,
       39.173954
      ],
      [
       -94.4603336,
       39.173954
      ],
      [
       -94.4603336,
       39.1749884
      ],
      [
       -94.4634735,
       39.1749884
      ]
     ]
    ]
   },
   "properties": {
    "site_id": "epoch_google_kansas_city_east",
    "name": "epoch_building_001",
    "ptype": "hall",
    "confidence": "medium",
    "geometry_repair": "",
    "digitised_from": "Epoch AI public map annotation: Google Kansas City East, feature 1",
    "source_url": "https://epoch.ai/data/ai-data-centers/map",
    "epoch_building_number": 1,
    "epoch_complete": 1,
    "roof_date_required": true,
    "note": "Epoch AI Building annotation (CC BY 4.0); identity and boundary not independently field-verified. Includes planned footprints. Completion flag is not a roof date or operating evidence."
   }
  }
 ]
}
