{
 "type": "FeatureCollection",
 "name": "epoch_google_lincoln",
 "features": [
  {
   "type": "Feature",
   "geometry": {
    "type": "Polygon",
    "coordinates": [
     [
      [
       -96.6534462,
       40.9058175
      ],
      [
       -96.6534462,
       40.9047595
      ],
      [
       -96.6502369,
       40.9047595
      ],
      [
       -96.6502369,
       40.9058175
      ],
      [
       -96.6534462,
       40.9058175
      ]
     ]
    ]
   },
   "properties": {
    "site_id": "epoch_google_lincoln",
    "name": "epoch_building_000",
    "ptype": "hall",
    "confidence": "medium",
    "geometry_repair": "",
    "digitised_from": "Epoch AI public map annotation: Google Lincoln, feature 0",
    "source_url": "https://epoch.ai/data/ai-data-centers/map",
    "epoch_building_number": 1,
    "epoch_complete": 1,
    "roof_date_required": true,
    "note": "Epoch AI Building annotation (CC BY 4.0); identity and boundary not independently field-verified. Includes planned footprints. Completion flag is not a roof date or operating evidence."
   }
  },
  {
   "type": "Feature",
   "geometry": {
    "type": "Polygon",
    "coordinates": [
     [
      [
       -96.6570418,
       40.9057899
      ],
      [
       -96.6570418,
       40.9048693
      ],
      [
       -96.6538555,
       40.9048693
      ],
      [
       -96.6538555,
       40.9057899
      ],
      [
       -96.6570418,
       40.9057899
      ]
     ]
    ]
   },
   "properties": {
    "site_id": "epoch_google_lincoln",
    "name": "epoch_building_007",
    "ptype": "hall",
    "confidence": "medium",
    "geometry_repair": "",
    "digitised_from": "Epoch AI public map annotation: Google Lincoln, feature 7",
    "source_url": "https://epoch.ai/data/ai-data-centers/map",
    "epoch_building_number": 2,
    "epoch_complete": 1,
    "roof_date_required": true,
    "note": "Epoch AI Building annotation (CC BY 4.0); identity and boundary not independently field-verified. Includes planned footprints. Completion flag is not a roof date or operating evidence."
   }
  }
 ]
}
