{
 "type": "FeatureCollection",
 "name": "fairwater_wi",
 "features": [
  {
   "type": "Feature",
   "properties": {
    "name": "fairwater_1",
    "ptype": "hall",
    "confidence": "medium",
    "note": "First Fairwater building (two joined halls, ~17 ha on Sentinel-2 Jun 2026); equipment online Apr 2026, operational Jun 2026. Roof present from 2025.",
    "site_id": "fairwater_wi",
    "digitised_from": "Sentinel-2 L2A S2C_16TDN_20260623 chip, hand offsets",
    "valid_from": "2025-06-01"
   },
   "geometry": {
    "type": "Polygon",
    "coordinates": [
     [
      [
       -87.90313777350865,
       42.675175537305705
      ],
      [
       -87.89703623100952,
       42.675223483603204
      ],
      [
       -87.8969909042459,
       42.6720719085918
      ],
      [
       -87.90309213853911,
       42.672023967550764
      ],
      [
       -87.90313777350865,
       42.675175537305705
      ]
     ]
    ]
   }
  },
  {
   "type": "Feature",
   "properties": {
    "name": "campus",
    "ptype": "campus",
    "confidence": "high",
    "note": "Hull of hall and the second-building pad + 300 m.",
    "site_id": "fairwater_wi",
    "digitised_from": "derived"
   },
   "geometry": {
    "type": "Polygon",
    "coordinates": [
     [
      [
       -87.90306856647541,
       42.669024060159224
      ],
      [
       -87.90336148580698,
       42.66903608334128
      ],
      [
       -87.90365183298312,
       42.66907663958643
      ],
      [
       -87.90393683530793,
       42.66914534159925
      ],
      [
       -87.90421377112665,
       42.66924153330382
      ],
      [
       -87.90447999581629,
       42.669364296108995
      ],
      [
       -87.90473296704079,
       42.66951245768057
      ],
      [
       -87.90497026902916,
       42.66968460313658
      ],
      [
       -87.9051896356452,
       42.66987908855886
      ],
      [
       -87.90538897202812,
       42.67009405669175
      ],
      [
       -87.90556637459758,
       42.67032745467816
      ],
      [
       -87.90572014923217,
       42.670577053663486
      ],
      [
       -87.90584882744744,
       42.67084047008026
      ],
      [
       -87.90595118041948,
       42.67111518841024
      ],
      [
       -87.90602623071959,
       42.67139858520656
      ],
      [
       -87.90607326164832,
       42.6716879541466
      ],
      [
       -87.90609182407965,
       42.671980531876194
      ],
      [
       -87.90613745904919,
       42.675132101631135
      ],
      [
       -87.90612374230237,
       42.67546534821457
      ],
      [
       -87.90607311850532,
       42.67579501268899
      ],
      [
       -87.9043598002454,
       42.68391346310317
      ],
      [
       -87.904286202543,
       42.68419421126084
      ],
      [
       -87.90418582011019,
       42.68446653371128
      ],
      [
       -87.90405959248355,
       42.68472788163285
      ],
      [
       -87.90390870109971,
       42.68497580892082
      ],
      [
       -87.90373455823745,
       42.68520799508181
      ],
      [
       -87.90353879379947,
       42.685422266952706
      ],
      [
       -87.90332324005716,
       42.68561661904045
      ],
      [
       -87.90308991450134,
       42.68578923229265
      ],
      [
       -87.90284100095938,
       42.6859384911231
      ],
      [
       -87.90257882915557,
       42.68606299853301
      ],
      [
       -87.90230585290583,
       42.68616158918628
      ],
      [
       -87.90202462715108,
       42.68623334031657
      ],
      [
       -87.90173778404407,
       42.686277580364
      ],
      [
       -87.90144800831358,
       42.68629389526065
      ],
      [
       -87.89717637206641,
       42.686327433002795
      ],
      [
       -87.89688343690639,
       42.686315406531754
      ],
      [
       -87.89659307451433,
       42.686274843922774
      ],
      [
       -87.89630805803313,
       42.6862061325742
      ],
      [
       -87.89603110954893,
       42.6861099287225
      ],
      [
       -87.89576487409344,
       42.6859871511748
      ],
      [
       -87.89551189438221,
       42.685838972533666
      ],
      [
       -87.89527458653015,
       42.68566680799805
      ],
      [
       -87.89505521697603,
       42.68547230184723
      ],
      [
       -87.89485588083669,
       42.68525731173692
      ],
      [
       -87.89467848189724,
       42.6850238909575
      ],
      [
       -87.89452471442884,
       42.684774268823794
      ],
      [
       -87.89439604700719,
       42.68451082938372
      ],
      [
       -87.8942937084869,
       42.68423608864913
      ],
      [
       -87.894218676265,
       42.683952670566335
      ],
      [
       -87.89417166694625,
       42.683663281955766
      ],
      [
       -87.89415312949913,
       42.68337068666012
      ],
      [
       -87.89412073911225,
       42.68111956510173
      ],
      [
       -87.89403654137837,
       42.67526663585374
      ],
      [
       -87.89399121447177,
       42.672115050902825
      ],
      [
       -87.89400153273832,
       42.67181960324174
      ],
      [
       -87.89404087972439,
       42.67152660562784
      ],
      [
       -87.89410887334546,
       42.67123890325635
      ],
      [
       -87.89420485333973,
       42.6709592899023
      ],
      [
       -87.89432788767975,
       42.670690480791144
      ],
      [
       -87.89447678162297,
       42.6704350862322
      ],
      [
       -87.89465008931346,
       42.67019558627086
      ],
      [
       -87.8948461278221,
       42.669974306605745
      ],
      [
       -87.89506299348892,
       42.669773396004686
      ],
      [
       -87.89529858040886,
       42.669594805438805
      ],
      [
       -87.89555060088142,
       42.66944026913734
      ],
      [
       -87.89581660762579,
       42.669311287747135
      ],
      [
       -87.89609401754542,
       42.66920911376044
      ],
      [
       -87.89638013681162,
       42.669134739352344
      ],
      [
       -87.89667218702232,
       42.669088886746195
      ],
      [
       -87.8969673321822,
       42.66907200120026
      ],
      [
       -87.90306856647541,
       42.669024060159224
      ]
     ]
    ]
   }
  },
  {
   "type": "Feature",
   "properties": {
    "name": "hall_surround",
    "ptype": "cooling",
    "confidence": "low",
    "site_id": "fairwater_wi",
    "digitised_from": "derived: 35-150 m ring around the hall footprints, clipped to the campus, minus digitised yards",
    "note": "Ring around the halls where chillers, dry coolers and switchgear are normally placed, together with adjacent paving and laydown. Measured to ask whether load-related heat is visible next to the halls at night when the roofs show none. Not a clean heat-rejection polygon."
   },
   "geometry": {
    "type": "Polygon",
    "coordinates": [
     [
      [
       -87.9049399944397,
       42.675508512707324
      ],
      [
       -87.90489846857541,
       42.675684286540886
      ],
      [
       -87.90483984312141,
       42.67585511948301
      ],
      [
       -87.90476468743877,
       42.6760193524314
      ],
      [
       -87.90467373142751,
       42.676175390381864
      ],
      [
       -87.90456785843787,
       42.676321717918704
      ],
      [
       -87.90444809669147,
       42.67645691393221
      ],
      [
       -87.90431560929528,
       42.67657966542028
      ],
      [
       -87.90417168294577,
       42.67668878024001
      ],
      [
       -87.90401771543269,
       42.6767831986857
      ],
      [
       -87.90385520206397,
       42.67686200378044
      ],
      [
       -87.90368572114353,
       42.676924430181735
      ],
      [
       -87.90351091864305,
       42.67696987161432
      ],
      [
       -87.90333249221653,
       42.67699788675825
      ],
      [
       -87.90315217471297,
       42.677008203534925
      ],
      [
       -87.89705063221385,
       42.677056149832424
      ],
      [
       -87.89687167435346,
       42.67704880385164
      ],
      [
       -87.89669428813862,
       42.677024024626185
      ],
      [
       -87.89652016774727,
       42.676982048817166
      ],
      [
       -87.89635097616615,
       42.67692327732659
      ],
      [
       -87.89618832930799,
       42.676848271468415
      ],
      [
       -87.89603378057828,
       42.67675774760764
      ],
      [
       -87.89588880603898,
       42.67665257031834
      ],
      [
       -87.89575479031103,
       42.6765337441264
      ],
      [
       -87.89563301335009,
       42.67640240391546
      ],
      [
       -87.89552463822194,
       42.67625980408787
      ],
      [
       -87.89543069999435,
       42.67610730658421
      ],
      [
       -87.89535209585131,
       42.67594636787561
      ],
      [
       -87.89528957652423,
       42.675778525053396
      ],
      [
       -87.89524373912188,
       42.67560538114858
      ],
      [
       -87.89521502142753,
       42.675428589821706
      ],
      [
       -87.89520369771775,
       42.67524983956905
      ],
      [
       -87.89515837095412,
       42.67209826455765
      ],
      [
       -87.89516467446161,
       42.671917773335
      ],
      [
       -87.89518871183459,
       42.67173877886479
      ],
      [
       -87.8952302496547,
       42.671563019298446
      ],
      [
       -87.895288884563,
       42.67139220137436
      ],
      [
       -87.89536404717684,
       42.67122798384441
      ],
      [
       -87.89545500761889,
       42.67107196136641
      ],
      [
       -87.8955608826048,
       42.67092564901893
      ],
      [
       -87.89568064402035,
       42.67079046758897
      ],
      [
       -87.89581312890519,
       42.67066772977512
      ],
      [
       -87.8959570507459,
       42.67055862744047
      ],
      [
       -87.8961110119689,
       42.67046422003886
      ],
      [
       -87.89627351751166,
       42.670385424326845
      ],
      [
       -87.89644298934091,
       42.67032300546147
      ],
      [
       -87.89661778177619,
       42.67027756957005
      ],
      [
       -87.89679619747058,
       42.670249557864295
      ],
      [
       -87.89697650389294,
       42.6702392423559
      ],
      [
       -87.90307773818616,
       42.67019130131486
      ],
      [
       -87.90325668483308,
       42.67019864636819
      ],
      [
       -87.9034340601307,
       42.670223422486735
      ],
      [
       -87.903608170218,
       42.67026539306875
      ],
      [
       -87.90377735241539,
       42.670324157312486
      ],
      [
       -87.90393999110259,
       42.67039915404362
      ],
      [
       -87.90409453314716,
       42.67048966707427
      ],
      [
       -87.90423950273623,
       42.6705948320423
      ],
      [
       -87.90437351546997,
       42.670713644665575
      ],
      [
       -87.904495291582,
       42.67084497033251
      ],
      [
       -87.9046036681606,
       42.6709875549371
      ],
      [
       -87.90469761025412,
       42.671140036855114
      ],
      [
       -87.90477622075426,
       42.67130095994706
      ],
      [
       -87.90483874896314,
       42.67146878746372
      ],
      [
       -87.90488459776213,
       42.67164191672146
      ],
      [
       -87.90491332931411,
       42.67181869440721
      ],
      [
       -87.90492466924456,
       42.671997432366894
      ],
      [
       -87.9049703042141,
       42.675149002121834
      ],
      [
       -87.90496401742172,
       42.67532950506977
      ],
      [
       -87.9049399944397,
       42.675508512707324
      ]
     ],
     [
      [
       -87.90351708305327,
       42.671976070483936
      ],
      [
       -87.90351037902448,
       42.671934822357265
      ],
      [
       -87.90349968097138,
       42.67189442553045
      ],
      [
       -87.90348509105598,
       42.671855265776564
      ],
      [
       -87.90346674860594,
       42.67181771705511
      ],
      [
       -87.90344482878412,
       42.67178213794091
      ],
      [
       -87.90341954091578,
       42.671748868199835
      ],
      [
       -87.90339112648964,
       42.67171822554422
      ],
      [
       -87.90335985685176,
       42.671690502598786
      ],
      [
       -87.90332603061432,
       42.671665964106246
      ],
      [
       -87.90328997080393,
       42.6716448443991
      ],
      [
       -87.90325202177691,
       42.67162734516183
      ],
      [
       -87.90321254593084,
       42.67161363350496
      ],
      [
       -87.9031719202438,
       42.67160384036916
      ],
      [
       -87.90313053267437,
       42.67159805927483
      ],
      [
       -87.90308877845675,
       42.67159634542905
      ],
      [
       -87.89698754416354,
       42.67164428647009
      ],
      [
       -87.89694547266498,
       42.671646693422055
      ],
      [
       -87.8969038423363,
       42.67165322948673
      ],
      [
       -87.89686305743473,
       42.67166383119473
      ],
      [
       -87.8968235140079,
       42.67167839559665
      ],
      [
       -87.89678559604792,
       42.67169678126278
      ],
      [
       -87.89674967176256,
       42.6717188096565
      ],
      [
       -87.89671608999973,
       42.67174426686791
      ],
      [
       -87.89668517685993,
       42.67177290569114
      ],
      [
       -87.89665723252963,
       42.6718044480248
      ],
      [
       -87.89663252836627,
       42.671838587572545
      ],
      [
       -87.89661130426312,
       42.671874992817415
      ],
      [
       -87.89659376631988,
       42.67191331024107
      ],
      [
       -87.89658008484129,
       42.67195316775669
      ],
      [
       -87.89657039268326,
       42.67199417832217
      ],
      [
       -87.8965647839629,
       42.67203594369855
      ],
      [
       -87.89656331314448,
       42.67207805831717
      ],
      [
       -87.89660863990811,
       42.67522963332857
      ],
      [
       -87.89661128210706,
       42.67527134172086
      ],
      [
       -87.89661798290241,
       42.67531259303046
      ],
      [
       -87.8966286782963,
       42.67535299327492
      ],
      [
       -87.89664326613928,
       42.675392156600104
      ],
      [
       -87.89666160710598,
       42.67542970896544
      ],
      [
       -87.89668352602575,
       42.67546529171629
      ],
      [
       -87.89670881355566,
       42.6754985650094
      ],
      [
       -87.89673722817987,
       42.67552921105862
      ],
      [
       -87.8967684985164,
       42.67555693717007
      ],
      [
       -87.89680232590891,
       42.67558147853757
      ],
      [
       -87.89683838727917,
       42.675602600771754
      ],
      [
       -87.89687633821273,
       42.67562010213866
      ],
      [
       -87.89691581624834,
       42.675633815486464
      ],
      [
       -87.89695644433965,
       42.6756436098419
      ],
      [
       -87.89699783445644,
       42.675649391661175
      ],
      [
       -87.89703959129054,
       42.675651105723354
      ],
      [
       -87.90314113378966,
       42.675603159425854
      ],
      [
       -87.90318320787382,
       42.675600752177964
      ],
      [
       -87.90322484070668,
       42.67559421531105
      ],
      [
       -87.90326562795678,
       42.67558361231011
      ],
      [
       -87.90330517350489,
       42.67556904614981
      ],
      [
       -87.90334309329093,
       42.67555065829437
      ],
      [
       -87.90337901904398,
       42.67552862732371
      ],
      [
       -87.90341260185886,
       42.6755031671991
      ],
      [
       -87.90344351558464,
       42.67547452518522
      ],
      [
       -87.90347145999213,
       42.67544297944874
      ],
      [
       -87.90349616368971,
       42.67540883635681
      ],
      [
       -87.903517386759,
       42.6753724275017
      ],
      [
       -87.90353492308496,
       42.67533410648041
      ],
      [
       -87.90354860235756,
       42.675294245460584
      ],
      [
       -87.90355829172589,
       42.67525323156608
      ],
      [
       -87.90356389708836,
       42.67521146311732
      ],
      [
       -87.90356536400658,
       42.675169345762804
      ],
      [
       -87.90351972903704,
       42.67201777600786
      ],
      [
       -87.90351708305327,
       42.671976070483936
      ]
     ]
    ]
   }
  }
 ]
}