{
 "type": "FeatureCollection",
 "name": "hyperion_la",
 "features": [
  {
   "type": "Feature",
   "properties": {
    "name": "structure_north",
    "ptype": "hall",
    "confidence": "low",
    "note": "Large roofed structure under construction (dark membrane roof on Aug 2026 Sentinel-2). No IT load expected before 2028: construction-only control.",
    "site_id": "hyperion_la",
    "digitised_from": "Sentinel-2 L2A S2C_15SXR_20260812 chip, hand offsets rel. 32.478,-91.630",
    "valid_from": "2026-01-01"
   },
   "geometry": {
    "type": "Polygon",
    "coordinates": [
     [
      [
       -91.63370340397472,
       32.47939326432695
      ],
      [
       -91.62891553419813,
       32.479341194506745
      ],
      [
       -91.62887450664867,
       32.48204675501685
      ],
      [
       -91.63366251958593,
       32.48209883023512
      ],
      [
       -91.63370340397472,
       32.47939326432695
      ]
     ]
    ]
   }
  },
  {
   "type": "Feature",
   "properties": {
    "name": "structure_south",
    "ptype": "hall",
    "confidence": "low",
    "note": "Second roofed structure under construction; same caveat.",
    "site_id": "hyperion_la",
    "digitised_from": "Sentinel-2 L2A S2C_15SXR_20260812 chip, hand offsets rel. 32.478,-91.630",
    "valid_from": "2026-01-01"
   },
   "geometry": {
    "type": "Polygon",
    "coordinates": [
     [
      [
       -91.63378515631702,
       32.47398212887935
      ],
      [
       -91.62899757280418,
       32.473930069854276
      ],
      [
       -91.6289497196229,
       32.477086559823434
      ],
      [
       -91.6337374701136,
       32.47713862514551
      ],
      [
       -91.63378515631702,
       32.47398212887935
      ]
     ]
    ]
   }
  },
  {
   "type": "Feature",
   "properties": {
    "name": "campus",
    "ptype": "campus",
    "confidence": "medium",
    "note": "Hull of structures and northern pad + 400 m; large earthworks east of the site widen the exclusion.",
    "site_id": "hyperion_la",
    "digitised_from": "Sentinel-2 L2A S2C_15SXR_20260812 chip, hand offsets rel. 32.478,-91.630"
   },
   "geometry": {
    "type": "Polygon",
    "coordinates": [
     [
      [
       -91.62499803250469,
       32.47386942834378
      ],
      [
       -91.6250231142091,
       32.473478761892935
      ],
      [
       -91.62508626361767,
       32.473092418108315
      ],
      [
       -91.62518687587998,
       32.47271409742372
      ],
      [
       -91.62532398732317,
       32.47234742342701
      ],
      [
       -91.62549628468213,
       32.471995908153076
      ],
      [
       -91.62570211767802,
       32.47166291844525
      ],
      [
       -91.62593951482481,
       32.471351643707415
      ],
      [
       -91.62620620231235,
       32.471065065355624
      ],
      [
       -91.62649962578504,
       32.47080592826184
      ],
      [
       -91.62681697480784,
       32.47057671446328
      ],
      [
       -91.62715520978465,
       32.470379619389306
      ],
      [
       -91.62751109107194,
       32.47021653083338
      ],
      [
       -91.62788121000833,
       32.47008901087165
      ],
      [
       -91.628262021563,
       32.469998280901194
      ],
      [
       -91.62864987829035,
       32.46994520994142
      ],
      [
       -91.62904106526547,
       32.46993030631054
      ],
      [
       -91.6338286487783,
       32.46998236533561
      ],
      [
       -91.63422153664456,
       32.47000600360344
      ],
      [
       -91.63461019926801,
       32.47006814061557
      ],
      [
       -91.6349908734315,
       32.47016817473177
      ],
      [
       -91.63535987326593,
       32.47030513737394
      ],
      [
       -91.6357136259386,
       32.47047770240436
      ],
      [
       -91.6360487062472,
       32.47068419896596
      ],
      [
       -91.63636186978405,
       32.47092262766039
      ],
      [
       -91.63665008435025,
       32.471190679907146
      ],
      [
       -91.63691055931466,
       32.47148576029631
      ],
      [
       -91.63714077263424,
       32.47180501171861
      ],
      [
       -91.63733849527368,
       32.472145343029254
      ],
      [
       -91.63750181278792,
       32.47250345897793
      ],
      [
       -91.63762914385876,
       32.47287589211495
      ],
      [
       -91.63771925560597,
       32.473259036364766
      ],
      [
       -91.63777127552456,
       32.47364918194173
      ],
      [
       -91.63778469993282,
       32.47404255126999
      ],
      [
       -91.6377370137294,
       32.477199047536146
      ],
      [
       -91.6377029474678,
       32.47945369484072
      ],
      [
       -91.63766206296647,
       32.48215926819602
      ],
      [
       -91.63762117297556,
       32.48486484101876
      ],
      [
       -91.63757346107019,
       32.48802134043932
      ],
      [
       -91.6375483963409,
       32.48841201910485
      ],
      [
       -91.63748526155851,
       32.48879837652954
      ],
      [
       -91.63738466146765,
       32.48917671193903
      ],
      [
       -91.63724755967924,
       32.48954340139889
      ],
      [
       -91.63707526944042,
       32.48989493252691
      ],
      [
       -91.63686944105542,
       32.49022793813691
      ],
      [
       -91.63663204607795,
       32.49053922849177
      ],
      [
       -91.63636535842636,
       32.490825821856745
      ],
      [
       -91.63607193260266,
       32.491084973060374
      ],
      [
       -91.6357545792239,
       32.4913141997895
      ],
      [
       -91.63541633810026,
       32.491511306366355
      ],
      [
       -91.63506044911793,
       32.491674404780234
      ],
      [
       -91.63469032120533,
       32.49180193277196
      ],
      [
       -91.63430949968034,
       32.49189266879826
      ],
      [
       -91.63392163229099,
       32.49194574373241
      ],
      [
       -91.633530434275,
       32.49196064918931
      ],
      [
       -91.63033821744585,
       32.49192594481245
      ],
      [
       -91.62993637907245,
       32.49190131491645
      ],
      [
       -91.6295390518311,
       32.4918364167392
      ],
      [
       -91.62915026066443,
       32.49173190770212
      ],
      [
       -91.62877394404418,
       32.491588846486394
      ],
      [
       -91.62841391407443,
       32.49140868230848
      ],
      [
       -91.62807381787475,
       32.49119324023951
      ],
      [
       -91.62775710063472,
       32.4909447027172
      ],
      [
       -91.62746697071408,
       32.490665587437675
      ],
      [
       -91.62720636714177,
       32.49035872185111
      ],
      [
       -91.62697792984355,
       32.49002721451951
      ],
      [
       -91.62678397289939,
       32.489674423626866
      ],
      [
       -91.62662646110175,
       32.48930392296057
      ],
      [
       -91.62650699005212,
       32.488919465708825
      ],
      [
       -91.62499979558446,
       32.48304003955254
      ],
      [
       -91.62492703759897,
       32.48269288820874
      ],
      [
       -91.62488531850833,
       32.48234065632853
      ],
      [
       -91.62487496634918,
       32.48198611350636
      ],
      [
       -91.62499803250469,
       32.47386942834378
      ]
     ]
    ]
   }
  },
  {
   "type": "Feature",
   "properties": {
    "name": "hall_surround",
    "ptype": "cooling",
    "confidence": "low",
    "site_id": "hyperion_la",
    "digitised_from": "derived: 35-150 m ring around the hall footprints, clipped to the campus, minus digitised yards",
    "note": "Ring around the halls where chillers, dry coolers and switchgear are normally placed, together with adjacent paving and laydown. Measured to ask whether load-related heat is visible next to the halls at night when the roofs show none. Not a clean heat-rejection polygon."
   },
   "geometry": {
    "type": "Polygon",
    "coordinates": [
     [
      [
       -91.63529935468266,
       32.477473042533404
      ],
      [
       -91.6352591836096,
       32.4776241212139
      ],
      [
       -91.63520443639854,
       32.47777054944099
      ],
      [
       -91.63513563746018,
       32.4779109246129
      ],
      [
       -91.63505344580348,
       32.47804390210866
      ],
      [
       -91.63495864872313,
       32.47816820816791
      ],
      [
       -91.6348521542582,
       32.47828265209194
      ],
      [
       -91.63485151999713,
       32.47828321226837
      ],
      [
       -91.63495144645067,
       32.478396415103354
      ],
      [
       -91.63504337525936,
       32.47852389941352
      ],
      [
       -91.63512232978829,
       32.47865980135451
      ],
      [
       -91.63518754555979,
       32.478802805055
      ],
      [
       -91.63523839112176,
       32.47895152588081
      ],
      [
       -91.63527437416175,
       32.479104523841706
      ],
      [
       -91.63529514627378,
       32.47926031753402
      ],
      [
       -91.63530050633175,
       32.479417398484436
      ],
      [
       -91.63525962194295,
       32.4821229643926
      ],
      [
       -91.63524961362666,
       32.48227897157479
      ],
      [
       -91.63522440295434,
       32.48243325323051
      ],
      [
       -91.6351842314124,
       32.482584331536394
      ],
      [
       -91.63512948379346,
       32.482730759353124
      ],
      [
       -91.63506068451055,
       32.48287113408718
      ],
      [
       -91.6349784925739,
       32.48300411112595
      ],
      [
       -91.63488369527842,
       32.48312841671737
      ],
      [
       -91.63477720066244,
       32.483242860170925
      ],
      [
       -91.63466002880988,
       32.48334634526288
      ],
      [
       -91.63453330207905,
       32.48343788073679
      ],
      [
       -91.63439823435195,
       32.48351658979845
      ],
      [
       -91.63425611940679,
       32.48358171851447
      ],
      [
       -91.6341083185252,
       32.48363264303403
      ],
      [
       -91.63395624745293,
       32.48366887556456
      ],
      [
       -91.63380136283874,
       32.483690069044194
      ],
      [
       -91.63364514828159,
       32.48369602046616
      ],
      [
       -91.62885713534433,
       32.4836439452479
      ],
      [
       -91.62870024152302,
       32.48363450501681
      ],
      [
       -91.62854503513641,
       32.48360969037027
      ],
      [
       -91.62839301907063,
       32.483569741592156
      ],
      [
       -91.62824566531948,
       32.48351504551231
      ],
      [
       -91.62810440073088,
       32.483446131760886
      ],
      [
       -91.6279705931905,
       32.48336366763981
      ],
      [
       -91.6278455383763,
       32.48326845166122
      ],
      [
       -91.62773044721239,
       32.48316140581536
      ],
      [
       -91.62762643414328,
       32.48304356664282
      ],
      [
       -91.62753450634277,
       32.48291607519754
      ],
      [
       -91.62745555396117,
       32.482780165997816
      ],
      [
       -91.62739034150594,
       32.48263715507232
      ],
      [
       -91.62733950043884,
       32.482488427216744
      ],
      [
       -91.62730352306134,
       32.48233542258467
      ],
      [
       -91.62728275774765,
       32.48217962274232
      ],
      [
       -91.62727740557135,
       32.482022536322354
      ],
      [
       -91.6273184331208,
       32.479316975812246
      ],
      [
       -91.62732844908953,
       32.47916097449002
      ],
      [
       -91.62735366628668,
       32.47900669932957
      ],
      [
       -91.62739384317992,
       32.47885562799074
      ],
      [
       -91.62744859495174,
       32.47870920744693
      ],
      [
       -91.62751739718529,
       32.47856884012586
      ],
      [
       -91.62759959088723,
       32.47843587047697
      ],
      [
       -91.62769438879974,
       32.478311572094235
      ],
      [
       -91.62780088294078,
       32.47819713551752
      ],
      [
       -91.62780154633796,
       32.478196549640074
      ],
      [
       -91.62770164994934,
       32.47808337499503
      ],
      [
       -91.627609721919,
       32.477955884014925
      ],
      [
       -91.62753076924227,
       32.47781997526756
      ],
      [
       -91.62746555642711,
       32.477676964773146
      ],
      [
       -91.6274147149368,
       32.477528237318936
      ],
      [
       -91.6273787370754,
       32.47737523305016
      ],
      [
       -91.62735797122073,
       32.47721943352496
      ],
      [
       -91.62735261845097,
       32.47706234736825
      ],
      [
       -91.62740047163226,
       32.473905857399096
      ],
      [
       -91.62741048701747,
       32.47374985580937
      ],
      [
       -91.62743570368225,
       32.47359558032929
      ],
      [
       -91.62747588009864,
       32.47344450862611
      ],
      [
       -91.6275306314526,
       32.47329808768096
      ],
      [
       -91.6275994333297,
       32.47315771992952
      ],
      [
       -91.62768162673812,
       32.473024749829314
      ],
      [
       -91.6277764244205,
       32.47290045098236
      ],
      [
       -91.62788291839436,
       32.472786013936485
      ],
      [
       -91.62800008864889,
       32.4726825347821
      ],
      [
       -91.62812681291469,
       32.472591004653765
      ],
      [
       -91.62826187741304,
       32.47251230023695
      ],
      [
       -91.62840398848151,
       32.472447175371094
      ],
      [
       -91.62855178496493,
       32.47239625382921
      ],
      [
       -91.62870385125255,
       32.47236002334335
      ],
      [
       -91.62885873083701,
       32.47233883093302
      ],
      [
       -91.62901494026487,
       32.47233287958143
      ],
      [
       -91.6338025237777,
       32.4723849386065
      ],
      [
       -91.63395941222159,
       32.47239437786735
      ],
      [
       -91.63411461343657,
       32.47241919049197
      ],
      [
       -91.63426662469034,
       32.472459136232665
      ],
      [
       -91.63441397413732,
       32.47251382831569
      ],
      [
       -91.63455523506977,
       32.47258273718617
      ],
      [
       -91.63468903973188,
       32.47266519563552
      ],
      [
       -91.63481409256299,
       32.47276040526163
      ],
      [
       -91.63492918274184,
       32.472867444199416
      ],
      [
       -91.63503319591035,
       32.47298527604676
      ],
      [
       -91.63512512496332,
       32.473112759899415
      ],
      [
       -91.63520407979978,
       32.47324866139783
      ],
      [
       -91.63526929594126,
       32.473391664678786
      ],
      [
       -91.63532014193392,
       32.47354038511619
      ],
      [
       -91.63535612546258,
       32.473693382727724
      ],
      [
       -91.63537689811751,
       32.47384917611743
      ],
      [
       -91.63538225876799,
       32.474006256819294
      ],
      [
       -91.63533457256457,
       32.47716275308545
      ],
      [
       -91.63532456482834,
       32.47731876054689
      ],
      [
       -91.63529935468266,
       32.477473042533404
      ]
     ],
     [
      [
       -91.63407481051117,
       32.479362243408595
      ],
      [
       -91.63406996368502,
       32.479325891547056
      ],
      [
       -91.63406156764236,
       32.47929019202285
      ],
      [
       -91.6340497036779,
       32.479255490496826
      ],
      [
       -91.63403448666455,
       32.47922212296671
      ],
      [
       -91.63401606394113,
       32.479190412513816
      ],
      [
       -91.63399461388578,
       32.47916066617478
      ],
      [
       -91.63397034418875,
       32.4791331719687
      ],
      [
       -91.63394348984157,
       32.47910819610839
      ],
      [
       -91.63391431086157,
       32.47908598042277
      ],
      [
       -91.63388308977441,
       32.479066740015334
      ],
      [
       -91.63385012887846,
       32.47905066118145
      ],
      [
       -91.63381574731778,
       32.479037899604506
      ],
      [
       -91.63378027799203,
       32.479028578848556
      ],
      [
       -91.63374406433316,
       32.47902278916187
      ],
      [
       -91.63370745698012,
       32.47902058660312
      ],
      [
       -91.62891958720353,
       32.47896851678291
      ],
      [
       -91.62888313838822,
       32.47896990536848
      ],
      [
       -91.62884699986259,
       32.478974850191186
      ],
      [
       -91.6288115177643,
       32.478983303889116
      ],
      [
       -91.62877703194378,
       32.478995185492074
      ],
      [
       -91.62874387270894,
       32.47901038119713
      ],
      [
       -91.62871235766161,
       32.47902874545858
      ],
      [
       -91.62868278865544,
       32.47905010238206
      ],
      [
       -91.62865544890474,
       32.47907424740926
      ],
      [
       -91.62863060027183,
       32.47910094927716
      ],
      [
       -91.62860848075891,
       32.47912995223314
      ],
      [
       -91.62858930222846,
       32.47916097848454
      ],
      [
       -91.62857324837397,
       32.47919373085946
      ],
      [
       -91.62856047296054,
       32.47922789565301
      ],
      [
       -91.62855109835212,
       32.479263145632075
      ],
      [
       -91.62854521433945,
       32.47929914316951
      ],
      [
       -91.62854287728008,
       32.47933554347803
      ],
      [
       -91.62850184973063,
       32.48204110398814
      ],
      [
       -91.62850309857177,
       32.48207775748613
      ],
      [
       -91.62850794381163,
       32.482114110782675
      ],
      [
       -91.62851633853305,
       32.48214981186349
      ],
      [
       -91.6285282014487,
       32.48218451502979
      ],
      [
       -91.62854341768825,
       32.48221788424574
      ],
      [
       -91.62856183991063,
       32.48224959639234
      ],
      [
       -91.62858328973074,
       32.48227934439625
      ],
      [
       -91.62860755944686,
       32.48230684020317
      ],
      [
       -91.62863441405179,
       32.4823318175672
      ],
      [
       -91.62866359350842,
       32.48235403462888
      ],
      [
       -91.62869481526785,
       32.48237327625713
      ],
      [
       -91.62872777700518,
       32.48238935613246
      ],
      [
       -91.62876215954712,
       32.482402118551086
      ],
      [
       -91.62879762996248,
       32.48241143993265
      ],
      [
       -91.62883384478602,
       32.48241723001684
      ],
      [
       -91.62887045334432,
       32.48241943273743
      ],
      [
       -91.63365846628157,
       32.482471507955694
      ],
      [
       -91.63369491634491,
       32.48247011929057
      ],
      [
       -91.63373105608822,
       32.48246517414532
      ],
      [
       -91.63376653933842,
       32.4824567198882
      ],
      [
       -91.63380102621079,
       32.4824448375003
      ],
      [
       -91.63383418636467,
       32.48242964079989
      ],
      [
       -91.63386570216765,
       32.48241127535218
      ],
      [
       -91.63389527173818,
       32.482389917074926
      ],
      [
       -91.63392261183711,
       32.48236577055347
      ],
      [
       -91.63394746058084,
       32.48233906708098
      ],
      [
       -91.63396957994979,
       32.48231006244298
      ],
      [
       -91.63398875806834,
       32.48227903446726
      ],
      [
       -91.63400481123435,
       32.48224628036265
      ],
      [
       -91.63401758567876,
       32.48221211387208
      ],
      [
       -91.63402695903855,
       32.48217686226737
      ],
      [
       -91.63403284152876,
       32.48214086321437
      ],
      [
       -91.63403517680257,
       32.482104461538526
      ],
      [
       -91.63407606119137,
       32.47939889563036
      ],
      [
       -91.63407481051117,
       32.479362243408595
      ]
     ],
     [
      [
       -91.63415656273713,
       32.47395110656824
      ],
      [
       -91.63415171578431,
       32.4739147547773
      ],
      [
       -91.63414331962763,
       32.473879055334606
      ],
      [
       -91.63413145556267,
       32.47384435389922
      ],
      [
       -91.634116238463,
       32.473810986466994
      ],
      [
       -91.63409781566783,
       32.47377927611736
      ],
      [
       -91.63407636555546,
       32.473749529885076
      ],
      [
       -91.63405209581614,
       32.47372203578736
      ],
      [
       -91.63402524144108,
       32.473697060035214
      ],
      [
       -91.63399606244715,
       32.473674844455786
      ],
      [
       -91.63396484135933,
       32.47365560415094
      ],
      [
       -91.63393188047509,
       32.47363952541449
      ],
      [
       -91.63389749893746,
       32.47362676392846
      ],
      [
       -91.63386202964492,
       32.47361744325563
      ],
      [
       -91.63382581602808,
       32.47361165364322
      ],
      [
       -91.63378920872451,
       32.47360945114902
      ],
      [
       -91.62900162521167,
       32.47355739212394
      ],
      [
       -91.62896517634518,
       32.47355878077265
      ],
      [
       -91.62892903777546,
       32.47356372566839
      ],
      [
       -91.62889355564168,
       32.47357217944843
      ],
      [
       -91.62885906979555,
       32.47358406114154
      ],
      [
       -91.62882591054624,
       32.473599256943565
      ],
      [
       -91.62879439549663,
       32.47361762130749
      ],
      [
       -91.62876482650128,
       32.47363897833743
      ],
      [
       -91.62873748677522,
       32.47366312347346
      ],
      [
       -91.62871263818133,
       32.473689825450826
      ],
      [
       -91.6286905187221,
       32.47371882851512
      ],
      [
       -91.62867134026014,
       32.47374985487183
      ],
      [
       -91.62865528648881,
       32.47378260734717
      ],
      [
       -91.62864251117288,
       32.47381677223437
      ],
      [
       -91.62863313667573,
       32.473852022298445
      ],
      [
       -91.62862725278728,
       32.47388801991046
      ],
      [
       -91.62862491586407,
       32.4739244202814
      ],
      [
       -91.62857706268278,
       32.47708091025056
      ],
      [
       -91.6285783116624,
       32.47711756368712
      ],
      [
       -91.62858315702847,
       32.47715391690967
      ],
      [
       -91.62859155186281,
       32.477189617905715
      ],
      [
       -91.6286034148772,
       32.477224320978365
      ],
      [
       -91.62861863120075,
       32.47725769009373
      ],
      [
       -91.62863705349199,
       32.47728940213478
      ],
      [
       -91.62865850336573,
       32.47731915003014
      ],
      [
       -91.62868277312037,
       32.47734664572747
      ],
      [
       -91.62870962774903,
       32.47737162298275
      ],
      [
       -91.62873880721524,
       32.4773938399383
      ],
      [
       -91.62877002897083,
       32.47741308146475
      ],
      [
       -91.6288029906919,
       32.47742916124418
      ],
      [
       -91.62883737320627,
       32.477441923574204
      ],
      [
       -91.62887284358406,
       32.477451244875695
      ],
      [
       -91.62890905836147,
       32.47745703488941
      ],
      [
       -91.62894566686661,
       32.47745923754997
      ],
      [
       -91.63373341735732,
       32.477511302872045
      ],
      [
       -91.63376986747483,
       32.47750991414841
      ],
      [
       -91.63380600726558,
       32.47750496893417
      ],
      [
       -91.63384149055497,
       32.477496514598364
      ],
      [
       -91.63387597745685,
       32.47748463212312
      ],
      [
       -91.63390913762926,
       32.477469435327876
      ],
      [
       -91.63394065343864,
       32.47745106977919
      ],
      [
       -91.63397022300242,
       32.47742971139636
      ],
      [
       -91.63399756308067,
       32.47740556476634
      ],
      [
       -91.63402241178916,
       32.477378861184064
      ],
      [
       -91.6340445311079,
       32.47734985643691
      ],
      [
       -91.63406370916114,
       32.47731882835456
      ],
      [
       -91.63407976224676,
       32.477286074147784
      ],
      [
       -91.634092536596,
       32.47725190756147
      ],
      [
       -91.63410190984638,
       32.47721665586935
      ],
      [
       -91.63410779221371,
       32.47718065673916
      ],
      [
       -91.63411012735216,
       32.47714425499816
      ],
      [
       -91.63415781355557,
       32.473987758732
      ],
      [
       -91.63415656273713,
       32.47395110656824
      ]
     ]
    ]
   }
  }
 ]
}