{
 "type": "FeatureCollection",
 "name": "prometheus_oh",
 "features": [
  {
   "type": "Feature",
   "properties": {
    "name": "NAO_1_NAO_2",
    "ptype": "hall",
    "confidence": "high",
    "note": "Pre-existing Meta New Albany conventional hall (NAO campus, operating before 2022).",
    "site_id": "prometheus_oh",
    "digitised_from": "OSM way 671301768"
   },
   "geometry": {
    "type": "Polygon",
    "coordinates": [
     [
      [
       -82.7528043,
       40.0692046
      ],
      [
       -82.7484428,
       40.069834
      ],
      [
       -82.7482933,
       40.0692275
      ],
      [
       -82.750082,
       40.0689694
      ],
      [
       -82.7498452,
       40.0680083
      ],
      [
       -82.7479786,
       40.0682777
      ],
      [
       -82.7478219,
       40.0676418
      ],
      [
       -82.7522611,
       40.0670013
      ],
      [
       -82.752417,
       40.0676342
      ],
      [
       -82.750654,
       40.0678886
      ],
      [
       -82.7508858,
       40.0688294
      ],
      [
       -82.7526492,
       40.0685749
      ],
      [
       -82.7528043,
       40.0692046
      ]
     ]
    ]
   }
  },
  {
   "type": "Feature",
   "properties": {
    "name": "NAO_3",
    "ptype": "hall",
    "confidence": "high",
    "note": "Pre-existing Meta New Albany conventional hall (NAO campus, operating before 2022).",
    "site_id": "prometheus_oh",
    "digitised_from": "OSM way 802160675"
   },
   "geometry": {
    "type": "Polygon",
    "coordinates": [
     [
      [
       -82.7513731,
       40.0660681
      ],
      [
       -82.7470116,
       40.0666975
      ],
      [
       -82.7468621,
       40.066091
      ],
      [
       -82.7486508,
       40.0658329
      ],
      [
       -82.748414,
       40.0648717
      ],
      [
       -82.7492228,
       40.064752
      ],
      [
       -82.7494546,
       40.0656929
      ],
      [
       -82.751218,
       40.0654383
      ],
      [
       -82.7513731,
       40.0660681
      ]
     ]
    ]
   }
  },
  {
   "type": "Feature",
   "properties": {
    "name": "NAO_5_NAO_6",
    "ptype": "hall",
    "confidence": "high",
    "note": "Pre-existing Meta New Albany conventional hall (NAO campus, operating before 2022).",
    "site_id": "prometheus_oh",
    "digitised_from": "OSM way 1252196813"
   },
   "geometry": {
    "type": "Polygon",
    "coordinates": [
     [
      [
       -82.7530659,
       40.0614771
      ],
      [
       -82.7486625,
       40.0610987
      ],
      [
       -82.7487558,
       40.0604846
      ],
      [
       -82.7503091,
       40.0606131
      ],
      [
       -82.7503884,
       40.0600026
      ],
      [
       -82.7488631,
       40.0598598
      ],
      [
       -82.7489191,
       40.0592743
      ],
      [
       -82.7533271,
       40.0596528
      ],
      [
       -82.7532618,
       40.0602632
      ],
      [
       -82.7512187,
       40.0600633
      ],
      [
       -82.7512,
       40.0602168
      ],
      [
       -82.7513773,
       40.0602418
      ],
      [
       -82.75134,
       40.0605596
      ],
      [
       -82.7511581,
       40.0605453
      ],
      [
       -82.7511487,
       40.0606952
      ],
      [
       -82.7531732,
       40.0608595
      ],
      [
       -82.7530659,
       40.0614771
      ]
     ]
    ]
   }
  },
  {
   "type": "Feature",
   "properties": {
    "name": "LCO_1",
    "ptype": "hall",
    "confidence": "medium",
    "note": "Prometheus (LCO) hall; roofed during 2025. valid_from is an estimate.",
    "site_id": "prometheus_oh",
    "digitised_from": "OSM way 1386016634",
    "valid_from": "2025-06-01"
   },
   "geometry": {
    "type": "Polygon",
    "coordinates": [
     [
      [
       -82.7408764,
       40.059913
      ],
      [
       -82.7412343,
       40.0621717
      ],
      [
       -82.7412959,
       40.0621622
      ],
      [
       -82.741376,
       40.0625961
      ],
      [
       -82.7412527,
       40.0626056
      ],
      [
       -82.7413144,
       40.0629781
      ],
      [
       -82.7402853,
       40.0630725
      ],
      [
       -82.7402422,
       40.0626999
      ],
      [
       -82.7400881,
       40.0627187
      ],
      [
       -82.740008,
       40.0622896
      ],
      [
       -82.7400758,
       40.062266
      ],
      [
       -82.7397289,
       40.0600269
      ],
      [
       -82.7408764,
       40.059913
      ]
     ]
    ]
   }
  },
  {
   "type": "Feature",
   "properties": {
    "name": "LCO_2",
    "ptype": "hall",
    "confidence": "medium",
    "note": "Prometheus (LCO) hall; roofed during 2025. valid_from is an estimate.",
    "site_id": "prometheus_oh",
    "digitised_from": "OSM way 1386016635",
    "valid_from": "2025-06-01"
   },
   "geometry": {
    "type": "Polygon",
    "coordinates": [
     [
      [
       -82.7414454,
       40.0638832
      ],
      [
       -82.7414824,
       40.0641709
      ],
      [
       -82.7415564,
       40.0641521
      ],
      [
       -82.7419322,
       40.0664676
      ],
      [
       -82.7407923,
       40.066576
      ],
      [
       -82.740404,
       40.0642935
      ],
      [
       -82.740478,
       40.0642888
      ],
      [
       -82.7404164,
       40.0639823
      ],
      [
       -82.7414454,
       40.0638832
      ]
     ]
    ]
   }
  },
  {
   "type": "Feature",
   "properties": {
    "name": "campus",
    "ptype": "campus",
    "confidence": "high",
    "note": "Hull of Meta buildings and Meta construction areas (LCO 3, NLH) + 200 m. Neighbouring QTS/Google/Amazon facilities lie inside the annulus and are built-up, so they are excluded from the background by land cover but may warm it.",
    "site_id": "prometheus_oh",
    "digitised_from": "derived"
   },
   "geometry": {
    "type": "Polygon",
    "coordinates": [
     [
      [
       -82.75380364077442,
       40.048668842934006
      ],
      [
       -82.7539843247396,
       40.04864475504369
      ],
      [
       -82.75416645137837,
       40.04863721785652
      ],
      [
       -82.7543485078138,
       40.0486462939819
      ],
      [
       -82.75452898175219,
       40.04867190802689
      ],
      [
       -82.75470637404516,
       40.04871384722252
      ],
      [
       -82.75487921114275,
       40.04877176319121
      ],
      [
       -82.75588951114274,
       40.049162363191215
      ],
      [
       -82.75607564643288,
       40.049245463766084
      ],
      [
       -82.75625235619653,
       40.04934707927282
      ],
      [
       -82.75644615619653,
       40.04947207927282
      ],
      [
       -82.7566016465896,
       40.04958323819739
      ],
      [
       -82.75674581571751,
       40.049708732545504
      ],
      [
       -82.75687734682705,
       40.04984741612806
      ],
      [
       -82.75699503859303,
       40.04999802229351
      ],
      [
       -82.75709781609038,
       40.05015917549667
      ],
      [
       -82.75716931609038,
       40.05028407549667
      ],
      [
       -82.75725792986798,
       40.05045805340979
      ],
      [
       -82.75732915745544,
       40.05063984270159
      ],
      [
       -82.75738232004115,
       40.0508277108876
      ],
      [
       -82.7574169109761,
       40.05101986755038
      ],
      [
       -82.75743260060254,
       40.05121448140254
      ],
      [
       -82.75742923939549,
       40.05140969773925
      ],
      [
       -82.7569660393955,
       40.05841269773925
      ],
      [
       -82.7569658542157,
       40.0584154682198
      ],
      [
       -82.75664895421569,
       40.0631076682198
      ],
      [
       -82.7566483423451,
       40.063116440998286
      ],
      [
       -82.7561046423451,
       40.07067244099829
      ],
      [
       -82.75608102354374,
       40.070866949908385
      ],
      [
       -82.75603848515374,
       40.07105821425232
      ],
      [
       -82.75597743545391,
       40.07124439829577
      ],
      [
       -82.75589846039263,
       40.07142371506459
      ],
      [
       -82.75580231796391,
       40.071594443495975
      ],
      [
       -82.7556899309323,
       40.07175494495707
      ],
      [
       -82.75556237797629,
       40.07190367897233
      ],
      [
       -82.75542088333523,
       40.07203921800891
      ],
      [
       -82.75526680505928,
       40.07216026117791
      ],
      [
       -82.7551016219749,
       40.07226564672019
      ],
      [
       -82.75492691949135,
       40.072354363156805
      ],
      [
       -82.754744374384,
       40.07242555899707
      ],
      [
       -82.75455573870092,
       40.072478550911065
      ],
      [
       -82.74485073870092,
       40.07469835091106
      ],
      [
       -82.74467327278614,
       40.07473059867629
      ],
      [
       -82.74449362324332,
       40.07474672663432
      ],
      [
       -82.74431325125511,
       40.07474660360811
      ],
      [
       -82.74072985125511,
       40.07458240360811
      ],
      [
       -82.74053983649594,
       40.07456458130974
      ],
      [
       -82.74035238560076,
       40.07452872876568
      ],
      [
       -82.74016920546194,
       40.07447517244242
      ],
      [
       -82.73999196408316,
       40.07440440001369
      ],
      [
       -82.73982227539086,
       40.074317055919856
      ],
      [
       -82.73966168453819,
       40.074213935499685
      ],
      [
       -82.73951165383504,
       40.074095977748215
      ],
      [
       -82.7393735494326,
       40.07396425676641
      ],
      [
       -82.7382469494326,
       40.072782056766414
      ],
      [
       -82.73812413584277,
       40.07264044946805
      ],
      [
       -82.73801511889026,
       40.07248796632517
      ],
      [
       -82.73653451889027,
       40.07019726632517
      ],
      [
       -82.73643090186296,
       40.07001705444635
      ],
      [
       -82.73358770186296,
       40.064417354446356
      ],
      [
       -82.73350054517476,
       40.06421999515373
      ],
      [
       -82.73343515449179,
       40.0640143959386
      ],
      [
       -82.7333922907487,
       40.06380294930653
      ],
      [
       -82.73337245273996,
       40.063588115807995
      ],
      [
       -82.7333758713154,
       40.063372395405565
      ],
      [
       -82.7335592713154,
       40.06074949540557
      ],
      [
       -82.73355988247387,
       40.06074101406167
      ],
      [
       -82.73372168247387,
       40.058560314061666
      ],
      [
       -82.73372387112435,
       40.05853329813929
      ],
      [
       -82.73378627112436,
       40.057822898139285
      ],
      [
       -82.73381240304093,
       40.05763174495344
      ],
      [
       -82.73385683160853,
       40.0574439990616
      ],
      [
       -82.73391914339251,
       40.05726140755275
      ],
      [
       -82.73399875854403,
       40.057085669551256
      ],
      [
       -82.734094936196,
       40.05691842040542
      ],
      [
       -82.73420678135726,
       40.056761216469624
      ],
      [
       -82.73433325324095,
       40.056615520621506
      ],
      [
       -82.73447317494977,
       40.05648268864899
      ],
      [
       -82.73462524442766,
       40.05636395663386
      ],
      [
       -82.74233074442766,
       40.05092485663386
      ],
      [
       -82.74251557114697,
       40.0508089566182
      ],
      [
       -82.74271192184139,
       40.050713876995815
      ],
      [
       -82.74291746024548,
       40.05064074906517
      ],
      [
       -82.74312974077442,
       40.05059044293401
      ],
      [
       -82.75380364077442,
       40.048668842934006
      ]
     ]
    ]
   }
  },
  {
   "type": "Feature",
   "properties": {
    "name": "hall_surround",
    "ptype": "cooling",
    "confidence": "low",
    "site_id": "prometheus_oh",
    "digitised_from": "derived: 35-150 m ring around the hall footprints, clipped to the campus, minus digitised yards",
    "note": "Ring around the halls where chillers, dry coolers and switchgear are normally placed, together with adjacent paving and laydown. Measured to ask whether load-related heat is visible next to the halls at night when the roofs show none. Not a clean heat-rejection polygon."
   },
   "geometry": {
    "type": "MultiPolygon",
    "coordinates": [
     [
      [
       [
        -82.74320663685367,
        40.06353840540129
       ],
       [
        -82.74325857131534,
        40.063702082725925
       ],
       [
        -82.74329431407544,
        40.0638700407862
       ],
       [
        -82.74367011407544,
        40.0661855407862
       ],
       [
        -82.74368918073164,
        40.066353927477515
       ],
       [
        -82.74369197065243,
        40.06652336723534
       ],
       [
        -82.7436784579919,
        40.06669229036341
       ],
       [
        -82.74364876793184,
        40.066859131951524
       ],
       [
        -82.74360317552208,
        40.06702234637295
       ],
       [
        -82.74354210313241,
        40.067180421603176
       ],
       [
        -82.74346611653975,
        40.06733189322733
       ],
       [
        -82.74337591968671,
        40.06747535800662
       ],
       [
        -82.74327234816036,
        40.06760948687793
       ],
       [
        -82.7431563614512,
        40.06773303726638
       ],
       [
        -82.74302903406442,
        40.06784486459653
       ],
       [
        -82.74289154556574,
        40.0679439328958
       ],
       [
        -82.74274516965376,
        40.06802932439175
       ],
       [
        -82.7425912623604,
        40.06810024801437
       ],
       [
        -82.74243124948863,
        40.068156046724546
       ],
       [
        -82.74226661340369,
        40.068196203600934
       ],
       [
        -82.74209887930041,
        40.068220346628735
       ],
       [
        -82.74095897930042,
        40.06832874662873
       ],
       [
        -82.74078350429994,
        40.068336632093704
       ],
       [
        -82.74060811684399,
        40.068326993803176
       ],
       [
        -82.74043456258225,
        40.06829992768807
       ],
       [
        -82.74026456891849,
        40.06825570314024
       ],
       [
        -82.74009982781742,
        40.06819476033126
       ],
       [
        -82.73994197896444,
        40.068117705831284
       ],
       [
        -82.73979259344573,
        40.06802530657181
       ],
       [
        -82.739653158111,
        40.067918482212335
       ],
       [
        -82.7395250607747,
        40.0677982959869
       ],
       [
        -82.73940957640305,
        40.06766594412158
       ],
       [
        -82.73930785442407,
        40.067522743928336
       ],
       [
        -82.73922090728728,
        40.06737012069369
       ],
       [
        -82.73914960038663,
        40.06720959349266
       ],
       [
        -82.73909464344715,
        40.06704276006929
       ],
       [
        -82.73905658346102,
        40.066871280934095
       ],
       [
        -82.73866828346102,
        40.064588780934095
       ],
       [
        -82.73864764871288,
        40.06441651581184
       ],
       [
        -82.73864406870777,
        40.064243056165985
       ],
       [
        -82.73865757820873,
        40.064070086346184
       ],
       [
        -82.73865951754009,
        40.06405921459649
       ],
       [
        -82.73865574791301,
        40.06398493862554
       ],
       [
        -82.7386640088508,
        40.063811923963115
       ],
       [
        -82.73866988088565,
        40.0637720266884
       ],
       [
        -82.73866724849684,
        40.063766626837726
       ],
       [
        -82.73865831981196,
        40.06374268068184
       ],
       [
        -82.73862176485986,
        40.063693258356665
       ],
       [
        -82.73853137729424,
        40.06354120662679
       ],
       [
        -82.7384567028971,
        40.063380852721345
       ],
       [
        -82.73839849541308,
        40.063213815212436
       ],
       [
        -82.73835734237392,
        40.063041780134775
       ],
       [
        -82.73827724237393,
        40.06261268013478
       ],
       [
        -82.73825342022128,
        40.06243572506229
       ],
       [
        -82.7382476428423,
        40.06225726718341
       ],
       [
        -82.73825996965375,
        40.062079141827674
       ],
       [
        -82.73826271848984,
        40.06206318076345
       ],
       [
        -82.73798900329828,
        40.060296459271946
       ],
       [
        -82.73797121517535,
        40.06012910954406
       ],
       [
        -82.73796948618937,
        40.059960825975786
       ],
       [
        -82.73798383213729,
        40.0597931460947
       ],
       [
        -82.73801412194695,
        40.059627601912766
       ],
       [
        -82.73806007887464,
        40.059465705929064
       ],
       [
        -82.73812128303359,
        40.05930893731081
       ],
       [
        -82.73819717523031,
        40.05915872837892
       ],
       [
        -82.73828706207358,
        40.05901645152152
       ],
       [
        -82.73839012230971,
        40.05888340665515
       ],
       [
        -82.73850541432597,
        40.05876080934796
       ],
       [
        -82.73863188475359,
        40.05864977971372
       ],
       [
        -82.73876837809195,
        40.05855133217781
       ],
       [
        -82.7389136472658,
        40.05846636620891
       ],
       [
        -82.73906636501926,
        40.05839565810101
       ],
       [
        -82.73922513604224,
        40.05833985388072
       ],
       [
        -82.73938850971882,
        40.058299463404865
       ],
       [
        -82.73955499338082,
        40.05827485570217
       ],
       [
        -82.74070249338082,
        40.05816095570218
       ],
       [
        -82.74087975183363,
        40.05815234912634
       ],
       [
        -82.74105697623222,
        40.0581616305478
       ],
       [
        -82.74123236599839,
        40.05818870566848
       ],
       [
        -82.74140413919359,
        40.05823329940844
       ],
       [
        -82.74157055062321,
        40.05829495870076
       ],
       [
        -82.74172990956748,
        40.058373057094585
       ],
       [
        -82.74188059695906,
        40.05846680111978
       ],
       [
        -82.74202108183248,
        40.05857523834853
       ],
       [
        -82.74214993687862,
        40.05869726707187
       ],
       [
        -82.742265852946,
        40.058831647492916
       ],
       [
        -82.74236765234157,
        40.058977014323034
       ],
       [
        -82.74245430079594,
        40.059131890653035
       ],
       [
        -82.74252491797141,
        40.05929470295836
       ],
       [
        -82.74257878640611,
        40.05946379708593
       ],
       [
        -82.74261535880338,
        40.05963745506011
       ],
       [
        -82.74290184716833,
        40.06144547760811
       ],
       [
        -82.74293406829429,
        40.061516981143086
       ],
       [
        -82.74298853081098,
        40.061677531379736
       ],
       [
        -82.74302729912041,
        40.0618425755023
       ],
       [
        -82.74310739912042,
        40.062276475502294
       ],
       [
        -82.7431304557466,
        40.06244849320139
       ],
       [
        -82.74313646435913,
        40.06262194519299
       ],
       [
        -82.74312536657244,
        40.06279514604732
       ],
       [
        -82.74309727022354,
        40.06296641277495
       ],
       [
        -82.743071804087,
        40.06306167572809
       ],
       [
        -82.7430620144179,
        40.06318767677852
       ],
       [
        -82.74311652725437,
        40.06332891087561
       ],
       [
        -82.74312262155887,
        40.0633507462365
       ],
       [
        -82.74313900471083,
        40.06338056577329
       ],
       [
        -82.74320663685367,
        40.06353840540129
       ]
      ],
      [
       [
        -82.74173498993613,
        40.06279584660931
       ],
       [
        -82.74175291182847,
        40.06275953180759
       ],
       [
        -82.74176717127563,
        40.062721628942064
       ],
       [
        -82.74177762971883,
        40.062682506314154
       ],
       [
        -82.74178418553358,
        40.06264254407771
       ],
       [
        -82.74178677501713,
        40.06260213054503
       ],
       [
        -82.74178537300754,
        40.06256165841366
       ],
       [
        -82.7417799931281,
        40.06252152095053
       ],
       [
        -82.7416998931281,
        40.062087620950535
       ],
       [
        -82.74169084718922,
        40.06204911065527
       ],
       [
        -82.74167813926866,
        40.062011648933385
       ],
       [
        -82.74166188719526,
        40.06197558313294
       ],
       [
        -82.74164224165953,
        40.06194124765891
       ],
       [
        -82.74161938481645,
        40.06190896087251
       ],
       [
        -82.74160619210232,
        40.061893685122705
       ],
       [
        -82.74128215705413,
        40.059848706180695
       ],
       [
        -82.74127362349476,
        40.05980818598672
       ],
       [
        -82.74126105419333,
        40.05976873069029
       ],
       [
        -82.7412445768524,
        40.05973074115238
       ],
       [
        -82.7412243588797,
        40.059694603342045
       ],
       [
        -82.74120060568741,
        40.059660684415014
       ],
       [
        -82.74117355860501,
        40.05962932898344
       ],
       [
        -82.74114349242758,
        40.05960085561466
       ],
       [
        -82.74111071262378,
        40.05957555359462
       ],
       [
        -82.74107555223242,
        40.05955367998874
       ],
       [
        -82.74103836847875,
        40.05953545703018
       ],
       [
        -82.74099953914518,
        40.05952106986197
       ],
       [
        -82.74095945873296,
        40.05951066465598
       ],
       [
        -82.74091853445418,
        40.05950434712782
       ],
       [
        -82.74087718209452,
        40.05950218146281
       ],
       [
        -82.74083582178886,
        40.05950418966384
       ],
       [
        -82.73968832178886,
        40.059618089663836
       ],
       [
        -82.73964947560107,
        40.05962383146113
       ],
       [
        -82.73961135507652,
        40.059633255905496
       ],
       [
        -82.7395743085045,
        40.059646276890234
       ],
       [
        -82.73953867436202,
        40.05966277544874
       ],
       [
        -82.73950477822146,
        40.059682600841484
       ],
       [
        -82.73947292977584,
        40.0597055719332
       ],
       [
        -82.7394434200094,
        40.05973147884785
       ],
       [
        -82.73941651853893,
        40.0597600848862
       ],
       [
        -82.73939247115051,
        40.05979112868835
       ],
       [
        -82.73937149755375,
        40.059824326621744
       ],
       [
        -82.7393537893745,
        40.05985937537252
       ],
       [
        -82.73933950840409,
        40.05989595471678
       ],
       [
        -82.73932878512096,
        40.05993373044631
       ],
       [
        -82.7393217174987,
        40.05997235742209
       ],
       [
        -82.73931837011085,
        40.06001148272768
       ],
       [
        -82.73931877354092,
        40.06005074889361
       ],
       [
        -82.73932292410294,
        40.06008979716345
       ],
       [
        -82.7396366252599,
        40.062114611982096
       ],
       [
        -82.73963359012872,
        40.06212051502003
       ],
       [
        -82.73961839023555,
        40.062159305281725
       ],
       [
        -82.73960719723912,
        40.06219943554444
       ],
       [
        -82.73960012625254,
        40.06224049309312
       ],
       [
        -82.73959724999654,
        40.06228205567613
       ],
       [
        -82.73959859805163,
        40.062323695847866
       ],
       [
        -82.73960415655392,
        40.06236498536478
       ],
       [
        -82.73968425655391,
        40.06279408536478
       ],
       [
        -82.73969385892971,
        40.0628342268829
       ],
       [
        -82.73970744067599,
        40.062873202301645
       ],
       [
        -82.73972486470198,
        40.06291061821292
       ],
       [
        -82.73974595513397,
        40.06294609694989
       ],
       [
        -82.7397704990904,
        40.06297928039909
       ],
       [
        -82.73979824883074,
        40.06300983361511
       ],
       [
        -82.73982892425607,
        40.06303744820145
       ],
       [
        -82.73986221573635,
        40.063061845423405
       ],
       [
        -82.7398711147181,
        40.063067082416815
       ],
       [
        -82.73987720190225,
        40.06311970619434
       ],
       [
        -82.73988366569363,
        40.063158884987814
       ],
       [
        -82.73989388175718,
        40.06319725672875
       ],
       [
        -82.73990775464927,
        40.063234462928804
       ],
       [
        -82.73992515476222,
        40.06327015598871
       ],
       [
        -82.73994591953536,
        40.06330400244575
       ],
       [
        -82.73996985497358,
        40.06333568608906
       ],
       [
        -82.73999673745985,
        40.06336491091394
       ],
       [
        -82.74002631584428,
        40.063391403887174
       ],
       [
        -82.74005831379056,
        40.06341491749794
       ],
       [
        -82.74009243235757,
        40.06343523207009
       ],
       [
        -82.7401283527923,
        40.06345215781457
       ],
       [
        -82.74016573950775,
        40.06346553660244
       ],
       [
        -82.74020424321817,
        40.06347524344227
       ],
       [
        -82.74024350420234,
        40.0634811876478
       ],
       [
        -82.74028315566413,
        40.06348331368525
       ],
       [
        -82.74032282715939,
        40.0634816016921
       ],
       [
        -82.74135192715939,
        40.0633872016921
       ],
       [
        -82.74139124011523,
        40.06338166917482
       ],
       [
        -82.74142983548354,
        40.06337236784209
       ],
       [
        -82.74146735283337,
        40.063359384556385
       ],
       [
        -82.74150344180104,
        40.06334284056482
       ],
       [
        -82.7415377653622,
        40.06332289036695
       ],
       [
        -82.74157000297903,
        40.06329972027187
       ],
       [
        -82.74159985359381,
        40.06327354665839
       ],
       [
        -82.74162703844028,
        40.063244613954275
       ],
       [
        -82.74165130364707,
        40.06321319235367
       ],
       [
        -82.74167242260845,
        40.06317957529378
       ],
       [
        -82.74169019810056,
        40.06314407671457
       ],
       [
        -82.74170446412323,
        40.063107028126986
       ],
       [
        -82.74171508745023,
        40.06306877551703
       ],
       [
        -82.74172196887339,
        40.06302967611472
       ],
       [
        -82.74172504412908,
        40.06299009505805
       ],
       [
        -82.74172428449839,
        40.062950401983
       ],
       [
        -82.74171969707528,
        40.0629109675717
       ],
       [
        -82.74170760821762,
        40.06283798378762
       ],
       [
        -82.74171357974531,
        40.06283022047696
       ],
       [
        -82.74173498993613,
        40.06279584660931
       ]
      ],
      [
       [
        -82.74184594786148,
        40.06379190984261
       ],
       [
        -82.74183532969269,
        40.06375386587097
       ],
       [
        -82.74182110711442,
        40.06371701743067
       ],
       [
        -82.74180341159649,
        40.06368170513916
       ],
       [
        -82.74178240671175,
        40.063648255414165
       ],
       [
        -82.74175828662388,
        40.06361697745631
       ],
       [
        -82.74173127429279,
        40.06358816039098
       ],
       [
        -82.74170161941349,
        40.063562070595665
       ],
       [
        -82.74166959610801,
        40.06353894923773
       ],
       [
        -82.74163550039157,
        40.063519010045034
       ],
       [
        -82.74159964743613,
        40.06350243733033
       ],
       [
        -82.7415623686572,
        40.06348938428751
       ],
       [
        -82.74152400865017,
        40.063479971575546
       ],
       [
        -82.74148492200506,
        40.06347428620311
       ],
       [
        -82.74144547002872,
        40.06347238072433
       ],
       [
        -82.74140601740507,
        40.06347427275294
       ],
       [
        -82.74037701740507,
        40.06357337275294
       ],
       [
        -82.74033702674444,
        40.06357922138673
       ],
       [
        -82.74029780429552,
        40.06358897120491
       ],
       [
        -82.74025972967159,
        40.06360252784414
       ],
       [
        -82.7402231713768,
        40.0636197600969
       ],
       [
        -82.74018848323948,
        40.06364050118133
       ],
       [
        -82.74015600098775,
        40.06366455035548
       ],
       [
        -82.74012603900013,
        40.063691674860124
       ],
       [
        -82.74009888726283,
        40.06372161217155
       ],
       [
        -82.74007480856311,
        40.06375407254237
       ],
       [
        -82.74005403594597,
        40.063788741805865
       ],
       [
        -82.74003677045856,
        40.06382528441659
       ],
       [
        -82.74002317920439,
        40.06386334669797
       ],
       [
        -82.74001339372599,
        40.063902560265355
       ],
       [
        -82.74000750873185,
        40.06394254559139
       ],
       [
        -82.7400055811797,
        40.06398291567929
       ],
       [
        -82.7400076297253,
        40.06402327980835
       ],
       [
        -82.74001363454185,
        40.06406324731556
       ],
       [
        -82.74002715992827,
        40.06413054489576
       ],
       [
        -82.74001460781064,
        40.0641625564815
       ],
       [
        -82.74000361074128,
        40.064201516720665
       ],
       [
        -82.73999650158204,
        40.06424137014744
       ],
       [
        -82.73999334936515,
        40.06428172977206
       ],
       [
        -82.73999418469967,
        40.06432220368943
       ],
       [
        -82.73999899947424,
        40.06436239888462
       ],
       [
        -82.74038729947424,
        40.06664489888462
       ],
       [
        -82.74039618013767,
        40.06668491068283
       ],
       [
        -82.74040900342354,
        40.06672383848162
       ],
       [
        -82.74042564170036,
        40.066761294828524
       ],
       [
        -82.7404459293656,
        40.06679690691661
       ],
       [
        -82.74046966449404,
        40.06683032029503
       ],
       [
        -82.74049661084743,
        40.06686120239694
       ],
       [
        -82.7405265002259,
        40.066889245849545
       ],
       [
        -82.74055903513734,
        40.06691417153342
       ],
       [
        -82.74059389175837,
        40.06693573136063
       ],
       [
        -82.7406307231574,
        40.06695371074396
       ],
       [
        -82.74066916274765,
        40.06696793073272
       ],
       [
        -82.74070882793586,
        40.06697824979388
       ],
       [
        -82.74074932393026,
        40.06698456522074
       ],
       [
        -82.74079024766998,
        40.06698681415519
       ],
       [
        -82.74083119183676,
        40.06698497421337
       ],
       [
        -82.74197109183676,
        40.066876574213374
       ],
       [
        -82.74201022979419,
        40.06687094084022
       ],
       [
        -82.74204864488068,
        40.0668615709024
       ],
       [
        -82.74208598121743,
        40.06684855120336
       ],
       [
        -82.7421218929192,
        40.066832002358076
       ],
       [
        -82.74215604729866,
        40.066812077675685
       ],
       [
        -82.74218812794837,
        40.06678896173919
       ],
       [
        -82.74221783767194,
        40.06676286869549
       ],
       [
        -82.74224490123741,
        40.06673404027152
       ],
       [
        -82.7422690679269,
        40.066702743534876
       ],
       [
        -82.74229011385927,
        40.066669268419716
       ],
       [
        -82.74230784406423,
        40.06663392504074
       ],
       [
        -82.74232209428848,
        40.066597040820355
       ],
       [
        -82.74233273251743,
        40.06655895745536
       ],
       [
        -82.74233966019811,
        40.066520027751466
       ],
       [
        -82.74234281315223,
        40.066480612354916
       ],
       [
        -82.74234216217071,
        40.06644107641142
       ],
       [
        -82.74233771328427,
        40.06640178618345
       ],
       [
        -82.74196191328427,
        40.064086286183446
       ],
       [
        -82.7419535733069,
        40.064047095969386
       ],
       [
        -82.74194145526585,
        40.064008904593635
       ],
       [
        -82.74192567443252,
        40.0639720753471
       ],
       [
        -82.74190638092021,
        40.0639369585636
       ],
       [
        -82.74188375825615,
        40.06390388828735
       ],
       [
        -82.74185836697565,
        40.063873591158426
       ],
       [
        -82.74185286346916,
        40.0638307976769
       ],
       [
        -82.74184594786148,
        40.06379190984261
       ]
      ]
     ],
     [
      [
       [
        -82.75430925503773,
        40.06798828257319
       ],
       [
        -82.75435876020379,
        40.068153822046035
       ],
       [
        -82.75451386020379,
        40.06878352204603
       ],
       [
        -82.75454690116591,
        40.06895311658046
       ],
       [
        -82.75456315978374,
        40.06912513305825
       ],
       [
        -82.75456247947662,
        40.069297914852626
       ],
       [
        -82.7545448667963,
        40.069469797966335
       ],
       [
        -82.75451049136396,
        40.06963912705698
       ],
       [
        -82.75445968423664,
        40.069804271379006
       ],
       [
        -82.75439293471888,
        40.06996364048883
       ],
       [
        -82.75431088565048,
        40.07011569956177
       ],
       [
        -82.75421432721555,
        40.07025898417339
       ],
       [
        -82.75410418933248,
        40.070392114402864
       ],
       [
        -82.7539815326983,
        40.070513808122406
       ],
       [
        -82.75384753857347,
        40.07062289334503
       ],
       [
        -82.7537034974056,
        40.07071831951149
       ],
       [
        -82.75355079640167,
        40.07079916760785
       ],
       [
        -82.75339090616829,
        40.07086465901613
       ],
       [
        -82.7532253665489,
        40.07091416301291
       ],
       [
        -82.75305577179405,
        40.0709472028436
       ],
       [
        -82.74869427179407,
        40.0715766028436
       ],
       [
        -82.7485222776129,
        40.07159285930159
       ],
       [
        -82.74834951821086,
        40.071592181231146
       ],
       [
        -82.74817765693813,
        40.071574575160824
       ],
       [
        -82.74800834849763,
        40.07154021060418
       ],
       [
        -82.74784322301328,
        40.07148941842768
       ],
       [
        -82.74768387033491,
        40.07142268766508
       ],
       [
        -82.74753182473108,
        40.07134066080892
       ],
       [
        -82.74738855011681,
        40.07124412762455
       ],
       [
        -82.74725542595893,
        40.07113401754616
       ],
       [
        -82.7471337339943,
        40.07101139072803
       ],
       [
        -82.74702464588917,
        40.070877427837296
       ],
       [
        -82.74692921195812,
        40.07073341868626
       ],
       [
        -82.7468483510516,
        40.07058074981395
       ],
       [
        -82.74678284170902,
        40.07042089113633
       ],
       [
        -82.74673331466295,
        40.070255381793736
       ],
       [
        -82.74658381466294,
        40.06964888179373
       ],
       [
        -82.74655074073172,
        40.06947927356946
       ],
       [
        -82.74653445257694,
        40.06930724005332
       ],
       [
        -82.74653454798525,
        40.06928205114147
       ],
       [
        -82.74646496508167,
        40.0691770397955
       ],
       [
        -82.74638410776595,
        40.06902435738414
       ],
       [
        -82.74631860425872,
        40.06886448520148
       ],
       [
        -82.74626908531145,
        40.06869896270118
       ],
       [
        -82.74615428932616,
        40.06823311224132
       ],
       [
        -82.74610062473104,
        40.068204160808904
       ],
       [
        -82.74595735011678,
        40.068107627624535
       ],
       [
        -82.7458242259589,
        40.06799751754613
       ],
       [
        -82.74570253399428,
        40.06787489072801
       ],
       [
        -82.74559344588914,
        40.06774092783727
       ],
       [
        -82.74549801195809,
        40.06759691868623
       ],
       [
        -82.74541715105157,
        40.06744424981392
       ],
       [
        -82.745351641709,
        40.06728439113629
       ],
       [
        -82.74530211466292,
        40.0671188817937
       ],
       [
        -82.74515261466293,
        40.0665123817937
       ],
       [
        -82.74511954073172,
        40.06634277356944
       ],
       [
        -82.74510325257694,
        40.06617074005329
       ],
       [
        -82.74510390709958,
        40.0659979384148
       ],
       [
        -82.74512149799476,
        40.065826033222706
       ],
       [
        -82.74515585581237,
        40.065656680410406
       ],
       [
        -82.74520664958942,
        40.06549151132469
       ],
       [
        -82.74527339003811,
        40.065332117011195
       ],
       [
        -82.74535543425905,
        40.065180032888186
       ],
       [
        -82.74545199193429,
        40.0650367239561
       ],
       [
        -82.74556213294017,
        40.06490357068544
       ],
       [
        -82.74568479630716,
        40.06478185571897
       ],
       [
        -82.74581880043996,
        40.06467275151622
       ],
       [
        -82.7459628544996,
        40.06457730905938
       ],
       [
        -82.74611557083784,
        40.06449644772937
       ],
       [
        -82.74627547836428,
        40.06443094644958
       ],
       [
        -82.74644103671694,
        40.06438143618271
       ],
       [
        -82.74661065110045,
        40.06434839385269
       ],
       [
        -82.74674085839689,
        40.064329605624806
       ],
       [
        -82.74675783411728,
        40.064274190751
       ],
       [
        -82.7468242168253,
        40.064115067862716
       ],
       [
        -82.74690584488228,
        40.063963200756945
       ],
       [
        -82.74700193550964,
        40.06382004577507
       ],
       [
        -82.74711156723886,
        40.06368697571289
       ],
       [
        -82.747233688748,
        40.06356526665607
       ],
       [
        -82.74736712894334,
        40.063456085743056
       ],
       [
        -82.74751060818981,
        40.06336047997266
       ],
       [
        -82.74766275058207,
        40.06327936616383
       ],
       [
        -82.74782209713884,
        40.063213522163736
       ],
       [
        -82.74798711979395,
        40.0631635793885
       ],
       [
        -82.7481562360499,
        40.06313001676825
       ],
       [
        -82.7489650360499,
        40.06301031676825
       ],
       [
        -82.74913740890594,
        40.06299341787374
       ],
       [
        -82.74931060809753,
        40.062993536900656
       ],
       [
        -82.74948295756407,
        40.06301067269717
       ],
       [
        -82.74965278946777,
        40.06304465943897
       ],
       [
        -82.74981846033353,
        40.06309516823401
       ],
       [
        -82.74997836695285,
        40.06316171030517
       ],
       [
        -82.75013096189826,
        40.06324364172019
       ],
       [
        -82.7502747684979,
        40.063340169623096
       ],
       [
        -82.75040839512529,
        40.063450359906646
       ],
       [
        -82.75053054866626,
        40.06357314625182
       ],
       [
        -82.75064004703255,
        40.06370734044662
       ],
       [
        -82.75066154640115,
        40.06373973047821
       ],
       [
        -82.75096640525932,
        40.06369571490302
       ],
       [
        -82.75113843173006,
        40.06367944479727
       ],
       [
        -82.75131122459108,
        40.063680115735096
       ],
       [
        -82.75148311952607,
        40.063697721254115
       ],
       [
        -82.75165246086743,
        40.063732091780466
       ],
       [
        -82.75181761754341,
        40.063782896262126
       ],
       [
        -82.75197699878835,
        40.063849645357536
       ],
       [
        -82.75212906946473,
        40.06393169614889
       ],
       [
        -82.75227236484938,
        40.064028258334616
       ],
       [
        -82.75240550474152,
        40.064138401841454
       ],
       [
        -82.7525272067566,
        40.06426106578277
       ],
       [
        -82.7526362986781,
        40.06439506867693
       ],
       [
        -82.7527317297481,
        40.06453911982705
       ],
       [
        -82.75281258078812,
        40.06469183175293
       ],
       [
        -82.75287807305239,
        40.064851733554974
       ],
       [
        -82.75292757572875,
        40.06501728508172
       ],
       [
        -82.75302568158915,
        40.065415654333066
       ],
       [
        -82.75317220784818,
        40.06549471936071
       ],
       [
        -82.75331548668134,
        40.06559127465983
       ],
       [
        -82.75344861187739,
        40.065701408360376
       ],
       [
        -82.75357030145416,
        40.06582405988595
       ],
       [
        -82.75367938355333,
        40.06595804811476
       ],
       [
        -82.75377480772532,
        40.06610208275372
       ],
       [
        -82.75385565504502,
        40.06625477676382
       ],
       [
        -82.75392114696088,
        40.06641465971718
       ],
       [
        -82.75397065279239,
        40.066580191957144
       ],
       [
        -82.75412655279239,
        40.06721309195714
       ],
       [
        -82.75415959712535,
        40.06738268858388
       ],
       [
        -82.75417585862878,
        40.06755470749926
       ],
       [
        -82.75417529219729,
        40.06769907227674
       ],
       [
        -82.75424376246245,
        40.06782839260751
       ],
       [
        -82.75430925503773,
        40.06798828257319
       ]
      ],
      [
       [
        -82.74676385190062,
        40.065692101775966
       ],
       [
        -82.74672522161833,
        40.06570365417157
       ],
       [
        -82.74668790986217,
        40.06571893780352
       ],
       [
        -82.74665227604991,
        40.065737805447185
       ],
       [
        -82.746618663436,
        40.06576007535378
       ],
       [
        -82.74658739580501,
        40.06578553300109
       ],
       [
        -82.7465587743527,
        40.06581393315993
       ],
       [
        -82.74653307478467,
        40.065845002256424
       ],
       [
        -82.74651054466045,
        40.06587844100724
       ],
       [
        -82.7464914010089,
        40.06591392730261
       ],
       [
        -82.74647582823754,
        40.06595111930909
       ],
       [
        -82.74646397635622,
        40.065989658762426
       ],
       [
        -82.74645595953211,
        40.06602917441863
       ],
       [
        -82.7464518549899,
        40.06606928563012
       ],
       [
        -82.74645170226795,
        40.06610960601243
       ],
       [
        -82.7464555028374,
        40.0661497471662
       ],
       [
        -82.74646322008802,
        40.06618932241853
       ],
       [
        -82.74661272008801,
        40.06679582241853
       ],
       [
        -82.74662427639876,
        40.06683444126513
       ],
       [
        -82.74663956191203,
        40.066871741623245
       ],
       [
        -82.74665842945689,
        40.06690736436012
       ],
       [
        -82.74668069737413,
        40.06694096649536
       ],
       [
        -82.74670615126533,
        40.0669722245032
       ],
       [
        -82.74673454605707,
        40.06700083742743
       ],
       [
        -82.74676560836058,
        40.067026529779056
       ],
       [
        -82.7467990391039,
        40.06704905418874
       ],
       [
        -82.74683451641147,
        40.067068193788515
       ],
       [
        -82.74687169870309,
        40.06708376429979
       ],
       [
        -82.74691022798277,
        40.06709561580764
       ],
       [
        -82.74694973328556,
        40.06710363420419
       ],
       [
        -82.74698983424919,
        40.06710774228726
       ],
       [
        -82.74703014477633,
        40.0671079005037
       ],
       [
        -82.74707027675194,
        40.06710410733017
       ],
       [
        -82.75143177675194,
        40.06647470733017
       ],
       [
        -82.75147134799622,
        40.066466998249446
       ],
       [
        -82.75150997309233,
        40.066455447697514
       ],
       [
        -82.75154728007273,
        40.06644016690854
       ],
       [
        -82.75158290966364,
        40.06642130303964
       ],
       [
        -82.75161651874487,
        40.06639903775369
       ],
       [
        -82.75164778365411,
        40.06637358546992
       ],
       [
        -82.75167640330395,
        40.066345191299
       ],
       [
        -82.75170210208134,
        40.06631412868257
       ],
       [
        -82.75172463250182,
        40.066280696759925
       ],
       [
        -82.75174377759288,
        40.066245217487285
       ],
       [
        -82.7517593529834,
        40.06620803253725
       ],
       [
        -82.7517712086792,
        40.06616950000844
       ],
       [
        -82.75177923050752,
        40.066129990976954
       ],
       [
        -82.75178334121652,
        40.06608988592278
       ],
       [
        -82.75178350121925,
        40.06604957106574
       ],
       [
        -82.75177970897484,
        40.0660094346461
       ],
       [
        -82.75177200100337,
        40.06596986318574
       ],
       [
        -82.75161690100337,
        40.06534006318574
       ],
       [
        -82.7516053503789,
        40.06530143449616
       ],
       [
        -82.75159006885056,
        40.06526412407568
       ],
       [
        -82.7515712036079,
        40.06522849129298
       ],
       [
        -82.75154893635822,
        40.06519487935795
       ],
       [
        -82.75152348157654,
        40.06516361201598
       ],
       [
        -82.75149508443968,
        40.06513499042967
       ],
       [
        -82.75146401846486,
        40.06510929027808
       ],
       [
        -82.7514305828751,
        40.065086759101405
       ],
       [
        -82.75139509971729,
        40.06506761391676
       ],
       [
        -82.75135791076013,
        40.06505203912783
       ],
       [
        -82.7513193742024,
        40.065040184748774
       ],
       [
        -82.75127986122276,
        40.06503216495929
       ],
       [
        -82.75123975240459,
        40.06502805700485
       ],
       [
        -82.75119943407034,
        40.06502790045269
       ],
       [
        -82.75115929456051,
        40.065031696810706
       ],
       [
        -82.74976442352163,
        40.06523308853494
       ],
       [
        -82.7496216925541,
        40.06465372888294
       ],
       [
        -82.74961010706353,
        40.06461501196875
       ],
       [
        -82.7495947735756,
        40.06457762069725
       ],
       [
        -82.74957584047353,
        40.064541916906386
       ],
       [
        -82.74955349097426,
        40.06450824610421
       ],
       [
        -82.74952794135547,
        40.06447693412542
       ],
       [
        -82.74949943886257,
        40.064448283978216
       ],
       [
        -82.74946825931617,
        40.06442257291206
       ],
       [
        -82.74943470444293,
        40.06440004973471
       ],
       [
        -82.74939909895566,
        40.06438093240454
       ],
       [
        -82.74936178741116,
        40.064365405921265
       ],
       [
        -82.74932313087581,
        40.06435362053576
       ],
       [
        -82.74928350343161,
        40.064345690296
       ],
       [
        -82.74924328855609,
        40.06434169194348
       ],
       [
        -82.74920287541138,
        40.06434166417054
       ],
       [
        -82.74916265507831,
        40.064345607245926
       ],
       [
        -82.7483538550783,
        40.064465307245925
       ],
       [
        -82.74831439461859,
        40.06447313852398
       ],
       [
        -82.74827588933239,
        40.064484791838204
       ],
       [
        -82.74823870846915,
        40.064500155438225
       ],
       [
        -82.74820320857762,
        40.064519081993616
       ],
       [
        -82.74816973008677,
        40.06454139000671
       ],
       [
        -82.7481385940412,
        40.06456686555308
       ],
       [
        -82.7481100990224,
        40.06459526433301
       ],
       [
        -82.74808451828558,
        40.064626314014184
       ],
       [
        -82.7480620971392,
        40.06465971684329
       ],
       [
        -82.74804305059257,
        40.0646951525013
       ],
       [
        -82.74802756129402,
        40.06473228117523
       ],
       [
        -82.74801577777941,
        40.06477074681679
       ],
       [
        -82.74800781304764,
        40.06481018055673
       ],
       [
        -82.74800374347711,
        40.06485020424213
       ],
       [
        -82.74800360809333,
        40.06489043406277
       ],
       [
        -82.74800740819452,
        40.06493048423165
       ],
       [
        -82.74801510733936,
        40.0649699706846
       ],
       [
        -82.74814347490967,
        40.065491030264766
       ],
       [
        -82.74680342859011,
        40.06568439189896
       ],
       [
        -82.74676385190062,
        40.065692101775966
       ]
      ],
      [
       [
        -82.74819505190062,
        40.06882860177596
       ],
       [
        -82.74815642161833,
        40.06884015417157
       ],
       [
        -82.74811910986217,
        40.068855437803514
       ],
       [
        -82.7480834760499,
        40.06887430544718
       ],
       [
        -82.748049863436,
        40.06889657535378
       ],
       [
        -82.74801859580501,
        40.06892203300109
       ],
       [
        -82.7479899743527,
        40.068950433159934
       ],
       [
        -82.74796427478466,
        40.06898150225642
       ],
       [
        -82.74794174466045,
        40.06901494100724
       ],
       [
        -82.7479226010089,
        40.069050427302614
       ],
       [
        -82.74790702823753,
        40.069087619309094
       ],
       [
        -82.74789517635622,
        40.06912615876243
       ],
       [
        -82.74788715953211,
        40.069165674418635
       ],
       [
        -82.7478830549899,
        40.069205785630125
       ],
       [
        -82.74788290226795,
        40.069246106012436
       ],
       [
        -82.7478867028374,
        40.069286247166204
       ],
       [
        -82.74789442008802,
        40.069325822418534
       ],
       [
        -82.74804392008802,
        40.06993232241854
       ],
       [
        -82.74805547639878,
        40.06997094126514
       ],
       [
        -82.74807076191205,
        40.070008241623256
       ],
       [
        -82.7480896294569,
        40.07004386436013
       ],
       [
        -82.74811189737414,
        40.07007746649537
       ],
       [
        -82.74813735126534,
        40.07010872450321
       ],
       [
        -82.74816574605708,
        40.07013733742744
       ],
       [
        -82.74819680836059,
        40.07016302977906
       ],
       [
        -82.74823023910392,
        40.07018555418875
       ],
       [
        -82.74826571641148,
        40.07020469378852
       ],
       [
        -82.7483028987031,
        40.07022026429979
       ],
       [
        -82.74834142798278,
        40.07023211580764
       ],
       [
        -82.74838093328557,
        40.07024013420419
       ],
       [
        -82.7484210342492,
        40.070244242287266
       ],
       [
        -82.74846134477635,
        40.070244400503704
       ],
       [
        -82.74850147675195,
        40.07024060733017
       ],
       [
        -82.75286297675194,
        40.06961120733017
       ],
       [
        -82.75290254886141,
        40.069603498036344
       ],
       [
        -82.7529411747726,
        40.06959194710376
       ],
       [
        -82.75297848249372,
        40.069576665775166
       ],
       [
        -82.75301411272797,
        40.06955780121935
       ],
       [
        -82.7530477223338,
        40.069535535113836
       ],
       [
        -82.75307898762959,
        40.069510081895224
       ],
       [
        -82.75310760751091,
        40.069481686694
       ],
       [
        -82.75313330635029,
        40.06945062297379
       ],
       [
        -82.75315583665177,
        40.06941718989774
       ],
       [
        -82.7531749814344,
        40.06938170944739
       ],
       [
        -82.75319055632188,
        40.06934452332177
       ],
       [
        -82.75320241131826,
        40.06930598964663
       ],
       [
        -82.75321043225246,
        40.069266479525474
       ],
       [
        -82.75321454187787,
        40.06922637346561
       ],
       [
        -82.7532147006162,
        40.069186057713594
       ],
       [
        -82.7532109069387,
        40.06914592053544
       ],
       [
        -82.75320319738088,
        40.069106348477405
       ],
       [
        -82.75304809738088,
        40.06847664847741
       ],
       [
        -82.75303654617547,
        40.06843802260041
       ],
       [
        -82.75302126457457,
        40.06840071494175
       ],
       [
        -82.75300239974995,
        40.068365084798444
       ],
       [
        -82.75298013338212,
        40.06833147531192
       ],
       [
        -82.75295467991069,
        40.0683002101634
       ],
       [
        -82.75292628446913,
        40.06827159045657
       ],
       [
        -82.752895220524,
        40.068245891817824
       ],
       [
        -82.75286178724129,
        40.06822336174176
       ],
       [
        -82.75282630660524,
        40.068204217207644
       ],
       [
        -82.75278912031744,
        40.0681886425898
       ],
       [
        -82.75275058650604,
        40.068176787881924
       ],
       [
        -82.75271107627668,
        40.06816876725255
       ],
       [
        -82.75267097013854,
        40.06816465794555
       ],
       [
        -82.75263065433981,
        40.06816449953624
       ],
       [
        -82.75259051714785,
        40.06816829355019
       ],
       [
        -82.75119561935166,
        40.06836961003489
       ],
       [
        -82.75116133620206,
        40.06823046600058
       ],
       [
        -82.752475673302,
        40.06804080782801
       ],
       [
        -82.75251524608895,
        40.06803309871919
       ],
       [
        -82.75255387267478,
        40.068021547845056
       ],
       [
        -82.75259118104957,
        40.06800626645124
       ],
       [
        -82.75262681189899,
        40.06798740171178
       ],
       [
        -82.75266042206488,
        40.067965135311645
       ],
       [
        -82.7526916878501,
        40.067939681696956
       ],
       [
        -82.75272030813608,
        40.06791128600967
       ],
       [
        -82.75274600728288,
        40.06788022172665
       ],
       [
        -82.75276853778382,
        40.06784678802579
       ],
       [
        -82.75278768264927,
        40.06781130690471
       ],
       [
        -82.75280325749637,
        40.06777412007957
       ],
       [
        -82.75281511232487,
        40.06773558569405
       ],
       [
        -82.75282313296175,
        40.06769607487009
       ],
       [
        -82.75282724216083,
        40.067655968133636
       ],
       [
        -82.75282740034672,
        40.06761565174983
       ],
       [
        -82.75282360599591,
        40.06757551400291
       ],
       [
        -82.75281589565155,
        40.06753594145667
       ],
       [
        -82.75265999565156,
        40.06690304145667
       ],
       [
        -82.75264844429087,
        40.06686441726735
       ],
       [
        -82.75263316284384,
        40.06682711124489
       ],
       [
        -82.75261429846924,
        40.066791482642536
       ],
       [
        -82.75259203282911,
        40.06675787456011
       ],
       [
        -82.7525665803393,
        40.06672661064005
       ],
       [
        -82.75253818610473,
        40.066697991950754
       ],
       [
        -82.75250712355898,
        40.06667229408729
       ],
       [
        -82.75247369183124,
        40.0666497645175
       ],
       [
        -82.75243821286567,
        40.06663062019885
       ],
       [
        -82.75240102832112,
        40.06661504548919
       ],
       [
        -82.75236249628098,
        40.06660319037142
       ],
       [
        -82.7523229878049,
        40.0665951690091
       ],
       [
        -82.75228288335553,
        40.06659105864715
       ],
       [
        -82.75224256913465,
        40.066590898867936
       ],
       [
        -82.75220243336413,
        40.06659469121012
       ],
       [
        -82.74776323336414,
        40.067235191210116
       ],
       [
        -82.74772365794331,
        40.06724290028771
       ],
       [
        -82.74768502880583,
        40.06725445163176
       ],
       [
        -82.7476477180338,
        40.067269733977874
       ],
       [
        -82.74761208501062,
        40.06728860012401
       ],
       [
        -82.7475784729593,
        40.06731086834841
       ],
       [
        -82.74754720563656,
        40.06733632415993
       ],
       [
        -82.74751858421432,
        40.06736472236409
       ],
       [
        -82.7474928843787,
        40.0673957894248
       ],
       [
        -82.7474703536747,
        40.06742922609911
       ],
       [
        -82.7474512091217,
        40.06746471031958
       ],
       [
        -82.74743563512313,
        40.06750190029644
       ],
       [
        -82.74742378169023,
        40.06754043780986
       ],
       [
        -82.7474157629972,
        40.067579951660264
       ],
       [
        -82.7474116562814,
        40.067620061243865
       ],
       [
        -82.74741150109936,
        40.06766038021868
       ],
       [
        -82.74741529894584,
        40.06770052022583
       ],
       [
        -82.74742301323934,
        40.067740094630274
       ],
       [
        -82.74757971323933,
        40.06837599463028
       ],
       [
        -82.74759126766037,
        40.06841461654702
       ],
       [
        -82.74760655181205,
        40.068451920056305
       ],
       [
        -82.74762541851905,
        40.06848754595229
       ],
       [
        -82.7476476861086,
        40.068521151183326
       ],
       [
        -82.74767314015992,
        40.06855241215531
       ],
       [
        -82.74770153556886,
        40.06858102784767
       ],
       [
        -82.74773259890814,
        40.06860672271195
       ],
       [
        -82.74776603106025,
        40.06862924932517
       ],
       [
        -82.74780151009772,
        40.06864839077232
       ],
       [
        -82.74783869438302,
        40.06866396273508
       ],
       [
        -82.74787722585836,
        40.0686758152667
       ],
       [
        -82.74791673349345,
        40.06868383423586
       ],
       [
        -82.74795683685834,
        40.06868794242569
       ],
       [
        -82.74799714978654,
        40.06868810027728
       ],
       [
        -82.7480372840937,
        40.06868430627063
       ],
       [
        -82.74953538032706,
        40.06846809116013
       ],
       [
        -82.74957466401476,
        40.068627531836846
       ],
       [
        -82.74823462859011,
        40.06882089189896
       ],
       [
        -82.74819505190062,
        40.06882860177596
       ]
      ]
     ],
     [
      [
       [
        -82.75492900106146,
        40.06099013447605
       ],
       [
        -82.75490786859113,
        40.06116087619794
       ],
       [
        -82.75480056859112,
        40.06177847619794
       ],
       [
        -82.7547623029897,
        40.06194839569297
       ],
       [
        -82.75470743570847,
        40.062113702899396
       ],
       [
        -82.75463650370062,
        40.062272780054606
       ],
       [
        -82.75455020113523,
        40.06242407036577
       ],
       [
        -82.75444937260382,
        40.06256609324525
       ],
       [
        -82.7543350048548,
        40.06269745880021
       ],
       [
        -82.75420821713682,
        40.06281688143465
       ],
       [
        -82.75407025024533,
        40.062923192430794
       ],
       [
        -82.75392245437966,
        40.0630153513866
       ],
       [
        -82.75376627592941,
        40.06309245639759
       ],
       [
        -82.75360324331949,
        40.063153752883196
       ],
       [
        -82.75343495205239,
        40.06319864097144
       ],
       [
        -82.75326304909395,
        40.06322668136949
       ],
       [
        -82.75308921675541,
        40.06323759966278
       ],
       [
        -82.75291515622978,
        40.0632312890005
       ],
       [
        -82.74851175622977,
        40.0628528890005
       ],
       [
        -82.74834391457102,
        40.06283029061507
       ],
       [
        -82.74817902058896,
        40.06279167087773
       ],
       [
        -82.74801859994702,
        40.062737387113366
       ],
       [
        -82.74786413691956,
        40.06266794157654
       ],
       [
        -82.74771706065879,
        40.062583976804454
       ],
       [
        -82.74757873197164,
        40.06248626967193
       ],
       [
        -82.74745043072909,
        40.06237572420348
       ],
       [
        -82.74733334402428,
        40.062253363208896
       ],
       [
        -82.74722855518911,
        40.06212031881985
       ],
       [
        -82.74713703377074,
        40.06197782201493
       ],
       [
        -82.74705962656104,
        40.06182719123016
       ],
       [
        -82.7469970497617,
        40.061669820160326
       ],
       [
        -82.74694988235771,
        40.06150716486396
       ],
       [
        -82.74691856076028,
        40.06134073029132
       ],
       [
        -82.74690337476905,
        40.06117205636001
       ],
       [
        -82.74690446489072,
        40.06100270370703
       ],
       [
        -82.74692182103907,
        40.06083423924921
       ],
       [
        -82.74701512103907,
        40.06022013924921
       ],
       [
        -82.74705029376295,
        40.06004739157244
       ],
       [
        -82.74710256548278,
        40.05987902724237
       ],
       [
        -82.74710311783323,
        40.05987772518029
       ],
       [
        -82.74710245357322,
        40.05986498590769
       ],
       [
        -82.7471104442608,
        40.05969216768335
       ],
       [
        -82.7471664442608,
        40.05910666768335
       ],
       [
        -82.7471911096877,
        40.0589367319115
       ],
       [
        -82.74723221191178,
        40.05877000711726
       ],
       [
        -82.74728935996502,
        40.058608079201655
       ],
       [
        -82.74736201025007,
        40.0584524884374
       ],
       [
        -82.74744947171098,
        40.058304714817645
       ],
       [
        -82.74755091240655,
        40.058166163978164
       ],
       [
        -82.7476653674239,
        40.05803815382685
       ],
       [
        -82.74779174805677,
        40.0579219020076
       ],
       [
        -82.74792885216134,
        40.05781851431805
       ],
       [
        -82.7480753755912,
        40.05772897419107
       ],
       [
        -82.7482299246025,
        40.05765413334029
       ],
       [
        -82.74839102911133,
        40.05759470365853
       ],
       [
        -82.74855715667731,
        40.05755125044619
       ],
       [
        -82.74872672708028,
        40.057524187034076
       ],
       [
        -82.74889812735154,
        40.05751377085178
       ],
       [
        -82.74906972711648,
        40.057520100978934
       ],
       [
        -82.75347772711649,
        40.05789860097894
       ],
       [
        -82.75365120606573,
        40.05792223419891
       ],
       [
        -82.75382148008306,
        40.05796298016723
       ],
       [
        -82.7539868654091,
        40.05802043596625
       ],
       [
        -82.75414572662645,
        40.058094033442686
       ],
       [
        -82.7542964928315,
        40.05818304482584
       ],
       [
        -82.75443767316841,
        40.05828658992415
       ],
       [
        -82.75456787157147,
        40.05840364482902
       ],
       [
        -82.75468580057013,
        40.05853305203975
       ],
       [
        -82.75479029402018,
        40.05867353190951
       ],
       [
        -82.75488031863523,
        40.05882369529918
       ],
       [
        -82.75495498420435,
        40.05898205731389
       ],
       [
        -82.75501355239497,
        40.059147051986415
       ],
       [
        -82.7550554440539,
        40.05931704776232
       ],
       [
        -82.75508024493429,
        40.05949036363362
       ],
       [
        -82.75508770979195,
        40.05966528576148
       ],
       [
        -82.75507776481042,
        40.059840084423534
       ],
       [
        -82.75501246481042,
        40.060450484423534
       ],
       [
        -82.75498587983789,
        40.060620203426225
       ],
       [
        -82.75494288149926,
        40.0607865237302
       ],
       [
        -82.75493302900374,
        40.06081346475762
       ],
       [
        -82.75493336832446,
        40.06081814539526
       ],
       [
        -82.75492900106146,
        40.06099013447605
       ]
      ],
      [
       [
        -82.75355099963828,
        40.06055498082767
       ],
       [
        -82.75357805844537,
        40.06052540808131
       ],
       [
        -82.75360210644894,
        40.060493339094855
       ],
       [
        -82.75362291471025,
        40.060459079167394
       ],
       [
        -82.7536402851331,
        40.06042295445594
       ],
       [
        -82.75365405234983,
        40.06038530887038
       ],
       [
        -82.75366408529551,
        40.060346500799454
       ],
       [
        -82.75367028845577,
        40.06030689969882
       ],
       [
        -82.75373558845577,
        40.05969649969882
       ],
       [
        -82.75373790895146,
        40.05965571334434
       ],
       [
        -82.75373616715135,
        40.05961489818118
       ],
       [
        -82.75373038027925,
        40.05957445781121
       ],
       [
        -82.75372060555883,
        40.059534792130165
       ],
       [
        -82.75370693964769,
        40.05949629337324
       ],
       [
        -82.75368951768156,
        40.05945934223648
       ],
       [
        -82.75366851193805,
        40.05942430411222
       ],
       [
        -82.75364413013304,
        40.05939152547594
       ],
       [
        -82.75361661336667,
        40.059361330460106
       ],
       [
        -82.7535862337393,
        40.05933401764897
       ],
       [
        -82.75355329166068,
        40.05930985712603
       ],
       [
        -82.7535181128795,
        40.05928908780329
       ],
       [
        -82.75348104526213,
        40.059271915058794
       ],
       [
        -82.75344245535271,
        40.05925850870569
       ],
       [
        -82.75340272474867,
        40.059249001313084
       ],
       [
        -82.75336224632719,
        40.059243486895085
       ],
       [
        -82.74895424632717,
        40.05886498689508
       ],
       [
        -82.74891420638203,
        40.05886350986541
       ],
       [
        -82.7488742129854,
        40.05886594030795
       ],
       [
        -82.74883464655804,
        40.058872255104106
       ],
       [
        -82.74879588345931,
        40.05888239418699
       ],
       [
        -82.74875829240725,
        40.058896261112736
       ],
       [
        -82.74872223097128,
        40.058913723977916
       ],
       [
        -82.74868804217097,
        40.05893461667421
       ],
       [
        -82.74865605121325,
        40.05895874046844
       ],
       [
        -82.74862656239891,
        40.05898586589293
       ],
       [
        -82.7485998562282,
        40.05901573492824
       ],
       [
        -82.74857618673256,
        40.059048063457446
       ],
       [
        -82.74855577905835,
        40.05908254396873
       ],
       [
        -82.74853882732516,
        40.05911884848039
       ],
       [
        -82.74852549277941,
        40.05915663166069
       ],
       [
        -82.74851590226046,
        40.05919553411268
       ],
       [
        -82.74851014699418,
        40.05923518579278
       ],
       [
        -82.74845414699418,
        40.05982068579278
       ],
       [
        -82.74845228250041,
        40.059861010045125
       ],
       [
        -82.74845438450645,
        40.059901322614316
       ],
       [
        -82.7484604327171,
        40.05994123427692
       ],
       [
        -82.74847036873608,
        40.05998035968032
       ],
       [
        -82.74848409662975,
        40.06001832106332
       ],
       [
        -82.7485014838534,
        40.06005475190353
       ],
       [
        -82.74852236253096,
        40.060089300456134
       ],
       [
        -82.74854653107593,
        40.06012163315009
       ],
       [
        -82.7485521671465,
        40.06012780324297
       ],
       [
        -82.74851754948092,
        40.06014992228588
       ],
       [
        -82.74848527497507,
        40.0601754257885
       ],
       [
        -82.74845571268816,
        40.06020402899751
       ],
       [
        -82.74842915900454,
        40.060235445144016
       ],
       [
        -82.74840588014513,
        40.06026935925727
       ],
       [
        -82.74838610949813,
        40.06030543132251
       ],
       [
        -82.74837004527932,
        40.06034329968989
       ],
       [
        -82.74835784854469,
        40.06038258470024
       ],
       [
        -82.74834964157579,
        40.06042289249149
       ],
       [
        -82.74825634157578,
        40.06103699249149
       ],
       [
        -82.74825229180783,
        40.061076300864976
       ],
       [
        -82.74825203744611,
        40.061115816484005
       ],
       [
        -82.74825558084406,
        40.06115517373465
       ],
       [
        -82.7482628892168,
        40.06119400846826
       ],
       [
        -82.74827389494439,
        40.061231961370744
       ],
       [
        -82.74828849619757,
        40.06126868128704
       ],
       [
        -82.74830655787984,
        40.06130382847015
       ],
       [
        -82.74832791287746,
        40.06133707772464
       ],
       [
        -82.74835236360566,
        40.06136812141541
       ],
       [
        -82.74837968383679,
        40.061396672314146
       ],
       [
        -82.74840962079338,
        40.061422466256786
       ],
       [
        -82.74844189748706,
        40.06144526458771
       ],
       [
        -82.74847621528123,
        40.06146485636786
       ],
       [
        -82.74851225665431,
        40.06148106032646
       ],
       [
        -82.74854968813743,
        40.06149372653814
       ],
       [
        -82.7485881633999,
        40.06150273781019
       ],
       [
        -82.74862732645362,
        40.06150801076679
       ],
       [
        -82.75303072645362,
        40.06188641076678
       ],
       [
        -82.75307134057627,
        40.06188788325465
       ],
       [
        -82.75311190145526,
        40.06188533565288
       ],
       [
        -82.75315201214556,
        40.06187879289333
       ],
       [
        -82.75319128010788,
        40.061868319006074
       ],
       [
        -82.7532293210502,
        40.06185401649277
       ],
       [
        -82.75326576268859,
        40.06183602532354
       ],
       [
        -82.75330024839057,
        40.06181452156718
       ],
       [
        -82.75333244066526,
        40.061789715668084
       ],
       [
        -82.75336202446611,
        40.06176185038671
       ],
       [
        -82.75338871027422,
        40.061731198423885
       ],
       [
        -82.75341223693155,
        40.06169805975201
       ],
       [
        -82.7534323741968,
        40.061662758679404
       ],
       [
        -82.75344892499864,
        40.061625640676525
       ],
       [
        -82.75346172736427,
        40.061587068995024
       ],
       [
        -82.7534706560046,
        40.06154742111285
       ],
       [
        -82.7535779560046,
        40.06092982111285
       ],
       [
        -82.75358288691434,
        40.06088998137774
       ],
       [
        -82.75358390594238,
        40.06084985059223
       ],
       [
        -82.75358100335855,
        40.060809811943756
       ],
       [
        -82.75357420687807,
        40.06077024774002
       ],
       [
        -82.75356358139693,
        40.06073153575848
       ],
       [
        -82.75354922837215,
        40.06069404563919
       ],
       [
        -82.75353128485312,
        40.0606581353553
       ],
       [
        -82.75350992217294,
        40.06062414779493
       ],
       [
        -82.75349311360087,
        40.06060244089129
       ],
       [
        -82.75352118762949,
        40.06058177579921
       ],
       [
        -82.75355099963828,
        40.06055498082767
       ]
      ]
     ]
    ]
   }
  }
 ]
}