{"type": "FeatureCollection", "features": [{"type": "Feature", "geometry": {"type": "MultiPolygon", "coordinates": [[[[-82.7575208025051, 40.057328744546695], [-82.75576288938647, 40.05735540577954], [-82.75575132994676, 40.05690513207158], [-82.75399342604541, 40.05693176622461], [-82.75400497392599, 40.05738204035473], [-82.75224705612597, 40.05740864827218], [-82.7522239837429, 40.056508099130575], [-82.74988012053203, 40.05654353376271], [-82.74990316209075, 40.05744408402765], [-82.74755926390606, 40.057479472391144], [-82.7475477584095, 40.057029196716684], [-82.74578984361065, 40.05705570646796], [-82.74574387044926, 40.05525460171086], [-82.74515791374382, 40.05526343181079], [-82.74514642495295, 40.05481315538693], [-82.74397451847176, 40.05483080642162], [-82.74396303764479, 40.05438052968013], [-82.74337708786915, 40.05438935061502], [-82.74336561115317, 40.05393907369587], [-82.74395155707624, 40.0539302529008], [-82.74392859671444, 40.0530296992286], [-82.74334265849622, 40.05303851974405], [-82.74333118255524, 40.052588242711366], [-82.7462608517999, 40.05254411121802], [-82.7462493568562, 40.052093834847035], [-82.74917900037126, 40.05204963001672], [-82.74919051457582, 40.052499905687], [-82.7497764463538, 40.05249105569633], [-82.7497649282971, 40.052040780166315], [-82.75035085596367, 40.05203192735448], [-82.75036237787252, 40.05248220274418], [-82.7515342401318, 40.052464487955405], [-82.75154577000444, 40.05291476302644], [-82.75271763893002, 40.05289703611081], [-82.75270610135296, 40.052446761320766], [-82.75329203157403, 40.05243789356125], [-82.7533035730033, 40.05288816821072], [-82.75447544037037, 40.052870423526045], [-82.75448698976399, 40.05332069785638], [-82.75507292690989, 40.05331182093108], [-82.75513069704036, 40.05556319131106], [-82.75454474063183, 40.05557206893992], [-82.7545562915854, 40.05602234304299], [-82.7551422518467, 40.05601346527342], [-82.75515380691317, 40.056463739197895], [-82.75573977076724, 40.056454858325736], [-82.75567042115401, 40.05375321505524], [-82.75625636163203, 40.05374433206606], [-82.75622167878082, 40.05239351034182], [-82.75563574985956, 40.05240239290861], [-82.7556241932817, 40.05195211878398], [-82.75738196770851, 40.05192546262184], [-82.75741667289196, 40.05327628361451], [-82.75800260873669, 40.05326739188153], [-82.75802575453243, 40.05416793873866], [-82.75743981098296, 40.05417683075352], [-82.75747452007265, 40.0555276511779], [-82.75688856470502, 40.05553654065384], [-82.75692326458012, 40.05688736115998], [-82.7575092315063, 40.05687847126132], [-82.7575208025051, 40.057328744546695]]], [[[-82.74336561115317, 40.05393907369587], [-82.74277966497175, 40.05394789152928], [-82.7427681923666, 40.05349761443252], [-82.74335413469552, 40.053488796738876], [-82.74336561115317, 40.05393907369587]]]]}, "properties": {"lat": 40.05465806739181, "lon": -82.75068101656636, "area_ha": 53.5, "rectangularity": 0.6858974358974359, "first_change_year": 2025, "rank": 1, "site_box": "prometheus_oh", "chip": "prometheus_oh_001.png", "confidence": "low", "digitised_from": "Sentinel-2 deterministic 50 m change component; not a hall outline", "review": "unreviewed construction candidate; not a data-centre classification"}}, {"type": "Feature", "geometry": {"type": "MultiPolygon", "coordinates": [[[[-82.76254608159957, 40.11581043640774], [-82.75198956648211, 40.11597065356676], [-82.7519780079396, 40.1155203835174], [-82.75139153626458, 40.115529256133364], [-82.75137998184663, 40.11507898590554], [-82.75196644965736, 40.11507011343016], [-82.75195489163538, 40.11461984330504], [-82.75254135532165, 40.11461096800228], [-82.75255291720784, 40.11506123798678], [-82.75313938449794, 40.115052359575394], [-82.75311625325763, 40.114151819849866], [-82.75194333387367, 40.11416957314201], [-82.75188554896874, 40.111918221758664], [-82.75247198947163, 40.11190934729964], [-82.75249511038035, 40.1128098876854], [-82.75308155835036, 40.11280100997737], [-82.75305842971422, 40.111900469872936], [-82.7536448696964, 40.111891589478574], [-82.75366800605997, 40.11279212930158], [-82.75601379429261, 40.11275657692088], [-82.75600221052565, 40.11230630759164], [-82.7565886530682, 40.11229741221804], [-82.75660024069887, 40.11274768140634], [-82.75718668684422, 40.112738782924055], [-82.75717509534982, 40.11228851387675], [-82.75834797913, 40.11227070829112], [-82.7583595783518, 40.11272097705628], [-82.75894602371385, 40.1127120696708], [-82.75893442062835, 40.11226180104677], [-82.75952086186543, 40.11225289083474], [-82.75954407602515, 40.11315342776253], [-82.75895762706061, 40.11316233825693], [-82.75896923066865, 40.11361260680514], [-82.7601421360641, 40.11359478256618], [-82.76013052472832, 40.11314451430039], [-82.76071697317003, 40.11313559787047], [-82.76072858836966, 40.11358586599498], [-82.76131504041368, 40.11357694645597], [-82.76130342135022, 40.11312667847279], [-82.76188986926877, 40.113117756107364], [-82.76191311538507, 40.11401829175306], [-82.76249957076963, 40.11400936613705], [-82.76254608159957, 40.11581043640774]], [[-82.75839437758437, 40.11407178312433], [-82.75837117783479, 40.11317124578354], [-82.75778472834777, 40.11318015034239], [-82.75780792036952, 40.11408068796538], [-82.75839437758437, 40.11407178312433]]], [[[-82.7536448696964, 40.111891589478574], [-82.75363330190535, 40.111441319510234], [-82.75421973776349, 40.11143243628896], [-82.75423130941812, 40.11188270611653], [-82.7536448696964, 40.111891589478574]]], [[[-82.75305842971422, 40.111900469872936], [-82.75247198947163, 40.11190934729964], [-82.75246042940775, 40.11145907704993], [-82.75304686578674, 40.111450199763894], [-82.75305842971422, 40.111900469872936]]], [[[-82.75137998184663, 40.11507898590554], [-82.75079351377573, 40.1150878554129], [-82.75078196348217, 40.11463758500667], [-82.75136842768886, 40.11462871563984], [-82.75137998184663, 40.11507898590554]]]]}, "properties": {"lat": 40.11425990800737, "lon": -82.7567369409842, "area_ha": 30.75, "rectangularity": 0.615, "first_change_year": 2025, "rank": 2, "site_box": "prometheus_oh", "chip": "prometheus_oh_002.png", "confidence": "low", "digitised_from": "Sentinel-2 deterministic 50 m change component; not a hall outline", "review": "unreviewed construction candidate; not a data-centre classification"}}, {"type": "Feature", "geometry": {"type": "Polygon", "coordinates": [[[-82.77489951922394, 40.07192850657459], [-82.7748878278086, 40.071478238648126], [-82.77547391407217, 40.07146925519664], [-82.7754271356208, 40.06966818368083], [-82.7748410647791, 40.06967716656282], [-82.77481768484336, 40.068776630292504], [-82.77247342968754, 40.06881253105091], [-82.77245008164479, 40.06791199349083], [-82.77069191064861, 40.06793888709491], [-82.77072689841089, 40.06928969465685], [-82.76955475996984, 40.069307609763094], [-82.76958972696272, 40.0706584178355], [-82.77017580788066, 40.070649461338114], [-82.7702107888021, 40.072000268643315], [-82.77489951922394, 40.07192850657459]]]}, "properties": {"lat": 40.07022306339059, "lon": -82.77250138018472, "area_ha": 17.0, "rectangularity": 0.7555555555555555, "first_change_year": 2025, "rank": 3, "site_box": "prometheus_oh", "chip": "prometheus_oh_003.png", "confidence": "low", "digitised_from": "Sentinel-2 deterministic 50 m change component; not a hall outline", "review": "unreviewed construction candidate; not a data-centre classification"}}, {"type": "Feature", "geometry": {"type": "Polygon", "coordinates": [[[-82.73228149498846, 40.10230335518583], [-82.73227007195042, 40.101853079349446], [-82.73285643214909, 40.1018443060238], [-82.732822152993, 40.100493478704806], [-82.7322358043795, 40.100502251613385], [-82.73222438237022, 40.10005197562571], [-82.7316380373611, 40.10006074542875], [-82.73162661947048, 40.0996104692643], [-82.73045393640399, 40.09962799969295], [-82.73044252649322, 40.09917772321289], [-82.72926985012191, 40.099195241497945], [-82.72925844819069, 40.098744964702455], [-82.72808577851511, 40.098762470844264], [-82.72807438456309, 40.09831219373357], [-82.72572905757912, 40.09834716986583], [-82.72574043608607, 40.098797447530785], [-82.7251540998381, 40.09880618428634], [-82.72516547473991, 40.09925646205194], [-82.72575181484926, 40.09924772515794], [-82.72576319386863, 40.0996980027473], [-82.72634953758322, 40.09968926274833], [-82.72637230411377, 40.100589817536644], [-82.72695865529519, 40.10058107429404], [-82.72697004280664, 40.10103135149295], [-82.72872910639721, 40.10100510354953], [-82.72874050575038, 40.101455380294695], [-82.7293268636291, 40.10144662490818], [-82.7293382671008, 40.10189690147679], [-82.73051098981155, 40.101879381526054], [-82.73052240126388, 40.10232965777922], [-82.73228149498846, 40.10230335518583]]]}, "properties": {"lat": 40.10026533282863, "lon": -82.72925112232942, "area_ha": 16.0, "rectangularity": 0.6926406926406926, "first_change_year": 2024, "rank": 4, "site_box": "prometheus_oh", "chip": "prometheus_oh_004.png", "confidence": "low", "digitised_from": "Sentinel-2 deterministic 50 m change component; not a hall outline", "review": "unreviewed construction candidate; not a data-centre classification"}}, {"type": "Feature", "geometry": {"type": "MultiPolygon", "coordinates": [[[[-82.76065932186098, 40.065389149881376], [-82.75597100380313, 40.0654603260449], [-82.75595943967868, 40.06501005301884], [-82.75537340260367, 40.06501893656589], [-82.75535028284467, 40.064118390118495], [-82.75593631221074, 40.06410950685304], [-82.75590162296109, 40.06275868732023], [-82.7564876405041, 40.062749801514634], [-82.75649920718118, 40.063200074589275], [-82.75708522831799, 40.06319118568027], [-82.75706208751598, 40.06229063977487], [-82.75764810068411, 40.062281748185164], [-82.75765967480895, 40.06273202101588], [-82.75824569157058, 40.062723126322744], [-82.75823411359171, 40.062272853633004], [-82.75940613862491, 40.062255055641295], [-82.75942931025968, 40.06315560041868], [-82.76060134966599, 40.06313779001257], [-82.76063613219998, 40.06448860604756], [-82.76122216307454, 40.06447969597703], [-82.76123376162897, 40.064929967771675], [-82.76064772689996, 40.064938877983415], [-82.76065932186098, 40.065389149881376]]], [[[-82.75706208751598, 40.06229063977487], [-82.75589006039846, 40.06230841406686], [-82.7558784980961, 40.0618581407756], [-82.75705051750566, 40.06184036676533], [-82.75706208751598, 40.06229063977487]]]]}, "properties": {"lat": 40.064003996653376, "lon": -82.75812929889901, "area_ha": 13.25, "rectangularity": 0.6625, "first_change_year": 2024, "rank": 5, "site_box": "prometheus_oh", "chip": "prometheus_oh_005.png", "confidence": "low", "digitised_from": "Sentinel-2 deterministic 50 m change component; not a hall outline", "review": "unreviewed construction candidate; not a data-centre classification"}}, {"type": "Feature", "geometry": {"type": "Polygon", "coordinates": [[[-82.69535638230204, 40.07987696509446], [-82.69528936155369, 40.077175246805844], [-82.69470320147111, 40.077183825603754], [-82.6946920360839, 40.07673353895441], [-82.69234740867013, 40.07676782395932], [-82.69241431218221, 40.0794695465504], [-82.69475903217796, 40.07943525828504], [-82.69477019907353, 40.079885544708205], [-82.69535638230204, 40.07987696509446]]]}, "properties": {"lat": 40.07818731918689, "lon": -82.69384851288292, "area_ha": 7.5, "rectangularity": 0.8571428571428571, "first_change_year": 2026, "rank": 6, "site_box": "prometheus_oh", "chip": "prometheus_oh_006.png", "confidence": "low", "digitised_from": "Sentinel-2 deterministic 50 m change component; not a hall outline", "review": "unreviewed construction candidate; not a data-centre classification"}}, {"type": "Feature", "geometry": {"type": "Polygon", "coordinates": [[[-82.71872423420075, 40.076379383145024], [-82.71871291092229, 40.07592910207093], [-82.71929905290975, 40.07592040201447], [-82.71926507303337, 40.074569558979185], [-82.7186789426164, 40.07457825862199], [-82.71866762035759, 40.074127977396806], [-82.71632311156831, 40.074162745777535], [-82.71631180499074, 40.07371246396353], [-82.71572568101342, 40.073721148511304], [-82.71578219716301, 40.07597255789191], [-82.71812676867994, 40.075937799163306], [-82.71813808810137, 40.076388080375246], [-82.71872423420075, 40.076379383145024]]]}, "properties": {"lat": 40.07507416426941, "lon": -82.71743661579181, "area_ha": 6.25, "rectangularity": 0.6978653530371867, "first_change_year": 2024, "rank": 7, "site_box": "prometheus_oh", "chip": "prometheus_oh_007.png", "confidence": "low", "digitised_from": "Sentinel-2 deterministic 50 m change component; not a hall outline", "review": "unreviewed construction candidate; not a data-centre classification"}}, {"type": "Feature", "geometry": {"type": "Polygon", "coordinates": [[[-82.74310100278898, 40.06655563487521], [-82.74306656404848, 40.0652048066501], [-82.7424805212684, 40.065213625015495], [-82.7424919967354, 40.06566390126814], [-82.74190594984225, 40.065672716810425], [-82.74187153578019, 40.064321887519775], [-82.74069946434726, 40.06433950887774], [-82.74071092773387, 40.06478978562509], [-82.74012488777569, 40.06479859199949], [-82.74017072848353, 40.06659969916886], [-82.74310100278898, 40.06655563487521]]]}, "properties": {"lat": 40.06564389432444, "lon": -82.74145779792455, "area_ha": 4.75, "rectangularity": 0.76, "first_change_year": 2024, "rank": 8, "site_box": "prometheus_oh", "chip": "prometheus_oh_008.png", "confidence": "low", "digitised_from": "Sentinel-2 deterministic 50 m change component; not a hall outline", "review": "unreviewed construction candidate; not a data-centre classification"}}, {"type": "Feature", "geometry": {"type": "MultiPolygon", "coordinates": [[[[-82.75023013908341, 40.11599726293209], [-82.74788423224533, 40.11603270053227], [-82.74783810783643, 40.11423161617519], [-82.74842456947852, 40.11422276178852], [-82.74841303516135, 40.113772490744864], [-82.74899949267964, 40.11376363353061], [-82.74901103086088, 40.11421390443391], [-82.74959749198342, 40.11420504411139], [-82.74960903428861, 40.11465531483644], [-82.75019549901539, 40.11464645140554], [-82.75023013908341, 40.11599726293209]]], [[[-82.74959749198342, 40.11420504411139], [-82.74958594993814, 40.113754773348454], [-82.75017240693671, 40.11374591019843], [-82.75018395284606, 40.11419618082092], [-82.74959749198342, 40.11420504411139]]]]}, "properties": {"lat": 40.11502200387278, "lon": -82.74901448330229, "area_ha": 4.25, "rectangularity": 0.85, "first_change_year": 2026, "rank": 9, "site_box": "prometheus_oh", "chip": "prometheus_oh_009.png", "confidence": "low", "digitised_from": "Sentinel-2 deterministic 50 m change component; not a hall outline", "review": "unreviewed construction candidate; not a data-centre classification"}}, {"type": "Feature", "geometry": {"type": "Polygon", "coordinates": [[[-82.80695021273401, 40.10881976621997], [-82.80689062538191, 40.106568480052154], [-82.8074770024105, 40.10655932809922], [-82.80746508188295, 40.10610907089649], [-82.80687870871648, 40.10611822270442], [-82.80686679231937, 40.10566796531862], [-82.80745316162383, 40.1056588136557], [-82.80744124163309, 40.10520855637686], [-82.80685487619056, 40.10521770789475], [-82.80684296033003, 40.104767450432846], [-82.80625659848106, 40.10477659883909], [-82.80626851047971, 40.10522685644596], [-82.80568214450066, 40.105236002030466], [-82.80571787051993, 40.106586775057494], [-82.80630424808504, 40.10657762903825], [-82.8063161611566, 40.107027886492894], [-82.80572977972929, 40.10703703265707], [-82.80576550896633, 40.10838780522745], [-82.80635190198075, 40.1083786586285], [-82.80636381612531, 40.10882891593093], [-82.80695021273401, 40.10881976621997]]]}, "properties": {"lat": 40.1066943933269, "lon": -82.80646261933553, "area_ha": 4.25, "rectangularity": 0.6296296296296297, "first_change_year": 2025, "rank": 10, "site_box": "prometheus_oh", "chip": "prometheus_oh_010.png", "confidence": "low", "digitised_from": "Sentinel-2 deterministic 50 m change component; not a hall outline", "review": "unreviewed construction candidate; not a data-centre classification"}}, {"type": "Feature", "geometry": {"type": "Polygon", "coordinates": [[[-82.73103789637454, 40.05322306643932], [-82.73101510654884, 40.0523225064857], [-82.72984323393943, 40.05234001368897], [-82.72983184711586, 40.05188973337794], [-82.73100371202072, 40.05187222645218], [-82.73099231774908, 40.05142194638086], [-82.72747674307271, 40.05147443078791], [-82.72749948564551, 40.05237499255665], [-82.72867136030476, 40.05235750904596], [-82.72868273967988, 40.05280778959651], [-82.72926868047772, 40.05279904326016], [-82.72928006396145, 40.05324932363426], [-82.73103789637454, 40.05322306643932]]]}, "properties": {"lat": 40.05222725531218, "lon": -82.72940938472915, "area_ha": 4.25, "rectangularity": 0.7083333333333334, "first_change_year": 2026, "rank": 11, "site_box": "prometheus_oh", "chip": "prometheus_oh_011.png", "confidence": "low", "digitised_from": "Sentinel-2 deterministic 50 m change component; not a hall outline", "review": "unreviewed construction candidate; not a data-centre classification"}}, {"type": "Feature", "geometry": {"type": "Polygon", "coordinates": [[[-82.74680230122969, 40.09667985788884], [-82.74677926854616, 40.09577931224885], [-82.74560666067686, 40.09579699469089], [-82.74556062930435, 40.09399590183575], [-82.74438805128186, 40.09401357129364], [-82.7444570535693, 40.0967152120293], [-82.74680230122969, 40.09667985788884]]]}, "properties": {"lat": 40.095576276838855, "lon": -82.74530775536441, "area_ha": 4.0, "rectangularity": 0.6666666666666666, "first_change_year": 2026, "rank": 12, "site_box": "prometheus_oh", "chip": "prometheus_oh_012.png", "confidence": "low", "digitised_from": "Sentinel-2 deterministic 50 m change component; not a hall outline", "review": "unreviewed construction candidate; not a data-centre classification"}}, {"type": "Feature", "geometry": {"type": "Polygon", "coordinates": [[[-82.72864931811131, 40.09785316527472], [-82.72861512698111, 40.096502334018375], [-82.72509722917064, 40.09655479489134], [-82.72511997666933, 40.097455350762736], [-82.72805159742867, 40.097411639398736], [-82.72806299086761, 40.09786191658505], [-82.72864931811131, 40.09785316527472]]]}, "properties": {"lat": 40.09702912891729, "lon": -82.72698163208577, "area_ha": 3.25, "rectangularity": 0.7222222222222222, "first_change_year": 2026, "rank": 13, "site_box": "prometheus_oh", "chip": "prometheus_oh_013.png", "confidence": "low", "digitised_from": "Sentinel-2 deterministic 50 m change component; not a hall outline", "review": "unreviewed construction candidate; not a data-centre classification"}}]}
