{"type": "FeatureCollection", "features": [{"type": "Feature", "geometry": {"type": "Polygon", "coordinates": [[[-86.48163280675843, 41.67164347084009], [-86.48168699239636, 41.66488835554627], [-86.48048585098269, 41.66488293267604], [-86.48048947106948, 41.664432591456396], [-86.47988890467067, 41.664429875357165], [-86.47989252885938, 41.66397953414455], [-86.48049309107384, 41.66398225020108], [-86.4804967109958, 41.66353190891011], [-86.48109726910842, 41.6635346217862], [-86.4810900375507, 41.66443530441779], [-86.48169060411426, 41.664438014241355], [-86.48170866147028, 41.66218630718188], [-86.48110811582754, 41.66218359757133], [-86.48111173123594, 41.66173325609504], [-86.48051118985941, 41.66173054338955], [-86.48052566740444, 41.659929177298366], [-86.47992514284485, 41.659926461626135], [-86.47990702478911, 41.662178168937466], [-86.47870593408072, 41.66217272775327], [-86.4787386203989, 41.65811965472079], [-86.47333405517749, 41.65809501756819], [-86.47331203914281, 41.66079706425325], [-86.47391257115672, 41.66079981452261], [-86.47389057721765, 41.66350186018295], [-86.47329002010034, 41.66349910965414], [-86.47328634996747, 41.66394945042943], [-86.4720852276152, 41.663943939872006], [-86.47208890611654, 41.66349359918336], [-86.47028723576922, 41.6634853099443], [-86.47028354471522, 41.66393565050262], [-86.46968298391651, 41.663932881103975], [-86.46971623803176, 41.65987981518655], [-86.46911571497171, 41.65987704304243], [-86.46911941363615, 41.65942670225014], [-86.4673178575117, 41.65941836712493], [-86.4673141462972, 41.65986870778617], [-86.46611310093654, 41.6598631352621], [-86.46610938127063, 41.66031347580004], [-86.46550885453384, 41.66031068478816], [-86.46550513059972, 41.66076102524654], [-86.46490459976418, 41.66075823105337], [-86.46488968644474, 41.66255959235438], [-86.464289138959, 41.66255679484787], [-86.46427420754466, 41.66435815540204], [-86.46547533607425, 41.66436374762912], [-86.46546788659487, 41.665264427867974], [-86.4684707512457, 41.66527835396201], [-86.46846704730174, 41.66572869424686], [-86.46906762466989, 41.6657314700956], [-86.46905282478998, 41.667532831052796], [-86.47145520206143, 41.66754390376448], [-86.47145151862115, 41.667994244088675], [-86.472052117334, 41.667997004464596], [-86.47204843799503, 41.66844734479652], [-86.47084723228284, 41.66844182081961], [-86.47085091999216, 41.66799148057455], [-86.47025032144715, 41.66798871392221], [-86.47024662955265, 41.66843905412377], [-86.46844482186683, 41.66843073520674], [-86.46842629835146, 41.67068243502551], [-86.4702281688191, 41.670690754596514], [-86.47022447642019, 41.67114109458403], [-86.46902322098605, 41.671135551254714], [-86.46901952013137, 41.67158589111939], [-86.47142204807932, 41.67159696539794], [-86.47142573219062, 41.67114662535915], [-86.47082510426341, 41.67114386154087], [-86.4708287924766, 41.67069352150984], [-86.47323128794538, 41.67070455777813], [-86.47322761647521, 41.67115489798266], [-86.47382824473739, 41.67115764924672], [-86.47382457736947, 41.67160798945883], [-86.47622710799574, 41.67161896330198], [-86.47623075862023, 41.67116862291734], [-86.48103579036977, 41.67119041960746], [-86.48103217323224, 41.67164076033478], [-86.48163280675843, 41.67164347084009]], [[-86.47265271613063, 41.66799976170231], [-86.472052117334, 41.667997004464596], [-86.4720557965892, 41.667546664097], [-86.47265639120076, 41.66754942129137], [-86.47265271613063, 41.66799976170231]], [[-86.47687513808702, 41.66576727057463], [-86.47327166860032, 41.66575081317388], [-86.47327533906746, 41.66530047254128], [-86.47687878344645, 41.66531692968328], [-86.47687513808702, 41.66576727057463]], [[-86.47868413948058, 41.6648747748366], [-86.47748299889258, 41.664869320587584], [-86.47748663990158, 41.664418979581946], [-86.47868777212071, 41.66442443374521], [-86.47868413948058, 41.6648747748366]], [[-86.47387957912132, 41.66485288253155], [-86.47327900945103, 41.664850131872996], [-86.47328267975104, 41.664399791169046], [-86.47388324523689, 41.664402541784355], [-86.47387957912132, 41.66485288253155]], [[-86.4702761623551, 41.66483633151226], [-86.46967559318767, 41.66483356202653], [-86.46967928859416, 41.66438322158309], [-86.47027985357718, 41.66438599102528], [-86.4702761623551, 41.66483633151226]], [[-86.46907502410438, 41.664830789402934], [-86.46787388619062, 41.66482523474217], [-86.46787759415032, 41.66437489442965], [-86.46907872369528, 41.66438044900309], [-86.46907502410438, 41.664830789402934]], [[-86.47748663990158, 41.664418979581946], [-86.47688607391632, 41.664416247793575], [-86.47688971902677, 41.66396590679521], [-86.47749028082768, 41.66396863854064], [-86.47748663990158, 41.664418979581946]], [[-86.47448381080622, 41.66440528926185], [-86.47388324523689, 41.664402541784355], [-86.47388691126899, 41.66395220100149], [-86.47448747265399, 41.663954948435766], [-86.47448381080622, 41.66440528926185]]]}, "properties": {"lat": 41.66523921155529, "lon": -86.47432905687808, "area_ha": 138.0, "rectangularity": 0.6344827586206897, "first_change_year": 2024, "rank": 1, "site_box": "rainier_in", "chip": "rainier_in_001.png", "confidence": "low", "digitised_from": "Sentinel-2 deterministic 50 m change component; not a hall outline", "review": "unreviewed construction candidate; not a data-centre classification"}}, {"type": "Feature", "geometry": {"type": "Polygon", "coordinates": [[[-86.46943891206232, 41.69365527619744], [-86.46945371474057, 41.69185392334323], [-86.46885289441846, 41.69185114810305], [-86.46885659906745, 41.69140080984393], [-86.46945741519943, 41.69140358504046], [-86.46946851607042, 41.690052569918116], [-86.47187173116082, 41.69006363877453], [-86.47186436418357, 41.69096431590646], [-86.47126355190511, 41.69096155331644], [-86.47125617621215, 41.69186223021881], [-86.47426028034327, 41.69187601219495], [-86.47427494759334, 41.69007465738091], [-86.47487575191046, 41.69007740418091], [-86.47486476416805, 41.691428420474516], [-86.47546558113844, 41.69143116426329], [-86.47546192258098, 41.69188150299961], [-86.47606274382484, 41.69188424369068], [-86.47606639819217, 41.691433904911285], [-86.47666721532912, 41.691436642418495], [-86.47667816536188, 41.690085625737154], [-86.47547655631098, 41.6900801478403], [-86.47550216213115, 41.686927774938084], [-86.4743006120662, 41.68692228508285], [-86.47429694596342, 41.68737262408961], [-86.47369616686693, 41.687369874408326], [-86.47369983715892, 41.6869195354448], [-86.4688936409176, 41.686897425290205], [-86.46888993711217, 41.687347763906146], [-86.46828915877138, 41.6873449859619], [-86.46827432594854, 41.68914633989413], [-86.46887512104696, 41.68914911801307], [-86.46887141681978, 41.6895994564506], [-86.46827061753172, 41.689596678287984], [-86.46825949177449, 41.69094769325547], [-86.46765868000138, 41.69094491182111], [-86.4676698183281, 41.6895938969848], [-86.46706901920903, 41.689591112541045], [-86.46708016934348, 41.68824009751492], [-86.4664793828777, 41.68823731006206], [-86.46648310360925, 41.687786971692475], [-86.46528153931067, 41.68778138745328], [-86.465285268336, 41.68733104913579], [-86.46348293509304, 41.68732264935632], [-86.46348667660094, 41.6868723111352], [-86.46108358356024, 41.68686106764157], [-86.46103847873734, 41.69226512181851], [-86.46163930214539, 41.692267937933494], [-86.46163179185712, 41.693168613218546], [-86.46223262373137, 41.69317142628113], [-86.46222887264943, 41.69362176391435], [-86.46763640106484, 41.69364694053033], [-86.46764011443233, 41.69319660250133], [-86.46884177996523, 41.693202162666346], [-86.46883807497875, 41.693652500782754], [-86.46943891206232, 41.69365527619744]], [[-86.46706158536286, 41.690491789046725], [-86.46345674215198, 41.69047501590494], [-86.46346048425636, 41.69002467793362], [-86.46406128705586, 41.690027481264835], [-86.46406502488527, 41.68957714321377], [-86.46466582358018, 41.68957994336035], [-86.46466208994046, 41.69003028145545], [-86.46706530232828, 41.69004145081173], [-86.46706158536286, 41.690491789046725]], [[-86.4634642262755, 41.68957433992662], [-86.46286342775096, 41.68957153349892], [-86.46287841173334, 41.68777018129051], [-86.46347919349995, 41.68777298754174], [-86.4634642262755, 41.68957433992662]]]}, "properties": {"lat": 41.690045573285566, "lon": -86.4679550416096, "area_ha": 65.5, "rectangularity": 0.6717948717948717, "first_change_year": 2024, "rank": 2, "site_box": "rainier_in", "chip": "rainier_in_002.png", "confidence": "low", "digitised_from": "Sentinel-2 deterministic 50 m change component; not a hall outline", "review": "unreviewed construction candidate; not a data-centre classification"}}, {"type": "Feature", "geometry": {"type": "MultiPolygon", "coordinates": [[[[-86.48397419361646, 41.67931007199683], [-86.4785678513127, 41.67928567092841], [-86.4785751218059, 41.67838499099273], [-86.47797442589302, 41.67838226415134], [-86.47797806520275, 41.67793192417286], [-86.47677668200026, 41.67792646115792], [-86.47676573869809, 41.679277480728665], [-86.47256081217581, 41.67925826038179], [-86.47257184341298, 41.67790724171751], [-86.47497460781973, 41.677918243090694], [-86.47497826798258, 41.67746790329163], [-86.47197483361916, 41.67745414394322], [-86.47197851463412, 41.6770038043248], [-86.47257919715244, 41.67700656242961], [-86.4725828738966, 41.67655622273215], [-86.47138151731772, 41.67655070347011], [-86.47138520235193, 41.67610036382375], [-86.47258655055701, 41.676105882999025], [-86.47260493260336, 41.673854183798234], [-86.4738062392772, 41.67385968998428], [-86.4738025714082, 41.67431002998236], [-86.47680586048483, 41.674323740733044], [-86.47681680104627, 41.67297271998517], [-86.48162196740984, 41.672994492935906], [-86.4816183541291, 41.67344483356318], [-86.48281965491717, 41.67345024549826], [-86.48281604992687, 41.67390058617494], [-86.48461801428347, 41.673908680663615], [-86.48461442177046, 41.67435902143191], [-86.48401376271653, 41.674356326365526], [-86.48401016593516, 41.674806667055776], [-86.48461082917564, 41.67480936216453], [-86.48459286497442, 41.67706106529272], [-86.48399218079972, 41.677058369972094], [-86.48398498617216, 41.67795905088898], [-86.48458567872122, 41.67796174629435], [-86.48457849214076, 41.678862427153334], [-86.48397779121694, 41.678859731663216], [-86.48397419361646, 41.67931007199683]], [[-86.48158583089966, 41.67749789760369], [-86.48158944492097, 41.677047557297406], [-86.47918671035895, 41.677036694395255], [-86.47918307958918, 41.677487034530756], [-86.48158583089966, 41.67749789760369]], [[-86.47918307958918, 41.677487034530756], [-86.478582391968, 41.677484310914366], [-86.47857875692834, 41.67793465097139], [-86.47917944873673, 41.67793737463058], [-86.47918307958918, 41.677487034530756]]], [[[-86.47260493260336, 41.673854183798234], [-86.47200427939195, 41.67385142599693], [-86.47200795973642, 41.67340108609313], [-86.47260860876149, 41.67340384385106], [-86.47260493260336, 41.673854183798234]]], [[[-86.47197483361916, 41.67745414394322], [-86.47197115252038, 41.67790448352598], [-86.4713704617116, 41.67790172219514], [-86.47136677634172, 41.6783520616988], [-86.4707660814296, 41.67834929718521], [-86.47077346045987, 41.67744861822914], [-86.47197483361916, 41.67745414394322]]]]}, "properties": {"lat": 41.67629029056827, "lon": -86.4785178846285, "area_ha": 59.75, "rectangularity": 0.7422360248447205, "first_change_year": 2024, "rank": 3, "site_box": "rainier_in", "chip": "rainier_in_003.png", "confidence": "low", "digitised_from": "Sentinel-2 deterministic 50 m change component; not a hall outline", "review": "unreviewed construction candidate; not a data-centre classification"}}, {"type": "Feature", "geometry": {"type": "Polygon", "coordinates": [[[-86.46043765541488, 41.69226230256265], [-86.46048281051378, 41.686858248917524], [-86.459882037553, 41.6868554270532], [-86.45989333696663, 41.685504412972], [-86.45929257665847, 41.68550158810066], [-86.45928880608417, 41.685951926119], [-86.45868804167304, 41.6859490980631], [-86.45868426682395, 41.6863994360013], [-86.45808349830983, 41.686396604760716], [-86.45805326290721, 41.68999930662534], [-86.4586540649363, 41.690002138222006], [-86.45865028931345, 41.690452475838995], [-86.45804948309457, 41.69044964419782], [-86.45804570319582, 41.69089998173459], [-86.45864651360462, 41.69090281342028], [-86.45863896192897, 41.691803488475806], [-86.45923978080383, 41.69180631710972], [-86.4592360090272, 41.6922566546284], [-86.46043765541488, 41.69226230256265]]]}, "properties": {"lat": 41.68897134530688, "lon": -86.4593309615266, "area_ha": 12.25, "rectangularity": 0.8166666666666667, "first_change_year": 2025, "rank": 4, "site_box": "rainier_in", "chip": "rainier_in_004.png", "confidence": "low", "digitised_from": "Sentinel-2 deterministic 50 m change component; not a hall outline", "review": "unreviewed construction candidate; not a data-centre classification"}}]}
