{"type": "FeatureCollection", "features": [{"type": "Feature", "geometry": {"type": "Polygon", "coordinates": [[[-99.79093972588535, 32.501491343419644], [-99.79093577797777, 32.50104033168223], [-99.79359684975714, 32.501023575963934], [-99.79359288865885, 32.500572564483186], [-99.79678615593892, 32.50055238369611], [-99.79678217899487, 32.50010137253118], [-99.7983788034693, 32.50009125192836], [-99.79837481864718, 32.49964024090546], [-99.80050363941076, 32.49962671549321], [-99.80049964405534, 32.49917570467114], [-99.80316065472347, 32.4991587475606], [-99.80315664617974, 32.49870773699866], [-99.80262444688047, 32.49871113286319], [-99.80260441878157, 32.496456079268036], [-99.80207223266945, 32.49645947258894], [-99.80205622242109, 32.49465542888773], [-99.80045969540929, 32.49466559464606], [-99.80046368987233, 32.4951166057962], [-99.79993151136821, 32.49511998994046], [-99.79992751956014, 32.49466897873185], [-99.79726663897812, 32.49468586540837], [-99.79727061751124, 32.495136876908724], [-99.796738438473, 32.495140247551774], [-99.79674241443998, 32.49559125907754], [-99.79567805078698, 32.49559799372936], [-99.79567408013011, 32.495146982087235], [-99.79354536238046, 32.49516042415564], [-99.79354140243228, 32.494709412248476], [-99.79141269388731, 32.49472281808183], [-99.79141664321546, 32.495173830220615], [-99.78982010291517, 32.49518386114205], [-99.78983981105145, 32.49743892221048], [-99.79037200451562, 32.49743558053157], [-99.79037594906238, 32.49788659258914], [-99.78984375294284, 32.49788993432577], [-99.7898555791454, 32.49924297047487], [-99.78932337497133, 32.49924631013412], [-99.78934307379149, 32.50150137001512], [-99.79093972588535, 32.501491343419644]], [[-99.79356516344825, 32.49741548319947], [-99.79303297051364, 32.49741883838085], [-99.79302505513166, 32.49651681474579], [-99.79355724275574, 32.49651345968033], [-99.79356516344825, 32.49741548319947]], [[-99.79142849172925, 32.49652686644015], [-99.79089630375191, 32.496530212504275], [-99.79089235681427, 32.49607920040608], [-99.79142454213643, 32.49607585439977], [-99.79142849172925, 32.49652686644015]], [[-99.79354932241709, 32.49561143603001], [-99.79301714010332, 32.49561479097954], [-99.79301318272175, 32.4951637790472], [-99.79354536238046, 32.49516042415564], [-99.79354932241709, 32.49561143603001]], [[-99.79248495770115, 32.495618143678804], [-99.79195277521063, 32.495621494127825], [-99.79194882313918, 32.4951704820797], [-99.79248100297464, 32.49516713168856], [-99.79248495770115, 32.495618143678804]]]}, "properties": {"lat": 32.49776548787068, "lon": -99.79571133968345, "area_ha": 70.25, "rectangularity": 0.7231234816842723, "first_change_year": 2026, "rank": 1, "site_box": "stargate_abilene", "chip": "stargate_abilene_001.png", "confidence": "low", "digitised_from": "Sentinel-2 deterministic 50 m change component; not a hall outline", "review": "unreviewed construction candidate; not a data-centre classification"}}, {"type": "Feature", "geometry": {"type": "MultiPolygon", "coordinates": [[[[-99.77823253115878, 32.50923820689643], [-99.77450667759898, 32.509261199394096], [-99.77450281055516, 32.508810186441124], [-99.77343828550217, 32.508816735349896], [-99.77343442385843, 32.50836572225102], [-99.7723699037741, 32.50837226204112], [-99.77236604753021, 32.50792124879649], [-99.77289830495869, 32.5079179800836], [-99.77289444614419, 32.50746696686266], [-99.77236219137247, 32.50747023551909], [-99.77235447931537, 32.506568208865936], [-99.7728867287738, 32.50656494032242], [-99.7728828702179, 32.506113927003135], [-99.77341511693359, 32.50611065626489], [-99.77341897814607, 32.50656166952767], [-99.77395122743208, 32.506558396481694], [-99.77395895542904, 32.507460422795866], [-99.77449120994201, 32.507457147385495], [-99.77449507672668, 32.507908160436834], [-99.77502733381002, 32.50790488271854], [-99.77502346436862, 32.507453869723825], [-99.77608797296247, 32.50744730764656], [-99.77609184771732, 32.50789832052793], [-99.7766241045412, 32.50789503605559], [-99.77661634980466, 32.506993010373535], [-99.77448734324372, 32.507006134301385], [-99.7744796101062, 32.5061041080348], [-99.77554410293335, 32.50609755079994], [-99.77554023118117, 32.50564653773073], [-99.774475743667, 32.50565309485232], [-99.77445641276644, 32.50339802844819], [-99.77658533432266, 32.50338490633381], [-99.77659308767358, 32.50428693254046], [-99.77712532315871, 32.50428364627094], [-99.7771136852937, 32.50293060708207], [-99.77977482157571, 32.502914142822284], [-99.77977871405801, 32.50336515563361], [-99.78084317327485, 32.50335855405929], [-99.78083927548032, 32.502907541362], [-99.78190372903666, 32.50290093089808], [-99.7819076321434, 32.50335194348119], [-99.78243986144692, 32.50334863481572], [-99.78245157925895, 32.504701672196816], [-99.7829838164439, 32.50469836110884], [-99.78297599916945, 32.50379633633529], [-99.7835082309546, 32.50379302311071], [-99.78350431979217, 32.50334201073198], [-99.7829720906632, 32.50334532389933], [-99.78296818224423, 32.50289431143057], [-99.78669376571764, 32.502871072390946], [-99.78669769272929, 32.50332208445826], [-99.78722992124545, 32.50331875553437], [-99.7872377808443, 32.504220779455615], [-99.78670554701576, 32.504224108494505], [-99.78671340165312, 32.50512613239956], [-99.78618116242426, 32.505129459302395], [-99.7861890120997, 32.50603148319118], [-99.78565676747031, 32.506034807957775], [-99.78566853467129, 32.507387843717275], [-99.78513628198459, 32.50739116640487], [-99.78514020190345, 32.507842178316515], [-99.78088215600906, 32.507868679228714], [-99.78088605476142, 32.50831969156531], [-99.77982153710225, 32.508326294394095], [-99.77982543062804, 32.508777306811936], [-99.77822864551666, 32.50878719434059], [-99.77823253115878, 32.50923820689643]], [[-99.77661634980466, 32.506993010373535], [-99.77714860122852, 32.506989723763404], [-99.77712920262036, 32.50473465926833], [-99.77659696447891, 32.50473794559461], [-99.7766047183494, 32.505639971604545], [-99.77607247480856, 32.50564325579322], [-99.77607634921722, 32.50609426880574], [-99.77660859541454, 32.50609098456032], [-99.77661634980466, 32.506993010373535]], [[-99.78299163406759, 32.50560038575121], [-99.7829877252121, 32.50514937344642], [-99.78245548537079, 32.505152684591614], [-99.78245939156989, 32.50560369695358], [-99.78299163406759, 32.50560038575121]], [[-99.78512452275332, 32.506038130473186], [-99.78512060318467, 32.50558711843036], [-99.78458836103658, 32.505590438637284], [-99.78458444421187, 32.50513942650432], [-99.78351996496608, 32.505146060050144], [-99.78352778807725, 32.506048084512464], [-99.78512452275332, 32.506038130473186]]], [[[-99.77235447931537, 32.506568208865936], [-99.77128998014012, 32.506574739199245], [-99.77128612955389, 32.506123725710694], [-99.772350623416, 32.50611719549019], [-99.77235447931537, 32.506568208865936]]]]}, "properties": {"lat": 32.50586189067947, "lon": -99.77975036321561, "area_ha": 64.0, "rectangularity": 0.6095238095238096, "first_change_year": 2025, "rank": 2, "site_box": "stargate_abilene", "chip": "stargate_abilene_002.png", "confidence": "low", "digitised_from": "Sentinel-2 deterministic 50 m change component; not a hall outline", "review": "unreviewed construction candidate; not a data-centre classification"}}, {"type": "Feature", "geometry": {"type": "Polygon", "coordinates": [[[-99.78974917184809, 32.4870656345072], [-99.78974523206946, 32.48661462160485], [-99.79080949148758, 32.486607938768294], [-99.79080160157892, 32.485705913096155], [-99.7913337258481, 32.48570256841924], [-99.79132977837219, 32.48525155559178], [-99.79186189989943, 32.485248208723284], [-99.79184215057465, 32.48299314438323], [-99.79131004231533, 32.48299649096256], [-99.79129820173932, 32.481643451791534], [-99.79076610135189, 32.48164679594834], [-99.79076215732279, 32.48119578276797], [-99.78969796159012, 32.481202464218946], [-99.78970190031276, 32.48165347751477], [-99.78916979966118, 32.48165681492439], [-99.78917373581851, 32.48210782824513], [-99.78704532172027, 32.48212115562335], [-99.78706495075635, 32.48437622288663], [-99.78759706768001, 32.48437289412812], [-99.78760492521573, 32.48527492068891], [-99.7870728029847, 32.485278249562434], [-99.78708458198504, 32.48663128933024], [-99.78921310222835, 32.48661795964891], [-99.78921703935303, 32.48706897260894], [-99.78974917184809, 32.4870656345072]]]}, "properties": {"lat": 32.48414631084548, "lon": -99.78940317586267, "area_ha": 22.0, "rectangularity": 0.7521367521367521, "first_change_year": 2026, "rank": 3, "site_box": "stargate_abilene", "chip": "stargate_abilene_003.png", "confidence": "low", "digitised_from": "Sentinel-2 deterministic 50 m change component; not a hall outline", "review": "unreviewed construction candidate; not a data-centre classification"}}, {"type": "Feature", "geometry": {"type": "MultiPolygon", "coordinates": [[[[-99.78175937536301, 32.48621344227278], [-99.7817632752451, 32.48666445606902], [-99.77697409172868, 32.486694113801384], [-99.77696246399807, 32.485341070777004], [-99.77909095902739, 32.48532791273982], [-99.77908707267535, 32.48487689856016], [-99.78015131436186, 32.48487030615911], [-99.78015520602138, 32.48532132022485], [-99.780687329388, 32.48531802059328], [-99.78069122378825, 32.48576903456922], [-99.78122334972167, 32.48576573263121], [-99.78122724686278, 32.486216746517314], [-99.78175937536301, 32.48621344227278]]], [[[-99.78175937536301, 32.48621344227278], [-99.78175547556803, 32.48576242844377], [-99.78228760132728, 32.48575912200691], [-99.78229150377611, 32.486210135778784], [-99.78175937536301, 32.48621344227278]]]]}, "properties": {"lat": 32.48596998835527, "lon": -99.77926402240219, "area_ha": 6.75, "rectangularity": 0.675, "first_change_year": 2026, "rank": 4, "site_box": "stargate_abilene", "chip": "stargate_abilene_004.png", "confidence": "low", "digitised_from": "Sentinel-2 deterministic 50 m change component; not a hall outline", "review": "unreviewed construction candidate; not a data-centre classification"}}, {"type": "Feature", "geometry": {"type": "Polygon", "coordinates": [[[-99.78661131873315, 32.493399811401616], [-99.7866073936509, 32.49294879861283], [-99.78713956109196, 32.4929454710114], [-99.78711992372277, 32.490690406863045], [-99.78605561529908, 32.49069705924117], [-99.7860516933973, 32.49024604619819], [-99.78551954170844, 32.490249368955084], [-99.78552346095577, 32.49070038205547], [-99.78499130652493, 32.49070370261993], [-99.78500305682861, 32.492056741896484], [-99.78553521922312, 32.492053421159916], [-99.78553913882068, 32.492504434129145], [-99.7850069737715, 32.49250775492309], [-99.78501089080189, 32.49295876791691], [-99.7855430585058, 32.49295544706559], [-99.78554697827848, 32.493406459969236], [-99.78661131873315, 32.493399811401616]]]}, "properties": {"lat": 32.49186544178458, "lon": -99.78608996614193, "area_ha": 5.5, "rectangularity": 0.7857142857142857, "first_change_year": 2026, "rank": 5, "site_box": "stargate_abilene", "chip": "stargate_abilene_005.png", "confidence": "low", "digitised_from": "Sentinel-2 deterministic 50 m change component; not a hall outline", "review": "unreviewed construction candidate; not a data-centre classification"}}, {"type": "Feature", "geometry": {"type": "Polygon", "coordinates": [[[-99.79190535617951, 32.49020934738561], [-99.79190140516732, 32.48975833494392], [-99.79243355314661, 32.48975498524734], [-99.79242169267688, 32.48840194789912], [-99.79082527236245, 32.48841198971908], [-99.79083316332871, 32.4893140149977], [-99.79030101773913, 32.48931735788727], [-99.79030890374926, 32.49021938315023], [-99.79190535617951, 32.49020934738561]]]}, "properties": {"lat": 32.48932763037225, "lon": -99.79142686209515, "area_ha": 3.25, "rectangularity": 0.8125, "first_change_year": 2026, "rank": 6, "site_box": "stargate_abilene", "chip": "stargate_abilene_006.png", "confidence": "low", "digitised_from": "Sentinel-2 deterministic 50 m change component; not a hall outline", "review": "unreviewed construction candidate; not a data-centre classification"}}]}
