{"type": "FeatureCollection", "features": [{"type": "Feature", "geometry": {"type": "Polygon", "coordinates": [[[113.24963486441413, 40.94915728670752], [113.24961958152373, 40.94870721864776], [113.24902598099571, 40.948718804484955], [113.24901070247547, 40.94826873620263], [113.24841710562593, 40.948280318803945], [113.24840183147566, 40.947830250299056], [113.24662105092585, 40.94786497923604], [113.2465447457187, 40.94561463337505], [113.24891903861526, 40.94556832566956], [113.24893431506091, 40.94601839419162], [113.2501214674826, 40.945995221655835], [113.25015203750655, 40.946895357849456], [113.25074562124625, 40.946883766636624], [113.25077620070203, 40.94778390230497], [113.25018260891429, 40.94779549388328], [113.25022846862062, 40.94914569763433], [113.24963486441413, 40.94915728670752]], [[113.24719937903163, 40.947403337067044], [113.24779296852415, 40.9473917609372], [113.24777769908928, 40.94694169216988], [113.24718411362078, 40.94695326811723], [113.24719937903163, 40.947403337067044]]]}, "properties": {"lat": 40.947060004906305, "lon": 113.24863874004933, "area_ha": 8.75, "rectangularity": 0.625, "first_change_year": 2026, "rank": 1, "site_box": "ulanqab_hub", "chip": "ulanqab_hub_001.png", "confidence": "low", "digitised_from": "Sentinel-2 deterministic 50 m change component; not a hall outline", "review": "unreviewed construction candidate; not a data-centre classification"}}, {"type": "Feature", "geometry": {"type": "Polygon", "coordinates": [[[113.23528066147095, 40.96384832369252], [113.23526546819193, 40.963398252357734], [113.23348425322818, 40.963432789125235], [113.2334690723753, 40.96298271720615], [113.23168786640123, 40.96301722593499], [113.231672697974, 40.962567153432026], [113.22989150099198, 40.96260163412291], [113.22986118933096, 40.961701487910304], [113.23164236214957, 40.96166700830647], [113.23165752989013, 40.962117080889186], [113.23403243828338, 40.962071064591676], [113.23404762247628, 40.96252113640914], [113.23642254147936, 40.96247507050839], [113.23646814444909, 40.96382528354291], [113.23528066147095, 40.96384832369252]]]}, "properties": {"lat": 40.96268682043965, "lon": 113.23339967998378, "area_ha": 6.25, "rectangularity": 0.6195335276971905, "first_change_year": 2026, "rank": 2, "site_box": "ulanqab_hub", "chip": "ulanqab_hub_002.png", "confidence": "low", "digitised_from": "Sentinel-2 deterministic 50 m change component; not a hall outline", "review": "unreviewed construction candidate; not a data-centre classification"}}, {"type": "Feature", "geometry": {"type": "MultiPolygon", "coordinates": [[[[113.16742467701648, 41.05071409130443], [113.16743945473563, 41.05116417633256], [113.16981766499448, 41.051119403557635], [113.16978807752373, 41.05021923487267], [113.16859898924766, 41.05024162668404], [113.16858420410638, 41.04979154192924], [113.16798966351175, 41.049802733061554], [113.16801922603754, 41.050702902884176], [113.16742467701648, 41.05071409130443]]], [[[113.16742467701648, 41.05071409130443], [113.1673951225823, 41.049813921129214], [113.1656114977862, 41.04984746694427], [113.16564102794537, 41.05074763817665], [113.16742467701648, 41.05071409130443]]], [[[113.16978807752373, 41.05021923487267], [113.17097716445952, 41.05019683080256], [113.170991966119, 41.05064691481186], [113.17158651312987, 41.05063570800321], [113.17155690205462, 41.04973554029813], [113.16977328429095, 41.04976915047069], [113.16978807752373, 41.05021923487267]]]]}, "properties": {"lat": 41.050394763947416, "lon": 113.16843876607246, "area_ha": 4.5, "rectangularity": 0.6, "first_change_year": 2026, "rank": 3, "site_box": "ulanqab_hub", "chip": "ulanqab_hub_003.png", "confidence": "low", "digitised_from": "Sentinel-2 deterministic 50 m change component; not a hall outline", "review": "unreviewed construction candidate; not a data-centre classification"}}, {"type": "Feature", "geometry": {"type": "Polygon", "coordinates": [[[113.25486272248332, 40.980580674329815], [113.25484738714377, 40.98013061034835], [113.25365962674556, 40.98015384734108], [113.25361364699269, 40.97880365405806], [113.25598911803473, 40.97875717004421], [113.25605048955427, 40.98055742474416], [113.25486272248332, 40.980580674329815]]]}, "properties": {"lat": 40.97958244381013, "lon": 113.25491360540286, "area_ha": 3.5, "rectangularity": 0.875, "first_change_year": 2025, "rank": 4, "site_box": "ulanqab_hub", "chip": "ulanqab_hub_004.png", "confidence": "low", "digitised_from": "Sentinel-2 deterministic 50 m change component; not a hall outline", "review": "unreviewed construction candidate; not a data-centre classification"}}, {"type": "Feature", "geometry": {"type": "Polygon", "coordinates": [[[113.20451993927831, 40.95002912184439], [113.20450496226468, 40.94957904004067], [113.20331770882689, 40.9496017445323], [113.20328777191612, 40.94870158008973], [113.20388139075465, 40.948690229728626], [113.20386641878267, 40.94824014762664], [113.20446003325756, 40.948228794390936], [113.20444505759978, 40.94777871242816], [113.20503866771108, 40.94776735631797], [113.20505364739353, 40.94821743810172], [113.20564726119042, 40.948206078758986], [113.20569221434656, 40.949556323334356], [113.20509858847515, 40.94956768321435], [113.20511356951381, 40.950017764839025], [113.20451993927831, 40.95002912184439]]]}, "properties": {"lat": 40.94893635522484, "lon": 113.20459780721808, "area_ha": 3.25, "rectangularity": 0.65, "first_change_year": 2024, "rank": 5, "site_box": "ulanqab_hub", "chip": "ulanqab_hub_005.png", "confidence": "low", "digitised_from": "Sentinel-2 deterministic 50 m change component; not a hall outline", "review": "unreviewed construction candidate; not a data-centre classification"}}, {"type": "Feature", "geometry": {"type": "MultiPolygon", "coordinates": [[[[113.15658130030401, 40.955439856719316], [113.15717499796494, 40.95542874532981], [113.15711636675105, 40.95362836279149], [113.1565226851961, 40.953639473480344], [113.15650803224831, 40.95318937757165], [113.15591435438796, 40.95320048503097], [113.15592900330948, 40.95365058111477], [113.15533532109127, 40.9536616856948], [113.1553792577659, 40.955011974233926], [113.1565666460295, 40.95498976096894], [113.15658130030401, 40.955439856719316]]], [[[113.15711636675105, 40.95362836279149], [113.15771004797423, 40.953617249048236], [113.15769538697391, 40.953167153489915], [113.157101709777, 40.953178267057964], [113.15711636675105, 40.95362836279149]]]]}, "properties": {"lat": 40.95424237855036, "lon": 113.15639380119305, "area_ha": 3.0, "rectangularity": 0.6, "first_change_year": 2024, "rank": 6, "site_box": "ulanqab_hub", "chip": "ulanqab_hub_006.png", "confidence": "low", "digitised_from": "Sentinel-2 deterministic 50 m change component; not a hall outline", "review": "unreviewed construction candidate; not a data-centre classification"}}]}
