{"type": "FeatureCollection", "features": [{"type": "Feature", "geometry": {"type": "Polygon", "coordinates": [[[114.7463556893295, 41.188669544769034], [114.74637112899171, 41.188219496707674], [114.74577537250101, 41.188207831829786], [114.74583714394123, 41.18640763991853], [114.74643288414039, 41.18641930406177], [114.74641744587824, 41.18686935228332], [114.74701319050011, 41.18688101353138], [114.74702862468953, 41.18643096512622], [114.74762436558856, 41.18644262311187], [114.74760893547192, 41.1868926717006], [114.74880042646488, 41.18691597880247], [114.7487541584538, 41.18826612542932], [114.74815840056357, 41.1882544728674], [114.74814297312075, 41.188704521479465], [114.7463556893295, 41.188669544769034]]]}, "properties": {"lat": 41.18760575465096, "lon": 114.74722679562264, "area_ha": 5.0, "rectangularity": 0.8, "first_change_year": 2026, "rank": 1, "site_box": "zhangbei_hub", "chip": "zhangbei_hub_001.png", "confidence": "low", "digitised_from": "Sentinel-2 deterministic 50 m change component; not a hall outline", "review": "unreviewed construction candidate; not a data-centre classification"}}]}
