{"type": "FeatureCollection", "features": [{"type": "Feature", "geometry": {"geodesic": false, "type": "Polygon", "coordinates": [[[106.55833866531447, 29.82658271556365], [106.55833866531447, 29.825145411109055], [106.5586979914281, 29.825145411109055], [106.5586979914281, 29.82532507416588], [106.55887765448493, 29.82532507416588], [106.55887765448493, 29.824965748052232], [106.55851832837129, 29.824965748052232], [106.55851832837129, 29.824606421938586], [106.55833866531447, 29.824606421938586], [106.55833866531447, 29.823708106654465], [106.55887765448493, 29.823708106654465], [106.55887765448493, 29.82352844359764], [106.55923698059858, 29.82352844359764], [106.55923698059858, 29.82334878054082], [106.55941664365541, 29.82334878054082], [106.55941664365541, 29.823169117483992], [106.55995563282588, 29.823169117483992], [106.55995563282588, 29.82334878054082], [106.5601352958827, 29.82334878054082], [106.5601352958827, 29.82352844359764], [106.56031495893953, 29.82352844359764], [106.56031495893953, 29.823708106654465], [106.56049462199636, 29.823708106654465], [106.56049462199636, 29.823887769711288], [106.56103361116682, 29.823887769711288], [106.56103361116682, 29.823708106654465], [106.56121327422365, 29.823708106654465], [106.56121327422365, 29.823887769711288], [106.56139293728047, 29.823887769711288], [106.56139293728047, 29.82442675888176], [106.56103361116682, 29.82442675888176], [106.56103361116682, 29.824247095824937], [106.55977596976905, 29.824247095824937], [106.55977596976905, 29.824606421938586], [106.55995563282588, 29.824606421938586], [106.55995563282588, 29.82478608499541], [106.56049462199636, 29.82478608499541], [106.56049462199636, 29.824965748052232], [106.56085394811, 29.824965748052232], [106.56085394811, 29.825145411109055], [106.56103361116682, 29.825145411109055], [106.56103361116682, 29.824965748052232], [106.56121327422365, 29.824965748052232], [106.56121327422365, 29.82478608499541], [106.56139293728047, 29.82478608499541], [106.56139293728047, 29.824606421938586], [106.56175226339411, 29.824606421938586], [106.56175226339411, 29.82478608499541], [106.56193192645094, 29.82478608499541], [106.56193192645094, 29.825145411109055], [106.56175226339411, 29.825145411109055], [106.56175226339411, 29.82532507416588], [106.56157260033729, 29.82532507416588], [106.56157260033729, 29.825504737222705], [106.56121327422365, 29.825504737222705], [106.56121327422365, 29.825684400279528], [106.56103361116682, 29.825684400279528], [106.56103361116682, 29.825504737222705], [106.56049462199636, 29.825504737222705], [106.56049462199636, 29.825684400279528], [106.55995563282588, 29.825684400279528], [106.55995563282588, 29.82586406333635], [106.55959630671222, 29.82586406333635], [106.55959630671222, 29.826043726393177], [106.55923698059858, 29.826043726393177], [106.55923698059858, 29.82586406333635], [106.55905731754176, 29.82586406333635], [106.55905731754176, 29.825684400279528], [106.5586979914281, 29.825684400279528], [106.5586979914281, 29.82622338945], [106.55887765448493, 29.82622338945], [106.55887765448493, 29.826403052506823], [106.55851832837129, 29.826403052506823], [106.55851832837129, 29.82658271556365], [106.55833866531447, 29.82658271556365]], [[106.55941664365541, 29.825145411109055], [106.55923698059858, 29.825145411109055], [106.55923698059858, 29.824965748052232], [106.55905731754176, 29.824965748052232], [106.55905731754176, 29.82478608499541], [106.55959630671222, 29.82478608499541], [106.55959630671222, 29.824965748052232], [106.55941664365541, 29.824965748052232], [106.55941664365541, 29.825145411109055]]]}, "properties": {"name": "cand01", "ptype": "hall", "confidence": "low", "rank": 1, "area_ha": 7.4, "rise_db": 5.9, "digitised_from": "Sentinel-1 VV rise 2021->2026, orbit 157"}}, {"type": "Feature", "geometry": {"geodesic": false, "type": "Polygon", "coordinates": [[[106.68122819618202, 29.817240236608804], [106.68122819618202, 29.81706057355198], [106.68104853312519, 29.81706057355198], [106.68104853312519, 29.81652158438151], [106.68122819618202, 29.81652158438151], [106.68122819618202, 29.816341921324685], [106.68086887006837, 29.816341921324685], [106.68086887006837, 29.81652158438151], [106.68015021784107, 29.81652158438151], [106.68015021784107, 29.816341921324685], [106.6796112286706, 29.816341921324685], [106.6796112286706, 29.816162258267862], [106.67907223950013, 29.816162258267862], [106.67907223950013, 29.815982595211036], [106.6788925764433, 29.815982595211036], [106.6788925764433, 29.815802932154213], [106.67871291338648, 29.815802932154213], [106.67871291338648, 29.81562326909739], [106.67817392421601, 29.81562326909739], [106.67817392421601, 29.815802932154213], [106.67799426115918, 29.815802932154213], [106.67799426115918, 29.815982595211036], [106.67781459810236, 29.815982595211036], [106.67781459810236, 29.815802932154213], [106.67763493504553, 29.815802932154213], [106.67763493504553, 29.81562326909739], [106.67781459810236, 29.81562326909739], [106.67781459810236, 29.815443606040567], [106.67799426115918, 29.815443606040567], [106.67799426115918, 29.815084279926918], [106.67781459810236, 29.815084279926918], [106.67781459810236, 29.814904616870095], [106.6772756089319, 29.814904616870095], [106.6772756089319, 29.814545290756445], [106.67709594587507, 29.814545290756445], [106.67709594587507, 29.814365627699623], [106.67655695670459, 29.814365627699623], [106.67655695670459, 29.8141859646428], [106.67637729364776, 29.8141859646428], [106.67637729364776, 29.814006301585973], [106.67619763059095, 29.814006301585973], [106.67619763059095, 29.813287649358678], [106.67637729364776, 29.813287649358678], [106.67637729364776, 29.812928323245032], [106.67673661976141, 29.812928323245032], [106.67673661976141, 29.813107986301855], [106.67691628281824, 29.813107986301855], [106.67691628281824, 29.813287649358678], [106.6772756089319, 29.813287649358678], [106.6772756089319, 29.81382663852915], [106.67709594587507, 29.81382663852915], [106.67709594587507, 29.814006301585973], [106.67781459810236, 29.814006301585973], [106.67781459810236, 29.814545290756445], [106.67799426115918, 29.814545290756445], [106.67799426115918, 29.814365627699623], [106.67817392421601, 29.814365627699623], [106.67817392421601, 29.814545290756445], [106.67835358727282, 29.814545290756445], [106.67835358727282, 29.814724953813272], [106.6788925764433, 29.814724953813272], [106.6788925764433, 29.814904616870095], [106.67925190255696, 29.814904616870095], [106.67925190255696, 29.81526394298374], [106.67943156561377, 29.81526394298374], [106.67943156561377, 29.815443606040567], [106.68068920701154, 29.815443606040567], [106.68068920701154, 29.81562326909739], [106.68086887006837, 29.81562326909739], [106.68086887006837, 29.815802932154213], [106.68122819618202, 29.815802932154213], [106.68122819618202, 29.815982595211036], [106.68140785923883, 29.815982595211036], [106.68140785923883, 29.816162258267862], [106.68158752229566, 29.816162258267862], [106.68158752229566, 29.816701247438335], [106.68194684840931, 29.816701247438335], [106.68194684840931, 29.817240236608804], [106.68122819618202, 29.817240236608804]]]}, "properties": {"name": "cand02", "ptype": "hall", "confidence": "low", "rank": 2, "area_ha": 7.1, "rise_db": 7.0, "digitised_from": "Sentinel-1 VV rise 2021->2026, orbit 157"}}, {"type": "Feature", "geometry": {"geodesic": false, "type": "Polygon", "coordinates": [[[106.59516959196337, 29.900603894975095], [106.59516959196337, 29.900424231918272], [106.59463060279289, 29.900424231918272], [106.59463060279289, 29.90024456886145], [106.59445093973606, 29.90024456886145], [106.59445093973606, 29.8998852427478], [106.59463060279289, 29.8998852427478], [106.59463060279289, 29.899705579690977], [106.59481026584972, 29.899705579690977], [106.59481026584972, 29.899346253577328], [106.59463060279289, 29.899346253577328], [106.59463060279289, 29.899166590520505], [106.59445093973606, 29.899166590520505], [106.59445093973606, 29.89898692746368], [106.59463060279289, 29.89898692746368], [106.59463060279289, 29.89880726440686], [106.59534925502018, 29.89880726440686], [106.59534925502018, 29.898627601350032], [106.59552891807701, 29.898627601350032], [106.59552891807701, 29.89844793829321], [106.59660689641795, 29.89844793829321], [106.59660689641795, 29.898088612179563], [106.59714588558843, 29.898088612179563], [106.59714588558843, 29.897908949122737], [106.59786453781572, 29.897908949122737], [106.59786453781572, 29.89844793829321], [106.59714588558843, 29.89844793829321], [106.59714588558843, 29.898627601350032], [106.59732554864524, 29.898627601350032], [106.59732554864524, 29.89880726440686], [106.5976848747589, 29.89880726440686], [106.5976848747589, 29.898627601350032], [106.59804420087255, 29.898627601350032], [106.59804420087255, 29.89880726440686], [106.59822386392936, 29.89880726440686], [106.59822386392936, 29.899166590520505], [106.59804420087255, 29.899166590520505], [106.59804420087255, 29.899346253577328], [106.59786453781572, 29.899346253577328], [106.59786453781572, 29.899525916634154], [106.5976848747589, 29.899525916634154], [106.5976848747589, 29.8998852427478], [106.59750521170207, 29.8998852427478], [106.59750521170207, 29.900064905804626], [106.59642723336113, 29.900064905804626], [106.59642723336113, 29.8998852427478], [106.59588824419066, 29.8998852427478], [106.59588824419066, 29.900424231918272], [106.59570858113383, 29.900424231918272], [106.59570858113383, 29.900603894975095], [106.59516959196337, 29.900603894975095]], [[106.59714588558843, 29.899525916634154], [106.59642723336113, 29.899525916634154], [106.59642723336113, 29.899166590520505], [106.59660689641795, 29.899166590520505], [106.59660689641795, 29.899346253577328], [106.59714588558843, 29.899346253577328], [106.59714588558843, 29.899525916634154]]]}, "properties": {"name": "cand03", "ptype": "hall", "confidence": "low", "rank": 3, "area_ha": 7.1, "rise_db": 8.2, "digitised_from": "Sentinel-1 VV rise 2021->2026, orbit 157"}}, {"type": "Feature", "geometry": {"geodesic": false, "type": "Polygon", "coordinates": [[[106.6510448026356, 29.81095202961997], [106.6510448026356, 29.810772366563143], [106.65086513957877, 29.810772366563143], [106.65086513957877, 29.81059270350632], [106.65068547652194, 29.81059270350632], [106.65068547652194, 29.810772366563143], [106.6503261504083, 29.810772366563143], [106.6503261504083, 29.81095202961997], [106.64978716123782, 29.81095202961997], [106.64978716123782, 29.810772366563143], [106.64960749818101, 29.810772366563143], [106.64960749818101, 29.810413040449497], [106.64978716123782, 29.810413040449497], [106.64978716123782, 29.810053714335847], [106.64996682429465, 29.810053714335847], [106.64996682429465, 29.809874051279024], [106.6503261504083, 29.809874051279024], [106.6503261504083, 29.810053714335847], [106.65086513957877, 29.810053714335847], [106.65086513957877, 29.809874051279024], [106.6510448026356, 29.809874051279024], [106.6510448026356, 29.80951472516538], [106.65212278097654, 29.80951472516538], [106.65212278097654, 29.8096943882222], [106.65230244403337, 29.8096943882222], [106.65230244403337, 29.810053714335847], [106.65212278097654, 29.810053714335847], [106.65212278097654, 29.810413040449497], [106.65230244403337, 29.810413040449497], [106.65230244403337, 29.81059270350632], [106.65212278097654, 29.81059270350632], [106.65212278097654, 29.810772366563143], [106.65176345486289, 29.810772366563143], [106.65176345486289, 29.81095202961997], [106.6510448026356, 29.81095202961997]]]}, "properties": {"name": "cand04", "ptype": "hall", "confidence": "low", "rank": 4, "area_ha": 3.4, "rise_db": 7.2, "digitised_from": "Sentinel-1 VV rise 2021->2026, orbit 157"}}, {"type": "Feature", "geometry": {"geodesic": false, "type": "Polygon", "coordinates": [[[106.64924817206736, 29.80178921372195], [106.64924817206736, 29.801609550665127], [106.64906850901053, 29.801609550665127], [106.64906850901053, 29.80178921372195], [106.64852951984007, 29.80178921372195], [106.64852951984007, 29.801609550665127], [106.64906850901053, 29.801609550665127], [106.64906850901053, 29.801070561494654], [106.6488888459537, 29.801070561494654], [106.6488888459537, 29.800890898437828], [106.64852951984007, 29.800890898437828], [106.64852951984007, 29.800711235381005], [106.64834985678324, 29.800711235381005], [106.64834985678324, 29.800172246210533], [106.64852951984007, 29.800172246210533], [106.64852951984007, 29.79999258315371], [106.65014648735148, 29.79999258315371], [106.65014648735148, 29.80035190926736], [106.64978716123782, 29.80035190926736], [106.64978716123782, 29.800172246210533], [106.64960749818101, 29.800172246210533], [106.64960749818101, 29.800531572324182], [106.64996682429465, 29.800531572324182], [106.64996682429465, 29.800711235381005], [106.6503261504083, 29.800711235381005], [106.6503261504083, 29.800890898437828], [106.65050581346513, 29.800890898437828], [106.65050581346513, 29.801070561494654], [106.65068547652194, 29.801070561494654], [106.65068547652194, 29.8014298876083], [106.65050581346513, 29.8014298876083], [106.65050581346513, 29.801609550665127], [106.64978716123782, 29.801609550665127], [106.64978716123782, 29.80178921372195], [106.64924817206736, 29.80178921372195]], [[106.64978716123782, 29.8014298876083], [106.64942783512419, 29.8014298876083], [106.64942783512419, 29.801250224551477], [106.64978716123782, 29.801250224551477], [106.64978716123782, 29.8014298876083]]]}, "properties": {"name": "cand05", "ptype": "hall", "confidence": "low", "rank": 5, "area_ha": 3.3, "rise_db": 7.0, "digitised_from": "Sentinel-1 VV rise 2021->2026, orbit 157"}}, {"type": "Feature", "geometry": {"geodesic": false, "type": "Polygon", "coordinates": [[[106.6706280758294, 29.805562137915253], [106.6706280758294, 29.805382474858426], [106.67026874971576, 29.805382474858426], [106.67026874971576, 29.805202811801603], [106.67008908665893, 29.805202811801603], [106.67008908665893, 29.80502314874478], [106.6699094236021, 29.80502314874478], [106.6699094236021, 29.804843485687954], [106.66972976054528, 29.804843485687954], [106.66972976054528, 29.804304496517485], [106.6699094236021, 29.804304496517485], [106.6699094236021, 29.80412483346066], [106.67026874971576, 29.80412483346066], [106.67026874971576, 29.804304496517485], [106.67098740194305, 29.804304496517485], [106.67098740194305, 29.804484159574308], [106.67152639111352, 29.804484159574308], [106.67152639111352, 29.804304496517485], [106.672065380284, 29.804304496517485], [106.672065380284, 29.80412483346066], [106.67242470639763, 29.80412483346066], [106.67242470639763, 29.804304496517485], [106.67260436945446, 29.804304496517485], [106.67260436945446, 29.804484159574308], [106.67278403251129, 29.804484159574308], [106.67278403251129, 29.80466382263113], [106.67260436945446, 29.80466382263113], [106.67260436945446, 29.804843485687954], [106.67242470639763, 29.804843485687954], [106.67242470639763, 29.805202811801603], [106.672065380284, 29.805202811801603], [106.672065380284, 29.804843485687954], [106.67116706499988, 29.804843485687954], [106.67116706499988, 29.80502314874478], [106.67098740194305, 29.80502314874478], [106.67098740194305, 29.805382474858426], [106.67080773888623, 29.805382474858426], [106.67080773888623, 29.805562137915253], [106.6706280758294, 29.805562137915253]]]}, "properties": {"name": "cand06", "ptype": "hall", "confidence": "low", "rank": 6, "area_ha": 2.8, "rise_db": 8.0, "digitised_from": "Sentinel-1 VV rise 2021->2026, orbit 157"}}, {"type": "Feature", "geometry": {"geodesic": false, "type": "Polygon", "coordinates": [[[106.67098740194305, 29.817240236608804], [106.67098740194305, 29.816880910495158], [106.67080773888623, 29.816880910495158], [106.67080773888623, 29.816701247438335], [106.67044841277257, 29.816701247438335], [106.67044841277257, 29.81652158438151], [106.66955009748845, 29.81652158438151], [106.66955009748845, 29.816341921324685], [106.66901110831799, 29.816341921324685], [106.66901110831799, 29.816162258267862], [106.66883144526116, 29.816162258267862], [106.66883144526116, 29.815982595211036], [106.66865178220434, 29.815982595211036], [106.66865178220434, 29.815443606040567], [106.66883144526116, 29.815443606040567], [106.66883144526116, 29.81526394298374], [106.66919077137482, 29.81526394298374], [106.66919077137482, 29.815443606040567], [106.66955009748845, 29.815443606040567], [106.66955009748845, 29.81562326909739], [106.6699094236021, 29.81562326909739], [106.6699094236021, 29.815802932154213], [106.67026874971576, 29.815802932154213], [106.67026874971576, 29.815982595211036], [106.6706280758294, 29.815982595211036], [106.6706280758294, 29.816162258267862], [106.67116706499988, 29.816162258267862], [106.67116706499988, 29.816341921324685], [106.6713467280567, 29.816341921324685], [106.6713467280567, 29.81652158438151], [106.67152639111352, 29.81652158438151], [106.67152639111352, 29.81706057355198], [106.6713467280567, 29.81706057355198], [106.6713467280567, 29.817240236608804], [106.67098740194305, 29.817240236608804]]]}, "properties": {"name": "cand07", "ptype": "hall", "confidence": "low", "rank": 7, "area_ha": 2.8, "rise_db": 6.4, "digitised_from": "Sentinel-1 VV rise 2021->2026, orbit 157"}}, {"type": "Feature", "geometry": {"geodesic": false, "type": "Polygon", "coordinates": [[[106.64457693258994, 29.798016289528647], [106.64457693258994, 29.797477300358175], [106.64421760647629, 29.797477300358175], [106.64421760647629, 29.797656963415], [106.64385828036264, 29.797656963415], [106.64385828036264, 29.797477300358175], [106.64367861730582, 29.797477300358175], [106.64367861730582, 29.796938311187702], [106.64385828036264, 29.796938311187702], [106.64385828036264, 29.796578985074056], [106.64403794341946, 29.796578985074056], [106.64403794341946, 29.796399322017233], [106.64511592176041, 29.796399322017233], [106.64511592176041, 29.79675864813088], [106.64529558481723, 29.79675864813088], [106.64529558481723, 29.79729763730135], [106.64547524787406, 29.79729763730135], [106.64547524787406, 29.797477300358175], [106.64565491093089, 29.797477300358175], [106.64565491093089, 29.797836626471824], [106.64547524787406, 29.797836626471824], [106.64547524787406, 29.798016289528647], [106.64457693258994, 29.798016289528647]]]}, "properties": {"name": "cand08", "ptype": "hall", "confidence": "low", "rank": 8, "area_ha": 2.7, "rise_db": 5.4, "digitised_from": "Sentinel-1 VV rise 2021->2026, orbit 157"}}, {"type": "Feature", "geometry": {"geodesic": false, "type": "Polygon", "coordinates": [[[106.64942783512419, 29.805562137915253], [106.64942783512419, 29.805382474858426], [106.64924817206736, 29.805382474858426], [106.64924817206736, 29.805562137915253], [106.6488888459537, 29.805562137915253], [106.6488888459537, 29.805382474858426], [106.64870918289688, 29.805382474858426], [106.64870918289688, 29.805202811801603], [106.64852951984007, 29.805202811801603], [106.64852951984007, 29.80502314874478], [106.64834985678324, 29.80502314874478], [106.64834985678324, 29.804843485687954], [106.64817019372641, 29.804843485687954], [106.64817019372641, 29.80466382263113], [106.64799053066959, 29.80466382263113], [106.64799053066959, 29.804304496517485], [106.64817019372641, 29.804304496517485], [106.64817019372641, 29.803945170403836], [106.64870918289688, 29.803945170403836], [106.64870918289688, 29.80412483346066], [106.64942783512419, 29.80412483346066], [106.64942783512419, 29.804304496517485], [106.64960749818101, 29.804304496517485], [106.64960749818101, 29.804843485687954], [106.64978716123782, 29.804843485687954], [106.64978716123782, 29.80502314874478], [106.64996682429465, 29.80502314874478], [106.64996682429465, 29.805562137915253], [106.64942783512419, 29.805562137915253]]]}, "properties": {"name": "cand09", "ptype": "hall", "confidence": "low", "rank": 9, "area_ha": 2.6, "rise_db": 7.5, "digitised_from": "Sentinel-1 VV rise 2021->2026, orbit 157"}}, {"type": "Feature", "geometry": {"geodesic": false, "type": "Polygon", "coordinates": [[[106.68015021784107, 29.80915539905173], [106.68015021784107, 29.808975735994906], [106.67997055478425, 29.808975735994906], [106.67997055478425, 29.808077420710784], [106.68032988089789, 29.808077420710784], [106.68032988089789, 29.80789775765396], [106.68050954395471, 29.80789775765396], [106.68050954395471, 29.80771809459714], [106.68086887006837, 29.80771809459714], [106.68086887006837, 29.807538431540316], [106.68140785923883, 29.807538431540316], [106.68140785923883, 29.80735876848349], [106.68176718535248, 29.80735876848349], [106.68176718535248, 29.807179105426666], [106.68194684840931, 29.807179105426666], [106.68194684840931, 29.80771809459714], [106.68176718535248, 29.80771809459714], [106.68176718535248, 29.80789775765396], [106.68140785923883, 29.80789775765396], [106.68140785923883, 29.808077420710784], [106.68122819618202, 29.808077420710784], [106.68122819618202, 29.80825708376761], [106.68086887006837, 29.80825708376761], [106.68086887006837, 29.808436746824434], [106.68068920701154, 29.808436746824434], [106.68068920701154, 29.808616409881257], [106.68050954395471, 29.808616409881257], [106.68050954395471, 29.80879607293808], [106.68068920701154, 29.80879607293808], [106.68068920701154, 29.808975735994906], [106.68050954395471, 29.808975735994906], [106.68050954395471, 29.80915539905173], [106.68015021784107, 29.80915539905173]]]}, "properties": {"name": "cand10", "ptype": "hall", "confidence": "low", "rank": 10, "area_ha": 1.9, "rise_db": 9.0, "digitised_from": "Sentinel-1 VV rise 2021->2026, orbit 157"}}, {"type": "Feature", "geometry": {"geodesic": false, "type": "Polygon", "coordinates": [[[106.6774552719887, 29.806999442369843], [106.6774552719887, 29.80646045319937], [106.67763493504553, 29.80646045319937], [106.67763493504553, 29.806280790142548], [106.67781459810236, 29.806280790142548], [106.67781459810236, 29.80610112708572], [106.67853325032965, 29.80610112708572], [106.67853325032965, 29.8059214640289], [106.67871291338648, 29.8059214640289], [106.67871291338648, 29.805741800972076], [106.6788925764433, 29.805741800972076], [106.6788925764433, 29.805562137915253], [106.67943156561377, 29.805562137915253], [106.67943156561377, 29.80610112708572], [106.67925190255696, 29.80610112708572], [106.67925190255696, 29.806280790142548], [106.67907223950013, 29.806280790142548], [106.67907223950013, 29.80646045319937], [106.67817392421601, 29.80646045319937], [106.67817392421601, 29.806640116256194], [106.67763493504553, 29.806640116256194], [106.67763493504553, 29.806999442369843], [106.6774552719887, 29.806999442369843]]]}, "properties": {"name": "cand11", "ptype": "hall", "confidence": "low", "rank": 11, "area_ha": 1.4, "rise_db": 6.6, "digitised_from": "Sentinel-1 VV rise 2021->2026, orbit 157"}}, {"type": "Feature", "geometry": {"geodesic": false, "type": "Polygon", "coordinates": [[[106.64942783512419, 29.80322651817654], [106.64942783512419, 29.802148539835596], [106.64960749818101, 29.802148539835596], [106.64960749818101, 29.801968876778773], [106.65050581346513, 29.801968876778773], [106.65050581346513, 29.802328202892422], [106.6503261504083, 29.802328202892422], [106.6503261504083, 29.802687529006068], [106.65014648735148, 29.802687529006068], [106.65014648735148, 29.803046855119717], [106.64996682429465, 29.803046855119717], [106.64996682429465, 29.80322651817654], [106.64942783512419, 29.80322651817654]]]}, "properties": {"name": "cand12", "ptype": "hall", "confidence": "low", "rank": 12, "area_ha": 1.3, "rise_db": 5.9, "digitised_from": "Sentinel-1 VV rise 2021->2026, orbit 157"}}, {"type": "Feature", "geometry": {"geodesic": false, "type": "Polygon", "coordinates": [[[106.56121327422365, 29.806819779313017], [106.56121327422365, 29.806640116256194], [106.56103361116682, 29.806640116256194], [106.56103361116682, 29.80646045319937], [106.56121327422365, 29.80646045319937], [106.56121327422365, 29.806280790142548], [106.56157260033729, 29.806280790142548], [106.56157260033729, 29.80610112708572], [106.56193192645094, 29.80610112708572], [106.56193192645094, 29.8059214640289], [106.56211158950777, 29.8059214640289], [106.56211158950777, 29.805741800972076], [106.56283024173506, 29.805741800972076], [106.56283024173506, 29.80610112708572], [106.56247091562142, 29.80610112708572], [106.56247091562142, 29.806280790142548], [106.56229125256459, 29.806280790142548], [106.56229125256459, 29.80646045319937], [106.56211158950777, 29.80646045319937], [106.56211158950777, 29.806640116256194], [106.56193192645094, 29.806640116256194], [106.56193192645094, 29.806819779313017], [106.56121327422365, 29.806819779313017]]]}, "properties": {"name": "cand13", "ptype": "hall", "confidence": "low", "rank": 13, "area_ha": 1.2, "rise_db": 10.5, "digitised_from": "Sentinel-1 VV rise 2021->2026, orbit 157"}}]}