{"type": "FeatureCollection", "features": [{"type": "Feature", "geometry": {"geodesic": false, "type": "Polygon", "coordinates": [[[106.45916465794767, 26.38459787293129], [106.45916465794767, 26.384418209874465], [106.45880533183401, 26.384418209874465], [106.45880533183401, 26.38423854681764], [106.4586256687772, 26.38423854681764], [106.4586256687772, 26.38405888376082], [106.45826634266355, 26.38405888376082], [106.45826634266355, 26.383879220703992], [106.45664937515214, 26.383879220703992], [106.45664937515214, 26.38369955764717], [106.45629004903849, 26.38369955764717], [106.45629004903849, 26.383519894590346], [106.45646971209531, 26.383519894590346], [106.45646971209531, 26.383160568476697], [106.45664937515214, 26.383160568476697], [106.45664937515214, 26.382980905419874], [106.45682903820895, 26.382980905419874], [106.45682903820895, 26.38190292707893], [106.45629004903849, 26.38190292707893], [106.45629004903849, 26.38226225319258], [106.45611038598166, 26.38226225319258], [106.45611038598166, 26.3824419162494], [106.45593072292483, 26.3824419162494], [106.45593072292483, 26.382621579306228], [106.455751059868, 26.382621579306228], [106.455751059868, 26.38280124236305], [106.4555713968112, 26.38280124236305], [106.4555713968112, 26.382980905419874], [106.45503240764072, 26.382980905419874], [106.45503240764072, 26.38280124236305], [106.45485274458389, 26.38280124236305], [106.45485274458389, 26.382621579306228], [106.45449341847025, 26.382621579306228], [106.45449341847025, 26.38280124236305], [106.45431375541342, 26.38280124236305], [106.45431375541342, 26.382980905419874], [106.4541340923566, 26.382980905419874], [106.4541340923566, 26.38280124236305], [106.45377476624294, 26.38280124236305], [106.45377476624294, 26.382621579306228], [106.4534154401293, 26.382621579306228], [106.4534154401293, 26.38280124236305], [106.45323577707248, 26.38280124236305], [106.45323577707248, 26.383340231533523], [106.45287645095883, 26.383340231533523], [106.45287645095883, 26.383519894590346], [106.45269678790201, 26.383519894590346], [106.45269678790201, 26.38369955764717], [106.45251712484519, 26.38369955764717], [106.45251712484519, 26.383879220703992], [106.45233746178836, 26.383879220703992], [106.45233746178836, 26.38369955764717], [106.45215779873153, 26.38369955764717], [106.45215779873153, 26.383519894590346], [106.45233746178836, 26.383519894590346], [106.45233746178836, 26.383160568476697], [106.45251712484519, 26.383160568476697], [106.45251712484519, 26.382082590135756], [106.45269678790201, 26.382082590135756], [106.45269678790201, 26.37956730734022], [106.45287645095883, 26.37956730734022], [106.45287645095883, 26.37920798122657], [106.45305611401565, 26.37920798122657], [106.45305611401565, 26.37902831816975], [106.45359510318613, 26.37902831816975], [106.45359510318613, 26.378848655112925], [106.45395442929977, 26.378848655112925], [106.45395442929977, 26.37902831816975], [106.4541340923566, 26.37902831816975], [106.4541340923566, 26.37920798122657], [106.45431375541342, 26.37920798122657], [106.45431375541342, 26.379387644283398], [106.45449341847025, 26.379387644283398], [106.45449341847025, 26.37920798122657], [106.45467308152708, 26.37920798122657], [106.45467308152708, 26.379387644283398], [106.45503240764072, 26.379387644283398], [106.45503240764072, 26.380106296510693], [106.4555713968112, 26.380106296510693], [106.4555713968112, 26.379926633453866], [106.455751059868, 26.379926633453866], [106.455751059868, 26.380106296510693], [106.45593072292483, 26.380106296510693], [106.45593072292483, 26.380285959567516], [106.45629004903849, 26.380285959567516], [106.45629004903849, 26.380106296510693], [106.4571883643226, 26.380106296510693], [106.4571883643226, 26.380285959567516], [106.45772735349307, 26.380285959567516], [106.45772735349307, 26.38046562262434], [106.4579070165499, 26.38046562262434], [106.4579070165499, 26.380824948737988], [106.45808667960672, 26.380824948737988], [106.45808667960672, 26.381184274851634], [106.45772735349307, 26.381184274851634], [106.45772735349307, 26.38136393790846], [106.45754769043626, 26.38136393790846], [106.45754769043626, 26.38100461179481], [106.45736802737943, 26.38100461179481], [106.45736802737943, 26.381543600965284], [106.45754769043626, 26.381543600965284], [106.45754769043626, 26.381723264022106], [106.45772735349307, 26.381723264022106], [106.45772735349307, 26.38190292707893], [106.45754769043626, 26.38190292707893], [106.45754769043626, 26.3824419162494], [106.45772735349307, 26.3824419162494], [106.45772735349307, 26.382621579306228], [106.45754769043626, 26.382621579306228], [106.45754769043626, 26.38280124236305], [106.45772735349307, 26.38280124236305], [106.45772735349307, 26.382980905419874], [106.45844600572038, 26.382980905419874], [106.45844600572038, 26.38280124236305], [106.45898499489084, 26.38280124236305], [106.45898499489084, 26.382980905419874], [106.4593443210045, 26.382980905419874], [106.4593443210045, 26.383160568476697], [106.45970364711813, 26.383160568476697], [106.45970364711813, 26.383519894590346], [106.45988331017496, 26.383519894590346], [106.45988331017496, 26.38369955764717], [106.45970364711813, 26.38369955764717], [106.45970364711813, 26.38405888376082], [106.4593443210045, 26.38405888376082], [106.4593443210045, 26.38459787293129], [106.45916465794767, 26.38459787293129]], [[106.45682903820895, 26.381543600965284], [106.45646971209531, 26.381543600965284], [106.45646971209531, 26.381184274851634], [106.45682903820895, 26.381184274851634], [106.45682903820895, 26.381543600965284]], [[106.45503240764072, 26.38190292707893], [106.45485274458389, 26.38190292707893], [106.45485274458389, 26.381723264022106], [106.45431375541342, 26.381723264022106], [106.45431375541342, 26.38136393790846], [106.4541340923566, 26.38136393790846], [106.4541340923566, 26.381184274851634], [106.45431375541342, 26.381184274851634], [106.45431375541342, 26.38100461179481], [106.45449341847025, 26.38100461179481], [106.45449341847025, 26.380824948737988], [106.45467308152708, 26.380824948737988], [106.45467308152708, 26.38064528568116], [106.45485274458389, 26.38064528568116], [106.45485274458389, 26.38046562262434], [106.45521207069754, 26.38046562262434], [106.45521207069754, 26.380824948737988], [106.45503240764072, 26.380824948737988], [106.45503240764072, 26.381184274851634], [106.45521207069754, 26.381184274851634], [106.45521207069754, 26.381723264022106], [106.45503240764072, 26.381723264022106], [106.45503240764072, 26.38190292707893]], [[106.45449341847025, 26.38226225319258], [106.4541340923566, 26.38226225319258], [106.4541340923566, 26.38190292707893], [106.45449341847025, 26.38190292707893], [106.45449341847025, 26.38226225319258]]]}, "properties": {"name": "cand01", "ptype": "hall", "confidence": "low", "rank": 1, "area_ha": 22.4, "rise_db": 7.8, "digitised_from": "Sentinel-1 VV rise 2021->2026, orbit 55"}}, {"type": "Feature", "geometry": {"geodesic": false, "type": "Polygon", "coordinates": [[[106.47245972415264, 26.382082590135756], [106.47245972415264, 26.38136393790846], [106.47263938720945, 26.38136393790846], [106.47263938720945, 26.381184274851634], [106.47281905026628, 26.381184274851634], [106.47281905026628, 26.37902831816975], [106.47299871332311, 26.37902831816975], [106.47299871332311, 26.378848655112925], [106.47335803943676, 26.378848655112925], [106.47335803943676, 26.37902831816975], [106.47425635472088, 26.37902831816975], [106.47425635472088, 26.378309665942453], [106.47299871332311, 26.378309665942453], [106.47299871332311, 26.37813000288563], [106.47245972415264, 26.37813000288563], [106.47245972415264, 26.377950339828804], [106.47228006109582, 26.377950339828804], [106.47228006109582, 26.37777067677198], [106.47210039803899, 26.37777067677198], [106.47210039803899, 26.377052024544685], [106.47228006109582, 26.377052024544685], [106.47228006109582, 26.376872361487862], [106.47210039803899, 26.376872361487862], [106.47210039803899, 26.37633337231739], [106.47228006109582, 26.37633337231739], [106.47228006109582, 26.37597404620374], [106.47245972415264, 26.37597404620374], [106.47245972415264, 26.375794383146918], [106.47228006109582, 26.375794383146918], [106.47228006109582, 26.375435057033272], [106.47210039803899, 26.375435057033272], [106.47210039803899, 26.375255393976445], [106.47228006109582, 26.375255393976445], [106.47228006109582, 26.375075730919622], [106.47263938720945, 26.375075730919622], [106.47263938720945, 26.375255393976445], [106.47281905026628, 26.375255393976445], [106.47281905026628, 26.375614720090095], [106.4737173655504, 26.375614720090095], [106.4737173655504, 26.376153709260567], [106.47353770249357, 26.376153709260567], [106.47353770249357, 26.376513035374213], [106.47389702860723, 26.376513035374213], [106.47389702860723, 26.37633337231739], [106.4744360177777, 26.37633337231739], [106.4744360177777, 26.376692698431036], [106.47461568083452, 26.376692698431036], [106.47461568083452, 26.376872361487862], [106.475154670005, 26.376872361487862], [106.475154670005, 26.37453674174915], [106.47497500694817, 26.37453674174915], [106.47497500694817, 26.374357078692327], [106.475154670005, 26.374357078692327], [106.475154670005, 26.374177415635504], [106.47533433306182, 26.374177415635504], [106.47533433306182, 26.374357078692327], [106.47551399611864, 26.374357078692327], [106.47551399611864, 26.37453674174915], [106.47569365917546, 26.37453674174915], [106.47569365917546, 26.3748960678628], [106.47551399611864, 26.3748960678628], [106.47551399611864, 26.37597404620374], [106.47569365917546, 26.37597404620374], [106.47569365917546, 26.37633337231739], [106.47551399611864, 26.37633337231739], [106.47551399611864, 26.37813000288563], [106.47569365917546, 26.37813000288563], [106.47569365917546, 26.378309665942453], [106.47497500694817, 26.378309665942453], [106.47497500694817, 26.378848655112925], [106.47551399611864, 26.378848655112925], [106.47551399611864, 26.37902831816975], [106.47569365917546, 26.37902831816975], [106.47569365917546, 26.37920798122657], [106.47551399611864, 26.37920798122657], [106.47551399611864, 26.379387644283398], [106.47533433306182, 26.379387644283398], [106.47533433306182, 26.37956730734022], [106.475154670005, 26.37956730734022], [106.475154670005, 26.380106296510693], [106.47569365917546, 26.380106296510693], [106.47569365917546, 26.380285959567516], [106.47587332223229, 26.380285959567516], [106.47587332223229, 26.38064528568116], [106.47569365917546, 26.38064528568116], [106.47569365917546, 26.38100461179481], [106.47587332223229, 26.38100461179481], [106.47587332223229, 26.38136393790846], [106.47569365917546, 26.38136393790846], [106.47569365917546, 26.38190292707893], [106.47533433306182, 26.38190292707893], [106.47533433306182, 26.381723264022106], [106.4744360177777, 26.381723264022106], [106.4744360177777, 26.38190292707893], [106.4737173655504, 26.38190292707893], [106.4737173655504, 26.381723264022106], [106.47335803943676, 26.381723264022106], [106.47335803943676, 26.381543600965284], [106.47299871332311, 26.381543600965284], [106.47299871332311, 26.381723264022106], [106.47281905026628, 26.381723264022106], [106.47281905026628, 26.38190292707893], [106.47263938720945, 26.38190292707893], [106.47263938720945, 26.382082590135756], [106.47245972415264, 26.382082590135756]]]}, "properties": {"name": "cand02", "ptype": "hall", "confidence": "low", "rank": 2, "area_ha": 20.8, "rise_db": 8.5, "digitised_from": "Sentinel-1 VV rise 2021->2026, orbit 55"}}, {"type": "Feature", "geometry": {"geodesic": false, "type": "Polygon", "coordinates": [[[106.46509353882286, 26.348485598509683], [106.46509353882286, 26.34830593545286], [106.46455454965239, 26.34830593545286], [106.46455454965239, 26.348485598509683], [106.46383589742508, 26.348485598509683], [106.46383589742508, 26.34830593545286], [106.46365623436826, 26.34830593545286], [106.46365623436826, 26.348126272396037], [106.46329690825462, 26.348126272396037], [106.46329690825462, 26.34830593545286], [106.4631172451978, 26.34830593545286], [106.4631172451978, 26.348485598509683], [106.46257825602733, 26.348485598509683], [106.46257825602733, 26.34830593545286], [106.4623985929705, 26.34830593545286], [106.4623985929705, 26.348126272396037], [106.46221892991367, 26.348126272396037], [106.46221892991367, 26.347766946282388], [106.46185960380002, 26.347766946282388], [106.46185960380002, 26.347587283225565], [106.4616799407432, 26.347587283225565], [106.4616799407432, 26.346149978770974], [106.46185960380002, 26.346149978770974], [106.46185960380002, 26.34597031571415], [106.46347657131145, 26.34597031571415], [106.46347657131145, 26.346149978770974], [106.46329690825462, 26.346149978770974], [106.46329690825462, 26.346329641827797], [106.4631172451978, 26.346329641827797], [106.4631172451978, 26.34650930488462], [106.46293758214097, 26.34650930488462], [106.46293758214097, 26.347587283225565], [106.46401556048191, 26.347587283225565], [106.46401556048191, 26.34650930488462], [106.46419522353874, 26.34650930488462], [106.46419522353874, 26.34597031571415], [106.4647342127092, 26.34597031571415], [106.4647342127092, 26.346149978770974], [106.46455454965239, 26.346149978770974], [106.46455454965239, 26.346329641827797], [106.46509353882286, 26.346329641827797], [106.46509353882286, 26.34650930488462], [106.46581219105015, 26.34650930488462], [106.46581219105015, 26.346688967941446], [106.46599185410697, 26.346688967941446], [106.46599185410697, 26.34686863099827], [106.4661715171638, 26.34686863099827], [106.4661715171638, 26.34722795711192], [106.46599185410697, 26.34722795711192], [106.46599185410697, 26.347587283225565], [106.46563252799332, 26.347587283225565], [106.46563252799332, 26.34830593545286], [106.46545286493651, 26.34830593545286], [106.46545286493651, 26.348485598509683], [106.46509353882286, 26.348485598509683]], [[106.46509353882286, 26.347587283225565], [106.46491387576603, 26.347587283225565], [106.46491387576603, 26.34740762016874], [106.46509353882286, 26.34740762016874], [106.46509353882286, 26.347587283225565]]]}, "properties": {"name": "cand03", "ptype": "hall", "confidence": "low", "rank": 3, "area_ha": 9.1, "rise_db": 8.1, "digitised_from": "Sentinel-1 VV rise 2021->2026, orbit 55"}}, {"type": "Feature", "geometry": {"geodesic": false, "type": "Polygon", "coordinates": [[[106.47623264834594, 26.358726392748647], [106.47623264834594, 26.358546729691824], [106.47605298528912, 26.358546729691824], [106.47605298528912, 26.358367066635], [106.47569365917546, 26.358367066635], [106.47569365917546, 26.358187403578174], [106.47551399611864, 26.358187403578174], [106.47551399611864, 26.35782807746453], [106.47533433306182, 26.35782807746453], [106.47533433306182, 26.35746875135088], [106.475154670005, 26.35746875135088], [106.475154670005, 26.357289088294056], [106.47497500694817, 26.357289088294056], [106.47497500694817, 26.35657043606676], [106.47569365917546, 26.35657043606676], [106.47569365917546, 26.356390773009938], [106.47551399611864, 26.356390773009938], [106.47551399611864, 26.355851783839466], [106.47605298528912, 26.355851783839466], [106.47605298528912, 26.35567212078264], [106.47623264834594, 26.35567212078264], [106.47623264834594, 26.355492457725816], [106.47641231140277, 26.355492457725816], [106.47641231140277, 26.354594142441698], [106.47605298528912, 26.354594142441698], [106.47605298528912, 26.354414479384875], [106.47569365917546, 26.354414479384875], [106.47569365917546, 26.354055153271226], [106.47605298528912, 26.354055153271226], [106.47605298528912, 26.353875490214403], [106.4767716375164, 26.353875490214403], [106.4767716375164, 26.353695827157576], [106.47713096363006, 26.353695827157576], [106.47713096363006, 26.353875490214403], [106.47731062668689, 26.353875490214403], [106.47731062668689, 26.354055153271226], [106.47766995280053, 26.354055153271226], [106.47766995280053, 26.35423481632805], [106.47784961585735, 26.35423481632805], [106.47784961585735, 26.354594142441698], [106.47802927891418, 26.354594142441698], [106.47802927891418, 26.35513313161217], [106.47784961585735, 26.35513313161217], [106.47784961585735, 26.355312794668993], [106.47731062668689, 26.355312794668993], [106.47731062668689, 26.35567212078264], [106.47695130057323, 26.35567212078264], [106.47695130057323, 26.355851783839466], [106.4767716375164, 26.355851783839466], [106.4767716375164, 26.35603144689629], [106.47659197445958, 26.35603144689629], [106.47659197445958, 26.356390773009938], [106.47713096363006, 26.356390773009938], [106.47713096363006, 26.356929762180407], [106.47695130057323, 26.356929762180407], [106.47695130057323, 26.357109425237233], [106.47659197445958, 26.357109425237233], [106.47659197445958, 26.357289088294056], [106.47641231140277, 26.357289088294056], [106.47641231140277, 26.357109425237233], [106.47623264834594, 26.357109425237233], [106.47623264834594, 26.357648414407702], [106.47587332223229, 26.357648414407702], [106.47587332223229, 26.35800774052135], [106.47659197445958, 26.35800774052135], [106.47659197445958, 26.358187403578174], [106.4767716375164, 26.358187403578174], [106.4767716375164, 26.358546729691824], [106.47659197445958, 26.358546729691824], [106.47659197445958, 26.358726392748647], [106.47623264834594, 26.358726392748647]], [[106.47587332223229, 26.356750099123584], [106.47569365917546, 26.356750099123584], [106.47569365917546, 26.35657043606676], [106.47587332223229, 26.35657043606676], [106.47587332223229, 26.356750099123584]]]}, "properties": {"name": "cand04", "ptype": "hall", "confidence": "low", "rank": 4, "area_ha": 7.8, "rise_db": 7.9, "digitised_from": "Sentinel-1 VV rise 2021->2026, orbit 55"}}, {"type": "Feature", "geometry": {"geodesic": false, "type": "Polygon", "coordinates": [[[106.45593072292483, 26.361241675544182], [106.45593072292483, 26.36106201248736], [106.455751059868, 26.36106201248736], [106.455751059868, 26.360882349430533], [106.4555713968112, 26.360882349430533], [106.4555713968112, 26.36070268637371], [106.45539173375437, 26.36070268637371], [106.45539173375437, 26.360343360260064], [106.45521207069754, 26.360343360260064], [106.45521207069754, 26.359984034146414], [106.4555713968112, 26.359984034146414], [106.4555713968112, 26.359624708032765], [106.45539173375437, 26.359624708032765], [106.45539173375437, 26.359085718862296], [106.455751059868, 26.359085718862296], [106.455751059868, 26.358726392748647], [106.45646971209531, 26.358726392748647], [106.45646971209531, 26.358546729691824], [106.45736802737943, 26.358546729691824], [106.45736802737943, 26.358726392748647], [106.45754769043626, 26.358726392748647], [106.45754769043626, 26.359085718862296], [106.45736802737943, 26.359085718862296], [106.45736802737943, 26.35926538191912], [106.4571883643226, 26.35926538191912], [106.4571883643226, 26.35980437108959], [106.45736802737943, 26.35980437108959], [106.45736802737943, 26.360343360260064], [106.4571883643226, 26.360343360260064], [106.4571883643226, 26.36070268637371], [106.45700870126578, 26.36070268637371], [106.45700870126578, 26.360882349430533], [106.45664937515214, 26.360882349430533], [106.45664937515214, 26.36106201248736], [106.45646971209531, 26.36106201248736], [106.45646971209531, 26.361241675544182], [106.45593072292483, 26.361241675544182]], [[106.45682903820895, 26.360523023316887], [106.45664937515214, 26.360523023316887], [106.45664937515214, 26.360343360260064], [106.45682903820895, 26.360343360260064], [106.45682903820895, 26.360523023316887]]]}, "properties": {"name": "cand05", "ptype": "hall", "confidence": "low", "rank": 5, "area_ha": 5.4, "rise_db": 7.8, "digitised_from": "Sentinel-1 VV rise 2021->2026, orbit 55"}}, {"type": "Feature", "geometry": {"geodesic": false, "type": "Polygon", "coordinates": [[[106.46653084327745, 26.39645563468167], [106.46653084327745, 26.395557319397547], [106.46635118022063, 26.395557319397547], [106.46635118022063, 26.395018330227074], [106.46653084327745, 26.395018330227074], [106.46653084327745, 26.394479341056606], [106.46671050633427, 26.394479341056606], [106.46671050633427, 26.394120014942956], [106.46653084327745, 26.394120014942956], [106.46653084327745, 26.393940351886133], [106.46671050633427, 26.393940351886133], [106.46671050633427, 26.393760688829307], [106.46706983244792, 26.393760688829307], [106.46706983244792, 26.394479341056606], [106.46724949550475, 26.394479341056606], [106.46724949550475, 26.39465900411343], [106.46778848467521, 26.39465900411343], [106.46778848467521, 26.394479341056606], [106.46796814773204, 26.394479341056606], [106.46796814773204, 26.39429967799978], [106.46832747384569, 26.39429967799978], [106.46832747384569, 26.394120014942956], [106.46868679995933, 26.394120014942956], [106.46868679995933, 26.393940351886133], [106.46904612607298, 26.393940351886133], [106.46904612607298, 26.393760688829307], [106.46940545218663, 26.393760688829307], [106.46940545218663, 26.393940351886133], [106.46958511524345, 26.393940351886133], [106.46958511524345, 26.394120014942956], [106.46940545218663, 26.394120014942956], [106.46940545218663, 26.39465900411343], [106.46922578912981, 26.39465900411343], [106.46922578912981, 26.39483866717025], [106.46850713690252, 26.39483866717025], [106.46850713690252, 26.395018330227074], [106.46832747384569, 26.395018330227074], [106.46832747384569, 26.3951979932839], [106.46850713690252, 26.3951979932839], [106.46850713690252, 26.395557319397547], [106.46832747384569, 26.395557319397547], [106.46832747384569, 26.39573698245437], [106.46778848467521, 26.39573698245437], [106.46778848467521, 26.395557319397547], [106.46760882161838, 26.395557319397547], [106.46760882161838, 26.39573698245437], [106.46742915856157, 26.39573698245437], [106.46742915856157, 26.395916645511196], [106.46724949550475, 26.395916645511196], [106.46724949550475, 26.39609630856802], [106.46706983244792, 26.39609630856802], [106.46706983244792, 26.396275971624842], [106.46671050633427, 26.396275971624842], [106.46671050633427, 26.39645563468167], [106.46653084327745, 26.39645563468167]], [[106.46689016939109, 26.39483866717025], [106.46671050633427, 26.39483866717025], [106.46671050633427, 26.39465900411343], [106.46689016939109, 26.39465900411343], [106.46689016939109, 26.39483866717025]]]}, "properties": {"name": "cand06", "ptype": "hall", "confidence": "low", "rank": 6, "area_ha": 5.0, "rise_db": 6.4, "digitised_from": "Sentinel-1 VV rise 2021->2026, orbit 55"}}, {"type": "Feature", "geometry": {"geodesic": false, "type": "Polygon", "coordinates": [[[106.45898499489084, 26.400048895818145], [106.45898499489084, 26.399869232761322], [106.45880533183401, 26.399869232761322], [106.45880533183401, 26.3996895697045], [106.4586256687772, 26.3996895697045], [106.4586256687772, 26.399509906647673], [106.45826634266355, 26.399509906647673], [106.45826634266355, 26.3996895697045], [106.4579070165499, 26.3996895697045], [106.4579070165499, 26.399509906647673], [106.45772735349307, 26.399509906647673], [106.45772735349307, 26.39933024359085], [106.45826634266355, 26.39933024359085], [106.45826634266355, 26.399150580534027], [106.45844600572038, 26.399150580534027], [106.45844600572038, 26.3989709174772], [106.4586256687772, 26.3989709174772], [106.4586256687772, 26.398791254420377], [106.45880533183401, 26.398791254420377], [106.45880533183401, 26.398611591363554], [106.45844600572038, 26.398611591363554], [106.45844600572038, 26.398252265249905], [106.45826634266355, 26.398252265249905], [106.45826634266355, 26.398072602193082], [106.45808667960672, 26.398072602193082], [106.45808667960672, 26.397713276079433], [106.4579070165499, 26.397713276079433], [106.4579070165499, 26.397353949965787], [106.45826634266355, 26.397353949965787], [106.45826634266355, 26.39753361302261], [106.45844600572038, 26.39753361302261], [106.45844600572038, 26.397713276079433], [106.45880533183401, 26.397713276079433], [106.45880533183401, 26.39753361302261], [106.4593443210045, 26.39753361302261], [106.4593443210045, 26.397713276079433], [106.45952398406132, 26.397713276079433], [106.45952398406132, 26.39843192830673], [106.45916465794767, 26.39843192830673], [106.45916465794767, 26.398611591363554], [106.45898499489084, 26.398611591363554], [106.45898499489084, 26.398791254420377], [106.45916465794767, 26.398791254420377], [106.45916465794767, 26.3989709174772], [106.4593443210045, 26.3989709174772], [106.4593443210045, 26.39933024359085], [106.45916465794767, 26.39933024359085], [106.45916465794767, 26.399509906647673], [106.4593443210045, 26.399509906647673], [106.4593443210045, 26.400048895818145], [106.45898499489084, 26.400048895818145]], [[106.45916465794767, 26.3996895697045], [106.45898499489084, 26.3996895697045], [106.45898499489084, 26.399509906647673], [106.45916465794767, 26.399509906647673], [106.45916465794767, 26.3996895697045]]]}, "properties": {"name": "cand07", "ptype": "hall", "confidence": "low", "rank": 7, "area_ha": 3.0, "rise_db": 5.7, "digitised_from": "Sentinel-1 VV rise 2021->2026, orbit 55"}}, {"type": "Feature", "geometry": {"geodesic": false, "type": "Polygon", "coordinates": [[[106.45970364711813, 26.361421338601005], [106.45970364711813, 26.361241675544182], [106.45952398406132, 26.361241675544182], [106.45952398406132, 26.36106201248736], [106.4593443210045, 26.36106201248736], [106.4593443210045, 26.360882349430533], [106.45844600572038, 26.360882349430533], [106.45844600572038, 26.36070268637371], [106.45826634266355, 26.36070268637371], [106.45826634266355, 26.360523023316887], [106.45808667960672, 26.360523023316887], [106.45808667960672, 26.360163697203237], [106.45826634266355, 26.360163697203237], [106.45826634266355, 26.359984034146414], [106.45844600572038, 26.359984034146414], [106.45844600572038, 26.35980437108959], [106.4586256687772, 26.35980437108959], [106.4586256687772, 26.359984034146414], [106.45916465794767, 26.359984034146414], [106.45916465794767, 26.360163697203237], [106.45970364711813, 26.360163697203237], [106.45970364711813, 26.360343360260064], [106.46042229934544, 26.360343360260064], [106.46042229934544, 26.360523023316887], [106.46078162545908, 26.360523023316887], [106.46078162545908, 26.36070268637371], [106.46060196240227, 26.36070268637371], [106.46060196240227, 26.361241675544182], [106.46006297323179, 26.361241675544182], [106.46006297323179, 26.361421338601005], [106.45970364711813, 26.361421338601005]]]}, "properties": {"name": "cand08", "ptype": "hall", "confidence": "low", "rank": 8, "area_ha": 2.8, "rise_db": 6.2, "digitised_from": "Sentinel-1 VV rise 2021->2026, orbit 55"}}, {"type": "Feature", "geometry": {"geodesic": false, "type": "Polygon", "coordinates": [[[106.46132061462956, 26.39483866717025], [106.46132061462956, 26.39429967799978], [106.46114095157273, 26.39429967799978], [106.46114095157273, 26.394120014942956], [106.4609612885159, 26.394120014942956], [106.4609612885159, 26.393760688829307], [106.46114095157273, 26.393760688829307], [106.46114095157273, 26.393581025772484], [106.46132061462956, 26.393581025772484], [106.46132061462956, 26.39340136271566], [106.46150027768638, 26.39340136271566], [106.46150027768638, 26.393221699658838], [106.46203926685685, 26.393221699658838], [106.46203926685685, 26.39340136271566], [106.4623985929705, 26.39340136271566], [106.4623985929705, 26.393581025772484], [106.46257825602733, 26.393581025772484], [106.46257825602733, 26.393940351886133], [106.4623985929705, 26.393940351886133], [106.4623985929705, 26.39429967799978], [106.46221892991367, 26.39429967799978], [106.46221892991367, 26.39465900411343], [106.46203926685685, 26.39465900411343], [106.46203926685685, 26.39483866717025], [106.46132061462956, 26.39483866717025]]]}, "properties": {"name": "cand09", "ptype": "hall", "confidence": "low", "rank": 9, "area_ha": 2.2, "rise_db": 11.5, "digitised_from": "Sentinel-1 VV rise 2021->2026, orbit 55"}}, {"type": "Feature", "geometry": {"geodesic": false, "type": "Polygon", "coordinates": [[[106.45287645095883, 26.39196405826107], [106.45287645095883, 26.391784395204244], [106.45269678790201, 26.391784395204244], [106.45269678790201, 26.39106574297695], [106.45251712484519, 26.39106574297695], [106.45251712484519, 26.391784395204244], [106.45197813567471, 26.391784395204244], [106.45197813567471, 26.391245406033775], [106.45179847261788, 26.391245406033775], [106.45179847261788, 26.390886079920126], [106.45197813567471, 26.390886079920126], [106.45197813567471, 26.390706416863303], [106.45215779873153, 26.390706416863303], [106.45215779873153, 26.39052675380648], [106.45269678790201, 26.39052675380648], [106.45269678790201, 26.390706416863303], [106.4534154401293, 26.390706416863303], [106.4534154401293, 26.39106574297695], [106.45323577707248, 26.39106574297695], [106.45323577707248, 26.39160473214742], [106.4534154401293, 26.39160473214742], [106.4534154401293, 26.39196405826107], [106.45287645095883, 26.39196405826107]]]}, "properties": {"name": "cand10", "ptype": "hall", "confidence": "low", "rank": 10, "area_ha": 2.0, "rise_db": 7.6, "digitised_from": "Sentinel-1 VV rise 2021->2026, orbit 55"}}, {"type": "Feature", "geometry": {"geodesic": false, "type": "Polygon", "coordinates": [[[106.4699444413571, 26.39429967799978], [106.4699444413571, 26.393940351886133], [106.47048343052758, 26.393940351886133], [106.47048343052758, 26.39340136271566], [106.47030376747075, 26.39340136271566], [106.47030376747075, 26.393221699658838], [106.47048343052758, 26.393221699658838], [106.47048343052758, 26.392682710488366], [106.47030376747075, 26.392682710488366], [106.47030376747075, 26.392323384374716], [106.47048343052758, 26.392323384374716], [106.47048343052758, 26.39196405826107], [106.47066309358439, 26.39196405826107], [106.47066309358439, 26.391784395204244], [106.47102241969804, 26.391784395204244], [106.47102241969804, 26.392143721317893], [106.47120208275487, 26.392143721317893], [106.47120208275487, 26.392503047431543], [106.47102241969804, 26.392503047431543], [106.47102241969804, 26.39286237354519], [106.47084275664122, 26.39286237354519], [106.47084275664122, 26.393221699658838], [106.47102241969804, 26.393221699658838], [106.47102241969804, 26.393581025772484], [106.47084275664122, 26.393581025772484], [106.47084275664122, 26.394120014942956], [106.47066309358439, 26.394120014942956], [106.47066309358439, 26.39429967799978], [106.4699444413571, 26.39429967799978]]]}, "properties": {"name": "cand11", "ptype": "hall", "confidence": "low", "rank": 11, "area_ha": 1.8, "rise_db": 7.0, "digitised_from": "Sentinel-1 VV rise 2021->2026, orbit 55"}}, {"type": "Feature", "geometry": {"geodesic": false, "type": "Polygon", "coordinates": [[[106.46203926685685, 26.390347090749653], [106.46203926685685, 26.39016742769283], [106.4616799407432, 26.39016742769283], [106.4616799407432, 26.389987764636007], [106.46150027768638, 26.389987764636007], [106.46150027768638, 26.389628438522358], [106.46185960380002, 26.389628438522358], [106.46185960380002, 26.389448775465535], [106.46203926685685, 26.389448775465535], [106.46203926685685, 26.389269112408712], [106.46221892991367, 26.389269112408712], [106.46221892991367, 26.389089449351886], [106.4623985929705, 26.389089449351886], [106.4623985929705, 26.388550460181417], [106.46257825602733, 26.388550460181417], [106.46257825602733, 26.38837079712459], [106.46275791908414, 26.38837079712459], [106.46275791908414, 26.389269112408712], [106.46293758214097, 26.389269112408712], [106.46293758214097, 26.389628438522358], [106.4631172451978, 26.389628438522358], [106.4631172451978, 26.38980810157918], [106.46293758214097, 26.38980810157918], [106.46293758214097, 26.389987764636007], [106.46257825602733, 26.389987764636007], [106.46257825602733, 26.39016742769283], [106.46221892991367, 26.39016742769283], [106.46221892991367, 26.390347090749653], [106.46203926685685, 26.390347090749653]]]}, "properties": {"name": "cand12", "ptype": "hall", "confidence": "low", "rank": 12, "area_ha": 1.8, "rise_db": 6.4, "digitised_from": "Sentinel-1 VV rise 2021->2026, orbit 55"}}, {"type": "Feature", "geometry": {"geodesic": false, "type": "Polygon", "coordinates": [[[106.4623985929705, 26.386574166556354], [106.4623985929705, 26.385675851272232], [106.46257825602733, 26.385675851272232], [106.46257825602733, 26.38549618821541], [106.46275791908414, 26.38549618821541], [106.46275791908414, 26.385316525158586], [106.4631172451978, 26.385316525158586], [106.4631172451978, 26.384957199044937], [106.46329690825462, 26.384957199044937], [106.46329690825462, 26.384777535988114], [106.46347657131145, 26.384777535988114], [106.46347657131145, 26.384957199044937], [106.46365623436826, 26.384957199044937], [106.46365623436826, 26.385675851272232], [106.46347657131145, 26.385675851272232], [106.46347657131145, 26.385855514329055], [106.46329690825462, 26.385855514329055], [106.46329690825462, 26.386214840442705], [106.4631172451978, 26.386214840442705], [106.4631172451978, 26.386394503499528], [106.46293758214097, 26.386394503499528], [106.46293758214097, 26.386574166556354], [106.4623985929705, 26.386574166556354]]]}, "properties": {"name": "cand13", "ptype": "hall", "confidence": "low", "rank": 13, "area_ha": 1.6, "rise_db": 6.6, "digitised_from": "Sentinel-1 VV rise 2021->2026, orbit 55"}}, {"type": "Feature", "geometry": {"geodesic": false, "type": "Polygon", "coordinates": [[[106.46850713690252, 26.38046562262434], [106.46850713690252, 26.380285959567516], [106.46832747384569, 26.380285959567516], [106.46832747384569, 26.380106296510693], [106.46850713690252, 26.380106296510693], [106.46850713690252, 26.379926633453866], [106.46832747384569, 26.379926633453866], [106.46832747384569, 26.379746970397044], [106.46814781078886, 26.379746970397044], [106.46814781078886, 26.37956730734022], [106.46796814773204, 26.37956730734022], [106.46796814773204, 26.379387644283398], [106.46814781078886, 26.379387644283398], [106.46814781078886, 26.37920798122657], [106.46796814773204, 26.37920798122657], [106.46796814773204, 26.3786689920561], [106.46832747384569, 26.3786689920561], [106.46832747384569, 26.37902831816975], [106.46850713690252, 26.37902831816975], [106.46850713690252, 26.37920798122657], [106.46868679995933, 26.37920798122657], [106.46868679995933, 26.37902831816975], [106.46886646301616, 26.37902831816975], [106.46886646301616, 26.378848655112925], [106.46940545218663, 26.378848655112925], [106.46940545218663, 26.37920798122657], [106.46868679995933, 26.37920798122657], [106.46868679995933, 26.379746970397044], [106.46904612607298, 26.379746970397044], [106.46904612607298, 26.379926633453866], [106.46922578912981, 26.379926633453866], [106.46922578912981, 26.380285959567516], [106.46886646301616, 26.380285959567516], [106.46886646301616, 26.38046562262434], [106.46850713690252, 26.38046562262434]]]}, "properties": {"name": "cand14", "ptype": "hall", "confidence": "low", "rank": 14, "area_ha": 1.6, "rise_db": 6.2, "digitised_from": "Sentinel-1 VV rise 2021->2026, orbit 55"}}, {"type": "Feature", "geometry": {"geodesic": false, "type": "Polygon", "coordinates": [[[106.46976477830027, 26.43939510526258], [106.46976477830027, 26.439215442205757], [106.46958511524345, 26.439215442205757], [106.46958511524345, 26.438496789978462], [106.46976477830027, 26.438496789978462], [106.46976477830027, 26.437778137751167], [106.4699444413571, 26.437778137751167], [106.4699444413571, 26.436340833296573], [106.47030376747075, 26.436340833296573], [106.47030376747075, 26.437239148580694], [106.47048343052758, 26.437239148580694], [106.47048343052758, 26.43759847469434], [106.47030376747075, 26.43759847469434], [106.47030376747075, 26.43795780080799], [106.47012410441393, 26.43795780080799], [106.47012410441393, 26.438496789978462], [106.4699444413571, 26.438496789978462], [106.4699444413571, 26.43939510526258], [106.46976477830027, 26.43939510526258]]]}, "properties": {"name": "cand15", "ptype": "hall", "confidence": "low", "rank": 15, "area_ha": 1.4, "rise_db": 5.1, "digitised_from": "Sentinel-1 VV rise 2021->2026, orbit 55"}}, {"type": "Feature", "geometry": {"geodesic": false, "type": "Polygon", "coordinates": [[[106.47982590948241, 26.354594142441698], [106.47982590948241, 26.354414479384875], [106.47964624642559, 26.354414479384875], [106.47964624642559, 26.35423481632805], [106.47946658336876, 26.35423481632805], [106.47946658336876, 26.354055153271226], [106.47928692031195, 26.354055153271226], [106.47928692031195, 26.353875490214403], [106.4789275941983, 26.353875490214403], [106.4789275941983, 26.354055153271226], [106.47856826808464, 26.354055153271226], [106.47856826808464, 26.353875490214403], [106.47838860502783, 26.353875490214403], [106.47838860502783, 26.35333650104393], [106.47874793114147, 26.35333650104393], [106.47874793114147, 26.353156837987108], [106.4789275941983, 26.353156837987108], [106.4789275941983, 26.35297717493028], [106.47910725725512, 26.35297717493028], [106.47910725725512, 26.353156837987108], [106.47928692031195, 26.353156837987108], [106.47928692031195, 26.353695827157576], [106.48000557253924, 26.353695827157576], [106.48000557253924, 26.354594142441698], [106.47982590948241, 26.354594142441698]]]}, "properties": {"name": "cand16", "ptype": "hall", "confidence": "low", "rank": 16, "area_ha": 1.4, "rise_db": 9.1, "digitised_from": "Sentinel-1 VV rise 2021->2026, orbit 55"}}, {"type": "Feature", "geometry": {"geodesic": false, "type": "Polygon", "coordinates": [[[106.47856826808464, 26.361960327771477], [106.47856826808464, 26.361780664714654], [106.47838860502783, 26.361780664714654], [106.47838860502783, 26.361601001657828], [106.478208941971, 26.361601001657828], [106.478208941971, 26.360882349430533], [106.47838860502783, 26.360882349430533], [106.47838860502783, 26.36070268637371], [106.47928692031195, 26.36070268637371], [106.47928692031195, 26.361421338601005], [106.47910725725512, 26.361421338601005], [106.47910725725512, 26.361780664714654], [106.4789275941983, 26.361780664714654], [106.4789275941983, 26.361960327771477], [106.47856826808464, 26.361960327771477]]]}, "properties": {"name": "cand17", "ptype": "hall", "confidence": "low", "rank": 17, "area_ha": 1.4, "rise_db": 11.0, "digitised_from": "Sentinel-1 VV rise 2021->2026, orbit 55"}}, {"type": "Feature", "geometry": {"geodesic": false, "type": "Polygon", "coordinates": [[[106.47407669166405, 26.359984034146414], [106.47407669166405, 26.35980437108959], [106.47389702860723, 26.35980437108959], [106.47389702860723, 26.359624708032765], [106.47353770249357, 26.359624708032765], [106.47353770249357, 26.359445044975942], [106.47335803943676, 26.359445044975942], [106.47335803943676, 26.359085718862296], [106.47353770249357, 26.359085718862296], [106.47353770249357, 26.35890605580547], [106.47389702860723, 26.35890605580547], [106.47389702860723, 26.358726392748647], [106.47425635472088, 26.358726392748647], [106.47425635472088, 26.35890605580547], [106.4744360177777, 26.35890605580547], [106.4744360177777, 26.35926538191912], [106.47461568083452, 26.35926538191912], [106.47461568083452, 26.359445044975942], [106.47479534389134, 26.359445044975942], [106.47479534389134, 26.359624708032765], [106.47461568083452, 26.359624708032765], [106.47461568083452, 26.35980437108959], [106.4744360177777, 26.35980437108959], [106.4744360177777, 26.359984034146414], [106.47407669166405, 26.359984034146414]]]}, "properties": {"name": "cand18", "ptype": "hall", "confidence": "low", "rank": 18, "area_ha": 1.3, "rise_db": 8.4, "digitised_from": "Sentinel-1 VV rise 2021->2026, orbit 55"}}, {"type": "Feature", "geometry": {"geodesic": false, "type": "Polygon", "coordinates": [[[106.46257825602733, 26.40220485250003], [106.46257825602733, 26.402025189443208], [106.4623985929705, 26.402025189443208], [106.4623985929705, 26.401845526386385], [106.46221892991367, 26.401845526386385], [106.46221892991367, 26.401486200272736], [106.4623985929705, 26.401486200272736], [106.4623985929705, 26.40112687415909], [106.46257825602733, 26.40112687415909], [106.46257825602733, 26.400947211102263], [106.46275791908414, 26.400947211102263], [106.46275791908414, 26.400408221931794], [106.4631172451978, 26.400408221931794], [106.4631172451978, 26.402025189443208], [106.46293758214097, 26.402025189443208], [106.46293758214097, 26.40220485250003], [106.46257825602733, 26.40220485250003]]]}, "properties": {"name": "cand19", "ptype": "hall", "confidence": "low", "rank": 19, "area_ha": 1.3, "rise_db": 7.6, "digitised_from": "Sentinel-1 VV rise 2021->2026, orbit 55"}}, {"type": "Feature", "geometry": {"geodesic": false, "type": "Polygon", "coordinates": [[[106.45808667960672, 26.36860786087396], [106.45808667960672, 26.36842819781714], [106.4579070165499, 26.36842819781714], [106.4579070165499, 26.36806887170349], [106.45808667960672, 26.36806887170349], [106.45808667960672, 26.367889208646666], [106.45826634266355, 26.367889208646666], [106.45826634266355, 26.367709545589843], [106.45916465794767, 26.367709545589843], [106.45916465794767, 26.367889208646666], [106.4593443210045, 26.367889208646666], [106.4593443210045, 26.368248534760315], [106.45916465794767, 26.368248534760315], [106.45916465794767, 26.36842819781714], [106.45898499489084, 26.36842819781714], [106.45898499489084, 26.36860786087396], [106.45808667960672, 26.36860786087396]]]}, "properties": {"name": "cand20", "ptype": "hall", "confidence": "low", "rank": 20, "area_ha": 1.3, "rise_db": 8.6, "digitised_from": "Sentinel-1 VV rise 2021->2026, orbit 55"}}, {"type": "Feature", "geometry": {"geodesic": false, "type": "Polygon", "coordinates": [[[106.46203926685685, 26.358187403578174], [106.46203926685685, 26.35800774052135], [106.46185960380002, 26.35800774052135], [106.46185960380002, 26.35782807746453], [106.46150027768638, 26.35782807746453], [106.46150027768638, 26.35800774052135], [106.46114095157273, 26.35800774052135], [106.46114095157273, 26.35746875135088], [106.46132061462956, 26.35746875135088], [106.46132061462956, 26.357289088294056], [106.46150027768638, 26.357289088294056], [106.46150027768638, 26.356929762180407], [106.46185960380002, 26.356929762180407], [106.46185960380002, 26.357289088294056], [106.4623985929705, 26.357289088294056], [106.4623985929705, 26.35800774052135], [106.46221892991367, 26.35800774052135], [106.46221892991367, 26.358187403578174], [106.46203926685685, 26.358187403578174]]]}, "properties": {"name": "cand21", "ptype": "hall", "confidence": "low", "rank": 21, "area_ha": 1.2, "rise_db": 5.8, "digitised_from": "Sentinel-1 VV rise 2021->2026, orbit 55"}}, {"type": "Feature", "geometry": {"geodesic": false, "type": "Polygon", "coordinates": [[[106.47228006109582, 26.385316525158586], [106.47228006109582, 26.38513686210176], [106.47210039803899, 26.38513686210176], [106.47210039803899, 26.384957199044937], [106.47228006109582, 26.384957199044937], [106.47228006109582, 26.384777535988114], [106.47245972415264, 26.384777535988114], [106.47245972415264, 26.38459787293129], [106.47263938720945, 26.38459787293129], [106.47263938720945, 26.38423854681764], [106.47245972415264, 26.38423854681764], [106.47245972415264, 26.38405888376082], [106.47263938720945, 26.38405888376082], [106.47263938720945, 26.383879220703992], [106.47245972415264, 26.383879220703992], [106.47245972415264, 26.383519894590346], [106.47263938720945, 26.383519894590346], [106.47263938720945, 26.383340231533523], [106.47281905026628, 26.383340231533523], [106.47281905026628, 26.38369955764717], [106.47299871332311, 26.38369955764717], [106.47299871332311, 26.38459787293129], [106.47281905026628, 26.38459787293129], [106.47281905026628, 26.384957199044937], [106.47299871332311, 26.384957199044937], [106.47299871332311, 26.385316525158586], [106.47228006109582, 26.385316525158586]]]}, "properties": {"name": "cand22", "ptype": "hall", "confidence": "low", "rank": 22, "area_ha": 1.2, "rise_db": 7.8, "digitised_from": "Sentinel-1 VV rise 2021->2026, orbit 55"}}, {"type": "Feature", "geometry": {"geodesic": false, "type": "Polygon", "coordinates": [[[106.46886646301616, 26.421788125693837], [106.46886646301616, 26.42142879958019], [106.46868679995933, 26.42142879958019], [106.46868679995933, 26.42106947346654], [106.46850713690252, 26.42106947346654], [106.46850713690252, 26.42088981040972], [106.46868679995933, 26.42088981040972], [106.46868679995933, 26.420710147352896], [106.46886646301616, 26.420710147352896], [106.46886646301616, 26.42088981040972], [106.47012410441393, 26.42088981040972], [106.47012410441393, 26.421249136523365], [106.4699444413571, 26.421249136523365], [106.4699444413571, 26.42142879958019], [106.46922578912981, 26.42142879958019], [106.46922578912981, 26.421788125693837], [106.46886646301616, 26.421788125693837]]]}, "properties": {"name": "cand23", "ptype": "hall", "confidence": "low", "rank": 23, "area_ha": 1.2, "rise_db": 6.1, "digitised_from": "Sentinel-1 VV rise 2021->2026, orbit 55"}}, {"type": "Feature", "geometry": {"geodesic": false, "type": "Polygon", "coordinates": [[[106.45521207069754, 26.398611591363554], [106.45521207069754, 26.39843192830673], [106.45503240764072, 26.39843192830673], [106.45503240764072, 26.398252265249905], [106.45485274458389, 26.398252265249905], [106.45485274458389, 26.398072602193082], [106.45449341847025, 26.398072602193082], [106.45449341847025, 26.39789293913626], [106.45431375541342, 26.39789293913626], [106.45431375541342, 26.397713276079433], [106.4541340923566, 26.397713276079433], [106.4541340923566, 26.397353949965787], [106.45431375541342, 26.397353949965787], [106.45431375541342, 26.397174286908964], [106.45449341847025, 26.397174286908964], [106.45449341847025, 26.397353949965787], [106.45467308152708, 26.397353949965787], [106.45467308152708, 26.39753361302261], [106.45485274458389, 26.39753361302261], [106.45485274458389, 26.397713276079433], [106.45503240764072, 26.397713276079433], [106.45503240764072, 26.39789293913626], [106.45521207069754, 26.39789293913626], [106.45521207069754, 26.398072602193082], [106.4555713968112, 26.398072602193082], [106.4555713968112, 26.398252265249905], [106.455751059868, 26.398252265249905], [106.455751059868, 26.398611591363554], [106.45521207069754, 26.398611591363554]]]}, "properties": {"name": "cand24", "ptype": "hall", "confidence": "low", "rank": 24, "area_ha": 1.1, "rise_db": 5.4, "digitised_from": "Sentinel-1 VV rise 2021->2026, orbit 55"}}, {"type": "Feature", "geometry": {"geodesic": false, "type": "Polygon", "coordinates": [[[106.43814408029927, 26.361960327771477], [106.43814408029927, 26.361780664714654], [106.43796441724244, 26.361780664714654], [106.43796441724244, 26.361241675544182], [106.43814408029927, 26.361241675544182], [106.43814408029927, 26.36106201248736], [106.43850340641292, 26.36106201248736], [106.43850340641292, 26.360882349430533], [106.43886273252656, 26.360882349430533], [106.43886273252656, 26.36106201248736], [106.43904239558339, 26.36106201248736], [106.43904239558339, 26.361421338601005], [106.43886273252656, 26.361421338601005], [106.43886273252656, 26.361780664714654], [106.43868306946975, 26.361780664714654], [106.43868306946975, 26.361960327771477], [106.43814408029927, 26.361960327771477]]]}, "properties": {"name": "cand25", "ptype": "hall", "confidence": "low", "rank": 25, "area_ha": 1.0, "rise_db": 8.1, "digitised_from": "Sentinel-1 VV rise 2021->2026, orbit 55"}}]}