{"type": "FeatureCollection", "features": [{"type": "Feature", "geometry": {"geodesic": false, "type": "Polygon", "coordinates": [[[-112.10561520780934, 33.72563037475602], [-112.10561520780934, 33.725450711699196], [-112.10597453392297, 33.725450711699196], [-112.10597453392297, 33.72563037475602], [-112.1061541969798, 33.72563037475602], [-112.1061541969798, 33.725450711699196], [-112.10651352309345, 33.725450711699196], [-112.10651352309345, 33.7247320594719], [-112.10669318615028, 33.7247320594719], [-112.10669318615028, 33.72455239641508], [-112.1068728492071, 33.72455239641508], [-112.1068728492071, 33.72509138558555], [-112.10723217532075, 33.72509138558555], [-112.10723217532075, 33.72527104864237], [-112.10741183837757, 33.72527104864237], [-112.10741183837757, 33.725450711699196], [-112.10777116449121, 33.725450711699196], [-112.10777116449121, 33.72563037475602], [-112.10813049060486, 33.72563037475602], [-112.10813049060486, 33.725450711699196], [-112.10920846894581, 33.725450711699196], [-112.10920846894581, 33.72527104864237], [-112.10831015366169, 33.72527104864237], [-112.10831015366169, 33.72509138558555], [-112.10848981671852, 33.72509138558555], [-112.10848981671852, 33.72437273335825], [-112.10813049060486, 33.72437273335825], [-112.10813049060486, 33.7247320594719], [-112.10795082754804, 33.7247320594719], [-112.10795082754804, 33.724911722528724], [-112.10777116449121, 33.724911722528724], [-112.10777116449121, 33.72509138558555], [-112.10795082754804, 33.72509138558555], [-112.10795082754804, 33.72527104864237], [-112.1075915014344, 33.72527104864237], [-112.1075915014344, 33.724193070301425], [-112.10777116449121, 33.724193070301425], [-112.10777116449121, 33.72437273335825], [-112.10795082754804, 33.72437273335825], [-112.10795082754804, 33.724193070301425], [-112.10813049060486, 33.724193070301425], [-112.10813049060486, 33.72383374418778], [-112.10848981671852, 33.72383374418778], [-112.10848981671852, 33.72365408113096], [-112.10884914283216, 33.72365408113096], [-112.10884914283216, 33.724193070301425], [-112.10866947977534, 33.724193070301425], [-112.10866947977534, 33.72437273335825], [-112.10938813200264, 33.72437273335825], [-112.10938813200264, 33.724193070301425], [-112.10956779505946, 33.724193070301425], [-112.10956779505946, 33.724013407244605], [-112.10938813200264, 33.724013407244605], [-112.10938813200264, 33.72383374418778], [-112.10974745811627, 33.72383374418778], [-112.10974745811627, 33.72437273335825], [-112.10956779505946, 33.72437273335825], [-112.10956779505946, 33.72455239641508], [-112.10938813200264, 33.72455239641508], [-112.10938813200264, 33.725450711699196], [-112.10956779505946, 33.725450711699196], [-112.10956779505946, 33.72509138558555], [-112.10974745811627, 33.72509138558555], [-112.10974745811627, 33.724911722528724], [-112.1099271211731, 33.724911722528724], [-112.1099271211731, 33.72455239641508], [-112.10974745811627, 33.72455239641508], [-112.10974745811627, 33.72437273335825], [-112.1099271211731, 33.72437273335825], [-112.1099271211731, 33.724193070301425], [-112.11010678422993, 33.724193070301425], [-112.11010678422993, 33.724013407244605], [-112.1099271211731, 33.724013407244605], [-112.1099271211731, 33.72383374418778], [-112.11010678422993, 33.72383374418778], [-112.11010678422993, 33.72347441807413], [-112.10974745811627, 33.72347441807413], [-112.10974745811627, 33.72329475501731], [-112.10848981671852, 33.72329475501731], [-112.10848981671852, 33.72365408113096], [-112.10813049060486, 33.72365408113096], [-112.10813049060486, 33.72383374418778], [-112.10777116449121, 33.72383374418778], [-112.10777116449121, 33.724013407244605], [-112.1068728492071, 33.724013407244605], [-112.1068728492071, 33.724193070301425], [-112.10633386003663, 33.724193070301425], [-112.10633386003663, 33.72455239641508], [-112.1061541969798, 33.72455239641508], [-112.1061541969798, 33.72437273335825], [-112.10597453392297, 33.72437273335825], [-112.10597453392297, 33.7247320594719], [-112.10633386003663, 33.7247320594719], [-112.10633386003663, 33.72527104864237], [-112.10471689252522, 33.72527104864237], [-112.10471689252522, 33.72509138558555], [-112.10435756641157, 33.72509138558555], [-112.10435756641157, 33.725450711699196], [-112.10525588169568, 33.725450711699196], [-112.10525588169568, 33.72563037475602], [-112.10561520780934, 33.72563037475602]]]}, "properties": {"name": "cand01", "ptype": "hall", "confidence": "low", "rank": 1, "area_ha": 5.6, "rise_db": 9.6, "digitised_from": "Sentinel-1 VV rise 2021->2026, orbit 27"}}, {"type": "Feature", "geometry": {"geodesic": false, "type": "Polygon", "coordinates": [[[-112.08639126072917, 33.679636632209096], [-112.08639126072917, 33.67927730609545], [-112.08836755435424, 33.67927730609545], [-112.08836755435424, 33.67945696915228], [-112.08854721741106, 33.67945696915228], [-112.08854721741106, 33.67927730609545], [-112.08872688046789, 33.67927730609545], [-112.08872688046789, 33.67909764303863], [-112.08890654352471, 33.67909764303863], [-112.08890654352471, 33.67873831692498], [-112.08908620658153, 33.67873831692498], [-112.08908620658153, 33.67855865386816], [-112.08890654352471, 33.67855865386816], [-112.08890654352471, 33.678199327754506], [-112.08872688046789, 33.678199327754506], [-112.08872688046789, 33.67837899081133], [-112.08675058684283, 33.67837899081133], [-112.08675058684283, 33.678199327754506], [-112.08710991295646, 33.678199327754506], [-112.08710991295646, 33.678019664697686], [-112.08782856518377, 33.678019664697686], [-112.08782856518377, 33.678199327754506], [-112.08818789129741, 33.678199327754506], [-112.08818789129741, 33.678019664697686], [-112.08872688046789, 33.678019664697686], [-112.08872688046789, 33.67784000164086], [-112.08890654352471, 33.67784000164086], [-112.08890654352471, 33.677480675527214], [-112.08872688046789, 33.677480675527214], [-112.08872688046789, 33.67730101247039], [-112.08621159767235, 33.67730101247039], [-112.08621159767235, 33.67766033858403], [-112.08639126072917, 33.67766033858403], [-112.08639126072917, 33.678019664697686], [-112.086570923786, 33.678019664697686], [-112.086570923786, 33.67837899081133], [-112.08639126072917, 33.67837899081133], [-112.08639126072917, 33.67855865386816], [-112.08621159767235, 33.67855865386816], [-112.08621159767235, 33.67873831692498], [-112.08639126072917, 33.67873831692498], [-112.08639126072917, 33.67927730609545], [-112.08621159767235, 33.67927730609545], [-112.08621159767235, 33.67945696915228], [-112.08603193461552, 33.67945696915228], [-112.08603193461552, 33.679636632209096], [-112.08639126072917, 33.679636632209096]]]}, "properties": {"name": "cand02", "ptype": "hall", "confidence": "low", "rank": 2, "area_ha": 5.5, "rise_db": 13.9, "digitised_from": "Sentinel-1 VV rise 2021->2026, orbit 27"}}, {"type": "Feature", "geometry": {"geodesic": false, "type": "Polygon", "coordinates": [[[-112.08980485880883, 33.70784373213045], [-112.08980485880883, 33.7074844060168], [-112.08998452186565, 33.7074844060168], [-112.08998452186565, 33.707304742959984], [-112.09016418492247, 33.707304742959984], [-112.09016418492247, 33.7074844060168], [-112.09052351103612, 33.7074844060168], [-112.09052351103612, 33.707304742959984], [-112.09070317409295, 33.707304742959984], [-112.09070317409295, 33.70712507990316], [-112.0903438479793, 33.70712507990316], [-112.0903438479793, 33.70694541684633], [-112.09052351103612, 33.70694541684633], [-112.09052351103612, 33.70676575378951], [-112.09106250020659, 33.70676575378951], [-112.09106250020659, 33.70604710156221], [-112.08836755435424, 33.70604710156221], [-112.08836755435424, 33.70622676461904], [-112.08818789129741, 33.70622676461904], [-112.08818789129741, 33.70676575378951], [-112.08890654352471, 33.70676575378951], [-112.08890654352471, 33.70694541684633], [-112.08872688046789, 33.70694541684633], [-112.08872688046789, 33.707304742959984], [-112.08926586963835, 33.707304742959984], [-112.08926586963835, 33.7074844060168], [-112.08944553269518, 33.7074844060168], [-112.08944553269518, 33.70784373213045], [-112.08980485880883, 33.70784373213045]], [[-112.08908620658153, 33.70694541684633], [-112.08926586963835, 33.70694541684633], [-112.08926586963835, 33.70676575378951], [-112.08908620658153, 33.70676575378951], [-112.08908620658153, 33.70694541684633]], [[-112.08980485880883, 33.70712507990316], [-112.09016418492247, 33.70712507990316], [-112.09016418492247, 33.70676575378951], [-112.08980485880883, 33.70676575378951], [-112.08980485880883, 33.70712507990316]]]}, "properties": {"name": "cand03", "ptype": "hall", "confidence": "low", "rank": 3, "area_ha": 3.9, "rise_db": 11.1, "digitised_from": "Sentinel-1 VV rise 2021->2026, orbit 27"}}, {"type": "Feature", "geometry": {"geodesic": false, "type": "Polygon", "coordinates": [[[-112.09124216326342, 33.67837899081133], [-112.09124216326342, 33.678019664697686], [-112.09160148937707, 33.678019664697686], [-112.09160148937707, 33.677480675527214], [-112.09142182632024, 33.677480675527214], [-112.09142182632024, 33.67712134941357], [-112.09124216326342, 33.67712134941357], [-112.09124216326342, 33.67694168635674], [-112.09106250020659, 33.67694168635674], [-112.09106250020659, 33.676762023299915], [-112.08980485880883, 33.676762023299915], [-112.08980485880883, 33.67694168635674], [-112.08944553269518, 33.67694168635674], [-112.08944553269518, 33.67766033858403], [-112.089625195752, 33.67766033858403], [-112.089625195752, 33.67784000164086], [-112.08944553269518, 33.67784000164086], [-112.08944553269518, 33.67837899081133], [-112.09124216326342, 33.67837899081133]], [[-112.0903438479793, 33.67766033858403], [-112.09052351103612, 33.67766033858403], [-112.09052351103612, 33.677480675527214], [-112.0903438479793, 33.677480675527214], [-112.0903438479793, 33.67766033858403]], [[-112.08980485880883, 33.67766033858403], [-112.09016418492247, 33.67766033858403], [-112.09016418492247, 33.677480675527214], [-112.08980485880883, 33.677480675527214], [-112.08980485880883, 33.67766033858403]], [[-112.09070317409295, 33.67784000164086], [-112.09088283714978, 33.67784000164086], [-112.09088283714978, 33.67766033858403], [-112.09070317409295, 33.67766033858403], [-112.09070317409295, 33.67784000164086]]]}, "properties": {"name": "cand04", "ptype": "hall", "confidence": "low", "rank": 4, "area_ha": 3.6, "rise_db": 10.3, "digitised_from": "Sentinel-1 VV rise 2021->2026, orbit 27"}}, {"type": "Feature", "geometry": {"geodesic": false, "type": "Polygon", "coordinates": [[[-112.11226274091182, 33.702992829596205], [-112.11226274091182, 33.70245384042573], [-112.11244240396864, 33.70245384042573], [-112.11244240396864, 33.70209451431209], [-112.11154408868452, 33.70209451431209], [-112.11154408868452, 33.70191485125526], [-112.1113644256277, 33.70191485125526], [-112.1113644256277, 33.70209451431209], [-112.10920846894581, 33.70209451431209], [-112.10920846894581, 33.70245384042573], [-112.10902880588898, 33.70245384042573], [-112.10902880588898, 33.702813166539386], [-112.10920846894581, 33.702813166539386], [-112.10920846894581, 33.702992829596205], [-112.11226274091182, 33.702992829596205]]]}, "properties": {"name": "cand05", "ptype": "hall", "confidence": "low", "rank": 5, "area_ha": 3.6, "rise_db": 14.0, "digitised_from": "Sentinel-1 VV rise 2021->2026, orbit 27"}}, {"type": "Feature", "geometry": {"geodesic": false, "type": "Polygon", "coordinates": [[[-112.09771003330908, 33.71628789580117], [-112.09771003330908, 33.716108232744354], [-112.0978896963659, 33.716108232744354], [-112.0978896963659, 33.715389580517055], [-112.09806935942272, 33.715389580517055], [-112.09806935942272, 33.715209917460236], [-112.09824902247955, 33.715209917460236], [-112.09824902247955, 33.715389580517055], [-112.0986083485932, 33.715389580517055], [-112.0986083485932, 33.715209917460236], [-112.09878801165003, 33.715209917460236], [-112.09878801165003, 33.715389580517055], [-112.09914733776367, 33.715389580517055], [-112.09914733776367, 33.71556924357388], [-112.0993270008205, 33.71556924357388], [-112.0993270008205, 33.715389580517055], [-112.09950666387732, 33.715389580517055], [-112.09950666387732, 33.713952276062464], [-112.09914733776367, 33.713952276062464], [-112.09914733776367, 33.71377261300564], [-112.09842868553638, 33.71377261300564], [-112.09842868553638, 33.713952276062464], [-112.09824902247955, 33.713952276062464], [-112.09824902247955, 33.71485059134658], [-112.09753037025226, 33.71485059134658], [-112.09753037025226, 33.71467092828976], [-112.0971710441386, 33.71467092828976], [-112.0971710441386, 33.71485059134658], [-112.09699138108178, 33.71485059134658], [-112.09699138108178, 33.71503025440341], [-112.0971710441386, 33.71503025440341], [-112.0971710441386, 33.715389580517055], [-112.09735070719543, 33.715389580517055], [-112.09735070719543, 33.716108232744354], [-112.09753037025226, 33.716108232744354], [-112.09753037025226, 33.71628789580117], [-112.09771003330908, 33.71628789580117]], [[-112.09878801165003, 33.71485059134658], [-112.09896767470684, 33.71485059134658], [-112.09896767470684, 33.71431160217611], [-112.0986083485932, 33.71431160217611], [-112.0986083485932, 33.71467092828976], [-112.09878801165003, 33.71467092828976], [-112.09878801165003, 33.71485059134658]]]}, "properties": {"name": "cand06", "ptype": "hall", "confidence": "low", "rank": 6, "area_ha": 3.5, "rise_db": 8.4, "digitised_from": "Sentinel-1 VV rise 2021->2026, orbit 27"}}, {"type": "Feature", "geometry": {"geodesic": false, "type": "Polygon", "coordinates": [[[-112.07686911871751, 33.69814192706196], [-112.07686911871751, 33.697962264005135], [-112.07722844483115, 33.697962264005135], [-112.07722844483115, 33.69724361177784], [-112.07704878177434, 33.69724361177784], [-112.07704878177434, 33.696524959550544], [-112.07722844483115, 33.696524959550544], [-112.07722844483115, 33.696345296493725], [-112.07704878177434, 33.696345296493725], [-112.07704878177434, 33.69544698120961], [-112.07722844483115, 33.69544698120961], [-112.07722844483115, 33.694907992039134], [-112.07704878177434, 33.694907992039134], [-112.07704878177434, 33.69472832898231], [-112.07650979260386, 33.69472832898231], [-112.07650979260386, 33.694907992039134], [-112.07633012954703, 33.694907992039134], [-112.07633012954703, 33.69526731815278], [-112.07650979260386, 33.69526731815278], [-112.07650979260386, 33.69580630732325], [-112.07633012954703, 33.69580630732325], [-112.07633012954703, 33.6961656334369], [-112.07650979260386, 33.6961656334369], [-112.07650979260386, 33.6968842856642], [-112.07633012954703, 33.6968842856642], [-112.07633012954703, 33.697962264005135], [-112.07650979260386, 33.697962264005135], [-112.07650979260386, 33.69814192706196], [-112.07686911871751, 33.69814192706196]], [[-112.07668945566068, 33.69526731815278], [-112.07686911871751, 33.69526731815278], [-112.07686911871751, 33.69508765509595], [-112.07668945566068, 33.69508765509595], [-112.07668945566068, 33.69526731815278]]]}, "properties": {"name": "cand07", "ptype": "hall", "confidence": "low", "rank": 7, "area_ha": 2.9, "rise_db": 10.6, "digitised_from": "Sentinel-1 VV rise 2021->2026, orbit 27"}}, {"type": "Feature", "geometry": {"geodesic": false, "type": "Polygon", "coordinates": [[[-112.0783064231721, 33.697962264005135], [-112.0783064231721, 33.694907992039134], [-112.0775877709448, 33.694907992039134], [-112.0775877709448, 33.69670462260737], [-112.07740810788798, 33.69670462260737], [-112.07740810788798, 33.697063948721016], [-112.0775877709448, 33.697063948721016], [-112.0775877709448, 33.697962264005135], [-112.0783064231721, 33.697962264005135]]]}, "properties": {"name": "cand08", "ptype": "hall", "confidence": "low", "rank": 8, "area_ha": 2.8, "rise_db": 13.5, "digitised_from": "Sentinel-1 VV rise 2021->2026, orbit 27"}}, {"type": "Feature", "geometry": {"geodesic": false, "type": "Polygon", "coordinates": [[[-112.08495395627459, 33.715389580517055], [-112.08495395627459, 33.71503025440341], [-112.08477429321776, 33.71503025440341], [-112.08477429321776, 33.71485059134658], [-112.08459463016094, 33.71485059134658], [-112.08459463016094, 33.71467092828976], [-112.08441496710411, 33.71467092828976], [-112.08441496710411, 33.71449126523294], [-112.08459463016094, 33.71449126523294], [-112.08459463016094, 33.71413193911929], [-112.08423530404728, 33.71413193911929], [-112.08423530404728, 33.713952276062464], [-112.08441496710411, 33.713952276062464], [-112.08441496710411, 33.71359294994882], [-112.08423530404728, 33.71359294994882], [-112.08423530404728, 33.71341328689199], [-112.08405564099046, 33.71341328689199], [-112.08405564099046, 33.71323362383517], [-112.08387597793364, 33.71323362383517], [-112.08387597793364, 33.713053960778346], [-112.08369631487682, 33.713053960778346], [-112.08369631487682, 33.71233530855105], [-112.08387597793364, 33.71233530855105], [-112.08387597793364, 33.711616656323756], [-112.08423530404728, 33.711616656323756], [-112.08423530404728, 33.71125733021011], [-112.08369631487682, 33.71125733021011], [-112.08369631487682, 33.71143699326693], [-112.08351665181999, 33.71143699326693], [-112.08351665181999, 33.711616656323756], [-112.08333698876316, 33.711616656323756], [-112.08333698876316, 33.711796319380575], [-112.08297766264953, 33.711796319380575], [-112.08297766264953, 33.71215564549423], [-112.08333698876316, 33.71215564549423], [-112.08333698876316, 33.71233530855105], [-112.08351665181999, 33.71233530855105], [-112.08351665181999, 33.712514971607874], [-112.08333698876316, 33.712514971607874], [-112.08333698876316, 33.7126946346647], [-112.08315732570634, 33.7126946346647], [-112.08315732570634, 33.712514971607874], [-112.08297766264953, 33.712514971607874], [-112.08297766264953, 33.71233530855105], [-112.0827979995927, 33.71233530855105], [-112.0827979995927, 33.7126946346647], [-112.08297766264953, 33.7126946346647], [-112.08297766264953, 33.71287429772152], [-112.08333698876316, 33.71287429772152], [-112.08333698876316, 33.713053960778346], [-112.08369631487682, 33.713053960778346], [-112.08369631487682, 33.713952276062464], [-112.08387597793364, 33.713952276062464], [-112.08387597793364, 33.71413193911929], [-112.08405564099046, 33.71413193911929], [-112.08405564099046, 33.71431160217611], [-112.08423530404728, 33.71431160217611], [-112.08423530404728, 33.71467092828976], [-112.08405564099046, 33.71467092828976], [-112.08405564099046, 33.71503025440341], [-112.08423530404728, 33.71503025440341], [-112.08423530404728, 33.715209917460236], [-112.08459463016094, 33.715209917460236], [-112.08459463016094, 33.715389580517055], [-112.08495395627459, 33.715389580517055]]]}, "properties": {"name": "cand09", "ptype": "hall", "confidence": "low", "rank": 9, "area_ha": 2.8, "rise_db": 6.0, "digitised_from": "Sentinel-1 VV rise 2021->2026, orbit 27"}}, {"type": "Feature", "geometry": {"geodesic": false, "type": "Polygon", "coordinates": [[[-112.11298139313911, 33.65807706539023], [-112.11298139313911, 33.657897402333404], [-112.11316105619593, 33.657897402333404], [-112.11316105619593, 33.657717739276585], [-112.11334071925276, 33.657717739276585], [-112.11334071925276, 33.65735841316293], [-112.11316105619593, 33.65735841316293], [-112.11316105619593, 33.65717875010611], [-112.11244240396864, 33.65717875010611], [-112.11244240396864, 33.65681942399247], [-112.11226274091182, 33.65681942399247], [-112.11226274091182, 33.65663976093564], [-112.11190341479816, 33.65663976093564], [-112.11190341479816, 33.65646009787881], [-112.11154408868452, 33.65646009787881], [-112.11154408868452, 33.65663976093564], [-112.11118476257087, 33.65663976093564], [-112.11118476257087, 33.656999087049286], [-112.11100509951405, 33.656999087049286], [-112.11100509951405, 33.65681942399247], [-112.11082543645722, 33.65681942399247], [-112.11082543645722, 33.65717875010611], [-112.1106457734004, 33.65717875010611], [-112.1106457734004, 33.657717739276585], [-112.11082543645722, 33.657717739276585], [-112.11082543645722, 33.65753807621976], [-112.11154408868452, 33.65753807621976], [-112.11154408868452, 33.65735841316293], [-112.11190341479816, 33.65735841316293], [-112.11190341479816, 33.65753807621976], [-112.11208307785499, 33.65753807621976], [-112.11208307785499, 33.657717739276585], [-112.11226274091182, 33.657717739276585], [-112.11226274091182, 33.657897402333404], [-112.11244240396864, 33.657897402333404], [-112.11244240396864, 33.65807706539023], [-112.11298139313911, 33.65807706539023]]]}, "properties": {"name": "cand10", "ptype": "hall", "confidence": "low", "rank": 10, "area_ha": 2.7, "rise_db": 7.8, "digitised_from": "Sentinel-1 VV rise 2021->2026, orbit 27"}}, {"type": "Feature", "geometry": {"geodesic": false, "type": "Polygon", "coordinates": [[[-112.09824902247955, 33.711796319380575], [-112.09824902247955, 33.711616656323756], [-112.0986083485932, 33.711616656323756], [-112.0986083485932, 33.711796319380575], [-112.09896767470684, 33.711796319380575], [-112.09896767470684, 33.711616656323756], [-112.0993270008205, 33.711616656323756], [-112.0993270008205, 33.71125733021011], [-112.09950666387732, 33.71125733021011], [-112.09950666387732, 33.710179351869165], [-112.09968632693415, 33.710179351869165], [-112.09968632693415, 33.70999968881234], [-112.09950666387732, 33.70999968881234], [-112.09950666387732, 33.70982002575551], [-112.0993270008205, 33.70982002575551], [-112.0993270008205, 33.70999968881234], [-112.09842868553638, 33.70999968881234], [-112.09842868553638, 33.710359014925984], [-112.09824902247955, 33.710359014925984], [-112.09824902247955, 33.71107766715328], [-112.0978896963659, 33.71107766715328], [-112.0978896963659, 33.71125733021011], [-112.09771003330908, 33.71125733021011], [-112.09771003330908, 33.711616656323756], [-112.0978896963659, 33.711616656323756], [-112.0978896963659, 33.711796319380575], [-112.09824902247955, 33.711796319380575]], [[-112.09878801165003, 33.710359014925984], [-112.09896767470684, 33.710359014925984], [-112.09896767470684, 33.710179351869165], [-112.09878801165003, 33.710179351869165], [-112.09878801165003, 33.710359014925984]], [[-112.09878801165003, 33.71071834103964], [-112.09896767470684, 33.71071834103964], [-112.09896767470684, 33.71053867798281], [-112.09878801165003, 33.71053867798281], [-112.09878801165003, 33.71071834103964]], [[-112.09878801165003, 33.71107766715328], [-112.09896767470684, 33.71107766715328], [-112.09896767470684, 33.71089800409646], [-112.09878801165003, 33.71089800409646], [-112.09878801165003, 33.71107766715328]], [[-112.09806935942272, 33.711616656323756], [-112.09824902247955, 33.711616656323756], [-112.09824902247955, 33.71125733021011], [-112.09806935942272, 33.71125733021011], [-112.09806935942272, 33.711616656323756]]]}, "properties": {"name": "cand11", "ptype": "hall", "confidence": "low", "rank": 11, "area_ha": 2.7, "rise_db": 9.5, "digitised_from": "Sentinel-1 VV rise 2021->2026, orbit 27"}}, {"type": "Feature", "geometry": {"geodesic": false, "type": "Polygon", "coordinates": [[[-112.0820793473654, 33.71143699326693], [-112.0820793473654, 33.71125733021011], [-112.08225901042222, 33.71125733021011], [-112.08225901042222, 33.71107766715328], [-112.0820793473654, 33.71107766715328], [-112.0820793473654, 33.71089800409646], [-112.08225901042222, 33.71089800409646], [-112.08225901042222, 33.71071834103964], [-112.0820793473654, 33.71071834103964], [-112.0820793473654, 33.710359014925984], [-112.08064204291081, 33.710359014925984], [-112.08064204291081, 33.710179351869165], [-112.07992339068352, 33.710179351869165], [-112.07992339068352, 33.71089800409646], [-112.08028271679716, 33.71089800409646], [-112.08028271679716, 33.71071834103964], [-112.08046237985398, 33.71071834103964], [-112.08046237985398, 33.71053867798281], [-112.08064204291081, 33.71053867798281], [-112.08064204291081, 33.71089800409646], [-112.08046237985398, 33.71089800409646], [-112.08046237985398, 33.71107766715328], [-112.08028271679716, 33.71107766715328], [-112.08028271679716, 33.71125733021011], [-112.08064204291081, 33.71125733021011], [-112.08064204291081, 33.71143699326693], [-112.0820793473654, 33.71143699326693]]]}, "properties": {"name": "cand12", "ptype": "hall", "confidence": "low", "rank": 12, "area_ha": 2.6, "rise_db": 9.5, "digitised_from": "Sentinel-1 VV rise 2021->2026, orbit 27"}}, {"type": "Feature", "geometry": {"geodesic": false, "type": "Polygon", "coordinates": [[[-112.08243867347905, 33.701375862084795], [-112.08243867347905, 33.70101653597114], [-112.08261833653587, 33.70101653597114], [-112.08261833653587, 33.69957923151655], [-112.0827979995927, 33.69957923151655], [-112.0827979995927, 33.699219905402906], [-112.08261833653587, 33.699219905402906], [-112.08261833653587, 33.69868091623243], [-112.08243867347905, 33.69868091623243], [-112.08243867347905, 33.69850125317561], [-112.08225901042222, 33.69850125317561], [-112.08225901042222, 33.69868091623243], [-112.0820793473654, 33.69868091623243], [-112.0820793473654, 33.69886057928926], [-112.08189968430858, 33.69886057928926], [-112.08189968430858, 33.69975889457338], [-112.08172002125175, 33.69975889457338], [-112.08172002125175, 33.70029788374385], [-112.08189968430858, 33.70029788374385], [-112.08189968430858, 33.700118220687024], [-112.0820793473654, 33.700118220687024], [-112.0820793473654, 33.70047754680067], [-112.08189968430858, 33.70047754680067], [-112.08189968430858, 33.70083687291432], [-112.08172002125175, 33.70083687291432], [-112.08172002125175, 33.70101653597114], [-112.08154035819493, 33.70101653597114], [-112.08154035819493, 33.70119619902797], [-112.08172002125175, 33.70119619902797], [-112.08172002125175, 33.701375862084795], [-112.08243867347905, 33.701375862084795]]]}, "properties": {"name": "cand13", "ptype": "hall", "confidence": "low", "rank": 13, "area_ha": 2.6, "rise_db": 8.2, "digitised_from": "Sentinel-1 VV rise 2021->2026, orbit 27"}}, {"type": "Feature", "geometry": {"geodesic": false, "type": "Polygon", "coordinates": [[[-112.11082543645722, 33.725450711699196], [-112.11082543645722, 33.72527104864237], [-112.11100509951405, 33.72527104864237], [-112.11100509951405, 33.725450711699196], [-112.11208307785499, 33.725450711699196], [-112.11208307785499, 33.724911722528724], [-112.11262206702547, 33.724911722528724], [-112.11262206702547, 33.72509138558555], [-112.11226274091182, 33.72509138558555], [-112.11226274091182, 33.725450711699196], [-112.11316105619593, 33.725450711699196], [-112.11316105619593, 33.72527104864237], [-112.11334071925276, 33.72527104864237], [-112.11334071925276, 33.72509138558555], [-112.11352038230959, 33.72509138558555], [-112.11352038230959, 33.724911722528724], [-112.11334071925276, 33.724911722528724], [-112.11334071925276, 33.724193070301425], [-112.11298139313911, 33.724193070301425], [-112.11298139313911, 33.724911722528724], [-112.11316105619593, 33.724911722528724], [-112.11316105619593, 33.72509138558555], [-112.11298139313911, 33.72509138558555], [-112.11298139313911, 33.72527104864237], [-112.11280173008228, 33.72527104864237], [-112.11280173008228, 33.7247320594719], [-112.11262206702547, 33.7247320594719], [-112.11262206702547, 33.72455239641508], [-112.11226274091182, 33.72455239641508], [-112.11226274091182, 33.72437273335825], [-112.11280173008228, 33.72437273335825], [-112.11280173008228, 33.724013407244605], [-112.11262206702547, 33.724013407244605], [-112.11262206702547, 33.724193070301425], [-112.11190341479816, 33.724193070301425], [-112.11190341479816, 33.72437273335825], [-112.11172375174134, 33.72437273335825], [-112.11172375174134, 33.7247320594719], [-112.1113644256277, 33.7247320594719], [-112.1113644256277, 33.72455239641508], [-112.11118476257087, 33.72455239641508], [-112.11118476257087, 33.7247320594719], [-112.1113644256277, 33.7247320594719], [-112.1113644256277, 33.724911722528724], [-112.11190341479816, 33.724911722528724], [-112.11190341479816, 33.72509138558555], [-112.11172375174134, 33.72509138558555], [-112.11172375174134, 33.72527104864237], [-112.11154408868452, 33.72527104864237], [-112.11154408868452, 33.72509138558555], [-112.1106457734004, 33.72509138558555], [-112.1106457734004, 33.72455239641508], [-112.11028644728675, 33.72455239641508], [-112.11028644728675, 33.72509138558555], [-112.1106457734004, 33.72509138558555], [-112.1106457734004, 33.72527104864237], [-112.11046611034358, 33.72527104864237], [-112.11046611034358, 33.725450711699196], [-112.11082543645722, 33.725450711699196]], [[-112.11208307785499, 33.7247320594719], [-112.11226274091182, 33.7247320594719], [-112.11226274091182, 33.72455239641508], [-112.11208307785499, 33.72455239641508], [-112.11208307785499, 33.7247320594719]]]}, "properties": {"name": "cand14", "ptype": "hall", "confidence": "low", "rank": 14, "area_ha": 2.6, "rise_db": 9.4, "digitised_from": "Sentinel-1 VV rise 2021->2026, orbit 27"}}, {"type": "Feature", "geometry": {"geodesic": false, "type": "Polygon", "coordinates": [[[-112.09806935942272, 33.705148786278095], [-112.09806935942272, 33.70496912322127], [-112.09824902247955, 33.70496912322127], [-112.09824902247955, 33.70407080793715], [-112.09806935942272, 33.70407080793715], [-112.09806935942272, 33.70389114488032], [-112.09824902247955, 33.70389114488032], [-112.09824902247955, 33.702992829596205], [-112.09806935942272, 33.702992829596205], [-112.09806935942272, 33.70263350348256], [-112.09824902247955, 33.70263350348256], [-112.09824902247955, 33.70245384042573], [-112.09806935942272, 33.70245384042573], [-112.09806935942272, 33.70191485125526], [-112.09771003330908, 33.70191485125526], [-112.09771003330908, 33.70209451431209], [-112.09753037025226, 33.70209451431209], [-112.09753037025226, 33.702992829596205], [-112.09771003330908, 33.702992829596205], [-112.09771003330908, 33.70317249265303], [-112.09753037025226, 33.70317249265303], [-112.09753037025226, 33.70478946016445], [-112.09735070719543, 33.70478946016445], [-112.09735070719543, 33.70496912322127], [-112.09753037025226, 33.70496912322127], [-112.09753037025226, 33.705148786278095], [-112.09806935942272, 33.705148786278095]]]}, "properties": {"name": "cand15", "ptype": "hall", "confidence": "low", "rank": 15, "area_ha": 2.6, "rise_db": 11.3, "digitised_from": "Sentinel-1 VV rise 2021->2026, orbit 27"}}, {"type": "Feature", "geometry": {"geodesic": false, "type": "Polygon", "coordinates": [[[-112.08369631487682, 33.67119246853838], [-112.08369631487682, 33.67065347936791], [-112.08351665181999, 33.67065347936791], [-112.08351665181999, 33.670294153254254], [-112.08387597793364, 33.670294153254254], [-112.08387597793364, 33.67101280548155], [-112.08423530404728, 33.67101280548155], [-112.08423530404728, 33.67065347936791], [-112.08405564099046, 33.67065347936791], [-112.08405564099046, 33.67047381631108], [-112.08423530404728, 33.67047381631108], [-112.08423530404728, 33.66975516408378], [-112.08441496710411, 33.66975516408378], [-112.08441496710411, 33.67101280548155], [-112.08459463016094, 33.67101280548155], [-112.08459463016094, 33.67119246853838], [-112.08477429321776, 33.67119246853838], [-112.08477429321776, 33.67101280548155], [-112.08495395627459, 33.67101280548155], [-112.08495395627459, 33.67119246853838], [-112.0851336193314, 33.67119246853838], [-112.0851336193314, 33.67101280548155], [-112.08495395627459, 33.67101280548155], [-112.08495395627459, 33.67047381631108], [-112.08477429321776, 33.67047381631108], [-112.08477429321776, 33.670294153254254], [-112.08495395627459, 33.670294153254254], [-112.08495395627459, 33.66993482714061], [-112.0851336193314, 33.66993482714061], [-112.0851336193314, 33.670833142424726], [-112.08531328238823, 33.670833142424726], [-112.08531328238823, 33.66975516408378], [-112.08441496710411, 33.66975516408378], [-112.08441496710411, 33.66957550102696], [-112.08387597793364, 33.66957550102696], [-112.08387597793364, 33.66975516408378], [-112.08369631487682, 33.66975516408378], [-112.08369631487682, 33.66993482714061], [-112.08333698876316, 33.66993482714061], [-112.08333698876316, 33.670114490197435], [-112.08315732570634, 33.670114490197435], [-112.08315732570634, 33.67101280548155], [-112.08351665181999, 33.67101280548155], [-112.08351665181999, 33.67119246853838], [-112.08369631487682, 33.67119246853838]], [[-112.08369631487682, 33.670114490197435], [-112.08387597793364, 33.670114490197435], [-112.08387597793364, 33.66993482714061], [-112.08369631487682, 33.66993482714061], [-112.08369631487682, 33.670114490197435]]]}, "properties": {"name": "cand16", "ptype": "hall", "confidence": "low", "rank": 16, "area_ha": 2.5, "rise_db": 8.3, "digitised_from": "Sentinel-1 VV rise 2021->2026, orbit 27"}}, {"type": "Feature", "geometry": {"geodesic": false, "type": "Polygon", "coordinates": [[[-112.07956406456987, 33.70389114488032], [-112.07956406456987, 33.70353181876668], [-112.08010305374033, 33.70353181876668], [-112.08010305374033, 33.703711481823504], [-112.08028271679716, 33.703711481823504], [-112.08028271679716, 33.70389114488032], [-112.08064204291081, 33.70389114488032], [-112.08064204291081, 33.703711481823504], [-112.08082170596764, 33.703711481823504], [-112.08082170596764, 33.70335215570986], [-112.08046237985398, 33.70335215570986], [-112.08046237985398, 33.70317249265303], [-112.08028271679716, 33.70317249265303], [-112.08028271679716, 33.702992829596205], [-112.08082170596764, 33.702992829596205], [-112.08082170596764, 33.70245384042573], [-112.08046237985398, 33.70245384042573], [-112.08046237985398, 33.70227417736891], [-112.08028271679716, 33.70227417736891], [-112.08028271679716, 33.70245384042573], [-112.07938440151304, 33.70245384042573], [-112.07938440151304, 33.70209451431209], [-112.07920473845621, 33.70209451431209], [-112.07920473845621, 33.70245384042573], [-112.07938440151304, 33.70245384042573], [-112.07938440151304, 33.70263350348256], [-112.07974372762669, 33.70263350348256], [-112.07974372762669, 33.702813166539386], [-112.07938440151304, 33.702813166539386], [-112.07938440151304, 33.702992829596205], [-112.0790250753994, 33.702992829596205], [-112.0790250753994, 33.70353181876668], [-112.07920473845621, 33.70353181876668], [-112.07920473845621, 33.703711481823504], [-112.0790250753994, 33.703711481823504], [-112.0790250753994, 33.70389114488032], [-112.07956406456987, 33.70389114488032]]]}, "properties": {"name": "cand17", "ptype": "hall", "confidence": "low", "rank": 17, "area_ha": 2.4, "rise_db": 4.6, "digitised_from": "Sentinel-1 VV rise 2021->2026, orbit 27"}}, {"type": "Feature", "geometry": {"geodesic": false, "type": "Polygon", "coordinates": [[[-112.09914733776367, 33.70532844933492], [-112.09914733776367, 33.705148786278095], [-112.0993270008205, 33.705148786278095], [-112.0993270008205, 33.704430134050796], [-112.09914733776367, 33.704430134050796], [-112.09914733776367, 33.70407080793715], [-112.0993270008205, 33.70407080793715], [-112.0993270008205, 33.70335215570986], [-112.09914733776367, 33.70335215570986], [-112.09914733776367, 33.70317249265303], [-112.0993270008205, 33.70317249265303], [-112.0993270008205, 33.70209451431209], [-112.09896767470684, 33.70209451431209], [-112.09896767470684, 33.70227417736891], [-112.0986083485932, 33.70227417736891], [-112.0986083485932, 33.702813166539386], [-112.09878801165003, 33.702813166539386], [-112.09878801165003, 33.70317249265303], [-112.0986083485932, 33.70317249265303], [-112.0986083485932, 33.70389114488032], [-112.09878801165003, 33.70389114488032], [-112.09878801165003, 33.70460979710762], [-112.0986083485932, 33.70460979710762], [-112.0986083485932, 33.70478946016445], [-112.09878801165003, 33.70478946016445], [-112.09878801165003, 33.70532844933492], [-112.09914733776367, 33.70532844933492]]]}, "properties": {"name": "cand18", "ptype": "hall", "confidence": "low", "rank": 18, "area_ha": 2.3, "rise_db": 11.5, "digitised_from": "Sentinel-1 VV rise 2021->2026, orbit 27"}}, {"type": "Feature", "geometry": {"geodesic": false, "type": "Polygon", "coordinates": [[[-112.0941167721726, 33.7074844060168], [-112.0941167721726, 33.70712507990316], [-112.09429643522942, 33.70712507990316], [-112.09429643522942, 33.7074844060168], [-112.0948354243999, 33.7074844060168], [-112.0948354243999, 33.707304742959984], [-112.09501508745672, 33.707304742959984], [-112.09501508745672, 33.706586090732685], [-112.0948354243999, 33.706586090732685], [-112.0948354243999, 33.70640642767586], [-112.09465576134308, 33.70640642767586], [-112.09465576134308, 33.70622676461904], [-112.0948354243999, 33.70622676461904], [-112.0948354243999, 33.70604710156221], [-112.09465576134308, 33.70604710156221], [-112.09465576134308, 33.705867438505386], [-112.09375744605896, 33.705867438505386], [-112.09375744605896, 33.70676575378951], [-112.09357778300213, 33.70676575378951], [-112.09357778300213, 33.7074844060168], [-112.0941167721726, 33.7074844060168]], [[-112.09429643522942, 33.70712507990316], [-112.09447609828625, 33.70712507990316], [-112.09447609828625, 33.70694541684633], [-112.09429643522942, 33.70694541684633], [-112.09429643522942, 33.70712507990316]]]}, "properties": {"name": "cand19", "ptype": "hall", "confidence": "low", "rank": 19, "area_ha": 2.3, "rise_db": 10.8, "digitised_from": "Sentinel-1 VV rise 2021->2026, orbit 27"}}, {"type": "Feature", "geometry": {"geodesic": false, "type": "Polygon", "coordinates": [[[-112.10741183837757, 33.717545537198944], [-112.10741183837757, 33.71736587414212], [-112.1075915014344, 33.71736587414212], [-112.1075915014344, 33.7171862110853], [-112.10723217532075, 33.7171862110853], [-112.10723217532075, 33.71736587414212], [-112.1068728492071, 33.71736587414212], [-112.1068728492071, 33.7171862110853], [-112.10705251226392, 33.7171862110853], [-112.10705251226392, 33.71700654802847], [-112.1075915014344, 33.71700654802847], [-112.1075915014344, 33.716647221914826], [-112.10741183837757, 33.716647221914826], [-112.10741183837757, 33.71628789580117], [-112.10723217532075, 33.71628789580117], [-112.10723217532075, 33.716467558858], [-112.10705251226392, 33.716467558858], [-112.10705251226392, 33.716108232744354], [-112.10651352309345, 33.716108232744354], [-112.10651352309345, 33.71628789580117], [-112.10633386003663, 33.71628789580117], [-112.10633386003663, 33.71592856968753], [-112.10669318615028, 33.71592856968753], [-112.10669318615028, 33.7157489066307], [-112.1068728492071, 33.7157489066307], [-112.1068728492071, 33.715389580517055], [-112.10705251226392, 33.715389580517055], [-112.10705251226392, 33.71503025440341], [-112.1068728492071, 33.71503025440341], [-112.1068728492071, 33.71485059134658], [-112.10669318615028, 33.71485059134658], [-112.10669318615028, 33.715389580517055], [-112.10651352309345, 33.715389580517055], [-112.10651352309345, 33.7157489066307], [-112.1061541969798, 33.7157489066307], [-112.1061541969798, 33.71592856968753], [-112.10543554475251, 33.71592856968753], [-112.10543554475251, 33.71628789580117], [-112.1061541969798, 33.71628789580117], [-112.1061541969798, 33.716647221914826], [-112.10633386003663, 33.716647221914826], [-112.10633386003663, 33.71700654802847], [-112.10651352309345, 33.71700654802847], [-112.10651352309345, 33.71736587414212], [-112.1068728492071, 33.71736587414212], [-112.1068728492071, 33.717545537198944], [-112.10741183837757, 33.717545537198944]], [[-112.1068728492071, 33.71700654802847], [-112.10705251226392, 33.71700654802847], [-112.10705251226392, 33.716467558858], [-112.10651352309345, 33.716467558858], [-112.10651352309345, 33.716647221914826], [-112.10669318615028, 33.716647221914826], [-112.10669318615028, 33.716826884971645], [-112.1068728492071, 33.716826884971645], [-112.1068728492071, 33.71700654802847]]]}, "properties": {"name": "cand20", "ptype": "hall", "confidence": "low", "rank": 20, "area_ha": 2.2, "rise_db": 7.8, "digitised_from": "Sentinel-1 VV rise 2021->2026, orbit 27"}}, {"type": "Feature", "geometry": {"geodesic": false, "type": "Polygon", "coordinates": [[[-112.07597080343339, 33.69760293789149], [-112.07597080343339, 33.69742327483467], [-112.0761504664902, 33.69742327483467], [-112.0761504664902, 33.696345296493725], [-112.07597080343339, 33.696345296493725], [-112.07597080343339, 33.6961656334369], [-112.0761504664902, 33.6961656334369], [-112.0761504664902, 33.69598597038007], [-112.07597080343339, 33.69598597038007], [-112.07597080343339, 33.69544698120961], [-112.0761504664902, 33.69544698120961], [-112.0761504664902, 33.69526731815278], [-112.07597080343339, 33.69526731815278], [-112.07597080343339, 33.694907992039134], [-112.07579114037657, 33.694907992039134], [-112.07579114037657, 33.69472832898231], [-112.07561147731974, 33.69472832898231], [-112.07561147731974, 33.694907992039134], [-112.07543181426291, 33.694907992039134], [-112.07543181426291, 33.69742327483467], [-112.07579114037657, 33.69742327483467], [-112.07579114037657, 33.69760293789149], [-112.07597080343339, 33.69760293789149]]]}, "properties": {"name": "cand21", "ptype": "hall", "confidence": "low", "rank": 21, "area_ha": 2.1, "rise_db": 12.5, "digitised_from": "Sentinel-1 VV rise 2021->2026, orbit 27"}}, {"type": "Feature", "geometry": {"geodesic": false, "type": "Polygon", "coordinates": [[[-112.09232014160436, 33.70694541684633], [-112.09232014160436, 33.70676575378951], [-112.0933981199453, 33.70676575378951], [-112.0933981199453, 33.70622676461904], [-112.09357778300213, 33.70622676461904], [-112.09357778300213, 33.705867438505386], [-112.09249980466119, 33.705867438505386], [-112.09249980466119, 33.70604710156221], [-112.09160148937707, 33.70604710156221], [-112.09160148937707, 33.70640642767586], [-112.0917811524339, 33.70640642767586], [-112.0917811524339, 33.70676575378951], [-112.09214047854753, 33.70676575378951], [-112.09214047854753, 33.70694541684633], [-112.09232014160436, 33.70694541684633]]]}, "properties": {"name": "cand22", "ptype": "hall", "confidence": "low", "rank": 22, "area_ha": 1.8, "rise_db": 13.8, "digitised_from": "Sentinel-1 VV rise 2021->2026, orbit 27"}}, {"type": "Feature", "geometry": {"geodesic": false, "type": "Polygon", "coordinates": [[[-112.13687657969669, 33.71485059134658], [-112.13687657969669, 33.71467092828976], [-112.13759523192398, 33.71467092828976], [-112.13759523192398, 33.71449126523294], [-112.13777489498081, 33.71449126523294], [-112.13777489498081, 33.71413193911929], [-112.13723590581034, 33.71413193911929], [-112.13723590581034, 33.713952276062464], [-112.13687657969669, 33.713952276062464], [-112.13687657969669, 33.71377261300564], [-112.13669691663986, 33.71377261300564], [-112.13669691663986, 33.71359294994882], [-112.13687657969669, 33.71359294994882], [-112.13687657969669, 33.71323362383517], [-112.13669691663986, 33.71323362383517], [-112.13669691663986, 33.71359294994882], [-112.13633759052622, 33.71359294994882], [-112.13633759052622, 33.71341328689199], [-112.13651725358304, 33.71341328689199], [-112.13651725358304, 33.71323362383517], [-112.1361579274694, 33.71323362383517], [-112.1361579274694, 33.71341328689199], [-112.13597826441257, 33.71341328689199], [-112.13597826441257, 33.71359294994882], [-112.1361579274694, 33.71359294994882], [-112.1361579274694, 33.713952276062464], [-112.13633759052622, 33.713952276062464], [-112.13633759052622, 33.71413193911929], [-112.1361579274694, 33.71413193911929], [-112.1361579274694, 33.71431160217611], [-112.13633759052622, 33.71431160217611], [-112.13633759052622, 33.71449126523294], [-112.13651725358304, 33.71449126523294], [-112.13651725358304, 33.71467092828976], [-112.13669691663986, 33.71467092828976], [-112.13669691663986, 33.71485059134658], [-112.13687657969669, 33.71485059134658]]]}, "properties": {"name": "cand23", "ptype": "hall", "confidence": "low", "rank": 23, "area_ha": 1.7, "rise_db": 5.9, "digitised_from": "Sentinel-1 VV rise 2021->2026, orbit 27"}}, {"type": "Feature", "geometry": {"geodesic": false, "type": "Polygon", "coordinates": [[[-112.11765263261653, 33.72832532060838], [-112.11765263261653, 33.72814565755155], [-112.118191621787, 33.72814565755155], [-112.118191621787, 33.727786331437905], [-112.11873061095747, 33.727786331437905], [-112.11873061095747, 33.727606668381085], [-112.1189102740143, 33.727606668381085], [-112.1189102740143, 33.72724734226743], [-112.11855094790066, 33.72724734226743], [-112.11855094790066, 33.72706767921061], [-112.11837128484383, 33.72706767921061], [-112.11837128484383, 33.727606668381085], [-112.118191621787, 33.727606668381085], [-112.118191621787, 33.72688801615379], [-112.11801195873018, 33.72688801615379], [-112.11801195873018, 33.72670835309696], [-112.11783229567335, 33.72670835309696], [-112.11783229567335, 33.72688801615379], [-112.11729330650289, 33.72688801615379], [-112.11729330650289, 33.72742700532426], [-112.11801195873018, 33.72742700532426], [-112.11801195873018, 33.727606668381085], [-112.11783229567335, 33.727606668381085], [-112.11783229567335, 33.727786331437905], [-112.11765263261653, 33.727786331437905], [-112.11765263261653, 33.727606668381085], [-112.11747296955971, 33.727606668381085], [-112.11747296955971, 33.727786331437905], [-112.11729330650289, 33.727786331437905], [-112.11729330650289, 33.72814565755155], [-112.11747296955971, 33.72814565755155], [-112.11747296955971, 33.72832532060838], [-112.11765263261653, 33.72832532060838]]]}, "properties": {"name": "cand24", "ptype": "hall", "confidence": "low", "rank": 24, "area_ha": 1.6, "rise_db": 7.4, "digitised_from": "Sentinel-1 VV rise 2021->2026, orbit 27"}}, {"type": "Feature", "geometry": {"geodesic": false, "type": "Polygon", "coordinates": [[[-112.08387597793364, 33.70550811239174], [-112.08387597793364, 33.705148786278095], [-112.08369631487682, 33.705148786278095], [-112.08369631487682, 33.70389114488032], [-112.08351665181999, 33.70389114488032], [-112.08351665181999, 33.703711481823504], [-112.08315732570634, 33.703711481823504], [-112.08315732570634, 33.70389114488032], [-112.08297766264953, 33.70389114488032], [-112.08297766264953, 33.70407080793715], [-112.0827979995927, 33.70407080793715], [-112.0827979995927, 33.704250470993976], [-112.08297766264953, 33.704250470993976], [-112.08297766264953, 33.704430134050796], [-112.0827979995927, 33.704430134050796], [-112.0827979995927, 33.705148786278095], [-112.08297766264953, 33.705148786278095], [-112.08297766264953, 33.70532844933492], [-112.08333698876316, 33.70532844933492], [-112.08333698876316, 33.705148786278095], [-112.08369631487682, 33.705148786278095], [-112.08369631487682, 33.70532844933492], [-112.08351665181999, 33.70532844933492], [-112.08351665181999, 33.70550811239174], [-112.08387597793364, 33.70550811239174]]]}, "properties": {"name": "cand25", "ptype": "hall", "confidence": "low", "rank": 25, "area_ha": 1.6, "rise_db": 12.0, "digitised_from": "Sentinel-1 VV rise 2021->2026, orbit 27"}}, {"type": "Feature", "geometry": {"geodesic": false, "type": "Polygon", "coordinates": [[[-112.09106250020659, 33.67945696915228], [-112.09106250020659, 33.67873831692498], [-112.08926586963835, 33.67873831692498], [-112.08926586963835, 33.678917979981804], [-112.08944553269518, 33.678917979981804], [-112.08944553269518, 33.67909764303863], [-112.08926586963835, 33.67909764303863], [-112.08926586963835, 33.67945696915228], [-112.09106250020659, 33.67945696915228]]]}, "properties": {"name": "cand26", "ptype": "hall", "confidence": "low", "rank": 26, "area_ha": 1.6, "rise_db": 10.3, "digitised_from": "Sentinel-1 VV rise 2021->2026, orbit 27"}}, {"type": "Feature", "geometry": {"geodesic": false, "type": "Polygon", "coordinates": [[[-112.09124216326342, 33.697962264005135], [-112.09124216326342, 33.697782600948315], [-112.09142182632024, 33.697782600948315], [-112.09142182632024, 33.69760293789149], [-112.09124216326342, 33.69760293789149], [-112.09124216326342, 33.69742327483467], [-112.0903438479793, 33.69742327483467], [-112.0903438479793, 33.69724361177784], [-112.08980485880883, 33.69724361177784], [-112.08980485880883, 33.697063948721016], [-112.08998452186565, 33.697063948721016], [-112.08998452186565, 33.69670462260737], [-112.08980485880883, 33.69670462260737], [-112.08980485880883, 33.696524959550544], [-112.08944553269518, 33.696524959550544], [-112.08944553269518, 33.69724361177784], [-112.089625195752, 33.69724361177784], [-112.089625195752, 33.69742327483467], [-112.08980485880883, 33.69742327483467], [-112.08980485880883, 33.697962264005135], [-112.09124216326342, 33.697962264005135]]]}, "properties": {"name": "cand27", "ptype": "hall", "confidence": "low", "rank": 27, "area_ha": 1.6, "rise_db": 8.5, "digitised_from": "Sentinel-1 VV rise 2021->2026, orbit 27"}}, {"type": "Feature", "geometry": {"geodesic": false, "type": "Polygon", "coordinates": [[[-112.16975491909547, 33.64100907499196], [-112.16975491909547, 33.64082941193514], [-112.1699345821523, 33.64082941193514], [-112.1699345821523, 33.64047008582149], [-112.17029390826593, 33.64047008582149], [-112.17029390826593, 33.64082941193514], [-112.17047357132276, 33.64082941193514], [-112.17047357132276, 33.64064974887831], [-112.17065323437959, 33.64064974887831], [-112.17065323437959, 33.640290422764664], [-112.17083289743641, 33.640290422764664], [-112.17083289743641, 33.64047008582149], [-112.17101256049324, 33.64047008582149], [-112.17101256049324, 33.64082941193514], [-112.17119222355005, 33.64082941193514], [-112.17119222355005, 33.64047008582149], [-112.17137188660688, 33.64047008582149], [-112.17137188660688, 33.640290422764664], [-112.17173121272053, 33.640290422764664], [-112.17173121272053, 33.64047008582149], [-112.1715515496637, 33.64047008582149], [-112.1715515496637, 33.64064974887831], [-112.17173121272053, 33.64064974887831], [-112.17173121272053, 33.64082941193514], [-112.17191087577736, 33.64082941193514], [-112.17191087577736, 33.64064974887831], [-112.17209053883417, 33.64064974887831], [-112.17209053883417, 33.64011075970784], [-112.17047357132276, 33.64011075970784], [-112.17047357132276, 33.640290422764664], [-112.17029390826593, 33.640290422764664], [-112.17029390826593, 33.63993109665102], [-112.1701142452091, 33.63993109665102], [-112.1701142452091, 33.64011075970784], [-112.16975491909547, 33.64011075970784], [-112.16975491909547, 33.64047008582149], [-112.16957525603864, 33.64047008582149], [-112.16957525603864, 33.64064974887831], [-112.16939559298181, 33.64064974887831], [-112.16939559298181, 33.64082941193514], [-112.16957525603864, 33.64082941193514], [-112.16957525603864, 33.64100907499196], [-112.16975491909547, 33.64100907499196]]]}, "properties": {"name": "cand28", "ptype": "hall", "confidence": "low", "rank": 28, "area_ha": 1.5, "rise_db": 9.5, "digitised_from": "Sentinel-1 VV rise 2021->2026, orbit 27"}}, {"type": "Feature", "geometry": {"geodesic": false, "type": "Polygon", "coordinates": [[[-112.08046237985398, 33.69814192706196], [-112.08046237985398, 33.697962264005135], [-112.08100136902446, 33.697962264005135], [-112.08100136902446, 33.69760293789149], [-112.08082170596764, 33.69760293789149], [-112.08082170596764, 33.69742327483467], [-112.08100136902446, 33.69742327483467], [-112.08100136902446, 33.69724361177784], [-112.08082170596764, 33.69724361177784], [-112.08082170596764, 33.6968842856642], [-112.08064204291081, 33.6968842856642], [-112.08064204291081, 33.69670462260737], [-112.08046237985398, 33.69670462260737], [-112.08046237985398, 33.696524959550544], [-112.08064204291081, 33.696524959550544], [-112.08064204291081, 33.696345296493725], [-112.0813606951381, 33.696345296493725], [-112.0813606951381, 33.6961656334369], [-112.08082170596764, 33.6961656334369], [-112.08082170596764, 33.69598597038007], [-112.08028271679716, 33.69598597038007], [-112.08028271679716, 33.6968842856642], [-112.08010305374033, 33.6968842856642], [-112.08010305374033, 33.69724361177784], [-112.08028271679716, 33.69724361177784], [-112.08028271679716, 33.69814192706196], [-112.08046237985398, 33.69814192706196]]]}, "properties": {"name": "cand29", "ptype": "hall", "confidence": "low", "rank": 29, "area_ha": 1.5, "rise_db": 9.4, "digitised_from": "Sentinel-1 VV rise 2021->2026, orbit 27"}}, {"type": "Feature", "geometry": {"geodesic": false, "type": "Polygon", "coordinates": [[[-112.10741183837757, 33.715209917460236], [-112.10741183837757, 33.71503025440341], [-112.10795082754804, 33.71503025440341], [-112.10795082754804, 33.71467092828976], [-112.10813049060486, 33.71467092828976], [-112.10813049060486, 33.71503025440341], [-112.10848981671852, 33.71503025440341], [-112.10848981671852, 33.71485059134658], [-112.10866947977534, 33.71485059134658], [-112.10866947977534, 33.71467092828976], [-112.10848981671852, 33.71467092828976], [-112.10848981671852, 33.71377261300564], [-112.10795082754804, 33.71377261300564], [-112.10795082754804, 33.713952276062464], [-112.1075915014344, 33.713952276062464], [-112.1075915014344, 33.71413193911929], [-112.10741183837757, 33.71413193911929], [-112.10741183837757, 33.71503025440341], [-112.10723217532075, 33.71503025440341], [-112.10723217532075, 33.715209917460236], [-112.10741183837757, 33.715209917460236]]]}, "properties": {"name": "cand30", "ptype": "hall", "confidence": "low", "rank": 30, "area_ha": 1.5, "rise_db": 8.8, "digitised_from": "Sentinel-1 VV rise 2021->2026, orbit 27"}}, {"type": "Feature", "geometry": {"geodesic": false, "type": "Polygon", "coordinates": [[[-112.07992339068352, 33.69814192706196], [-112.07992339068352, 33.697782600948315], [-112.07956406456987, 33.697782600948315], [-112.07956406456987, 33.697063948721016], [-112.07974372762669, 33.697063948721016], [-112.07974372762669, 33.696524959550544], [-112.07992339068352, 33.696524959550544], [-112.07992339068352, 33.696345296493725], [-112.08010305374033, 33.696345296493725], [-112.08010305374033, 33.6961656334369], [-112.07920473845621, 33.6961656334369], [-112.07920473845621, 33.69742327483467], [-112.0790250753994, 33.69742327483467], [-112.0790250753994, 33.697962264005135], [-112.07920473845621, 33.697962264005135], [-112.07920473845621, 33.69814192706196], [-112.07992339068352, 33.69814192706196]]]}, "properties": {"name": "cand31", "ptype": "hall", "confidence": "low", "rank": 31, "area_ha": 1.5, "rise_db": 10.9, "digitised_from": "Sentinel-1 VV rise 2021->2026, orbit 27"}}, {"type": "Feature", "geometry": {"geodesic": false, "type": "Polygon", "coordinates": [[[-112.11926960012795, 33.69023675256171], [-112.11926960012795, 33.69005708950488], [-112.11944926318478, 33.69005708950488], [-112.11944926318478, 33.68969776339124], [-112.11926960012795, 33.68969776339124], [-112.11926960012795, 33.68951810033441], [-112.11908993707112, 33.68951810033441], [-112.11908993707112, 33.68933843727759], [-112.11873061095747, 33.68933843727759], [-112.11873061095747, 33.68951810033441], [-112.11855094790066, 33.68951810033441], [-112.11855094790066, 33.68969776339124], [-112.11837128484383, 33.68969776339124], [-112.11837128484383, 33.68951810033441], [-112.118191621787, 33.68951810033441], [-112.118191621787, 33.68933843727759], [-112.11783229567335, 33.68933843727759], [-112.11783229567335, 33.68951810033441], [-112.11765263261653, 33.68951810033441], [-112.11765263261653, 33.68969776339124], [-112.11783229567335, 33.68969776339124], [-112.11783229567335, 33.69005708950488], [-112.118191621787, 33.69005708950488], [-112.118191621787, 33.69023675256171], [-112.11926960012795, 33.69023675256171]]]}, "properties": {"name": "cand32", "ptype": "hall", "confidence": "low", "rank": 32, "area_ha": 1.4, "rise_db": 6.9, "digitised_from": "Sentinel-1 VV rise 2021->2026, orbit 27"}}, {"type": "Feature", "geometry": {"geodesic": false, "type": "Polygon", "coordinates": [[[-112.07686911871751, 33.70119619902797], [-112.07686911871751, 33.70101653597114], [-112.07722844483115, 33.70101653597114], [-112.07722844483115, 33.70083687291432], [-112.07704878177434, 33.70083687291432], [-112.07704878177434, 33.70029788374385], [-112.07686911871751, 33.70029788374385], [-112.07686911871751, 33.700118220687024], [-112.07668945566068, 33.700118220687024], [-112.07668945566068, 33.6999385576302], [-112.07633012954703, 33.6999385576302], [-112.07633012954703, 33.700118220687024], [-112.07579114037657, 33.700118220687024], [-112.07579114037657, 33.70029788374385], [-112.07561147731974, 33.70029788374385], [-112.07561147731974, 33.70047754680067], [-112.07579114037657, 33.70047754680067], [-112.07579114037657, 33.700657209857496], [-112.07597080343339, 33.700657209857496], [-112.07597080343339, 33.70083687291432], [-112.0761504664902, 33.70083687291432], [-112.0761504664902, 33.70101653597114], [-112.07668945566068, 33.70101653597114], [-112.07668945566068, 33.70119619902797], [-112.07686911871751, 33.70119619902797]]]}, "properties": {"name": "cand33", "ptype": "hall", "confidence": "low", "rank": 33, "area_ha": 1.4, "rise_db": 9.5, "digitised_from": "Sentinel-1 VV rise 2021->2026, orbit 27"}}, {"type": "Feature", "geometry": {"geodesic": false, "type": "Polygon", "coordinates": [[[-112.10112363138873, 33.70532844933492], [-112.10112363138873, 33.705148786278095], [-112.10130329444556, 33.705148786278095], [-112.10130329444556, 33.70496912322127], [-112.10112363138873, 33.70496912322127], [-112.10112363138873, 33.70460979710762], [-112.10166262055921, 33.70460979710762], [-112.10166262055921, 33.70407080793715], [-112.10148295750238, 33.70407080793715], [-112.10148295750238, 33.70389114488032], [-112.10112363138873, 33.70389114488032], [-112.10112363138873, 33.70407080793715], [-112.10022531610461, 33.70407080793715], [-112.10022531610461, 33.704430134050796], [-112.10076430527509, 33.704430134050796], [-112.10076430527509, 33.70478946016445], [-112.10058464221827, 33.70478946016445], [-112.10058464221827, 33.70532844933492], [-112.10112363138873, 33.70532844933492]]]}, "properties": {"name": "cand34", "ptype": "hall", "confidence": "low", "rank": 34, "area_ha": 1.4, "rise_db": 6.0, "digitised_from": "Sentinel-1 VV rise 2021->2026, orbit 27"}}, {"type": "Feature", "geometry": {"geodesic": false, "type": "Polygon", "coordinates": [[[-112.11603566510512, 33.72455239641508], [-112.11603566510512, 33.72437273335825], [-112.11621532816194, 33.72437273335825], [-112.11621532816194, 33.72455239641508], [-112.1165746542756, 33.72455239641508], [-112.1165746542756, 33.72383374418778], [-112.11639499121877, 33.72383374418778], [-112.11639499121877, 33.72365408113096], [-112.11621532816194, 33.72365408113096], [-112.11621532816194, 33.72347441807413], [-112.11603566510512, 33.72347441807413], [-112.11603566510512, 33.72365408113096], [-112.11585600204829, 33.72365408113096], [-112.11585600204829, 33.72347441807413], [-112.11549667593465, 33.72347441807413], [-112.11549667593465, 33.72365408113096], [-112.11531701287782, 33.72365408113096], [-112.11531701287782, 33.72437273335825], [-112.11549667593465, 33.72437273335825], [-112.11549667593465, 33.72455239641508], [-112.11603566510512, 33.72455239641508]]]}, "properties": {"name": "cand35", "ptype": "hall", "confidence": "low", "rank": 35, "area_ha": 1.4, "rise_db": 11.8, "digitised_from": "Sentinel-1 VV rise 2021->2026, orbit 27"}}, {"type": "Feature", "geometry": {"geodesic": false, "type": "Polygon", "coordinates": [[[-112.07489282509245, 33.6968842856642], [-112.07489282509245, 33.69670462260737], [-112.07507248814927, 33.69670462260737], [-112.07507248814927, 33.69580630732325], [-112.07489282509245, 33.69580630732325], [-112.07489282509245, 33.695626644266426], [-112.07507248814927, 33.695626644266426], [-112.07507248814927, 33.694907992039134], [-112.0745334989788, 33.694907992039134], [-112.0745334989788, 33.696345296493725], [-112.07435383592197, 33.696345296493725], [-112.07435383592197, 33.6968842856642], [-112.07489282509245, 33.6968842856642]]]}, "properties": {"name": "cand36", "ptype": "hall", "confidence": "low", "rank": 36, "area_ha": 1.4, "rise_db": 10.9, "digitised_from": "Sentinel-1 VV rise 2021->2026, orbit 27"}}, {"type": "Feature", "geometry": {"geodesic": false, "type": "Polygon", "coordinates": [[[-112.1106457734004, 33.69850125317561], [-112.1106457734004, 33.69832159011879], [-112.11082543645722, 33.69832159011879], [-112.11082543645722, 33.69760293789149], [-112.1106457734004, 33.69760293789149], [-112.1106457734004, 33.69742327483467], [-112.11082543645722, 33.69742327483467], [-112.11082543645722, 33.69724361177784], [-112.11118476257087, 33.69724361177784], [-112.11118476257087, 33.697063948721016], [-112.1113644256277, 33.697063948721016], [-112.1113644256277, 33.6968842856642], [-112.11154408868452, 33.6968842856642], [-112.11154408868452, 33.69670462260737], [-112.1106457734004, 33.69670462260737], [-112.1106457734004, 33.696524959550544], [-112.11046611034358, 33.696524959550544], [-112.11046611034358, 33.697063948721016], [-112.1106457734004, 33.697063948721016], [-112.1106457734004, 33.69724361177784], [-112.11028644728675, 33.69724361177784], [-112.11028644728675, 33.69742327483467], [-112.11010678422993, 33.69742327483467], [-112.11010678422993, 33.697782600948315], [-112.1099271211731, 33.697782600948315], [-112.1099271211731, 33.697962264005135], [-112.11010678422993, 33.697962264005135], [-112.11010678422993, 33.69832159011879], [-112.11046611034358, 33.69832159011879], [-112.11046611034358, 33.69850125317561], [-112.1106457734004, 33.69850125317561]], [[-112.11082543645722, 33.697063948721016], [-112.11100509951405, 33.697063948721016], [-112.11100509951405, 33.6968842856642], [-112.11082543645722, 33.6968842856642], [-112.11082543645722, 33.697063948721016]], [[-112.11028644728675, 33.69814192706196], [-112.11046611034358, 33.69814192706196], [-112.11046611034358, 33.697962264005135], [-112.1106457734004, 33.697962264005135], [-112.1106457734004, 33.69760293789149], [-112.11046611034358, 33.69760293789149], [-112.11046611034358, 33.697782600948315], [-112.11028644728675, 33.697782600948315], [-112.11028644728675, 33.69814192706196]]]}, "properties": {"name": "cand37", "ptype": "hall", "confidence": "low", "rank": 37, "area_ha": 1.4, "rise_db": 8.4, "digitised_from": "Sentinel-1 VV rise 2021->2026, orbit 27"}}, {"type": "Feature", "geometry": {"geodesic": false, "type": "Polygon", "coordinates": [[[-112.0820793473654, 33.69814192706196], [-112.0820793473654, 33.697962264005135], [-112.08225901042222, 33.697962264005135], [-112.08225901042222, 33.697782600948315], [-112.08243867347905, 33.697782600948315], [-112.08243867347905, 33.69760293789149], [-112.08225901042222, 33.69760293789149], [-112.08225901042222, 33.697782600948315], [-112.0820793473654, 33.697782600948315], [-112.0820793473654, 33.697063948721016], [-112.08189968430858, 33.697063948721016], [-112.08189968430858, 33.696345296493725], [-112.08225901042222, 33.696345296493725], [-112.08225901042222, 33.696524959550544], [-112.08243867347905, 33.696524959550544], [-112.08243867347905, 33.696345296493725], [-112.08261833653587, 33.696345296493725], [-112.08261833653587, 33.6961656334369], [-112.08154035819493, 33.6961656334369], [-112.08154035819493, 33.69724361177784], [-112.08172002125175, 33.69724361177784], [-112.08172002125175, 33.69742327483467], [-112.08154035819493, 33.69742327483467], [-112.08154035819493, 33.697782600948315], [-112.08172002125175, 33.697782600948315], [-112.08172002125175, 33.697962264005135], [-112.08154035819493, 33.697962264005135], [-112.08154035819493, 33.69814192706196], [-112.0820793473654, 33.69814192706196]]]}, "properties": {"name": "cand38", "ptype": "hall", "confidence": "low", "rank": 38, "area_ha": 1.3, "rise_db": 9.7, "digitised_from": "Sentinel-1 VV rise 2021->2026, orbit 27"}}, {"type": "Feature", "geometry": {"geodesic": false, "type": "Polygon", "coordinates": [[[-112.08010305374033, 33.707304742959984], [-112.08010305374033, 33.70712507990316], [-112.08028271679716, 33.70712507990316], [-112.08028271679716, 33.70694541684633], [-112.08010305374033, 33.70694541684633], [-112.08010305374033, 33.70712507990316], [-112.07992339068352, 33.70712507990316], [-112.07992339068352, 33.70640642767586], [-112.08028271679716, 33.70640642767586], [-112.08028271679716, 33.70622676461904], [-112.08010305374033, 33.70622676461904], [-112.08010305374033, 33.70604710156221], [-112.07920473845621, 33.70604710156221], [-112.07920473845621, 33.707304742959984], [-112.08010305374033, 33.707304742959984]]]}, "properties": {"name": "cand39", "ptype": "hall", "confidence": "low", "rank": 39, "area_ha": 1.3, "rise_db": 8.0, "digitised_from": "Sentinel-1 VV rise 2021->2026, orbit 27"}}, {"type": "Feature", "geometry": {"geodesic": false, "type": "Polygon", "coordinates": [[[-112.09914733776367, 33.70928103658505], [-112.09914733776367, 33.70910137352822], [-112.09950666387732, 33.70910137352822], [-112.09950666387732, 33.708921710471394], [-112.09968632693415, 33.708921710471394], [-112.09968632693415, 33.70856238435775], [-112.09950666387732, 33.70856238435775], [-112.09950666387732, 33.70838272130092], [-112.09824902247955, 33.70838272130092], [-112.09824902247955, 33.70910137352822], [-112.0986083485932, 33.70910137352822], [-112.0986083485932, 33.70928103658505], [-112.09914733776367, 33.70928103658505]]]}, "properties": {"name": "cand40", "ptype": "hall", "confidence": "low", "rank": 40, "area_ha": 1.3, "rise_db": 10.5, "digitised_from": "Sentinel-1 VV rise 2021->2026, orbit 27"}}, {"type": "Feature", "geometry": {"geodesic": false, "type": "Polygon", "coordinates": [[[-112.09124216326342, 33.7126946346647], [-112.09124216326342, 33.712514971607874], [-112.09142182632024, 33.712514971607874], [-112.09142182632024, 33.71233530855105], [-112.09124216326342, 33.71233530855105], [-112.09124216326342, 33.71215564549423], [-112.09142182632024, 33.71215564549423], [-112.09142182632024, 33.7119759824374], [-112.09124216326342, 33.7119759824374], [-112.09124216326342, 33.711796319380575], [-112.09088283714978, 33.711796319380575], [-112.09088283714978, 33.711616656323756], [-112.09070317409295, 33.711616656323756], [-112.09070317409295, 33.711796319380575], [-112.0903438479793, 33.711796319380575], [-112.0903438479793, 33.7119759824374], [-112.09016418492247, 33.7119759824374], [-112.09016418492247, 33.7126946346647], [-112.09124216326342, 33.7126946346647]]]}, "properties": {"name": "cand41", "ptype": "hall", "confidence": "low", "rank": 41, "area_ha": 1.3, "rise_db": 9.5, "digitised_from": "Sentinel-1 VV rise 2021->2026, orbit 27"}}, {"type": "Feature", "geometry": {"geodesic": false, "type": "Polygon", "coordinates": [[[-112.13507994912845, 33.671551794652025], [-112.13507994912845, 33.6713721315952], [-112.1354392752421, 33.6713721315952], [-112.1354392752421, 33.67119246853838], [-112.13579860135575, 33.67119246853838], [-112.13579860135575, 33.67101280548155], [-112.13597826441257, 33.67101280548155], [-112.13597826441257, 33.670294153254254], [-112.13579860135575, 33.670294153254254], [-112.13579860135575, 33.67047381631108], [-112.13561893829892, 33.67047381631108], [-112.13561893829892, 33.670294153254254], [-112.13507994912845, 33.670294153254254], [-112.13507994912845, 33.670114490197435], [-112.13490028607163, 33.670114490197435], [-112.13490028607163, 33.670294153254254], [-112.1347206230148, 33.670294153254254], [-112.1347206230148, 33.67047381631108], [-112.13490028607163, 33.67047381631108], [-112.13490028607163, 33.671551794652025], [-112.13507994912845, 33.671551794652025]], [[-112.1354392752421, 33.67065347936791], [-112.13561893829892, 33.67065347936791], [-112.13561893829892, 33.67047381631108], [-112.1354392752421, 33.67047381631108], [-112.1354392752421, 33.67065347936791]], [[-112.13507994912845, 33.67101280548155], [-112.13525961218528, 33.67101280548155], [-112.13525961218528, 33.670833142424726], [-112.1354392752421, 33.670833142424726], [-112.1354392752421, 33.67065347936791], [-112.13507994912845, 33.67065347936791], [-112.13507994912845, 33.67101280548155]]]}, "properties": {"name": "cand42", "ptype": "hall", "confidence": "low", "rank": 42, "area_ha": 1.2, "rise_db": 6.9, "digitised_from": "Sentinel-1 VV rise 2021->2026, orbit 27"}}, {"type": "Feature", "geometry": {"geodesic": false, "type": "Polygon", "coordinates": [[[-112.11711364344606, 33.63202592215077], [-112.11711364344606, 33.63184625909394], [-112.11729330650289, 33.63184625909394], [-112.11729330650289, 33.63130726992347], [-112.11747296955971, 33.63130726992347], [-112.11747296955971, 33.63112760686665], [-112.11765263261653, 33.63112760686665], [-112.11765263261653, 33.63130726992347], [-112.11783229567335, 33.63130726992347], [-112.11783229567335, 33.63112760686665], [-112.11801195873018, 33.63112760686665], [-112.11801195873018, 33.630588617696176], [-112.11783229567335, 33.630588617696176], [-112.11783229567335, 33.63040895463935], [-112.11711364344606, 33.63040895463935], [-112.11711364344606, 33.63130726992347], [-112.11693398038923, 33.63130726992347], [-112.11693398038923, 33.63202592215077], [-112.11711364344606, 33.63202592215077]]]}, "properties": {"name": "cand43", "ptype": "hall", "confidence": "low", "rank": 43, "area_ha": 1.2, "rise_db": 8.5, "digitised_from": "Sentinel-1 VV rise 2021->2026, orbit 27"}}, {"type": "Feature", "geometry": {"geodesic": false, "type": "Polygon", "coordinates": [[[-112.06680798753537, 33.69814192706196], [-112.06680798753537, 33.697962264005135], [-112.0669876505922, 33.697962264005135], [-112.0669876505922, 33.6968842856642], [-112.06680798753537, 33.6968842856642], [-112.06680798753537, 33.69670462260737], [-112.06644866142172, 33.69670462260737], [-112.06644866142172, 33.6968842856642], [-112.06626899836489, 33.6968842856642], [-112.06626899836489, 33.69814192706196], [-112.06680798753537, 33.69814192706196]]]}, "properties": {"name": "cand44", "ptype": "hall", "confidence": "low", "rank": 44, "area_ha": 1.2, "rise_db": 8.6, "digitised_from": "Sentinel-1 VV rise 2021->2026, orbit 27"}}, {"type": "Feature", "geometry": {"geodesic": false, "type": "Polygon", "coordinates": [[[-112.11190341479816, 33.69832159011879], [-112.11190341479816, 33.69814192706196], [-112.11208307785499, 33.69814192706196], [-112.11208307785499, 33.697962264005135], [-112.11226274091182, 33.697962264005135], [-112.11226274091182, 33.69814192706196], [-112.11244240396864, 33.69814192706196], [-112.11244240396864, 33.697782600948315], [-112.11262206702547, 33.697782600948315], [-112.11262206702547, 33.6968842856642], [-112.11244240396864, 33.6968842856642], [-112.11244240396864, 33.69724361177784], [-112.11226274091182, 33.69724361177784], [-112.11226274091182, 33.69742327483467], [-112.11208307785499, 33.69742327483467], [-112.11208307785499, 33.69760293789149], [-112.11172375174134, 33.69760293789149], [-112.11172375174134, 33.697782600948315], [-112.11190341479816, 33.697782600948315], [-112.11190341479816, 33.697962264005135], [-112.11172375174134, 33.697962264005135], [-112.11172375174134, 33.69814192706196], [-112.11154408868452, 33.69814192706196], [-112.11154408868452, 33.69760293789149], [-112.11118476257087, 33.69760293789149], [-112.11118476257087, 33.697782600948315], [-112.11100509951405, 33.697782600948315], [-112.11100509951405, 33.697962264005135], [-112.1113644256277, 33.697962264005135], [-112.1113644256277, 33.69814192706196], [-112.11100509951405, 33.69814192706196], [-112.11100509951405, 33.69832159011879], [-112.11190341479816, 33.69832159011879]]]}, "properties": {"name": "cand45", "ptype": "hall", "confidence": "low", "rank": 45, "area_ha": 1.2, "rise_db": 8.2, "digitised_from": "Sentinel-1 VV rise 2021->2026, orbit 27"}}, {"type": "Feature", "geometry": {"geodesic": false, "type": "Polygon", "coordinates": [[[-112.07255720535373, 33.686823154482056], [-112.07255720535373, 33.68448753474335], [-112.0723775422969, 33.68448753474335], [-112.0723775422969, 33.684128208629694], [-112.07219787924008, 33.684128208629694], [-112.07219787924008, 33.686823154482056], [-112.07255720535373, 33.686823154482056]]]}, "properties": {"name": "cand46", "ptype": "hall", "confidence": "low", "rank": 46, "area_ha": 1.1, "rise_db": 8.9, "digitised_from": "Sentinel-1 VV rise 2021->2026, orbit 27"}}, {"type": "Feature", "geometry": {"geodesic": false, "type": "Polygon", "coordinates": [[[-112.0978896963659, 33.70640642767586], [-112.0978896963659, 33.70604710156221], [-112.09806935942272, 33.70604710156221], [-112.09806935942272, 33.705867438505386], [-112.0978896963659, 33.705867438505386], [-112.0978896963659, 33.70568777544857], [-112.09771003330908, 33.70568777544857], [-112.09771003330908, 33.705867438505386], [-112.09627272885449, 33.705867438505386], [-112.09627272885449, 33.70622676461904], [-112.09645239191131, 33.70622676461904], [-112.09645239191131, 33.70640642767586], [-112.0978896963659, 33.70640642767586]]]}, "properties": {"name": "cand47", "ptype": "hall", "confidence": "low", "rank": 47, "area_ha": 1.1, "rise_db": 11.6, "digitised_from": "Sentinel-1 VV rise 2021->2026, orbit 27"}}, {"type": "Feature", "geometry": {"geodesic": false, "type": "Polygon", "coordinates": [[[-112.1075915014344, 33.72383374418778], [-112.1075915014344, 33.72347441807413], [-112.10723217532075, 33.72347441807413], [-112.10723217532075, 33.72329475501731], [-112.10741183837757, 33.72329475501731], [-112.10741183837757, 33.72311509196049], [-112.10705251226392, 33.72311509196049], [-112.10705251226392, 33.72329475501731], [-112.1068728492071, 33.72329475501731], [-112.1068728492071, 33.72293542890366], [-112.10669318615028, 33.72293542890366], [-112.10669318615028, 33.72329475501731], [-112.10651352309345, 33.72329475501731], [-112.10651352309345, 33.72311509196049], [-112.10633386003663, 33.72311509196049], [-112.10633386003663, 33.72293542890366], [-112.1061541969798, 33.72293542890366], [-112.1061541969798, 33.72347441807413], [-112.10579487086615, 33.72347441807413], [-112.10579487086615, 33.72329475501731], [-112.10597453392297, 33.72329475501731], [-112.10597453392297, 33.72311509196049], [-112.10561520780934, 33.72311509196049], [-112.10561520780934, 33.72329475501731], [-112.10525588169568, 33.72329475501731], [-112.10525588169568, 33.72365408113096], [-112.1061541969798, 33.72365408113096], [-112.1061541969798, 33.72347441807413], [-112.10633386003663, 33.72347441807413], [-112.10633386003663, 33.72329475501731], [-112.10651352309345, 33.72329475501731], [-112.10651352309345, 33.72347441807413], [-112.10669318615028, 33.72347441807413], [-112.10669318615028, 33.72365408113096], [-112.10741183837757, 33.72365408113096], [-112.10741183837757, 33.72383374418778], [-112.1075915014344, 33.72383374418778]]]}, "properties": {"name": "cand48", "ptype": "hall", "confidence": "low", "rank": 48, "area_ha": 1.1, "rise_db": 8.8, "digitised_from": "Sentinel-1 VV rise 2021->2026, orbit 27"}}, {"type": "Feature", "geometry": {"geodesic": false, "type": "Polygon", "coordinates": [[[-112.04722471434157, 33.6916740570163], [-112.04722471434157, 33.69149439395948], [-112.04740437739838, 33.69149439395948], [-112.04740437739838, 33.691314730902654], [-112.04722471434157, 33.691314730902654], [-112.04722471434157, 33.690416415618536], [-112.04704505128474, 33.690416415618536], [-112.04704505128474, 33.69023675256171], [-112.04668572517109, 33.69023675256171], [-112.04668572517109, 33.690416415618536], [-112.04650606211426, 33.690416415618536], [-112.04650606211426, 33.69077574173218], [-112.04668572517109, 33.69077574173218], [-112.04668572517109, 33.691314730902654], [-112.04650606211426, 33.691314730902654], [-112.04650606211426, 33.69149439395948], [-112.04668572517109, 33.69149439395948], [-112.04668572517109, 33.6916740570163], [-112.04722471434157, 33.6916740570163]]]}, "properties": {"name": "cand49", "ptype": "hall", "confidence": "low", "rank": 49, "area_ha": 1.1, "rise_db": 6.8, "digitised_from": "Sentinel-1 VV rise 2021->2026, orbit 27"}}, {"type": "Feature", "geometry": {"geodesic": false, "type": "Polygon", "coordinates": [[[-112.10561520780934, 33.68215191500463], [-112.10561520780934, 33.681073936663694], [-112.10543554475251, 33.681073936663694], [-112.10543554475251, 33.68089427360687], [-112.10471689252522, 33.68089427360687], [-112.10471689252522, 33.68143326277734], [-112.10489655558203, 33.68143326277734], [-112.10489655558203, 33.68161292583416], [-112.10507621863886, 33.68161292583416], [-112.10507621863886, 33.681792588890985], [-112.10525588169568, 33.681792588890985], [-112.10525588169568, 33.68197225194781], [-112.10507621863886, 33.68197225194781], [-112.10507621863886, 33.68215191500463], [-112.10561520780934, 33.68215191500463]]]}, "properties": {"name": "cand50", "ptype": "hall", "confidence": "low", "rank": 50, "area_ha": 1.0, "rise_db": 8.6, "digitised_from": "Sentinel-1 VV rise 2021->2026, orbit 27"}}, {"type": "Feature", "geometry": {"geodesic": false, "type": "Polygon", "coordinates": [[[-112.10327958807062, 33.72347441807413], [-112.10327958807062, 33.72329475501731], [-112.10345925112745, 33.72329475501731], [-112.10345925112745, 33.72293542890366], [-112.10381857724109, 33.72293542890366], [-112.10381857724109, 33.722755765846834], [-112.10435756641157, 33.722755765846834], [-112.10435756641157, 33.722576102790015], [-112.10417790335474, 33.722576102790015], [-112.10417790335474, 33.72239643973319], [-112.10435756641157, 33.72239643973319], [-112.10435756641157, 33.72221677667636], [-112.10453722946839, 33.72221677667636], [-112.10453722946839, 33.72203711361954], [-112.10417790335474, 33.72203711361954], [-112.10417790335474, 33.721857450562716], [-112.10399824029791, 33.721857450562716], [-112.10399824029791, 33.72203711361954], [-112.10417790335474, 33.72203711361954], [-112.10417790335474, 33.72221677667636], [-112.10399824029791, 33.72221677667636], [-112.10399824029791, 33.72239643973319], [-112.10363891418427, 33.72239643973319], [-112.10363891418427, 33.722576102790015], [-112.10345925112745, 33.722576102790015], [-112.10345925112745, 33.72293542890366], [-112.10327958807062, 33.72293542890366], [-112.10327958807062, 33.72311509196049], [-112.1030999250138, 33.72311509196049], [-112.1030999250138, 33.722755765846834], [-112.10292026195697, 33.722755765846834], [-112.10292026195697, 33.72293542890366], [-112.10256093584333, 33.72293542890366], [-112.10256093584333, 33.72311509196049], [-112.10274059890016, 33.72311509196049], [-112.10274059890016, 33.72347441807413], [-112.10327958807062, 33.72347441807413]], [[-112.10363891418427, 33.722755765846834], [-112.10381857724109, 33.722755765846834], [-112.10381857724109, 33.722576102790015], [-112.10363891418427, 33.722576102790015], [-112.10363891418427, 33.722755765846834]]]}, "properties": {"name": "cand51", "ptype": "hall", "confidence": "low", "rank": 51, "area_ha": 1.0, "rise_db": 8.5, "digitised_from": "Sentinel-1 VV rise 2021->2026, orbit 27"}}, {"type": "Feature", "geometry": {"geodesic": false, "type": "Polygon", "coordinates": [[[-112.17280919106148, 33.64082941193514], [-112.17280919106148, 33.64064974887831], [-112.1729888541183, 33.64064974887831], [-112.1729888541183, 33.64047008582149], [-112.17280919106148, 33.64047008582149], [-112.17280919106148, 33.640290422764664], [-112.17316851717511, 33.640290422764664], [-112.17316851717511, 33.64082941193514], [-112.17334818023194, 33.64082941193514], [-112.17334818023194, 33.64064974887831], [-112.17352784328877, 33.64064974887831], [-112.17352784328877, 33.64011075970784], [-112.17334818023194, 33.64011075970784], [-112.17334818023194, 33.63993109665102], [-112.17316851717511, 33.63993109665102], [-112.17316851717511, 33.63975143359419], [-112.1729888541183, 33.63975143359419], [-112.1729888541183, 33.63993109665102], [-112.17262952800465, 33.63993109665102], [-112.17262952800465, 33.63975143359419], [-112.17244986494782, 33.63975143359419], [-112.17244986494782, 33.63993109665102], [-112.17262952800465, 33.63993109665102], [-112.17262952800465, 33.64011075970784], [-112.17244986494782, 33.64011075970784], [-112.17244986494782, 33.64047008582149], [-112.172270201891, 33.64047008582149], [-112.172270201891, 33.64064974887831], [-112.17244986494782, 33.64064974887831], [-112.17244986494782, 33.64082941193514], [-112.17280919106148, 33.64082941193514]]]}, "properties": {"name": "cand52", "ptype": "hall", "confidence": "low", "rank": 52, "area_ha": 1.0, "rise_db": 10.5, "digitised_from": "Sentinel-1 VV rise 2021->2026, orbit 27"}}, {"type": "Feature", "geometry": {"geodesic": false, "type": "Polygon", "coordinates": [[[-112.09645239191131, 33.67730101247039], [-112.09645239191131, 33.676582360243096], [-112.09609306579766, 33.676582360243096], [-112.09609306579766, 33.676762023299915], [-112.09573373968402, 33.676762023299915], [-112.09573373968402, 33.676582360243096], [-112.09519475051354, 33.676582360243096], [-112.09519475051354, 33.676762023299915], [-112.0948354243999, 33.676762023299915], [-112.0948354243999, 33.67712134941357], [-112.09609306579766, 33.67712134941357], [-112.09609306579766, 33.67730101247039], [-112.09645239191131, 33.67730101247039]]]}, "properties": {"name": "cand53", "ptype": "hall", "confidence": "low", "rank": 53, "area_ha": 1.0, "rise_db": 9.4, "digitised_from": "Sentinel-1 VV rise 2021->2026, orbit 27"}}, {"type": "Feature", "geometry": {"geodesic": false, "type": "Polygon", "coordinates": [[[-112.08621159767235, 33.685565513084285], [-112.08621159767235, 33.68520618697064], [-112.08603193461552, 33.68520618697064], [-112.08603193461552, 33.683948545572875], [-112.08567260850188, 33.683948545572875], [-112.08567260850188, 33.684128208629694], [-112.08549294544505, 33.684128208629694], [-112.08549294544505, 33.68520618697064], [-112.08567260850188, 33.68520618697064], [-112.08567260850188, 33.685385850027465], [-112.08585227155871, 33.685385850027465], [-112.08585227155871, 33.685565513084285], [-112.08621159767235, 33.685565513084285]]]}, "properties": {"name": "cand54", "ptype": "hall", "confidence": "low", "rank": 54, "area_ha": 1.0, "rise_db": 9.5, "digitised_from": "Sentinel-1 VV rise 2021->2026, orbit 27"}}, {"type": "Feature", "geometry": {"geodesic": false, "type": "Polygon", "coordinates": [[[-112.10327958807062, 33.71485059134658], [-112.10327958807062, 33.71449126523294], [-112.1030999250138, 33.71449126523294], [-112.1030999250138, 33.71431160217611], [-112.10327958807062, 33.71431160217611], [-112.10327958807062, 33.71413193911929], [-112.1030999250138, 33.71413193911929], [-112.1030999250138, 33.713952276062464], [-112.10274059890016, 33.713952276062464], [-112.10274059890016, 33.71431160217611], [-112.1023812727865, 33.71431160217611], [-112.1023812727865, 33.71449126523294], [-112.10202194667285, 33.71449126523294], [-112.10202194667285, 33.71431160217611], [-112.10184228361602, 33.71431160217611], [-112.10184228361602, 33.71413193911929], [-112.10148295750238, 33.71413193911929], [-112.10148295750238, 33.71431160217611], [-112.10130329444556, 33.71431160217611], [-112.10130329444556, 33.71449126523294], [-112.10148295750238, 33.71449126523294], [-112.10148295750238, 33.71467092828976], [-112.1023812727865, 33.71467092828976], [-112.1023812727865, 33.71449126523294], [-112.10274059890016, 33.71449126523294], [-112.10274059890016, 33.71485059134658], [-112.10327958807062, 33.71485059134658]], [[-112.10274059890016, 33.71449126523294], [-112.10292026195697, 33.71449126523294], [-112.10292026195697, 33.71431160217611], [-112.10274059890016, 33.71431160217611], [-112.10274059890016, 33.71449126523294]]]}, "properties": {"name": "cand55", "ptype": "hall", "confidence": "low", "rank": 55, "area_ha": 1.0, "rise_db": 6.6, "digitised_from": "Sentinel-1 VV rise 2021->2026, orbit 27"}}]}