{"type": "FeatureCollection", "features": [{"type": "Feature", "geometry": {"geodesic": false, "type": "Polygon", "coordinates": [[[-89.42566956658695, 35.420751315889554], [-89.42566956658695, 35.420571652832734], [-89.42584922964377, 35.420571652832734], [-89.42584922964377, 35.419853000605436], [-89.42566956658695, 35.419853000605436], [-89.42566956658695, 35.41967333754861], [-89.42548990353012, 35.41967333754861], [-89.42548990353012, 35.41949367449179], [-89.42566956658695, 35.41949367449179], [-89.42566956658695, 35.419134348378144], [-89.42584922964377, 35.419134348378144], [-89.42584922964377, 35.41895468532132], [-89.4260288927006, 35.41895468532132], [-89.4260288927006, 35.41877502226449], [-89.42584922964377, 35.41877502226449], [-89.42584922964377, 35.418415696150845], [-89.42566956658695, 35.418415696150845], [-89.42566956658695, 35.41823603309402], [-89.42548990353012, 35.41823603309402], [-89.42548990353012, 35.41751738086673], [-89.42566956658695, 35.41751738086673], [-89.42566956658695, 35.416978391696254], [-89.42548990353012, 35.416978391696254], [-89.42548990353012, 35.41679872863943], [-89.42477125130283, 35.41679872863943], [-89.42477125130283, 35.41661906558261], [-89.42441192518918, 35.41661906558261], [-89.42441192518918, 35.41643940252578], [-89.42405259907554, 35.41643940252578], [-89.42405259907554, 35.41661906558261], [-89.42135765322317, 35.41661906558261], [-89.42135765322317, 35.41679872863943], [-89.42045933793905, 35.41679872863943], [-89.42045933793905, 35.41661906558261], [-89.42010001182541, 35.41661906558261], [-89.42010001182541, 35.41643940252578], [-89.41992034876858, 35.41643940252578], [-89.41992034876858, 35.416259739468956], [-89.42045933793905, 35.416259739468956], [-89.42045933793905, 35.416080076412136], [-89.41866270737081, 35.416080076412136], [-89.41866270737081, 35.416259739468956], [-89.41974068571176, 35.416259739468956], [-89.41974068571176, 35.41661906558261], [-89.41884237042764, 35.41661906558261], [-89.41884237042764, 35.41679872863943], [-89.41830338125718, 35.41679872863943], [-89.41830338125718, 35.41661906558261], [-89.41740506597304, 35.41661906558261], [-89.41740506597304, 35.41679872863943], [-89.41686607680258, 35.41679872863943], [-89.41686607680258, 35.41661906558261], [-89.41668641374575, 35.41661906558261], [-89.41668641374575, 35.416259739468956], [-89.41686607680258, 35.416259739468956], [-89.41686607680258, 35.416080076412136], [-89.41578809846163, 35.416080076412136], [-89.41578809846163, 35.416259739468956], [-89.41614742457529, 35.416259739468956], [-89.41614742457529, 35.41643940252578], [-89.41632708763211, 35.41643940252578], [-89.41632708763211, 35.41661906558261], [-89.41614742457529, 35.41661906558261], [-89.41614742457529, 35.41679872863943], [-89.41524910929117, 35.41679872863943], [-89.41524910929117, 35.41661906558261], [-89.41471012012069, 35.41661906558261], [-89.41471012012069, 35.41643940252578], [-89.41435079400705, 35.41643940252578], [-89.41435079400705, 35.41661906558261], [-89.41417113095022, 35.41661906558261], [-89.41417113095022, 35.41679872863943], [-89.41381180483657, 35.41679872863943], [-89.41381180483657, 35.41661906558261], [-89.41345247872292, 35.41661906558261], [-89.41345247872292, 35.41679872863943], [-89.41309315260928, 35.41679872863943], [-89.41309315260928, 35.41715805475308], [-89.41345247872292, 35.41715805475308], [-89.41345247872292, 35.41787670698037], [-89.41363214177974, 35.41787670698037], [-89.41363214177974, 35.4180563700372], [-89.4139914678934, 35.4180563700372], [-89.4139914678934, 35.41787670698037], [-89.41417113095022, 35.41787670698037], [-89.41417113095022, 35.41751738086673], [-89.4139914678934, 35.41751738086673], [-89.4139914678934, 35.41715805475308], [-89.4170457398594, 35.41715805475308], [-89.4170457398594, 35.417697043923546], [-89.41722540291623, 35.417697043923546], [-89.41722540291623, 35.4180563700372], [-89.4170457398594, 35.4180563700372], [-89.4170457398594, 35.419134348378144], [-89.41722540291623, 35.419134348378144], [-89.41722540291623, 35.41931401143496], [-89.41740506597304, 35.41931401143496], [-89.41740506597304, 35.41949367449179], [-89.41758472902987, 35.41949367449179], [-89.41758472902987, 35.41967333754861], [-89.41812371820035, 35.41967333754861], [-89.41812371820035, 35.41949367449179], [-89.41830338125718, 35.41949367449179], [-89.41830338125718, 35.419134348378144], [-89.41848304431399, 35.419134348378144], [-89.41848304431399, 35.41877502226449], [-89.41866270737081, 35.41877502226449], [-89.41866270737081, 35.418415696150845], [-89.41830338125718, 35.418415696150845], [-89.41830338125718, 35.41859535920767], [-89.41812371820035, 35.41859535920767], [-89.41812371820035, 35.41877502226449], [-89.41830338125718, 35.41877502226449], [-89.41830338125718, 35.419134348378144], [-89.41794405514352, 35.419134348378144], [-89.41794405514352, 35.41895468532132], [-89.4177643920867, 35.41895468532132], [-89.4177643920867, 35.41877502226449], [-89.41794405514352, 35.41877502226449], [-89.41794405514352, 35.418415696150845], [-89.4177643920867, 35.418415696150845], [-89.4177643920867, 35.41823603309402], [-89.41794405514352, 35.41823603309402], [-89.41794405514352, 35.4180563700372], [-89.41812371820035, 35.4180563700372], [-89.41812371820035, 35.41751738086673], [-89.41740506597304, 35.41751738086673], [-89.41740506597304, 35.4173377178099], [-89.4177643920867, 35.4173377178099], [-89.4177643920867, 35.41715805475308], [-89.4193813595981, 35.41715805475308], [-89.4193813595981, 35.41751738086673], [-89.41956102265493, 35.41751738086673], [-89.41956102265493, 35.41787670698037], [-89.4193813595981, 35.41787670698037], [-89.4193813595981, 35.4180563700372], [-89.4192016965413, 35.4180563700372], [-89.4192016965413, 35.41877502226449], [-89.41956102265493, 35.41877502226449], [-89.41956102265493, 35.41931401143496], [-89.4193813595981, 35.41931401143496], [-89.4193813595981, 35.419134348378144], [-89.4192016965413, 35.419134348378144], [-89.4192016965413, 35.41949367449179], [-89.41956102265493, 35.41949367449179], [-89.41956102265493, 35.41967333754861], [-89.41992034876858, 35.41967333754861], [-89.41992034876858, 35.41949367449179], [-89.42010001182541, 35.41949367449179], [-89.42010001182541, 35.41823603309402], [-89.42027967488224, 35.41823603309402], [-89.42027967488224, 35.41787670698037], [-89.42010001182541, 35.41787670698037], [-89.42010001182541, 35.41751738086673], [-89.41992034876858, 35.41751738086673], [-89.41992034876858, 35.4173377178099], [-89.42010001182541, 35.4173377178099], [-89.42010001182541, 35.41715805475308], [-89.42369327296188, 35.41715805475308], [-89.42369327296188, 35.4173377178099], [-89.42387293601871, 35.4173377178099], [-89.42387293601871, 35.417697043923546], [-89.42369327296188, 35.417697043923546], [-89.42369327296188, 35.41859535920767], [-89.42387293601871, 35.41859535920767], [-89.42387293601871, 35.41895468532132], [-89.42405259907554, 35.41895468532132], [-89.42405259907554, 35.419134348378144], [-89.42369327296188, 35.419134348378144], [-89.42369327296188, 35.41895468532132], [-89.42351360990506, 35.41895468532132], [-89.42351360990506, 35.419134348378144], [-89.42297462073459, 35.419134348378144], [-89.42297462073459, 35.41931401143496], [-89.42279495767777, 35.41931401143496], [-89.42279495767777, 35.41967333754861], [-89.42333394684823, 35.41967333754861], [-89.42333394684823, 35.41949367449179], [-89.42369327296188, 35.41949367449179], [-89.42369327296188, 35.41931401143496], [-89.42405259907554, 35.41931401143496], [-89.42405259907554, 35.419134348378144], [-89.42423226213236, 35.419134348378144], [-89.42423226213236, 35.41931401143496], [-89.42441192518918, 35.41931401143496], [-89.42441192518918, 35.41949367449179], [-89.424591588246, 35.41949367449179], [-89.424591588246, 35.419853000605436], [-89.42441192518918, 35.419853000605436], [-89.42441192518918, 35.42039198977591], [-89.424591588246, 35.42039198977591], [-89.424591588246, 35.420571652832734], [-89.42477125130283, 35.420571652832734], [-89.42477125130283, 35.420751315889554], [-89.42566956658695, 35.420751315889554]], [[-89.42441192518918, 35.417697043923546], [-89.424591588246, 35.417697043923546], [-89.424591588246, 35.4173377178099], [-89.42441192518918, 35.4173377178099], [-89.42441192518918, 35.417697043923546]], [[-89.41758472902987, 35.41823603309402], [-89.4177643920867, 35.41823603309402], [-89.4177643920867, 35.4180563700372], [-89.41758472902987, 35.4180563700372], [-89.41758472902987, 35.41823603309402]], [[-89.42405259907554, 35.418415696150845], [-89.42441192518918, 35.418415696150845], [-89.42441192518918, 35.4180563700372], [-89.42405259907554, 35.4180563700372], [-89.42405259907554, 35.418415696150845]]]}, "properties": {"name": "cand01", "ptype": "hall", "confidence": "low", "rank": 1, "area_ha": 21.6, "rise_db": 9.1, "digitised_from": "Sentinel-1 VV rise 2021->2026, orbit 92"}}, {"type": "Feature", "geometry": {"geodesic": false, "type": "Polygon", "coordinates": [[[-89.4260288927006, 35.43207008846946], [-89.4260288927006, 35.43189042541264], [-89.42620855575743, 35.43189042541264], [-89.42620855575743, 35.43171076235581], [-89.42656788187107, 35.43171076235581], [-89.42656788187107, 35.431531099298994], [-89.42674754492789, 35.431531099298994], [-89.42674754492789, 35.43135143624217], [-89.42692720798472, 35.43135143624217], [-89.42692720798472, 35.43099211012852], [-89.42710687104154, 35.43099211012852], [-89.42710687104154, 35.430812447071695], [-89.42728653409836, 35.430812447071695], [-89.42728653409836, 35.43099211012852], [-89.42746619715518, 35.43099211012852], [-89.42746619715518, 35.43117177318534], [-89.42728653409836, 35.43117177318534], [-89.42728653409836, 35.43171076235581], [-89.42746619715518, 35.43171076235581], [-89.42746619715518, 35.43189042541264], [-89.42782552326884, 35.43189042541264], [-89.42782552326884, 35.43171076235581], [-89.42800518632566, 35.43171076235581], [-89.42800518632566, 35.430812447071695], [-89.42782552326884, 35.430812447071695], [-89.42782552326884, 35.42973446873075], [-89.42800518632566, 35.42973446873075], [-89.42800518632566, 35.428476827332986], [-89.42782552326884, 35.428476827332986], [-89.42782552326884, 35.42811750121933], [-89.4260288927006, 35.42811750121933], [-89.4260288927006, 35.42829716427616], [-89.424591588246, 35.42829716427616], [-89.424591588246, 35.42811750121933], [-89.42423226213236, 35.42811750121933], [-89.42423226213236, 35.42829716427616], [-89.42333394684823, 35.42829716427616], [-89.42333394684823, 35.42811750121933], [-89.42315428379142, 35.42811750121933], [-89.42315428379142, 35.42829716427616], [-89.42297462073459, 35.42829716427616], [-89.42297462073459, 35.428476827332986], [-89.42279495767777, 35.428476827332986], [-89.42279495767777, 35.42901581650346], [-89.42297462073459, 35.42901581650346], [-89.42297462073459, 35.42919547956028], [-89.42315428379142, 35.42919547956028], [-89.42315428379142, 35.429375142617104], [-89.42333394684823, 35.429375142617104], [-89.42333394684823, 35.42919547956028], [-89.42315428379142, 35.42919547956028], [-89.42315428379142, 35.428656490389805], [-89.42387293601871, 35.428656490389805], [-89.42387293601871, 35.42883615344663], [-89.42423226213236, 35.42883615344663], [-89.42423226213236, 35.42919547956028], [-89.42441192518918, 35.42919547956028], [-89.42441192518918, 35.429375142617104], [-89.42495091435966, 35.429375142617104], [-89.42495091435966, 35.42883615344663], [-89.42513057741648, 35.42883615344663], [-89.42513057741648, 35.428656490389805], [-89.4260288927006, 35.428656490389805], [-89.4260288927006, 35.42901581650346], [-89.42584922964377, 35.42901581650346], [-89.42584922964377, 35.429375142617104], [-89.4260288927006, 35.429375142617104], [-89.4260288927006, 35.42919547956028], [-89.42656788187107, 35.42919547956028], [-89.42656788187107, 35.429375142617104], [-89.42674754492789, 35.429375142617104], [-89.42674754492789, 35.42919547956028], [-89.42692720798472, 35.42919547956028], [-89.42692720798472, 35.42883615344663], [-89.42674754492789, 35.42883615344663], [-89.42674754492789, 35.428476827332986], [-89.42728653409836, 35.428476827332986], [-89.42728653409836, 35.428656490389805], [-89.42746619715518, 35.428656490389805], [-89.42746619715518, 35.42955480567393], [-89.42728653409836, 35.42955480567393], [-89.42728653409836, 35.43045312095805], [-89.42710687104154, 35.43045312095805], [-89.42710687104154, 35.430812447071695], [-89.42692720798472, 35.430812447071695], [-89.42692720798472, 35.43063278401487], [-89.42674754492789, 35.43063278401487], [-89.42674754492789, 35.43045312095805], [-89.42638821881424, 35.43045312095805], [-89.42638821881424, 35.43063278401487], [-89.42656788187107, 35.43063278401487], [-89.42656788187107, 35.430812447071695], [-89.42638821881424, 35.430812447071695], [-89.42638821881424, 35.43099211012852], [-89.42620855575743, 35.43099211012852], [-89.42620855575743, 35.43117177318534], [-89.4260288927006, 35.43117177318534], [-89.4260288927006, 35.43135143624217], [-89.42584922964377, 35.43135143624217], [-89.42584922964377, 35.431531099298994], [-89.4260288927006, 35.431531099298994], [-89.4260288927006, 35.43189042541264], [-89.42584922964377, 35.43189042541264], [-89.42584922964377, 35.43207008846946], [-89.4260288927006, 35.43207008846946]], [[-89.42620855575743, 35.42883615344663], [-89.42638821881424, 35.42883615344663], [-89.42638821881424, 35.428656490389805], [-89.42620855575743, 35.428656490389805], [-89.42620855575743, 35.42883615344663]], [[-89.42477125130283, 35.42883615344663], [-89.42495091435966, 35.42883615344663], [-89.42495091435966, 35.428656490389805], [-89.42477125130283, 35.428656490389805], [-89.42477125130283, 35.42883615344663]], [[-89.424591588246, 35.42919547956028], [-89.42477125130283, 35.42919547956028], [-89.42477125130283, 35.42901581650346], [-89.424591588246, 35.42901581650346], [-89.424591588246, 35.42919547956028]], [[-89.42656788187107, 35.43099211012852], [-89.42674754492789, 35.43099211012852], [-89.42674754492789, 35.430812447071695], [-89.42656788187107, 35.430812447071695], [-89.42656788187107, 35.43099211012852]]]}, "properties": {"name": "cand02", "ptype": "hall", "confidence": "low", "rank": 2, "area_ha": 7.6, "rise_db": 7.0, "digitised_from": "Sentinel-1 VV rise 2021->2026, orbit 92"}}, {"type": "Feature", "geometry": {"geodesic": false, "type": "Polygon", "coordinates": [[[-89.41830338125718, 35.43171076235581], [-89.41830338125718, 35.431531099298994], [-89.41812371820035, 35.431531099298994], [-89.41812371820035, 35.43117177318534], [-89.41830338125718, 35.43117177318534], [-89.41830338125718, 35.43099211012852], [-89.41848304431399, 35.43099211012852], [-89.41848304431399, 35.430812447071695], [-89.41866270737081, 35.430812447071695], [-89.41866270737081, 35.43117177318534], [-89.41956102265493, 35.43117177318534], [-89.41956102265493, 35.43135143624217], [-89.41992034876858, 35.43135143624217], [-89.41992034876858, 35.43117177318534], [-89.42063900099588, 35.43117177318534], [-89.42063900099588, 35.43099211012852], [-89.42189664239365, 35.43099211012852], [-89.42189664239365, 35.43117177318534], [-89.4222559685073, 35.43117177318534], [-89.4222559685073, 35.43099211012852], [-89.42243563156411, 35.43099211012852], [-89.42243563156411, 35.43063278401487], [-89.4222559685073, 35.43063278401487], [-89.4222559685073, 35.430093794844396], [-89.42207630545047, 35.430093794844396], [-89.42207630545047, 35.42991413178758], [-89.42027967488224, 35.42991413178758], [-89.42027967488224, 35.42973446873075], [-89.4193813595981, 35.42973446873075], [-89.4193813595981, 35.42991413178758], [-89.4192016965413, 35.42991413178758], [-89.4192016965413, 35.430093794844396], [-89.4193813595981, 35.430093794844396], [-89.4193813595981, 35.43027345790122], [-89.4192016965413, 35.43027345790122], [-89.4192016965413, 35.43045312095805], [-89.41902203348447, 35.43045312095805], [-89.41902203348447, 35.43063278401487], [-89.41884237042764, 35.43063278401487], [-89.41884237042764, 35.43045312095805], [-89.41866270737081, 35.43045312095805], [-89.41866270737081, 35.43063278401487], [-89.41830338125718, 35.43063278401487], [-89.41830338125718, 35.43045312095805], [-89.41794405514352, 35.43045312095805], [-89.41794405514352, 35.43063278401487], [-89.4177643920867, 35.43063278401487], [-89.4177643920867, 35.43099211012852], [-89.41758472902987, 35.43099211012852], [-89.41758472902987, 35.43117177318534], [-89.4177643920867, 35.43117177318534], [-89.4177643920867, 35.431531099298994], [-89.41794405514352, 35.431531099298994], [-89.41794405514352, 35.43171076235581], [-89.41830338125718, 35.43171076235581]], [[-89.41902203348447, 35.430812447071695], [-89.4192016965413, 35.430812447071695], [-89.4192016965413, 35.43063278401487], [-89.41902203348447, 35.43063278401487], [-89.41902203348447, 35.430812447071695]]]}, "properties": {"name": "cand03", "ptype": "hall", "confidence": "low", "rank": 3, "area_ha": 6.0, "rise_db": 8.4, "digitised_from": "Sentinel-1 VV rise 2021->2026, orbit 92"}}, {"type": "Feature", "geometry": {"geodesic": false, "type": "Polygon", "coordinates": [[[-89.40339134754079, 35.41823603309402], [-89.40339134754079, 35.4180563700372], [-89.4035710105976, 35.4180563700372], [-89.4035710105976, 35.41823603309402], [-89.40393033671126, 35.41823603309402], [-89.40393033671126, 35.4180563700372], [-89.40410999976808, 35.4180563700372], [-89.40410999976808, 35.417697043923546], [-89.40428966282491, 35.417697043923546], [-89.40428966282491, 35.4180563700372], [-89.40482865199537, 35.4180563700372], [-89.40482865199537, 35.417697043923546], [-89.4050083150522, 35.417697043923546], [-89.4050083150522, 35.41787670698037], [-89.40554730422267, 35.41787670698037], [-89.40554730422267, 35.41751738086673], [-89.40518797810903, 35.41751738086673], [-89.40518797810903, 35.41715805475308], [-89.4050083150522, 35.41715805475308], [-89.4050083150522, 35.416978391696254], [-89.40482865199537, 35.416978391696254], [-89.40482865199537, 35.41679872863943], [-89.40428966282491, 35.41679872863943], [-89.40428966282491, 35.416978391696254], [-89.40410999976808, 35.416978391696254], [-89.40410999976808, 35.417697043923546], [-89.40375067365443, 35.417697043923546], [-89.40375067365443, 35.41751738086673], [-89.4035710105976, 35.41751738086673], [-89.4035710105976, 35.4173377178099], [-89.40285235837031, 35.4173377178099], [-89.40285235837031, 35.41715805475308], [-89.40249303225667, 35.41715805475308], [-89.40249303225667, 35.4173377178099], [-89.40231336919985, 35.4173377178099], [-89.40231336919985, 35.41787670698037], [-89.40249303225667, 35.41787670698037], [-89.40249303225667, 35.4180563700372], [-89.40285235837031, 35.4180563700372], [-89.40285235837031, 35.41823603309402], [-89.40339134754079, 35.41823603309402]]]}, "properties": {"name": "cand04", "ptype": "hall", "confidence": "low", "rank": 4, "area_ha": 3.1, "rise_db": 6.4, "digitised_from": "Sentinel-1 VV rise 2021->2026, orbit 92"}}, {"type": "Feature", "geometry": {"geodesic": false, "type": "Polygon", "coordinates": [[[-89.43609002388274, 35.42398525091239], [-89.43609002388274, 35.4225479464578], [-89.43626968693955, 35.4225479464578], [-89.43626968693955, 35.422008957287325], [-89.43609002388274, 35.422008957287325], [-89.43609002388274, 35.41877502226449], [-89.43591036082591, 35.41877502226449], [-89.43591036082591, 35.41859535920767], [-89.43573069776909, 35.41859535920767], [-89.43573069776909, 35.41877502226449], [-89.43555103471226, 35.41877502226449], [-89.43555103471226, 35.42021232671908], [-89.43573069776909, 35.42021232671908], [-89.43573069776909, 35.42398525091239], [-89.43609002388274, 35.42398525091239]]]}, "properties": {"name": "cand05", "ptype": "hall", "confidence": "low", "rank": 5, "area_ha": 2.8, "rise_db": 9.4, "digitised_from": "Sentinel-1 VV rise 2021->2026, orbit 92"}}, {"type": "Feature", "geometry": {"geodesic": false, "type": "Polygon", "coordinates": [[[-89.43105945829167, 35.42146996811685], [-89.43105945829167, 35.421290305060026], [-89.43123912134848, 35.421290305060026], [-89.43123912134848, 35.42093097894638], [-89.43141878440531, 35.42093097894638], [-89.43141878440531, 35.420571652832734], [-89.43159844746214, 35.420571652832734], [-89.43159844746214, 35.42039198977591], [-89.43141878440531, 35.42039198977591], [-89.43141878440531, 35.42021232671908], [-89.43105945829167, 35.42021232671908], [-89.43105945829167, 35.42003266366226], [-89.42962215383707, 35.42003266366226], [-89.42962215383707, 35.419853000605436], [-89.42926282772342, 35.419853000605436], [-89.42926282772342, 35.42003266366226], [-89.42908316466661, 35.42003266366226], [-89.42908316466661, 35.42021232671908], [-89.42926282772342, 35.42021232671908], [-89.42926282772342, 35.42039198977591], [-89.4298018168939, 35.42039198977591], [-89.4298018168939, 35.420571652832734], [-89.43016114300755, 35.420571652832734], [-89.43016114300755, 35.421290305060026], [-89.43070013217802, 35.421290305060026], [-89.43070013217802, 35.42146996811685], [-89.43105945829167, 35.42146996811685]]]}, "properties": {"name": "cand06", "ptype": "hall", "confidence": "low", "rank": 6, "area_ha": 2.5, "rise_db": 8.2, "digitised_from": "Sentinel-1 VV rise 2021->2026, orbit 92"}}, {"type": "Feature", "geometry": {"geodesic": false, "type": "Polygon", "coordinates": [[[-89.41111685898422, 35.43242941458311], [-89.41111685898422, 35.432249751526285], [-89.41129652204104, 35.432249751526285], [-89.41129652204104, 35.43189042541264], [-89.41075753287056, 35.43189042541264], [-89.41075753287056, 35.430812447071695], [-89.40914056535915, 35.430812447071695], [-89.40914056535915, 35.43117177318534], [-89.40896090230233, 35.43117177318534], [-89.40896090230233, 35.43171076235581], [-89.40914056535915, 35.43171076235581], [-89.40914056535915, 35.43189042541264], [-89.40932022841598, 35.43189042541264], [-89.40932022841598, 35.43171076235581], [-89.40949989147279, 35.43171076235581], [-89.40949989147279, 35.43135143624217], [-89.40967955452962, 35.43135143624217], [-89.40967955452962, 35.43117177318534], [-89.4102185437001, 35.43117177318534], [-89.4102185437001, 35.43171076235581], [-89.41003888064327, 35.43171076235581], [-89.41003888064327, 35.432249751526285], [-89.4102185437001, 35.432249751526285], [-89.4102185437001, 35.43242941458311], [-89.41111685898422, 35.43242941458311]]]}, "properties": {"name": "cand07", "ptype": "hall", "confidence": "low", "rank": 7, "area_ha": 2.4, "rise_db": 8.4, "digitised_from": "Sentinel-1 VV rise 2021->2026, orbit 92"}}, {"type": "Feature", "geometry": {"geodesic": false, "type": "Polygon", "coordinates": [[[-89.43123912134848, 35.43278874069676], [-89.43123912134848, 35.43171076235581], [-89.4283645124393, 35.43171076235581], [-89.4283645124393, 35.43189042541264], [-89.42818484938249, 35.43189042541264], [-89.42818484938249, 35.43207008846946], [-89.4283645124393, 35.43207008846946], [-89.4283645124393, 35.432249751526285], [-89.43070013217802, 35.432249751526285], [-89.43070013217802, 35.43242941458311], [-89.43087979523484, 35.43242941458311], [-89.43087979523484, 35.43278874069676], [-89.43123912134848, 35.43278874069676]]]}, "properties": {"name": "cand08", "ptype": "hall", "confidence": "low", "rank": 8, "area_ha": 2.2, "rise_db": 11.8, "digitised_from": "Sentinel-1 VV rise 2021->2026, orbit 92"}}, {"type": "Feature", "geometry": {"geodesic": false, "type": "Polygon", "coordinates": [[[-89.41363214177974, 35.43027345790122], [-89.41363214177974, 35.430093794844396], [-89.41417113095022, 35.430093794844396], [-89.41417113095022, 35.43027345790122], [-89.41453045706386, 35.43027345790122], [-89.41453045706386, 35.430093794844396], [-89.41578809846163, 35.430093794844396], [-89.41578809846163, 35.43027345790122], [-89.41668641374575, 35.43027345790122], [-89.41668641374575, 35.430093794844396], [-89.4170457398594, 35.430093794844396], [-89.4170457398594, 35.42973446873075], [-89.41578809846163, 35.42973446873075], [-89.41578809846163, 35.42991413178758], [-89.41524910929117, 35.42991413178758], [-89.41524910929117, 35.42973446873075], [-89.41435079400705, 35.42973446873075], [-89.41435079400705, 35.42991413178758], [-89.4139914678934, 35.42991413178758], [-89.4139914678934, 35.42973446873075], [-89.4132728156661, 35.42973446873075], [-89.4132728156661, 35.42991413178758], [-89.41291348955245, 35.42991413178758], [-89.41291348955245, 35.430093794844396], [-89.41273382649563, 35.430093794844396], [-89.41273382649563, 35.43027345790122], [-89.41363214177974, 35.43027345790122]]]}, "properties": {"name": "cand09", "ptype": "hall", "confidence": "low", "rank": 9, "area_ha": 2.0, "rise_db": 7.0, "digitised_from": "Sentinel-1 VV rise 2021->2026, orbit 92"}}, {"type": "Feature", "geometry": {"geodesic": false, "type": "Polygon", "coordinates": [[[-89.44956475314453, 35.43278874069676], [-89.44956475314453, 35.43260907763993], [-89.45064273148547, 35.43260907763993], [-89.45064273148547, 35.43242941458311], [-89.4508223945423, 35.43242941458311], [-89.4508223945423, 35.43260907763993], [-89.45154104676959, 35.43260907763993], [-89.45154104676959, 35.432249751526285], [-89.45136138371277, 35.432249751526285], [-89.45136138371277, 35.43207008846946], [-89.4493850900877, 35.43207008846946], [-89.4493850900877, 35.432249751526285], [-89.44848677480358, 35.432249751526285], [-89.44848677480358, 35.43242941458311], [-89.44902576397405, 35.43242941458311], [-89.44902576397405, 35.43260907763993], [-89.4493850900877, 35.43260907763993], [-89.4493850900877, 35.43278874069676], [-89.44956475314453, 35.43278874069676]]]}, "properties": {"name": "cand10", "ptype": "hall", "confidence": "low", "rank": 10, "area_ha": 1.7, "rise_db": 5.0, "digitised_from": "Sentinel-1 VV rise 2021->2026, orbit 92"}}, {"type": "Feature", "geometry": {"geodesic": false, "type": "Polygon", "coordinates": [[[-89.42638821881424, 35.42506322925333], [-89.42638821881424, 35.424883566196506], [-89.42656788187107, 35.424883566196506], [-89.42656788187107, 35.423446261741915], [-89.42638821881424, 35.423446261741915], [-89.42638821881424, 35.42326659868509], [-89.4260288927006, 35.42326659868509], [-89.4260288927006, 35.42308693562827], [-89.42566956658695, 35.42308693562827], [-89.42566956658695, 35.42326659868509], [-89.42548990353012, 35.42326659868509], [-89.42548990353012, 35.42362592479874], [-89.42566956658695, 35.42362592479874], [-89.42566956658695, 35.42380558785556], [-89.42584922964377, 35.42380558785556], [-89.42584922964377, 35.42398525091239], [-89.42620855575743, 35.42398525091239], [-89.42620855575743, 35.42416491396921], [-89.42584922964377, 35.42416491396921], [-89.42584922964377, 35.42470390313968], [-89.4260288927006, 35.42470390313968], [-89.4260288927006, 35.424883566196506], [-89.42620855575743, 35.424883566196506], [-89.42620855575743, 35.42506322925333], [-89.42638821881424, 35.42506322925333]]]}, "properties": {"name": "cand11", "ptype": "hall", "confidence": "low", "rank": 11, "area_ha": 1.6, "rise_db": 5.6, "digitised_from": "Sentinel-1 VV rise 2021->2026, orbit 92"}}, {"type": "Feature", "geometry": {"geodesic": false, "type": "Polygon", "coordinates": [[[-89.42261529462094, 35.418415696150845], [-89.42261529462094, 35.41823603309402], [-89.42297462073459, 35.41823603309402], [-89.42297462073459, 35.4180563700372], [-89.42333394684823, 35.4180563700372], [-89.42333394684823, 35.41787670698037], [-89.42261529462094, 35.41787670698037], [-89.42261529462094, 35.417697043923546], [-89.42207630545047, 35.417697043923546], [-89.42207630545047, 35.41751738086673], [-89.42153731628, 35.41751738086673], [-89.42153731628, 35.417697043923546], [-89.42117799016636, 35.417697043923546], [-89.42117799016636, 35.41787670698037], [-89.4208186640527, 35.41787670698037], [-89.4208186640527, 35.41823603309402], [-89.42135765322317, 35.41823603309402], [-89.42135765322317, 35.4180563700372], [-89.42189664239365, 35.4180563700372], [-89.42189664239365, 35.418415696150845], [-89.42261529462094, 35.418415696150845]]]}, "properties": {"name": "cand12", "ptype": "hall", "confidence": "low", "rank": 12, "area_ha": 1.5, "rise_db": 5.7, "digitised_from": "Sentinel-1 VV rise 2021->2026, orbit 92"}}, {"type": "Feature", "geometry": {"geodesic": false, "type": "Polygon", "coordinates": [[[-89.42261529462094, 35.42452424008286], [-89.42261529462094, 35.424344577026034], [-89.42279495767777, 35.424344577026034], [-89.42279495767777, 35.42362592479874], [-89.42261529462094, 35.42362592479874], [-89.42261529462094, 35.42326659868509], [-89.42243563156411, 35.42326659868509], [-89.42243563156411, 35.42308693562827], [-89.42261529462094, 35.42308693562827], [-89.42261529462094, 35.42290727257144], [-89.42243563156411, 35.42290727257144], [-89.42243563156411, 35.42272760951462], [-89.42099832710953, 35.42272760951462], [-89.42099832710953, 35.423446261741915], [-89.42117799016636, 35.423446261741915], [-89.42117799016636, 35.42326659868509], [-89.42243563156411, 35.42326659868509], [-89.42243563156411, 35.42416491396921], [-89.4222559685073, 35.42416491396921], [-89.4222559685073, 35.424344577026034], [-89.42243563156411, 35.424344577026034], [-89.42243563156411, 35.42452424008286], [-89.42261529462094, 35.42452424008286]]]}, "properties": {"name": "cand13", "ptype": "hall", "confidence": "low", "rank": 13, "area_ha": 1.5, "rise_db": 6.7, "digitised_from": "Sentinel-1 VV rise 2021->2026, orbit 92"}}, {"type": "Feature", "geometry": {"geodesic": false, "type": "Polygon", "coordinates": [[[-89.43177811051896, 35.41877502226449], [-89.43177811051896, 35.41823603309402], [-89.43195777357579, 35.41823603309402], [-89.43195777357579, 35.417697043923546], [-89.43141878440531, 35.417697043923546], [-89.43141878440531, 35.41787670698037], [-89.43159844746214, 35.41787670698037], [-89.43159844746214, 35.4180563700372], [-89.43141878440531, 35.4180563700372], [-89.43141878440531, 35.41823603309402], [-89.43123912134848, 35.41823603309402], [-89.43123912134848, 35.4180563700372], [-89.43105945829167, 35.4180563700372], [-89.43105945829167, 35.41751738086673], [-89.43052046912119, 35.41751738086673], [-89.43052046912119, 35.417697043923546], [-89.43034080606436, 35.417697043923546], [-89.43034080606436, 35.41787670698037], [-89.43016114300755, 35.41787670698037], [-89.43016114300755, 35.4180563700372], [-89.43034080606436, 35.4180563700372], [-89.43034080606436, 35.41823603309402], [-89.43052046912119, 35.41823603309402], [-89.43052046912119, 35.4180563700372], [-89.43070013217802, 35.4180563700372], [-89.43070013217802, 35.41823603309402], [-89.43105945829167, 35.41823603309402], [-89.43105945829167, 35.41859535920767], [-89.43123912134848, 35.41859535920767], [-89.43123912134848, 35.41877502226449], [-89.43177811051896, 35.41877502226449]]]}, "properties": {"name": "cand14", "ptype": "hall", "confidence": "low", "rank": 14, "area_ha": 1.4, "rise_db": 5.0, "digitised_from": "Sentinel-1 VV rise 2021->2026, orbit 92"}}, {"type": "Feature", "geometry": {"geodesic": false, "type": "Polygon", "coordinates": [[[-89.43159844746214, 35.43476503432182], [-89.43159844746214, 35.434585371264994], [-89.43177811051896, 35.434585371264994], [-89.43177811051896, 35.434405708208175], [-89.43159844746214, 35.434405708208175], [-89.43159844746214, 35.43332772986723], [-89.43123912134848, 35.43332772986723], [-89.43123912134848, 35.4331480668104], [-89.43087979523484, 35.4331480668104], [-89.43087979523484, 35.43350739292406], [-89.43052046912119, 35.43350739292406], [-89.43052046912119, 35.4338667190377], [-89.43105945829167, 35.4338667190377], [-89.43105945829167, 35.434585371264994], [-89.43123912134848, 35.434585371264994], [-89.43123912134848, 35.43476503432182], [-89.43159844746214, 35.43476503432182]]]}, "properties": {"name": "cand15", "ptype": "hall", "confidence": "low", "rank": 15, "area_ha": 1.3, "rise_db": 8.7, "digitised_from": "Sentinel-1 VV rise 2021->2026, orbit 92"}}, {"type": "Feature", "geometry": {"geodesic": false, "type": "Polygon", "coordinates": [[[-89.41974068571176, 35.43260907763993], [-89.41974068571176, 35.432249751526285], [-89.41992034876858, 35.432249751526285], [-89.41992034876858, 35.43207008846946], [-89.42010001182541, 35.43207008846946], [-89.42010001182541, 35.43189042541264], [-89.41992034876858, 35.43189042541264], [-89.41992034876858, 35.43171076235581], [-89.41866270737081, 35.43171076235581], [-89.41866270737081, 35.43189042541264], [-89.41848304431399, 35.43189042541264], [-89.41848304431399, 35.43207008846946], [-89.41866270737081, 35.43207008846946], [-89.41866270737081, 35.432249751526285], [-89.41884237042764, 35.432249751526285], [-89.41884237042764, 35.43242941458311], [-89.4193813595981, 35.43242941458311], [-89.4193813595981, 35.43260907763993], [-89.41974068571176, 35.43260907763993]]]}, "properties": {"name": "cand16", "ptype": "hall", "confidence": "low", "rank": 16, "area_ha": 1.2, "rise_db": 10.5, "digitised_from": "Sentinel-1 VV rise 2021->2026, orbit 92"}}, {"type": "Feature", "geometry": {"geodesic": false, "type": "Polygon", "coordinates": [[[-89.40339134754079, 35.41679872863943], [-89.40339134754079, 35.41643940252578], [-89.40321168448396, 35.41643940252578], [-89.40321168448396, 35.416080076412136], [-89.40303202142714, 35.416080076412136], [-89.40303202142714, 35.416259739468956], [-89.40285235837031, 35.416259739468956], [-89.40285235837031, 35.416080076412136], [-89.40213370614302, 35.416080076412136], [-89.40213370614302, 35.416259739468956], [-89.40195404308619, 35.416259739468956], [-89.40195404308619, 35.41679872863943], [-89.40339134754079, 35.41679872863943]], [[-89.40267269531348, 35.41661906558261], [-89.40285235837031, 35.41661906558261], [-89.40285235837031, 35.41643940252578], [-89.40267269531348, 35.41643940252578], [-89.40267269531348, 35.41661906558261]]]}, "properties": {"name": "cand17", "ptype": "hall", "confidence": "low", "rank": 17, "area_ha": 1.1, "rise_db": 5.3, "digitised_from": "Sentinel-1 VV rise 2021->2026, orbit 92"}}, {"type": "Feature", "geometry": {"geodesic": false, "type": "Polygon", "coordinates": [[[-89.4139914678934, 35.41967333754861], [-89.4139914678934, 35.41949367449179], [-89.41417113095022, 35.41949367449179], [-89.41417113095022, 35.41859535920767], [-89.4139914678934, 35.41859535920767], [-89.4139914678934, 35.418415696150845], [-89.41363214177974, 35.418415696150845], [-89.41363214177974, 35.41859535920767], [-89.41345247872292, 35.41859535920767], [-89.41345247872292, 35.41931401143496], [-89.4132728156661, 35.41931401143496], [-89.4132728156661, 35.41967333754861], [-89.4139914678934, 35.41967333754861]]]}, "properties": {"name": "cand18", "ptype": "hall", "confidence": "low", "rank": 18, "area_ha": 1.1, "rise_db": 10.8, "digitised_from": "Sentinel-1 VV rise 2021->2026, orbit 92"}}]}