{"type": "FeatureCollection", "features": [{"type": "Feature", "geometry": {"geodesic": false, "type": "Polygon", "coordinates": [[[-81.28082454853207, 32.12141894037538], [-81.28082454853207, 32.12123927731855], [-81.2810042115889, 32.12123927731855], [-81.2810042115889, 32.12141894037538], [-81.28136353770255, 32.12141894037538], [-81.28136353770255, 32.12123927731855], [-81.28190252687301, 32.12123927731855], [-81.28190252687301, 32.12105961426173], [-81.28226185298666, 32.12105961426173], [-81.28226185298666, 32.120879951204905], [-81.28244151604349, 32.120879951204905], [-81.28244151604349, 32.12052062509126], [-81.28226185298666, 32.12052062509126], [-81.28226185298666, 32.12034096203443], [-81.28280084215713, 32.12034096203443], [-81.28280084215713, 32.12052062509126], [-81.28298050521396, 32.12052062509126], [-81.28298050521396, 32.12034096203443], [-81.28280084215713, 32.12034096203443], [-81.28280084215713, 32.12016129897761], [-81.28298050521396, 32.12016129897761], [-81.28298050521396, 32.11998163592079], [-81.28333983132761, 32.11998163592079], [-81.28333983132761, 32.12016129897761], [-81.28369915744125, 32.12016129897761], [-81.28369915744125, 32.11962230980714], [-81.2840584835549, 32.11962230980714], [-81.2840584835549, 32.11980197286396], [-81.28423814661173, 32.11980197286396], [-81.28423814661173, 32.11962230980714], [-81.2840584835549, 32.11962230980714], [-81.2840584835549, 32.119442646750315], [-81.28423814661173, 32.119442646750315], [-81.28423814661173, 32.11926298369349], [-81.28459747272537, 32.11926298369349], [-81.28459747272537, 32.119442646750315], [-81.28495679883902, 32.119442646750315], [-81.28495679883902, 32.11926298369349], [-81.28513646189585, 32.11926298369349], [-81.28513646189585, 32.11908332063667], [-81.28495679883902, 32.11908332063667], [-81.28495679883902, 32.11890365757984], [-81.28531612495267, 32.11890365757984], [-81.28531612495267, 32.118723994523016], [-81.28567545106631, 32.118723994523016], [-81.28567545106631, 32.1185443314662], [-81.28585511412314, 32.1185443314662], [-81.28585511412314, 32.11836466840937], [-81.28603477717996, 32.11836466840937], [-81.28603477717996, 32.118005342295724], [-81.28585511412314, 32.118005342295724], [-81.28585511412314, 32.118185005352544], [-81.28531612495267, 32.118185005352544], [-81.28531612495267, 32.11836466840937], [-81.28495679883902, 32.11836466840937], [-81.28495679883902, 32.1185443314662], [-81.28477713578219, 32.1185443314662], [-81.28477713578219, 32.118723994523016], [-81.28441780966855, 32.118723994523016], [-81.28441780966855, 32.11890365757984], [-81.28387882049807, 32.11890365757984], [-81.28387882049807, 32.11908332063667], [-81.28369915744125, 32.11908332063667], [-81.28369915744125, 32.11926298369349], [-81.28333983132761, 32.11926298369349], [-81.28333983132761, 32.119442646750315], [-81.28298050521396, 32.119442646750315], [-81.28298050521396, 32.11962230980714], [-81.2826211791003, 32.11962230980714], [-81.2826211791003, 32.11980197286396], [-81.28226185298666, 32.11980197286396], [-81.28226185298666, 32.11998163592079], [-81.28190252687301, 32.11998163592079], [-81.28190252687301, 32.12016129897761], [-81.28154320075937, 32.12016129897761], [-81.28154320075937, 32.12034096203443], [-81.28118387464572, 32.12034096203443], [-81.28118387464572, 32.12052062509126], [-81.28082454853207, 32.12052062509126], [-81.28082454853207, 32.12070028814808], [-81.28064488547524, 32.12070028814808], [-81.28064488547524, 32.120879951204905], [-81.2802855593616, 32.120879951204905], [-81.2802855593616, 32.12105961426173], [-81.28010589630478, 32.12105961426173], [-81.28010589630478, 32.12123927731855], [-81.2802855593616, 32.12123927731855], [-81.2802855593616, 32.12141894037538], [-81.28082454853207, 32.12141894037538]], [[-81.28333983132761, 32.11998163592079], [-81.28351949438444, 32.11998163592079], [-81.28351949438444, 32.11980197286396], [-81.28333983132761, 32.11980197286396], [-81.28333983132761, 32.11998163592079]]]}, "properties": {"name": "cand01", "ptype": "hall", "confidence": "low", "rank": 1, "area_ha": 5.1, "rise_db": 10.0, "digitised_from": "Sentinel-1 VV rise 2021->2026, orbit 150"}}, {"type": "Feature", "geometry": {"geodesic": false, "type": "Polygon", "coordinates": [[[-81.32430300828345, 32.118185005352544], [-81.32430300828345, 32.118005342295724], [-81.32448267134028, 32.118005342295724], [-81.32448267134028, 32.117286690068426], [-81.32412334522664, 32.117286690068426], [-81.32412334522664, 32.11746635312525], [-81.32394368216981, 32.11746635312525], [-81.32394368216981, 32.117286690068426], [-81.32376401911299, 32.117286690068426], [-81.32376401911299, 32.11692736395478], [-81.32358435605616, 32.11692736395478], [-81.32358435605616, 32.11638837478431], [-81.32340469299933, 32.11638837478431], [-81.32340469299933, 32.11620871172748], [-81.3232250299425, 32.11620871172748], [-81.3232250299425, 32.11602904867066], [-81.3230453668857, 32.11602904867066], [-81.3230453668857, 32.115849385613835], [-81.32286570382887, 32.115849385613835], [-81.32286570382887, 32.11549005950019], [-81.32268604077204, 32.11549005950019], [-81.32268604077204, 32.11531039644336], [-81.32232671465839, 32.11531039644336], [-81.32232671465839, 32.11513073338654], [-81.32214705160158, 32.11513073338654], [-81.32214705160158, 32.11495107032972], [-81.32196738854475, 32.11495107032972], [-81.32196738854475, 32.11477140727289], [-81.32178772548792, 32.11477140727289], [-81.32178772548792, 32.11459174421607], [-81.3216080624311, 32.11459174421607], [-81.3216080624311, 32.114412081159244], [-81.32124873631744, 32.114412081159244], [-81.32124873631744, 32.11495107032972], [-81.32142839937427, 32.11495107032972], [-81.32142839937427, 32.11513073338654], [-81.3216080624311, 32.11513073338654], [-81.3216080624311, 32.115669722557016], [-81.32142839937427, 32.115669722557016], [-81.32142839937427, 32.115849385613835], [-81.3216080624311, 32.115849385613835], [-81.3216080624311, 32.11602904867066], [-81.32178772548792, 32.11602904867066], [-81.32178772548792, 32.116568037841134], [-81.32196738854475, 32.116568037841134], [-81.32196738854475, 32.11674770089795], [-81.32232671465839, 32.11674770089795], [-81.32232671465839, 32.11692736395478], [-81.32250637771521, 32.11692736395478], [-81.32250637771521, 32.117107027011606], [-81.32268604077204, 32.117107027011606], [-81.32268604077204, 32.117286690068426], [-81.32286570382887, 32.117286690068426], [-81.32286570382887, 32.11746635312525], [-81.3230453668857, 32.11746635312525], [-81.3230453668857, 32.117107027011606], [-81.32286570382887, 32.117107027011606], [-81.32286570382887, 32.11692736395478], [-81.32268604077204, 32.11692736395478], [-81.32268604077204, 32.116568037841134], [-81.32286570382887, 32.116568037841134], [-81.32286570382887, 32.11674770089795], [-81.3230453668857, 32.11674770089795], [-81.3230453668857, 32.11692736395478], [-81.3232250299425, 32.11692736395478], [-81.3232250299425, 32.117107027011606], [-81.32340469299933, 32.117107027011606], [-81.32340469299933, 32.11746635312525], [-81.32358435605616, 32.11746635312525], [-81.32358435605616, 32.11764601618208], [-81.32376401911299, 32.11764601618208], [-81.32376401911299, 32.1178256792389], [-81.32394368216981, 32.1178256792389], [-81.32394368216981, 32.118005342295724], [-81.32412334522664, 32.118005342295724], [-81.32412334522664, 32.118185005352544], [-81.32430300828345, 32.118185005352544]], [[-81.32196738854475, 32.115849385613835], [-81.32214705160158, 32.115849385613835], [-81.32214705160158, 32.115669722557016], [-81.32196738854475, 32.115669722557016], [-81.32196738854475, 32.115849385613835]], [[-81.32214705160158, 32.11620871172748], [-81.32250637771521, 32.11620871172748], [-81.32250637771521, 32.115849385613835], [-81.32232671465839, 32.115849385613835], [-81.32232671465839, 32.11602904867066], [-81.32214705160158, 32.11602904867066], [-81.32214705160158, 32.11620871172748]], [[-81.32250637771521, 32.11638837478431], [-81.32268604077204, 32.11638837478431], [-81.32268604077204, 32.11620871172748], [-81.32250637771521, 32.11620871172748], [-81.32250637771521, 32.11638837478431]], [[-81.32196738854475, 32.11638837478431], [-81.32214705160158, 32.11638837478431], [-81.32214705160158, 32.11620871172748], [-81.32196738854475, 32.11620871172748], [-81.32196738854475, 32.11638837478431]]]}, "properties": {"name": "cand02", "ptype": "hall", "confidence": "low", "rank": 2, "area_ha": 4.3, "rise_db": 7.5, "digitised_from": "Sentinel-1 VV rise 2021->2026, orbit 150"}}, {"type": "Feature", "geometry": {"geodesic": false, "type": "Polygon", "coordinates": [[[-81.31208592041943, 32.123035907886795], [-81.31208592041943, 32.12267658177314], [-81.31154693124896, 32.12267658177314], [-81.31154693124896, 32.12249691871632], [-81.31100794207849, 32.12249691871632], [-81.31100794207849, 32.122317255659496], [-81.3102892898512, 32.122317255659496], [-81.3102892898512, 32.12213759260267], [-81.30975030068072, 32.12213759260267], [-81.30975030068072, 32.12195792954585], [-81.30903164845343, 32.12195792954585], [-81.30903164845343, 32.121778266489024], [-81.30849265928295, 32.121778266489024], [-81.30849265928295, 32.121598603432204], [-81.30777400705566, 32.121598603432204], [-81.30777400705566, 32.12141894037538], [-81.307414680942, 32.12141894037538], [-81.307414680942, 32.12123927731855], [-81.30705535482836, 32.12123927731855], [-81.30705535482836, 32.121778266489024], [-81.30759434399883, 32.121778266489024], [-81.30759434399883, 32.12195792954585], [-81.30813333316931, 32.12195792954585], [-81.30813333316931, 32.12213759260267], [-81.30867232233977, 32.12213759260267], [-81.30867232233977, 32.122317255659496], [-81.30921131151025, 32.122317255659496], [-81.30921131151025, 32.12249691871632], [-81.30975030068072, 32.12249691871632], [-81.30975030068072, 32.12267658177314], [-81.3102892898512, 32.12267658177314], [-81.3102892898512, 32.12285624482997], [-81.31082827902166, 32.12285624482997], [-81.31082827902166, 32.123035907886795], [-81.31208592041943, 32.123035907886795]]]}, "properties": {"name": "cand03", "ptype": "hall", "confidence": "low", "rank": 3, "area_ha": 3.1, "rise_db": 10.6, "digitised_from": "Sentinel-1 VV rise 2021->2026, orbit 150"}}, {"type": "Feature", "geometry": {"geodesic": false, "type": "Polygon", "coordinates": [[[-81.37856125144428, 32.13201906072799], [-81.37856125144428, 32.13165973461434], [-81.37820192533063, 32.13165973461434], [-81.37820192533063, 32.13148007155752], [-81.37784259921698, 32.13148007155752], [-81.37784259921698, 32.13130040850069], [-81.37748327310334, 32.13130040850069], [-81.37748327310334, 32.131120745443866], [-81.37694428393286, 32.131120745443866], [-81.37694428393286, 32.13058175627339], [-81.37658495781922, 32.13058175627339], [-81.37658495781922, 32.13076141933022], [-81.37622563170557, 32.13076141933022], [-81.37622563170557, 32.13058175627339], [-81.37586630559191, 32.13058175627339], [-81.37586630559191, 32.130402093216574], [-81.37550697947827, 32.130402093216574], [-81.37550697947827, 32.13022243015975], [-81.37514765336462, 32.13022243015975], [-81.37514765336462, 32.13004276710293], [-81.37442900113733, 32.13004276710293], [-81.37442900113733, 32.1298631040461], [-81.3742493380805, 32.1298631040461], [-81.3742493380805, 32.129683440989275], [-81.37389001196685, 32.129683440989275], [-81.37389001196685, 32.129503777932456], [-81.37353068585321, 32.129503777932456], [-81.37353068585321, 32.12932411487563], [-81.37317135973956, 32.12932411487563], [-81.37317135973956, 32.129503777932456], [-81.37299169668273, 32.129503777932456], [-81.37299169668273, 32.129683440989275], [-81.37335102279638, 32.129683440989275], [-81.37335102279638, 32.1298631040461], [-81.37371034891002, 32.1298631040461], [-81.37371034891002, 32.13004276710293], [-81.37389001196685, 32.13004276710293], [-81.37389001196685, 32.13022243015975], [-81.37460866419416, 32.13022243015975], [-81.37460866419416, 32.130402093216574], [-81.3749679903078, 32.130402093216574], [-81.3749679903078, 32.13058175627339], [-81.37532731642145, 32.13058175627339], [-81.37532731642145, 32.13076141933022], [-81.37568664253509, 32.13076141933022], [-81.37568664253509, 32.13094108238705], [-81.37622563170557, 32.13094108238705], [-81.37622563170557, 32.131120745443866], [-81.37640529476239, 32.131120745443866], [-81.37640529476239, 32.13130040850069], [-81.37694428393286, 32.13130040850069], [-81.37694428393286, 32.13148007155752], [-81.37712394698968, 32.13148007155752], [-81.37712394698968, 32.13165973461434], [-81.37766293616015, 32.13165973461434], [-81.37766293616015, 32.131839397671165], [-81.3780222622738, 32.131839397671165], [-81.3780222622738, 32.13201906072799], [-81.37856125144428, 32.13201906072799]]]}, "properties": {"name": "cand04", "ptype": "hall", "confidence": "low", "rank": 4, "area_ha": 3.0, "rise_db": 8.9, "digitised_from": "Sentinel-1 VV rise 2021->2026, orbit 150"}}, {"type": "Feature", "geometry": {"geodesic": false, "type": "Polygon", "coordinates": [[[-81.30400108286236, 32.12141894037538], [-81.30400108286236, 32.12105961426173], [-81.30454007203282, 32.12105961426173], [-81.30454007203282, 32.12052062509126], [-81.30346209369188, 32.12052062509126], [-81.30346209369188, 32.12034096203443], [-81.30310276757824, 32.12034096203443], [-81.30310276757824, 32.12016129897761], [-81.30328243063506, 32.12016129897761], [-81.30328243063506, 32.11998163592079], [-81.30292310452141, 32.11998163592079], [-81.30292310452141, 32.12016129897761], [-81.30256377840776, 32.12016129897761], [-81.30256377840776, 32.11998163592079], [-81.30184512618047, 32.11998163592079], [-81.30184512618047, 32.11980197286396], [-81.30130613701, 32.11980197286396], [-81.30130613701, 32.11998163592079], [-81.30112647395318, 32.11998163592079], [-81.30112647395318, 32.12016129897761], [-81.30130613701, 32.12016129897761], [-81.30130613701, 32.12034096203443], [-81.30148580006681, 32.12034096203443], [-81.30148580006681, 32.12052062509126], [-81.30166546312364, 32.12052062509126], [-81.30166546312364, 32.12034096203443], [-81.30184512618047, 32.12034096203443], [-81.30184512618047, 32.12052062509126], [-81.30220445229412, 32.12052062509126], [-81.30220445229412, 32.12070028814808], [-81.30310276757824, 32.12070028814808], [-81.30310276757824, 32.120879951204905], [-81.30328243063506, 32.120879951204905], [-81.30328243063506, 32.12105961426173], [-81.30346209369188, 32.12105961426173], [-81.30346209369188, 32.120879951204905], [-81.3036417567487, 32.120879951204905], [-81.3036417567487, 32.12123927731855], [-81.30382141980553, 32.12123927731855], [-81.30382141980553, 32.12141894037538], [-81.30400108286236, 32.12141894037538]]]}, "properties": {"name": "cand05", "ptype": "hall", "confidence": "low", "rank": 5, "area_ha": 2.5, "rise_db": 12.1, "digitised_from": "Sentinel-1 VV rise 2021->2026, orbit 150"}}, {"type": "Feature", "geometry": {"geodesic": false, "type": "Polygon", "coordinates": [[[-81.31208592041943, 32.12105961426173], [-81.31208592041943, 32.12070028814808], [-81.31154693124896, 32.12070028814808], [-81.31154693124896, 32.12052062509126], [-81.31136726819213, 32.12052062509126], [-81.31136726819213, 32.12034096203443], [-81.31064861596484, 32.12034096203443], [-81.31064861596484, 32.12016129897761], [-81.31046895290801, 32.12016129897761], [-81.31046895290801, 32.11998163592079], [-81.31010962679437, 32.11998163592079], [-81.31010962679437, 32.12016129897761], [-81.30992996373755, 32.12016129897761], [-81.30992996373755, 32.12034096203443], [-81.30975030068072, 32.12034096203443], [-81.30975030068072, 32.12016129897761], [-81.30831299622614, 32.12016129897761], [-81.30831299622614, 32.12052062509126], [-81.30939097456707, 32.12052062509126], [-81.30939097456707, 32.12070028814808], [-81.31010962679437, 32.12070028814808], [-81.31010962679437, 32.120879951204905], [-81.31118760513532, 32.120879951204905], [-81.31118760513532, 32.12105961426173], [-81.31208592041943, 32.12105961426173]]]}, "properties": {"name": "cand06", "ptype": "hall", "confidence": "low", "rank": 6, "area_ha": 2.4, "rise_db": 7.5, "digitised_from": "Sentinel-1 VV rise 2021->2026, orbit 150"}}, {"type": "Feature", "geometry": {"geodesic": false, "type": "Polygon", "coordinates": [[[-81.37065607694403, 32.13237838684164], [-81.37065607694403, 32.13219872378481], [-81.37083574000084, 32.13219872378481], [-81.37083574000084, 32.13130040850069], [-81.37065607694403, 32.13130040850069], [-81.37065607694403, 32.13004276710293], [-81.3704764138872, 32.13004276710293], [-81.3704764138872, 32.13022243015975], [-81.37029675083038, 32.13022243015975], [-81.37029675083038, 32.1298631040461], [-81.3697577616599, 32.1298631040461], [-81.3697577616599, 32.13022243015975], [-81.36957809860309, 32.13022243015975], [-81.36957809860309, 32.13201906072799], [-81.36993742471672, 32.13201906072799], [-81.36993742471672, 32.131839397671165], [-81.37011708777355, 32.131839397671165], [-81.37011708777355, 32.13022243015975], [-81.37029675083038, 32.13022243015975], [-81.37029675083038, 32.13058175627339], [-81.3704764138872, 32.13058175627339], [-81.3704764138872, 32.13076141933022], [-81.37029675083038, 32.13076141933022], [-81.37029675083038, 32.13094108238705], [-81.3704764138872, 32.13094108238705], [-81.3704764138872, 32.13201906072799], [-81.37029675083038, 32.13201906072799], [-81.37029675083038, 32.13237838684164], [-81.37065607694403, 32.13237838684164]]]}, "properties": {"name": "cand07", "ptype": "hall", "confidence": "low", "rank": 7, "area_ha": 2.3, "rise_db": 9.4, "digitised_from": "Sentinel-1 VV rise 2021->2026, orbit 150"}}, {"type": "Feature", "geometry": {"geodesic": false, "type": "Polygon", "coordinates": [[[-81.30076714783952, 32.11980197286396], [-81.30076714783952, 32.11962230980714], [-81.30094681089635, 32.11962230980714], [-81.30094681089635, 32.11926298369349], [-81.30022815866906, 32.11926298369349], [-81.30022815866906, 32.11908332063667], [-81.29950950644175, 32.11908332063667], [-81.29950950644175, 32.11890365757984], [-81.29915018032811, 32.11890365757984], [-81.29915018032811, 32.118723994523016], [-81.298251865044, 32.118723994523016], [-81.298251865044, 32.1185443314662], [-81.29771287587351, 32.1185443314662], [-81.29771287587351, 32.118723994523016], [-81.29753321281669, 32.118723994523016], [-81.29753321281669, 32.11890365757984], [-81.29789253893034, 32.11890365757984], [-81.29789253893034, 32.11908332063667], [-81.29843152810082, 32.11908332063667], [-81.29843152810082, 32.11926298369349], [-81.29879085421446, 32.11926298369349], [-81.29879085421446, 32.119442646750315], [-81.29950950644175, 32.119442646750315], [-81.29950950644175, 32.11962230980714], [-81.30004849561223, 32.11962230980714], [-81.30004849561223, 32.11980197286396], [-81.30076714783952, 32.11980197286396]]]}, "properties": {"name": "cand08", "ptype": "hall", "confidence": "low", "rank": 8, "area_ha": 2.2, "rise_db": 13.9, "digitised_from": "Sentinel-1 VV rise 2021->2026, orbit 150"}}, {"type": "Feature", "geometry": {"geodesic": false, "type": "Polygon", "coordinates": [[[-81.32879458470406, 32.138486930773645], [-81.32879458470406, 32.138307267716826], [-81.3291539108177, 32.138307267716826], [-81.3291539108177, 32.13812760466], [-81.32933357387452, 32.13812760466], [-81.32933357387452, 32.13794794160318], [-81.3284352585904, 32.13794794160318], [-81.3284352585904, 32.13776827854635], [-81.32861492164723, 32.13776827854635], [-81.32861492164723, 32.13758861548953], [-81.32879458470406, 32.13758861548953], [-81.32879458470406, 32.13722928937588], [-81.3284352585904, 32.13722928937588], [-81.3284352585904, 32.13740895243271], [-81.32807593247676, 32.13740895243271], [-81.32807593247676, 32.13758861548953], [-81.32825559553358, 32.13758861548953], [-81.32825559553358, 32.13812760466], [-81.32789626941994, 32.13812760466], [-81.32789626941994, 32.13794794160318], [-81.32807593247676, 32.13794794160318], [-81.32807593247676, 32.13776827854635], [-81.32789626941994, 32.13776827854635], [-81.32789626941994, 32.13740895243271], [-81.32771660636311, 32.13740895243271], [-81.32771660636311, 32.13722928937588], [-81.32753694330628, 32.13722928937588], [-81.32753694330628, 32.13740895243271], [-81.32699795413582, 32.13740895243271], [-81.32699795413582, 32.13722928937588], [-81.326818291079, 32.13722928937588], [-81.326818291079, 32.13758861548953], [-81.32663862802217, 32.13758861548953], [-81.32663862802217, 32.13794794160318], [-81.326818291079, 32.13794794160318], [-81.326818291079, 32.13812760466], [-81.32699795413582, 32.13812760466], [-81.32699795413582, 32.138307267716826], [-81.32717761719263, 32.138307267716826], [-81.32717761719263, 32.13812760466], [-81.32735728024946, 32.13812760466], [-81.32735728024946, 32.13794794160318], [-81.32771660636311, 32.13794794160318], [-81.32771660636311, 32.13812760466], [-81.32789626941994, 32.13812760466], [-81.32789626941994, 32.138307267716826], [-81.32807593247676, 32.138307267716826], [-81.32807593247676, 32.138486930773645], [-81.32879458470406, 32.138486930773645]], [[-81.32753694330628, 32.13758861548953], [-81.32771660636311, 32.13758861548953], [-81.32771660636311, 32.13740895243271], [-81.32753694330628, 32.13740895243271], [-81.32753694330628, 32.13758861548953]]]}, "properties": {"name": "cand09", "ptype": "hall", "confidence": "low", "rank": 9, "area_ha": 2.1, "rise_db": 5.9, "digitised_from": "Sentinel-1 VV rise 2021->2026, orbit 150"}}, {"type": "Feature", "geometry": {"geodesic": false, "type": "Polygon", "coordinates": [[[-81.35861865213683, 32.14315817025107], [-81.35861865213683, 32.14297850719424], [-81.35879831519364, 32.14297850719424], [-81.35879831519364, 32.142798844137424], [-81.35897797825046, 32.142798844137424], [-81.35897797825046, 32.1426191810806], [-81.35915764130729, 32.1426191810806], [-81.35915764130729, 32.14225985496695], [-81.35951696742094, 32.14225985496695], [-81.35951696742094, 32.14243951802377], [-81.35969663047777, 32.14243951802377], [-81.35969663047777, 32.14172086579648], [-81.35987629353458, 32.14172086579648], [-81.35987629353458, 32.14136153968283], [-81.36005595659141, 32.14136153968283], [-81.36005595659141, 32.14118187662601], [-81.36023561964824, 32.14118187662601], [-81.36023561964824, 32.14100221356918], [-81.36041528270506, 32.14100221356918], [-81.36041528270506, 32.14082255051236], [-81.36059494576189, 32.14082255051236], [-81.36059494576189, 32.140642887455535], [-81.36077460881872, 32.140642887455535], [-81.36077460881872, 32.14046322439871], [-81.36005595659141, 32.14046322439871], [-81.36005595659141, 32.140642887455535], [-81.35987629353458, 32.140642887455535], [-81.35987629353458, 32.14082255051236], [-81.35969663047777, 32.14082255051236], [-81.35969663047777, 32.14100221356918], [-81.35951696742094, 32.14100221356918], [-81.35951696742094, 32.14136153968283], [-81.35933730436412, 32.14136153968283], [-81.35933730436412, 32.14172086579648], [-81.35915764130729, 32.14172086579648], [-81.35915764130729, 32.141900528853306], [-81.35897797825046, 32.141900528853306], [-81.35897797825046, 32.142080191910125], [-81.35879831519364, 32.142080191910125], [-81.35879831519364, 32.14225985496695], [-81.35861865213683, 32.14225985496695], [-81.35861865213683, 32.1426191810806], [-81.35843898908, 32.1426191810806], [-81.35843898908, 32.142798844137424], [-81.35825932602317, 32.142798844137424], [-81.35825932602317, 32.14297850719424], [-81.35843898908, 32.14297850719424], [-81.35843898908, 32.14315817025107], [-81.35861865213683, 32.14315817025107]]]}, "properties": {"name": "cand10", "ptype": "hall", "confidence": "low", "rank": 10, "area_ha": 2.0, "rise_db": 9.8, "digitised_from": "Sentinel-1 VV rise 2021->2026, orbit 150"}}, {"type": "Feature", "geometry": {"geodesic": false, "type": "Polygon", "coordinates": [[[-81.30813333316931, 32.1914875325367], [-81.30813333316931, 32.19130786947988], [-81.30831299622614, 32.19130786947988], [-81.30831299622614, 32.19112820642305], [-81.30849265928295, 32.19112820642305], [-81.30849265928295, 32.190768880309406], [-81.30831299622614, 32.190768880309406], [-81.30831299622614, 32.19040955419576], [-81.30813333316931, 32.19040955419576], [-81.30813333316931, 32.190229891138934], [-81.30795367011248, 32.190229891138934], [-81.30795367011248, 32.18987056502529], [-81.30777400705566, 32.18987056502529], [-81.30777400705566, 32.189331575854816], [-81.30759434399883, 32.189331575854816], [-81.30759434399883, 32.18915191279799], [-81.30723501788519, 32.18915191279799], [-81.30723501788519, 32.189331575854816], [-81.307414680942, 32.189331575854816], [-81.307414680942, 32.18969090196846], [-81.30759434399883, 32.18969090196846], [-81.30759434399883, 32.18987056502529], [-81.30777400705566, 32.18987056502529], [-81.30777400705566, 32.190229891138934], [-81.30723501788519, 32.190229891138934], [-81.30723501788519, 32.19005022808211], [-81.30705535482836, 32.19005022808211], [-81.30705535482836, 32.19058921725258], [-81.30723501788519, 32.19058921725258], [-81.30723501788519, 32.190768880309406], [-81.30777400705566, 32.190768880309406], [-81.30777400705566, 32.190948543366225], [-81.30795367011248, 32.190948543366225], [-81.30795367011248, 32.19112820642305], [-81.30813333316931, 32.19112820642305], [-81.30813333316931, 32.19130786947988], [-81.30795367011248, 32.19130786947988], [-81.30795367011248, 32.1914875325367], [-81.30813333316931, 32.1914875325367]]]}, "properties": {"name": "cand11", "ptype": "hall", "confidence": "low", "rank": 11, "area_ha": 1.5, "rise_db": 6.6, "digitised_from": "Sentinel-1 VV rise 2021->2026, orbit 150"}}, {"type": "Feature", "geometry": {"geodesic": false, "type": "Polygon", "coordinates": [[[-81.35736101073906, 32.14531412693296], [-81.35736101073906, 32.14513446387613], [-81.35754067379588, 32.14513446387613], [-81.35754067379588, 32.144954800819306], [-81.35772033685271, 32.144954800819306], [-81.35772033685271, 32.144415811648834], [-81.35789999990952, 32.144415811648834], [-81.35789999990952, 32.144236148592015], [-81.35807966296635, 32.144236148592015], [-81.35807966296635, 32.14405648553519], [-81.35825932602317, 32.14405648553519], [-81.35825932602317, 32.14369715942154], [-81.35843898908, 32.14369715942154], [-81.35843898908, 32.143517496364716], [-81.35825932602317, 32.143517496364716], [-81.35825932602317, 32.143337833307896], [-81.35807966296635, 32.143337833307896], [-81.35807966296635, 32.143517496364716], [-81.35789999990952, 32.143517496364716], [-81.35789999990952, 32.14369715942154], [-81.35772033685271, 32.14369715942154], [-81.35772033685271, 32.14387682247837], [-81.35754067379588, 32.14387682247837], [-81.35754067379588, 32.144236148592015], [-81.35736101073906, 32.144236148592015], [-81.35736101073906, 32.144415811648834], [-81.35718134768223, 32.144415811648834], [-81.35718134768223, 32.14459547470566], [-81.3570016846254, 32.14459547470566], [-81.3570016846254, 32.14477513776249], [-81.35682202156858, 32.14477513776249], [-81.35682202156858, 32.14531412693296], [-81.35736101073906, 32.14531412693296]]]}, "properties": {"name": "cand12", "ptype": "hall", "confidence": "low", "rank": 12, "area_ha": 1.4, "rise_db": 9.3, "digitised_from": "Sentinel-1 VV rise 2021->2026, orbit 150"}}, {"type": "Feature", "geometry": {"geodesic": false, "type": "Polygon", "coordinates": [[[-81.32035042103333, 32.118005342295724], [-81.32035042103333, 32.11764601618208], [-81.32017075797651, 32.11764601618208], [-81.32017075797651, 32.11746635312525], [-81.31999109491969, 32.11746635312525], [-81.31999109491969, 32.11674770089795], [-81.31981143186286, 32.11674770089795], [-81.31981143186286, 32.116568037841134], [-81.31963176880603, 32.116568037841134], [-81.31963176880603, 32.11638837478431], [-81.3194521057492, 32.11638837478431], [-81.3194521057492, 32.11620871172748], [-81.31927244269238, 32.11620871172748], [-81.31927244269238, 32.11602904867066], [-81.31909277963557, 32.11602904867066], [-81.31909277963557, 32.115849385613835], [-81.31873345352192, 32.115849385613835], [-81.31873345352192, 32.11620871172748], [-81.31891311657874, 32.11620871172748], [-81.31891311657874, 32.11638837478431], [-81.31909277963557, 32.11638837478431], [-81.31909277963557, 32.11674770089795], [-81.31927244269238, 32.11674770089795], [-81.31927244269238, 32.11692736395478], [-81.3194521057492, 32.11692736395478], [-81.3194521057492, 32.117107027011606], [-81.31963176880603, 32.117107027011606], [-81.31963176880603, 32.11746635312525], [-81.31981143186286, 32.11746635312525], [-81.31981143186286, 32.1178256792389], [-81.31999109491969, 32.1178256792389], [-81.31999109491969, 32.118005342295724], [-81.32035042103333, 32.118005342295724]]]}, "properties": {"name": "cand13", "ptype": "hall", "confidence": "low", "rank": 13, "area_ha": 1.3, "rise_db": 7.3, "digitised_from": "Sentinel-1 VV rise 2021->2026, orbit 150"}}, {"type": "Feature", "geometry": {"geodesic": false, "type": "Polygon", "coordinates": [[[-81.39293429599019, 32.14459547470566], [-81.39293429599019, 32.144415811648834], [-81.39329362210384, 32.144415811648834], [-81.39329362210384, 32.14459547470566], [-81.39365294821748, 32.14459547470566], [-81.39365294821748, 32.14369715942154], [-81.39347328516065, 32.14369715942154], [-81.39347328516065, 32.143517496364716], [-81.39311395904701, 32.143517496364716], [-81.39311395904701, 32.14387682247837], [-81.39293429599019, 32.14387682247837], [-81.39293429599019, 32.14405648553519], [-81.39275463293336, 32.14405648553519], [-81.39275463293336, 32.144236148592015], [-81.39257496987653, 32.144236148592015], [-81.39257496987653, 32.14405648553519], [-81.39239530681972, 32.14405648553519], [-81.39239530681972, 32.144236148592015], [-81.3922156437629, 32.144236148592015], [-81.3922156437629, 32.14405648553519], [-81.39203598070607, 32.14405648553519], [-81.39203598070607, 32.144236148592015], [-81.39185631764924, 32.144236148592015], [-81.39185631764924, 32.144415811648834], [-81.39203598070607, 32.144415811648834], [-81.39203598070607, 32.14459547470566], [-81.39293429599019, 32.14459547470566]]]}, "properties": {"name": "cand14", "ptype": "hall", "confidence": "low", "rank": 14, "area_ha": 1.3, "rise_db": 5.7, "digitised_from": "Sentinel-1 VV rise 2021->2026, orbit 150"}}, {"type": "Feature", "geometry": {"geodesic": false, "type": "Polygon", "coordinates": [[[-81.31298423570355, 32.15555492117192], [-81.31298423570355, 32.15537525811509], [-81.31334356181719, 32.15537525811509], [-81.31334356181719, 32.15555492117192], [-81.31370288793084, 32.15555492117192], [-81.31370288793084, 32.15501593200145], [-81.31352322487402, 32.15501593200145], [-81.31352322487402, 32.15483626894462], [-81.3126249095899, 32.15483626894462], [-81.3126249095899, 32.154476942830975], [-81.31226558347626, 32.154476942830975], [-81.31226558347626, 32.1546566058878], [-81.31208592041943, 32.1546566058878], [-81.31208592041943, 32.15483626894462], [-81.31226558347626, 32.15483626894462], [-81.31226558347626, 32.15501593200145], [-81.31244524653307, 32.15501593200145], [-81.31244524653307, 32.155195595058274], [-81.3126249095899, 32.155195595058274], [-81.3126249095899, 32.15537525811509], [-81.31280457264673, 32.15537525811509], [-81.31280457264673, 32.15555492117192], [-81.31298423570355, 32.15555492117192]]]}, "properties": {"name": "cand15", "ptype": "hall", "confidence": "low", "rank": 15, "area_ha": 1.1, "rise_db": 6.2, "digitised_from": "Sentinel-1 VV rise 2021->2026, orbit 150"}}, {"type": "Feature", "geometry": {"geodesic": false, "type": "Polygon", "coordinates": [[[-81.30076714783952, 32.128246136534685], [-81.30076714783952, 32.12788681042104], [-81.30094681089635, 32.12788681042104], [-81.30094681089635, 32.12752748430739], [-81.30112647395318, 32.12752748430739], [-81.30112647395318, 32.12716815819374], [-81.30130613701, 32.12716815819374], [-81.30130613701, 32.1260901798528], [-81.30112647395318, 32.1260901798528], [-81.30112647395318, 32.12644950596645], [-81.30094681089635, 32.12644950596645], [-81.30094681089635, 32.12662916902327], [-81.30076714783952, 32.12662916902327], [-81.30076714783952, 32.12734782125057], [-81.3005874847827, 32.12734782125057], [-81.3005874847827, 32.12788681042104], [-81.30040782172588, 32.12788681042104], [-81.30040782172588, 32.128246136534685], [-81.30076714783952, 32.128246136534685]]]}, "properties": {"name": "cand16", "ptype": "hall", "confidence": "low", "rank": 16, "area_ha": 1.0, "rise_db": 6.5, "digitised_from": "Sentinel-1 VV rise 2021->2026, orbit 150"}}, {"type": "Feature", "geometry": {"geodesic": false, "type": "Polygon", "coordinates": [[[-81.28351949438444, 32.18825359751387], [-81.28351949438444, 32.188073934457044], [-81.28333983132761, 32.188073934457044], [-81.28333983132761, 32.187894271400225], [-81.28369915744125, 32.187894271400225], [-81.28369915744125, 32.1869959561161], [-81.28351949438444, 32.1869959561161], [-81.28351949438444, 32.18681629305928], [-81.28333983132761, 32.18681629305928], [-81.28333983132761, 32.1869959561161], [-81.28298050521396, 32.1869959561161], [-81.28298050521396, 32.187175619172926], [-81.28280084215713, 32.187175619172926], [-81.28280084215713, 32.18753494528657], [-81.28298050521396, 32.18753494528657], [-81.28298050521396, 32.187894271400225], [-81.28316016827078, 32.187894271400225], [-81.28316016827078, 32.188073934457044], [-81.28333983132761, 32.188073934457044], [-81.28333983132761, 32.18825359751387], [-81.28351949438444, 32.18825359751387]]]}, "properties": {"name": "cand17", "ptype": "hall", "confidence": "low", "rank": 17, "area_ha": 1.0, "rise_db": 8.4, "digitised_from": "Sentinel-1 VV rise 2021->2026, orbit 150"}}]}