{"type": "FeatureCollection", "features": [{"type": "Feature", "geometry": {"geodesic": false, "type": "Polygon", "coordinates": [[[-99.78198715108726, 32.50176563167158], [-99.78198715108726, 32.50158596861476], [-99.78288546637138, 32.50158596861476], [-99.78288546637138, 32.501406305557936], [-99.78306512942821, 32.501406305557936], [-99.78306512942821, 32.50122664250111], [-99.78342445554186, 32.50122664250111], [-99.78342445554186, 32.501406305557936], [-99.78396344471233, 32.501406305557936], [-99.78396344471233, 32.50122664250111], [-99.78414310776915, 32.50122664250111], [-99.78414310776915, 32.50104697944429], [-99.78432277082598, 32.50104697944429], [-99.78432277082598, 32.50122664250111], [-99.78486175999645, 32.50122664250111], [-99.78486175999645, 32.50104697944429], [-99.78540074916693, 32.50104697944429], [-99.78540074916693, 32.50122664250111], [-99.78719737973516, 32.50122664250111], [-99.78719737973516, 32.50104697944429], [-99.78737704279199, 32.50104697944429], [-99.78737704279199, 32.499250348876046], [-99.78719737973516, 32.499250348876046], [-99.78719737973516, 32.49907068581923], [-99.78737704279199, 32.49907068581923], [-99.78737704279199, 32.49745371830781], [-99.7875567058488, 32.49745371830781], [-99.7875567058488, 32.49727405525098], [-99.78773636890563, 32.49727405525098], [-99.78773636890563, 32.49799270747828], [-99.78791603196245, 32.49799270747828], [-99.78791603196245, 32.4981723705351], [-99.78809569501928, 32.4981723705351], [-99.78809569501928, 32.49835203359193], [-99.78791603196245, 32.49835203359193], [-99.78791603196245, 32.498531696648755], [-99.78809569501928, 32.498531696648755], [-99.78809569501928, 32.498711359705574], [-99.7882753580761, 32.498711359705574], [-99.7882753580761, 32.498531696648755], [-99.78845502113292, 32.498531696648755], [-99.78845502113292, 32.4981723705351], [-99.78863468418974, 32.4981723705351], [-99.78863468418974, 32.497813044421456], [-99.78881434724657, 32.497813044421456], [-99.78881434724657, 32.497633381364636], [-99.78863468418974, 32.497633381364636], [-99.78863468418974, 32.49691472913734], [-99.78845502113292, 32.49691472913734], [-99.78845502113292, 32.49673506608051], [-99.78863468418974, 32.49673506608051], [-99.78863468418974, 32.496375739966865], [-99.78773636890563, 32.496375739966865], [-99.78773636890563, 32.49655540302369], [-99.78683805362151, 32.49655540302369], [-99.78683805362151, 32.49673506608051], [-99.78629906445104, 32.49673506608051], [-99.78629906445104, 32.49691472913734], [-99.78450243388279, 32.49691472913734], [-99.78450243388279, 32.49673506608051], [-99.7837837816555, 32.49673506608051], [-99.7837837816555, 32.49691472913734], [-99.78162782497361, 32.49691472913734], [-99.78162782497361, 32.49673506608051], [-99.7814481619168, 32.49673506608051], [-99.7814481619168, 32.49691472913734], [-99.7755192810416, 32.49691472913734], [-99.7755192810416, 32.497094392194164], [-99.77533961798478, 32.497094392194164], [-99.77533961798478, 32.49727405525098], [-99.7755192810416, 32.49727405525098], [-99.7755192810416, 32.497633381364636], [-99.77569894409842, 32.497633381364636], [-99.77569894409842, 32.4981723705351], [-99.77587860715525, 32.4981723705351], [-99.77587860715525, 32.49835203359193], [-99.77569894409842, 32.49835203359193], [-99.77569894409842, 32.498531696648755], [-99.7755192810416, 32.498531696648755], [-99.7755192810416, 32.49943001193287], [-99.77569894409842, 32.49943001193287], [-99.77569894409842, 32.500148664160164], [-99.7755192810416, 32.500148664160164], [-99.7755192810416, 32.50032832721699], [-99.77533961798478, 32.50032832721699], [-99.77533961798478, 32.50050799027382], [-99.77498029187113, 32.50050799027382], [-99.77498029187113, 32.50104697944429], [-99.77515995492796, 32.50104697944429], [-99.77515995492796, 32.501406305557936], [-99.77533961798478, 32.501406305557936], [-99.77533961798478, 32.50158596861476], [-99.77605827021208, 32.50158596861476], [-99.77605827021208, 32.501406305557936], [-99.7762379332689, 32.501406305557936], [-99.7762379332689, 32.50122664250111], [-99.7769565854962, 32.50122664250111], [-99.7769565854962, 32.50104697944429], [-99.77713624855302, 32.50104697944429], [-99.77713624855302, 32.50122664250111], [-99.77731591160985, 32.50122664250111], [-99.77731591160985, 32.501406305557936], [-99.77785490078031, 32.501406305557936], [-99.77785490078031, 32.50122664250111], [-99.78090917274632, 32.50122664250111], [-99.78090917274632, 32.50104697944429], [-99.7814481619168, 32.50104697944429], [-99.7814481619168, 32.50122664250111], [-99.78162782497361, 32.50122664250111], [-99.78162782497361, 32.50158596861476], [-99.78180748803044, 32.50158596861476], [-99.78180748803044, 32.50176563167158], [-99.78198715108726, 32.50176563167158]], [[-99.7875567058488, 32.497094392194164], [-99.78773636890563, 32.497094392194164], [-99.78773636890563, 32.49691472913734], [-99.7875567058488, 32.49691472913734], [-99.7875567058488, 32.497094392194164]], [[-99.78504142305327, 32.49907068581923], [-99.7852210861101, 32.49907068581923], [-99.7852210861101, 32.4988910227624], [-99.78504142305327, 32.4988910227624], [-99.78504142305327, 32.49907068581923]], [[-99.78288546637138, 32.49907068581923], [-99.78306512942821, 32.49907068581923], [-99.78306512942821, 32.4988910227624], [-99.78288546637138, 32.4988910227624], [-99.78288546637138, 32.49907068581923]], [[-99.77659725938254, 32.49907068581923], [-99.77677692243937, 32.49907068581923], [-99.77677692243937, 32.4988910227624], [-99.77659725938254, 32.4988910227624], [-99.77659725938254, 32.49907068581923]], [[-99.77587860715525, 32.49907068581923], [-99.77605827021208, 32.49907068581923], [-99.77605827021208, 32.4988910227624], [-99.77587860715525, 32.4988910227624], [-99.77587860715525, 32.49907068581923]], [[-99.77803456383714, 32.50050799027382], [-99.7785735530076, 32.50050799027382], [-99.7785735530076, 32.50032832721699], [-99.77875321606443, 32.50032832721699], [-99.77875321606443, 32.49943001193287], [-99.7785735530076, 32.49943001193287], [-99.7785735530076, 32.49907068581923], [-99.77893287912126, 32.49907068581923], [-99.77893287912126, 32.4988910227624], [-99.77875321606443, 32.4988910227624], [-99.77875321606443, 32.49799270747828], [-99.7785735530076, 32.49799270747828], [-99.7785735530076, 32.49727405525098], [-99.77821422689397, 32.49727405525098], [-99.77821422689397, 32.49745371830781], [-99.77803456383714, 32.49745371830781], [-99.77803456383714, 32.498711359705574], [-99.77785490078031, 32.498711359705574], [-99.77785490078031, 32.499250348876046], [-99.77803456383714, 32.499250348876046], [-99.77803456383714, 32.50050799027382]], [[-99.78414310776915, 32.50068765333064], [-99.78450243388279, 32.50068765333064], [-99.78450243388279, 32.50050799027382], [-99.78486175999645, 32.50050799027382], [-99.78486175999645, 32.4996096749897], [-99.78468209693962, 32.4996096749897], [-99.78468209693962, 32.49943001193287], [-99.78486175999645, 32.49943001193287], [-99.78486175999645, 32.4988910227624], [-99.78468209693962, 32.4988910227624], [-99.78468209693962, 32.498711359705574], [-99.78486175999645, 32.498711359705574], [-99.78486175999645, 32.498531696648755], [-99.78468209693962, 32.498531696648755], [-99.78468209693962, 32.49745371830781], [-99.78432277082598, 32.49745371830781], [-99.78432277082598, 32.49799270747828], [-99.78414310776915, 32.49799270747828], [-99.78414310776915, 32.49835203359193], [-99.78432277082598, 32.49835203359193], [-99.78432277082598, 32.4988910227624], [-99.78414310776915, 32.4988910227624], [-99.78414310776915, 32.49907068581923], [-99.78432277082598, 32.49907068581923], [-99.78432277082598, 32.499250348876046], [-99.78414310776915, 32.499250348876046], [-99.78414310776915, 32.500148664160164], [-99.78432277082598, 32.500148664160164], [-99.78432277082598, 32.50050799027382], [-99.78414310776915, 32.50050799027382], [-99.78414310776915, 32.50068765333064]], [[-99.78108883580315, 32.50068765333064], [-99.78126849885997, 32.50068765333064], [-99.78126849885997, 32.50050799027382], [-99.78162782497361, 32.50050799027382], [-99.78162782497361, 32.4996096749897], [-99.78180748803044, 32.4996096749897], [-99.78180748803044, 32.49907068581923], [-99.78216681414409, 32.49907068581923], [-99.78216681414409, 32.4988910227624], [-99.78180748803044, 32.4988910227624], [-99.78180748803044, 32.497633381364636], [-99.7814481619168, 32.497633381364636], [-99.7814481619168, 32.49727405525098], [-99.78126849885997, 32.49727405525098], [-99.78126849885997, 32.49745371830781], [-99.78108883580315, 32.49745371830781], [-99.78108883580315, 32.497633381364636], [-99.78126849885997, 32.497633381364636], [-99.78126849885997, 32.497813044421456], [-99.78108883580315, 32.497813044421456], [-99.78108883580315, 32.49907068581923], [-99.78090917274632, 32.49907068581923], [-99.78090917274632, 32.499250348876046], [-99.78108883580315, 32.499250348876046], [-99.78108883580315, 32.50068765333064]]]}, "properties": {"name": "cand01", "ptype": "hall", "confidence": "low", "rank": 1, "area_ha": 59.8, "rise_db": 10.6, "digitised_from": "Sentinel-1 VV rise 2021->2026, orbit 5"}}, {"type": "Feature", "geometry": {"geodesic": false, "type": "Polygon", "coordinates": [[[-99.77929220523491, 32.50751484948995], [-99.77929220523491, 32.507335186433124], [-99.77911254217808, 32.507335186433124], [-99.77911254217808, 32.5071555233763], [-99.77947186829172, 32.5071555233763], [-99.77947186829172, 32.50697586031948], [-99.77965153134855, 32.50697586031948], [-99.77965153134855, 32.50679619726265], [-99.77983119440538, 32.50679619726265], [-99.77983119440538, 32.5071555233763], [-99.78234647720092, 32.5071555233763], [-99.78234647720092, 32.507335186433124], [-99.78216681414409, 32.507335186433124], [-99.78216681414409, 32.50751484948995], [-99.78270580331456, 32.50751484948995], [-99.78270580331456, 32.507335186433124], [-99.78306512942821, 32.507335186433124], [-99.78306512942821, 32.50697586031948], [-99.78324479248504, 32.50697586031948], [-99.78324479248504, 32.506616534205826], [-99.78234647720092, 32.506616534205826], [-99.78234647720092, 32.506436871149006], [-99.78216681414409, 32.506436871149006], [-99.78216681414409, 32.50553855586489], [-99.78234647720092, 32.50553855586489], [-99.78234647720092, 32.505179229751235], [-99.78216681414409, 32.505179229751235], [-99.78216681414409, 32.504999566694416], [-99.78234647720092, 32.504999566694416], [-99.78234647720092, 32.50464024058076], [-99.78216681414409, 32.50464024058076], [-99.78216681414409, 32.503562262239825], [-99.78234647720092, 32.503562262239825], [-99.78234647720092, 32.503382599183], [-99.78252614025773, 32.503382599183], [-99.78252614025773, 32.503562262239825], [-99.78270580331456, 32.503562262239825], [-99.78270580331456, 32.50320293612617], [-99.78288546637138, 32.50320293612617], [-99.78288546637138, 32.503382599183], [-99.78306512942821, 32.503382599183], [-99.78306512942821, 32.50320293612617], [-99.78324479248504, 32.50320293612617], [-99.78324479248504, 32.50302327306935], [-99.78270580331456, 32.50302327306935], [-99.78270580331456, 32.50320293612617], [-99.78252614025773, 32.50320293612617], [-99.78252614025773, 32.50302327306935], [-99.77677692243937, 32.50302327306935], [-99.77677692243937, 32.50320293612617], [-99.77659725938254, 32.50320293612617], [-99.77659725938254, 32.503382599183], [-99.77677692243937, 32.503382599183], [-99.77677692243937, 32.503562262239825], [-99.7769565854962, 32.503562262239825], [-99.7769565854962, 32.50392158835347], [-99.77713624855302, 32.50392158835347], [-99.77713624855302, 32.50481990363759], [-99.7769565854962, 32.50481990363759], [-99.7769565854962, 32.504999566694416], [-99.77713624855302, 32.504999566694416], [-99.77713624855302, 32.506616534205826], [-99.7769565854962, 32.506616534205826], [-99.7769565854962, 32.50679619726265], [-99.77641759632573, 32.50679619726265], [-99.77641759632573, 32.50697586031948], [-99.7762379332689, 32.50697586031948], [-99.7762379332689, 32.5071555233763], [-99.77659725938254, 32.5071555233763], [-99.77659725938254, 32.507335186433124], [-99.77803456383714, 32.507335186433124], [-99.77803456383714, 32.5071555233763], [-99.77821422689397, 32.5071555233763], [-99.77821422689397, 32.507335186433124], [-99.7785735530076, 32.507335186433124], [-99.7785735530076, 32.5071555233763], [-99.77875321606443, 32.5071555233763], [-99.77875321606443, 32.507335186433124], [-99.77911254217808, 32.507335186433124], [-99.77911254217808, 32.50751484948995], [-99.77929220523491, 32.50751484948995]], [[-99.78090917274632, 32.505179229751235], [-99.78108883580315, 32.505179229751235], [-99.78108883580315, 32.504999566694416], [-99.78090917274632, 32.504999566694416], [-99.78090917274632, 32.505179229751235]], [[-99.77731591160985, 32.505179229751235], [-99.77749557466666, 32.505179229751235], [-99.77749557466666, 32.504999566694416], [-99.77731591160985, 32.504999566694416], [-99.77731591160985, 32.505179229751235]], [[-99.77965153134855, 32.50535889280806], [-99.77983119440538, 32.50535889280806], [-99.77983119440538, 32.505179229751235], [-99.7800108574622, 32.505179229751235], [-99.7800108574622, 32.504999566694416], [-99.77965153134855, 32.504999566694416], [-99.77965153134855, 32.50481990363759], [-99.77983119440538, 32.50481990363759], [-99.77983119440538, 32.50464024058076], [-99.77965153134855, 32.50464024058076], [-99.77965153134855, 32.50446057752394], [-99.77983119440538, 32.50446057752394], [-99.77983119440538, 32.50392158835347], [-99.77965153134855, 32.50392158835347], [-99.77965153134855, 32.503562262239825], [-99.77947186829172, 32.503562262239825], [-99.77947186829172, 32.504999566694416], [-99.77929220523491, 32.504999566694416], [-99.77929220523491, 32.505179229751235], [-99.77965153134855, 32.505179229751235], [-99.77965153134855, 32.50535889280806]], [[-99.78019052051903, 32.505897881978534], [-99.78037018357585, 32.505897881978534], [-99.78037018357585, 32.50571821892171], [-99.78019052051903, 32.50571821892171], [-99.78019052051903, 32.505897881978534]], [[-99.78037018357585, 32.506436871149006], [-99.78054984663267, 32.506436871149006], [-99.78054984663267, 32.50625720809218], [-99.78037018357585, 32.50625720809218], [-99.78037018357585, 32.506436871149006]], [[-99.77965153134855, 32.506616534205826], [-99.77983119440538, 32.506616534205826], [-99.77983119440538, 32.50553855586489], [-99.77965153134855, 32.50553855586489], [-99.77965153134855, 32.50535889280806], [-99.77947186829172, 32.50535889280806], [-99.77947186829172, 32.506436871149006], [-99.77965153134855, 32.506436871149006], [-99.77965153134855, 32.506616534205826]]]}, "properties": {"name": "cand02", "ptype": "hall", "confidence": "low", "rank": 2, "area_ha": 27.2, "rise_db": 10.8, "digitised_from": "Sentinel-1 VV rise 2021->2026, orbit 5"}}, {"type": "Feature", "geometry": {"geodesic": false, "type": "Polygon", "coordinates": [[[-99.79905514148554, 32.4996096749897], [-99.79905514148554, 32.49943001193287], [-99.799594130656, 32.49943001193287], [-99.799594130656, 32.499250348876046], [-99.79977379371283, 32.499250348876046], [-99.79977379371283, 32.49907068581923], [-99.79923480454237, 32.49907068581923], [-99.79923480454237, 32.4988910227624], [-99.80013311982648, 32.4988910227624], [-99.80013311982648, 32.49907068581923], [-99.8003127828833, 32.49907068581923], [-99.8003127828833, 32.499250348876046], [-99.80067210899695, 32.499250348876046], [-99.80067210899695, 32.49907068581923], [-99.80121109816743, 32.49907068581923], [-99.80121109816743, 32.499250348876046], [-99.8010314351106, 32.499250348876046], [-99.8010314351106, 32.49943001193287], [-99.80121109816743, 32.49943001193287], [-99.80121109816743, 32.4996096749897], [-99.80139076122424, 32.4996096749897], [-99.80139076122424, 32.49943001193287], [-99.80210941345155, 32.49943001193287], [-99.80210941345155, 32.499250348876046], [-99.80228907650836, 32.499250348876046], [-99.80228907650836, 32.49907068581923], [-99.80210941345155, 32.49907068581923], [-99.80210941345155, 32.4988910227624], [-99.80264840262201, 32.4988910227624], [-99.80264840262201, 32.498711359705574], [-99.80282806567884, 32.498711359705574], [-99.80282806567884, 32.497813044421456], [-99.80264840262201, 32.497813044421456], [-99.80264840262201, 32.49727405525098], [-99.80246873956519, 32.49727405525098], [-99.80246873956519, 32.49691472913734], [-99.80228907650836, 32.49691472913734], [-99.80228907650836, 32.49655540302369], [-99.80210941345155, 32.49655540302369], [-99.80210941345155, 32.49601641385322], [-99.80192975039472, 32.49601641385322], [-99.80192975039472, 32.49529776162592], [-99.8017500873379, 32.49529776162592], [-99.8017500873379, 32.494938435512275], [-99.80192975039472, 32.494938435512275], [-99.80192975039472, 32.49457910939863], [-99.8017500873379, 32.49457910939863], [-99.8017500873379, 32.4943994463418], [-99.80157042428107, 32.4943994463418], [-99.80157042428107, 32.49457910939863], [-99.80049244594012, 32.49457910939863], [-99.80049244594012, 32.4943994463418], [-99.80013311982648, 32.4943994463418], [-99.80013311982648, 32.49457910939863], [-99.79923480454237, 32.49457910939863], [-99.79923480454237, 32.494938435512275], [-99.79905514148554, 32.494938435512275], [-99.79905514148554, 32.49457910939863], [-99.79851615231506, 32.49457910939863], [-99.79851615231506, 32.4943994463418], [-99.79707884786048, 32.4943994463418], [-99.79707884786048, 32.49457910939863], [-99.79689918480365, 32.49457910939863], [-99.79689918480365, 32.49475877245545], [-99.79707884786048, 32.49475877245545], [-99.79707884786048, 32.494938435512275], [-99.79833648925823, 32.494938435512275], [-99.79833648925823, 32.4951180985691], [-99.79815682620142, 32.4951180985691], [-99.79815682620142, 32.49529776162592], [-99.7979771631446, 32.49529776162592], [-99.7979771631446, 32.4951180985691], [-99.79779750008777, 32.4951180985691], [-99.79779750008777, 32.49529776162592], [-99.79761783703094, 32.49529776162592], [-99.79761783703094, 32.49583675079639], [-99.79779750008777, 32.49583675079639], [-99.79779750008777, 32.49601641385322], [-99.79815682620142, 32.49601641385322], [-99.79815682620142, 32.49583675079639], [-99.79833648925823, 32.49583675079639], [-99.79833648925823, 32.49619607691004], [-99.7972585109173, 32.49619607691004], [-99.7972585109173, 32.496375739966865], [-99.79707884786048, 32.496375739966865], [-99.79707884786048, 32.49673506608051], [-99.7972585109173, 32.49673506608051], [-99.7972585109173, 32.49655540302369], [-99.79833648925823, 32.49655540302369], [-99.79833648925823, 32.49727405525098], [-99.79815682620142, 32.49727405525098], [-99.79815682620142, 32.49745371830781], [-99.79743817397411, 32.49745371830781], [-99.79743817397411, 32.497633381364636], [-99.79707884786048, 32.497633381364636], [-99.79707884786048, 32.497813044421456], [-99.79689918480365, 32.497813044421456], [-99.79689918480365, 32.49799270747828], [-99.79671952174682, 32.49799270747828], [-99.79671952174682, 32.49835203359193], [-99.79689918480365, 32.49835203359193], [-99.79689918480365, 32.49943001193287], [-99.7972585109173, 32.49943001193287], [-99.7972585109173, 32.49907068581923], [-99.79743817397411, 32.49907068581923], [-99.79743817397411, 32.4988910227624], [-99.79761783703094, 32.4988910227624], [-99.79761783703094, 32.498531696648755], [-99.79779750008777, 32.498531696648755], [-99.79779750008777, 32.49835203359193], [-99.79815682620142, 32.49835203359193], [-99.79815682620142, 32.499250348876046], [-99.79833648925823, 32.499250348876046], [-99.79833648925823, 32.49943001193287], [-99.79869581537189, 32.49943001193287], [-99.79869581537189, 32.4996096749897], [-99.79905514148554, 32.4996096749897]], [[-99.79851615231506, 32.4951180985691], [-99.79869581537189, 32.4951180985691], [-99.79869581537189, 32.494938435512275], [-99.79851615231506, 32.494938435512275], [-99.79851615231506, 32.4951180985691]], [[-99.79869581537189, 32.49529776162592], [-99.79887547842871, 32.49529776162592], [-99.79887547842871, 32.4951180985691], [-99.79869581537189, 32.4951180985691], [-99.79869581537189, 32.49529776162592]], [[-99.799594130656, 32.49547742468275], [-99.79977379371283, 32.49547742468275], [-99.79977379371283, 32.49529776162592], [-99.799594130656, 32.49529776162592], [-99.799594130656, 32.49547742468275]], [[-99.8010314351106, 32.49601641385322], [-99.80121109816743, 32.49601641385322], [-99.80121109816743, 32.49565708773957], [-99.80139076122424, 32.49565708773957], [-99.80139076122424, 32.4951180985691], [-99.80157042428107, 32.4951180985691], [-99.80157042428107, 32.494938435512275], [-99.8010314351106, 32.494938435512275], [-99.8010314351106, 32.4951180985691], [-99.80121109816743, 32.4951180985691], [-99.80121109816743, 32.49529776162592], [-99.8010314351106, 32.49529776162592], [-99.8010314351106, 32.4951180985691], [-99.80085177205378, 32.4951180985691], [-99.80085177205378, 32.494938435512275], [-99.8003127828833, 32.494938435512275], [-99.8003127828833, 32.4951180985691], [-99.80049244594012, 32.4951180985691], [-99.80049244594012, 32.49529776162592], [-99.80067210899695, 32.49529776162592], [-99.80067210899695, 32.49547742468275], [-99.80085177205378, 32.49547742468275], [-99.80085177205378, 32.49565708773957], [-99.8010314351106, 32.49565708773957], [-99.8010314351106, 32.49601641385322]], [[-99.79833648925823, 32.496375739966865], [-99.79851615231506, 32.496375739966865], [-99.79851615231506, 32.49619607691004], [-99.79833648925823, 32.49619607691004], [-99.79833648925823, 32.496375739966865]], [[-99.79977379371283, 32.49799270747828], [-99.79995345676966, 32.49799270747828], [-99.79995345676966, 32.49745371830781], [-99.80013311982648, 32.49745371830781], [-99.80013311982648, 32.49727405525098], [-99.79995345676966, 32.49727405525098], [-99.79995345676966, 32.497094392194164], [-99.80013311982648, 32.497094392194164], [-99.80013311982648, 32.49691472913734], [-99.8003127828833, 32.49691472913734], [-99.8003127828833, 32.49673506608051], [-99.80013311982648, 32.49673506608051], [-99.80013311982648, 32.49655540302369], [-99.799594130656, 32.49655540302369], [-99.799594130656, 32.496375739966865], [-99.79941446759918, 32.496375739966865], [-99.79941446759918, 32.49655540302369], [-99.79923480454237, 32.49655540302369], [-99.79923480454237, 32.49673506608051], [-99.79905514148554, 32.49673506608051], [-99.79905514148554, 32.49691472913734], [-99.79887547842871, 32.49691472913734], [-99.79887547842871, 32.49727405525098], [-99.79977379371283, 32.49727405525098], [-99.79977379371283, 32.49799270747828]], [[-99.8010314351106, 32.4981723705351], [-99.80121109816743, 32.4981723705351], [-99.80121109816743, 32.49799270747828], [-99.8010314351106, 32.49799270747828], [-99.8010314351106, 32.4981723705351]], [[-99.7979771631446, 32.4981723705351], [-99.79815682620142, 32.4981723705351], [-99.79815682620142, 32.49799270747828], [-99.7979771631446, 32.49799270747828], [-99.7979771631446, 32.4981723705351]], [[-99.79905514148554, 32.498711359705574], [-99.79941446759918, 32.498711359705574], [-99.79941446759918, 32.498531696648755], [-99.799594130656, 32.498531696648755], [-99.799594130656, 32.498711359705574], [-99.79977379371283, 32.498711359705574], [-99.79977379371283, 32.498531696648755], [-99.80013311982648, 32.498531696648755], [-99.80013311982648, 32.49835203359193], [-99.79995345676966, 32.49835203359193], [-99.79995345676966, 32.4981723705351], [-99.79977379371283, 32.4981723705351], [-99.79977379371283, 32.49799270747828], [-99.799594130656, 32.49799270747828], [-99.799594130656, 32.497813044421456], [-99.79941446759918, 32.497813044421456], [-99.79941446759918, 32.4981723705351], [-99.79905514148554, 32.4981723705351], [-99.79905514148554, 32.49835203359193], [-99.79887547842871, 32.49835203359193], [-99.79887547842871, 32.498531696648755], [-99.79905514148554, 32.498531696648755], [-99.79905514148554, 32.498711359705574]]]}, "properties": {"name": "cand03", "ptype": "hall", "confidence": "low", "rank": 3, "area_ha": 25.0, "rise_db": 8.0, "digitised_from": "Sentinel-1 VV rise 2021->2026, orbit 5"}}, {"type": "Feature", "geometry": {"geodesic": false, "type": "Polygon", "coordinates": [[[-99.79168895615575, 32.50032832721699], [-99.79168895615575, 32.500148664160164], [-99.7920482822694, 32.500148664160164], [-99.7920482822694, 32.50032832721699], [-99.79222794532623, 32.50032832721699], [-99.79222794532623, 32.500148664160164], [-99.79240760838304, 32.500148664160164], [-99.79240760838304, 32.499969001103345], [-99.79258727143987, 32.499969001103345], [-99.79258727143987, 32.49978933804652], [-99.7927669344967, 32.49978933804652], [-99.7927669344967, 32.4996096749897], [-99.79294659755352, 32.4996096749897], [-99.79294659755352, 32.497633381364636], [-99.7927669344967, 32.497633381364636], [-99.7927669344967, 32.49745371830781], [-99.79294659755352, 32.49745371830781], [-99.79294659755352, 32.49727405525098], [-99.79312626061035, 32.49727405525098], [-99.79312626061035, 32.49691472913734], [-99.79294659755352, 32.49691472913734], [-99.79294659755352, 32.496375739966865], [-99.79312626061035, 32.496375739966865], [-99.79312626061035, 32.49601641385322], [-99.79294659755352, 32.49601641385322], [-99.79294659755352, 32.49583675079639], [-99.79330592366718, 32.49583675079639], [-99.79330592366718, 32.49565708773957], [-99.79312626061035, 32.49565708773957], [-99.79312626061035, 32.49547742468275], [-99.79168895615575, 32.49547742468275], [-99.79168895615575, 32.49529776162592], [-99.79132963004211, 32.49529776162592], [-99.79132963004211, 32.49547742468275], [-99.79114996698529, 32.49547742468275], [-99.79114996698529, 32.49529776162592], [-99.79097030392846, 32.49529776162592], [-99.79097030392846, 32.4951180985691], [-99.79061097781481, 32.4951180985691], [-99.79061097781481, 32.49529776162592], [-99.79043131475798, 32.49529776162592], [-99.79043131475798, 32.49547742468275], [-99.79025165170117, 32.49547742468275], [-99.79025165170117, 32.49601641385322], [-99.79043131475798, 32.49601641385322], [-99.79043131475798, 32.49619607691004], [-99.79025165170117, 32.49619607691004], [-99.79025165170117, 32.49673506608051], [-99.79043131475798, 32.49673506608051], [-99.79043131475798, 32.49691472913734], [-99.79025165170117, 32.49691472913734], [-99.79025165170117, 32.497094392194164], [-99.79043131475798, 32.497094392194164], [-99.79043131475798, 32.49745371830781], [-99.79097030392846, 32.49745371830781], [-99.79097030392846, 32.497633381364636], [-99.79061097781481, 32.497633381364636], [-99.79061097781481, 32.497813044421456], [-99.79043131475798, 32.497813044421456], [-99.79043131475798, 32.498531696648755], [-99.79025165170117, 32.498531696648755], [-99.79025165170117, 32.498711359705574], [-99.79007198864434, 32.498711359705574], [-99.79007198864434, 32.49907068581923], [-99.78989232558752, 32.49907068581923], [-99.78989232558752, 32.499250348876046], [-99.79007198864434, 32.499250348876046], [-99.79007198864434, 32.4996096749897], [-99.79025165170117, 32.4996096749897], [-99.79025165170117, 32.500148664160164], [-99.79043131475798, 32.500148664160164], [-99.79043131475798, 32.50032832721699], [-99.79168895615575, 32.50032832721699]], [[-99.79150929309893, 32.497633381364636], [-99.79168895615575, 32.497633381364636], [-99.79168895615575, 32.49745371830781], [-99.79150929309893, 32.49745371830781], [-99.79150929309893, 32.497633381364636]], [[-99.79150929309893, 32.49978933804652], [-99.79222794532623, 32.49978933804652], [-99.79222794532623, 32.4996096749897], [-99.79150929309893, 32.4996096749897], [-99.79150929309893, 32.49978933804652]]]}, "properties": {"name": "cand04", "ptype": "hall", "confidence": "low", "rank": 4, "area_ha": 15.7, "rise_db": 9.9, "digitised_from": "Sentinel-1 VV rise 2021->2026, orbit 5"}}, {"type": "Feature", "geometry": {"geodesic": false, "type": "Polygon", "coordinates": [[[-99.79653985869, 32.4996096749897], [-99.79653985869, 32.49943001193287], [-99.79671952174682, 32.49943001193287], [-99.79671952174682, 32.499250348876046], [-99.79653985869, 32.499250348876046], [-99.79653985869, 32.49907068581923], [-99.79618053257636, 32.49907068581923], [-99.79618053257636, 32.497633381364636], [-99.7958212064627, 32.497633381364636], [-99.7958212064627, 32.49745371830781], [-99.79618053257636, 32.49745371830781], [-99.79618053257636, 32.497094392194164], [-99.79636019563317, 32.497094392194164], [-99.79636019563317, 32.49601641385322], [-99.79653985869, 32.49601641385322], [-99.79653985869, 32.49547742468275], [-99.79366524978082, 32.49547742468275], [-99.79366524978082, 32.49565708773957], [-99.79348558672399, 32.49565708773957], [-99.79348558672399, 32.49583675079639], [-99.79366524978082, 32.49583675079639], [-99.79366524978082, 32.49619607691004], [-99.79348558672399, 32.49619607691004], [-99.79348558672399, 32.49673506608051], [-99.79366524978082, 32.49673506608051], [-99.79366524978082, 32.497094392194164], [-99.79384491283764, 32.497094392194164], [-99.79384491283764, 32.49727405525098], [-99.79402457589447, 32.49727405525098], [-99.79402457589447, 32.49745371830781], [-99.7942042389513, 32.49745371830781], [-99.7942042389513, 32.497633381364636], [-99.79384491283764, 32.497633381364636], [-99.79384491283764, 32.497813044421456], [-99.79366524978082, 32.497813044421456], [-99.79366524978082, 32.4981723705351], [-99.79384491283764, 32.4981723705351], [-99.79384491283764, 32.49835203359193], [-99.79366524978082, 32.49835203359193], [-99.79366524978082, 32.49943001193287], [-99.79384491283764, 32.49943001193287], [-99.79384491283764, 32.4996096749897], [-99.79653985869, 32.4996096749897]]]}, "properties": {"name": "cand05", "ptype": "hall", "confidence": "low", "rank": 5, "area_ha": 13.4, "rise_db": 9.9, "digitised_from": "Sentinel-1 VV rise 2021->2026, orbit 5"}}, {"type": "Feature", "geometry": {"geodesic": false, "type": "Polygon", "coordinates": [[[-99.7748006288143, 32.507335186433124], [-99.7748006288143, 32.5071555233763], [-99.77498029187113, 32.5071555233763], [-99.77498029187113, 32.507335186433124], [-99.77533961798478, 32.507335186433124], [-99.77533961798478, 32.5071555233763], [-99.7755192810416, 32.5071555233763], [-99.7755192810416, 32.507335186433124], [-99.77605827021208, 32.507335186433124], [-99.77605827021208, 32.50697586031948], [-99.77533961798478, 32.50697586031948], [-99.77533961798478, 32.506436871149006], [-99.77569894409842, 32.506436871149006], [-99.77569894409842, 32.506616534205826], [-99.77587860715525, 32.506616534205826], [-99.77587860715525, 32.50679619726265], [-99.77605827021208, 32.50679619726265], [-99.77605827021208, 32.506616534205826], [-99.7762379332689, 32.506616534205826], [-99.7762379332689, 32.506436871149006], [-99.77641759632573, 32.506436871149006], [-99.77641759632573, 32.50481990363759], [-99.7762379332689, 32.50481990363759], [-99.7762379332689, 32.50446057752394], [-99.77641759632573, 32.50446057752394], [-99.77641759632573, 32.503741925296644], [-99.7762379332689, 32.503741925296644], [-99.7762379332689, 32.503382599183], [-99.77533961798478, 32.503382599183], [-99.77533961798478, 32.503562262239825], [-99.77515995492796, 32.503562262239825], [-99.77515995492796, 32.503382599183], [-99.77462096575748, 32.503382599183], [-99.77462096575748, 32.503562262239825], [-99.77444130270067, 32.503562262239825], [-99.77444130270067, 32.50392158835347], [-99.77462096575748, 32.50392158835347], [-99.77462096575748, 32.50410125141029], [-99.77444130270067, 32.50410125141029], [-99.77444130270067, 32.50446057752394], [-99.77426163964384, 32.50446057752394], [-99.77426163964384, 32.50464024058076], [-99.77462096575748, 32.50464024058076], [-99.77462096575748, 32.50481990363759], [-99.77426163964384, 32.50481990363759], [-99.77426163964384, 32.50571821892171], [-99.77408197658701, 32.50571821892171], [-99.77408197658701, 32.50607754503535], [-99.77426163964384, 32.50607754503535], [-99.77426163964384, 32.506616534205826], [-99.77408197658701, 32.506616534205826], [-99.77408197658701, 32.50679619726265], [-99.77426163964384, 32.50679619726265], [-99.77426163964384, 32.50697586031948], [-99.77444130270067, 32.50697586031948], [-99.77444130270067, 32.5071555233763], [-99.77462096575748, 32.5071555233763], [-99.77462096575748, 32.507335186433124], [-99.7748006288143, 32.507335186433124]], [[-99.77444130270067, 32.50607754503535], [-99.7748006288143, 32.50607754503535], [-99.7748006288143, 32.505897881978534], [-99.77462096575748, 32.505897881978534], [-99.77462096575748, 32.50571821892171], [-99.77444130270067, 32.50571821892171], [-99.77444130270067, 32.50607754503535]]]}, "properties": {"name": "cand06", "ptype": "hall", "confidence": "low", "rank": 6, "area_ha": 9.0, "rise_db": 9.5, "digitised_from": "Sentinel-1 VV rise 2021->2026, orbit 5"}}, {"type": "Feature", "geometry": {"geodesic": false, "type": "Polygon", "coordinates": [[[-99.78576007528056, 32.50481990363759], [-99.78576007528056, 32.50428091446712], [-99.78593973833739, 32.50428091446712], [-99.78593973833739, 32.50410125141029], [-99.78629906445104, 32.50410125141029], [-99.78629906445104, 32.50428091446712], [-99.78647872750786, 32.50428091446712], [-99.78647872750786, 32.50446057752394], [-99.78665839056468, 32.50446057752394], [-99.78665839056468, 32.50392158835347], [-99.78683805362151, 32.50392158835347], [-99.78683805362151, 32.503562262239825], [-99.78701771667833, 32.503562262239825], [-99.78701771667833, 32.503382599183], [-99.78683805362151, 32.503382599183], [-99.78683805362151, 32.50320293612617], [-99.78396344471233, 32.50320293612617], [-99.78396344471233, 32.503382599183], [-99.7837837816555, 32.503382599183], [-99.7837837816555, 32.503741925296644], [-99.78414310776915, 32.503741925296644], [-99.78414310776915, 32.50392158835347], [-99.7837837816555, 32.50392158835347], [-99.7837837816555, 32.50410125141029], [-99.78414310776915, 32.50410125141029], [-99.78414310776915, 32.50446057752394], [-99.78468209693962, 32.50446057752394], [-99.78468209693962, 32.50428091446712], [-99.78486175999645, 32.50428091446712], [-99.78486175999645, 32.50446057752394], [-99.78504142305327, 32.50446057752394], [-99.78504142305327, 32.50464024058076], [-99.7852210861101, 32.50464024058076], [-99.7852210861101, 32.50481990363759], [-99.78576007528056, 32.50481990363759]], [[-99.7852210861101, 32.50428091446712], [-99.78540074916693, 32.50428091446712], [-99.78540074916693, 32.50410125141029], [-99.7852210861101, 32.50410125141029], [-99.7852210861101, 32.50428091446712]]]}, "properties": {"name": "cand07", "ptype": "hall", "confidence": "low", "rank": 7, "area_ha": 4.4, "rise_db": 6.5, "digitised_from": "Sentinel-1 VV rise 2021->2026, orbit 5"}}, {"type": "Feature", "geometry": {"geodesic": false, "type": "Polygon", "coordinates": [[[-99.82043504524758, 32.524043850717746], [-99.82043504524758, 32.52386418766093], [-99.8206147083044, 32.52386418766093], [-99.8206147083044, 32.524043850717746], [-99.82151302358852, 32.524043850717746], [-99.82151302358852, 32.52314553543363], [-99.82169268664535, 32.52314553543363], [-99.82169268664535, 32.522606546263155], [-99.82151302358852, 32.522606546263155], [-99.82151302358852, 32.52242688320633], [-99.8213333605317, 32.52242688320633], [-99.8213333605317, 32.522606546263155], [-99.82097403441806, 32.522606546263155], [-99.82097403441806, 32.52242688320633], [-99.82079437136123, 32.52242688320633], [-99.82079437136123, 32.522606546263155], [-99.82007571913392, 32.522606546263155], [-99.82007571913392, 32.523325198490454], [-99.81989605607711, 32.523325198490454], [-99.81989605607711, 32.5236845246041], [-99.82007571913392, 32.5236845246041], [-99.82007571913392, 32.524043850717746], [-99.82043504524758, 32.524043850717746]]]}, "properties": {"name": "cand08", "ptype": "hall", "confidence": "low", "rank": 8, "area_ha": 2.8, "rise_db": 6.3, "digitised_from": "Sentinel-1 VV rise 2021->2026, orbit 5"}}, {"type": "Feature", "geometry": {"geodesic": false, "type": "Polygon", "coordinates": [[[-99.81450616437239, 32.45954481331797], [-99.81450616437239, 32.45936515026114], [-99.81432650131556, 32.45936515026114], [-99.81432650131556, 32.459005824147496], [-99.81414683825874, 32.459005824147496], [-99.81414683825874, 32.45882616109067], [-99.81396717520192, 32.45882616109067], [-99.81396717520192, 32.4582871719202], [-99.8137875121451, 32.4582871719202], [-99.8137875121451, 32.45810750886337], [-99.81324852297462, 32.45810750886337], [-99.81324852297462, 32.4582871719202], [-99.8130688599178, 32.4582871719202], [-99.8130688599178, 32.45810750886337], [-99.81252987074733, 32.45810750886337], [-99.81252987074733, 32.45864649803384], [-99.8123502076905, 32.45864649803384], [-99.8123502076905, 32.459005824147496], [-99.81252987074733, 32.459005824147496], [-99.81252987074733, 32.459185487204316], [-99.8130688599178, 32.459185487204316], [-99.8130688599178, 32.45936515026114], [-99.81360784908827, 32.45936515026114], [-99.81360784908827, 32.459185487204316], [-99.8137875121451, 32.459185487204316], [-99.8137875121451, 32.45936515026114], [-99.81414683825874, 32.45936515026114], [-99.81414683825874, 32.45954481331797], [-99.81450616437239, 32.45954481331797]]]}, "properties": {"name": "cand09", "ptype": "hall", "confidence": "low", "rank": 9, "area_ha": 2.4, "rise_db": 7.0, "digitised_from": "Sentinel-1 VV rise 2021->2026, orbit 5"}}, {"type": "Feature", "geometry": {"geodesic": false, "type": "Polygon", "coordinates": [[[-99.73437644102893, 32.45505323689737], [-99.73437644102893, 32.45469391078372], [-99.73455610408575, 32.45469391078372], [-99.73455610408575, 32.454873573840544], [-99.73491543019941, 32.454873573840544], [-99.73491543019941, 32.45469391078372], [-99.73509509325622, 32.45469391078372], [-99.73509509325622, 32.4545142477269], [-99.73527475631305, 32.4545142477269], [-99.73527475631305, 32.454154921613245], [-99.73473576714258, 32.454154921613245], [-99.73473576714258, 32.4537955954996], [-99.7341967779721, 32.4537955954996], [-99.7341967779721, 32.45361593244278], [-99.73401711491528, 32.45361593244278], [-99.73401711491528, 32.4537955954996], [-99.73383745185846, 32.4537955954996], [-99.73383745185846, 32.45433458467007], [-99.73329846268798, 32.45433458467007], [-99.73329846268798, 32.45469391078372], [-99.73401711491528, 32.45469391078372], [-99.73401711491528, 32.45505323689737], [-99.73437644102893, 32.45505323689737]]]}, "properties": {"name": "cand10", "ptype": "hall", "confidence": "low", "rank": 10, "area_ha": 1.8, "rise_db": 11.4, "digitised_from": "Sentinel-1 VV rise 2021->2026, orbit 5"}}, {"type": "Feature", "geometry": {"geodesic": false, "type": "Polygon", "coordinates": [[[-99.81971639302029, 32.462778748340796], [-99.81971639302029, 32.46241942222715], [-99.81953672996346, 32.46241942222715], [-99.81953672996346, 32.46223975917032], [-99.81935706690663, 32.46223975917032], [-99.81935706690663, 32.46152110694303], [-99.81953672996346, 32.46152110694303], [-99.81953672996346, 32.46098211777256], [-99.818997740793, 32.46098211777256], [-99.818997740793, 32.46116178082938], [-99.81827908856569, 32.46116178082938], [-99.81827908856569, 32.461341443886205], [-99.81809942550886, 32.461341443886205], [-99.81809942550886, 32.46152110694303], [-99.81827908856569, 32.46152110694303], [-99.81827908856569, 32.46170076999985], [-99.81845875162252, 32.46170076999985], [-99.81845875162252, 32.4620600961135], [-99.8191774038498, 32.4620600961135], [-99.8191774038498, 32.46223975917032], [-99.818997740793, 32.46223975917032], [-99.818997740793, 32.46241942222715], [-99.8191774038498, 32.46241942222715], [-99.8191774038498, 32.46259908528397], [-99.81935706690663, 32.46259908528397], [-99.81935706690663, 32.462778748340796], [-99.81971639302029, 32.462778748340796]]]}, "properties": {"name": "cand11", "ptype": "hall", "confidence": "low", "rank": 11, "area_ha": 1.7, "rise_db": 8.2, "digitised_from": "Sentinel-1 VV rise 2021->2026, orbit 5"}}, {"type": "Feature", "geometry": {"geodesic": false, "type": "Polygon", "coordinates": [[[-99.76743444348453, 32.542369482513784], [-99.76743444348453, 32.54218981945696], [-99.76761410654134, 32.54218981945696], [-99.76761410654134, 32.54111184111602], [-99.76743444348453, 32.54111184111602], [-99.76743444348453, 32.540932178059194], [-99.76707511737088, 32.540932178059194], [-99.76707511737088, 32.54111184111602], [-99.76653612820041, 32.54111184111602], [-99.76653612820041, 32.54129150417284], [-99.76635646514359, 32.54129150417284], [-99.76635646514359, 32.541471167229666], [-99.76617680208676, 32.541471167229666], [-99.76617680208676, 32.54165083028649], [-99.76635646514359, 32.54165083028649], [-99.76635646514359, 32.54183049334331], [-99.76653612820041, 32.54183049334331], [-99.76653612820041, 32.54201015640014], [-99.76671579125723, 32.54201015640014], [-99.76671579125723, 32.54218981945696], [-99.76707511737088, 32.54218981945696], [-99.76707511737088, 32.542369482513784], [-99.76743444348453, 32.542369482513784]]]}, "properties": {"name": "cand12", "ptype": "hall", "confidence": "low", "rank": 12, "area_ha": 1.7, "rise_db": 10.5, "digitised_from": "Sentinel-1 VV rise 2021->2026, orbit 5"}}, {"type": "Feature", "geometry": {"geodesic": false, "type": "Polygon", "coordinates": [[[-99.81648245799745, 32.46385672668174], [-99.81648245799745, 32.463677063624914], [-99.81666212105428, 32.463677063624914], [-99.81666212105428, 32.463497400568095], [-99.8168417841111, 32.463497400568095], [-99.8168417841111, 32.46241942222715], [-99.81666212105428, 32.46241942222715], [-99.81666212105428, 32.4620600961135], [-99.81648245799745, 32.4620600961135], [-99.81648245799745, 32.46188043305668], [-99.81630279494063, 32.46188043305668], [-99.81630279494063, 32.4620600961135], [-99.81540447965651, 32.4620600961135], [-99.81540447965651, 32.46223975917032], [-99.81504515354287, 32.46223975917032], [-99.81504515354287, 32.46241942222715], [-99.81558414271333, 32.46241942222715], [-99.81558414271333, 32.46259908528397], [-99.81594346882699, 32.46259908528397], [-99.81594346882699, 32.46241942222715], [-99.81666212105428, 32.46241942222715], [-99.81666212105428, 32.46313807445444], [-99.81630279494063, 32.46313807445444], [-99.81630279494063, 32.46331773751127], [-99.81558414271333, 32.46331773751127], [-99.81558414271333, 32.46313807445444], [-99.81540447965651, 32.46313807445444], [-99.81540447965651, 32.463497400568095], [-99.81576380577016, 32.463497400568095], [-99.81576380577016, 32.463677063624914], [-99.81630279494063, 32.463677063624914], [-99.81630279494063, 32.46385672668174], [-99.81648245799745, 32.46385672668174]]]}, "properties": {"name": "cand13", "ptype": "hall", "confidence": "low", "rank": 13, "area_ha": 1.6, "rise_db": 8.7, "digitised_from": "Sentinel-1 VV rise 2021->2026, orbit 5"}}, {"type": "Feature", "geometry": {"geodesic": false, "type": "Polygon", "coordinates": [[[-99.78414310776915, 32.50823350171724], [-99.78414310776915, 32.508053838660416], [-99.78468209693962, 32.508053838660416], [-99.78468209693962, 32.5078741756036], [-99.78486175999645, 32.5078741756036], [-99.78486175999645, 32.50751484948995], [-99.78468209693962, 32.50751484948995], [-99.78468209693962, 32.507335186433124], [-99.78486175999645, 32.507335186433124], [-99.78486175999645, 32.50697586031948], [-99.78450243388279, 32.50697586031948], [-99.78450243388279, 32.507335186433124], [-99.78432277082598, 32.507335186433124], [-99.78432277082598, 32.5071555233763], [-99.78396344471233, 32.5071555233763], [-99.78396344471233, 32.50751484948995], [-99.7837837816555, 32.50751484948995], [-99.7837837816555, 32.5078741756036], [-99.78306512942821, 32.5078741756036], [-99.78306512942821, 32.508053838660416], [-99.78324479248504, 32.508053838660416], [-99.78324479248504, 32.50823350171724], [-99.78414310776915, 32.50823350171724]]]}, "properties": {"name": "cand14", "ptype": "hall", "confidence": "low", "rank": 14, "area_ha": 1.4, "rise_db": 8.4, "digitised_from": "Sentinel-1 VV rise 2021->2026, orbit 5"}}, {"type": "Feature", "geometry": {"geodesic": false, "type": "Polygon", "coordinates": [[[-99.74605453972248, 32.54344746085473], [-99.74605453972248, 32.5432677977979], [-99.7462342027793, 32.5432677977979], [-99.7462342027793, 32.54308813474108], [-99.74659352889296, 32.54308813474108], [-99.74659352889296, 32.54290847168426], [-99.74677319194979, 32.54290847168426], [-99.74677319194979, 32.54254914557061], [-99.74659352889296, 32.54254914557061], [-99.74659352889296, 32.542369482513784], [-99.74569521360884, 32.542369482513784], [-99.74569521360884, 32.54290847168426], [-99.74551555055201, 32.54290847168426], [-99.74551555055201, 32.54344746085473], [-99.74605453972248, 32.54344746085473]]]}, "properties": {"name": "cand15", "ptype": "hall", "confidence": "low", "rank": 15, "area_ha": 1.2, "rise_db": 6.5, "digitised_from": "Sentinel-1 VV rise 2021->2026, orbit 5"}}, {"type": "Feature", "geometry": {"geodesic": false, "type": "Polygon", "coordinates": [[[-99.76186488872298, 32.53518296024083], [-99.76186488872298, 32.535003297184005], [-99.76204455177981, 32.535003297184005], [-99.76204455177981, 32.53446430801353], [-99.76186488872298, 32.53446430801353], [-99.76186488872298, 32.53410498189989], [-99.76204455177981, 32.53410498189989], [-99.76204455177981, 32.53392531884306], [-99.76186488872298, 32.53392531884306], [-99.76186488872298, 32.53374565578624], [-99.76150556260934, 32.53374565578624], [-99.76150556260934, 32.53392531884306], [-99.76132589955252, 32.53392531884306], [-99.76132589955252, 32.53446430801353], [-99.76114623649569, 32.53446430801353], [-99.76114623649569, 32.53482363412718], [-99.76132589955252, 32.53482363412718], [-99.76132589955252, 32.535003297184005], [-99.76150556260934, 32.535003297184005], [-99.76150556260934, 32.53518296024083], [-99.76186488872298, 32.53518296024083]]]}, "properties": {"name": "cand16", "ptype": "hall", "confidence": "low", "rank": 16, "area_ha": 1.1, "rise_db": 8.1, "digitised_from": "Sentinel-1 VV rise 2021->2026, orbit 5"}}, {"type": "Feature", "geometry": {"geodesic": false, "type": "Polygon", "coordinates": [[[-99.75072577919991, 32.47589415148894], [-99.75072577919991, 32.47553482537529], [-99.75090544225672, 32.47553482537529], [-99.75090544225672, 32.47535516231847], [-99.75126476837038, 32.47535516231847], [-99.75126476837038, 32.475175499261645], [-99.75072577919991, 32.475175499261645], [-99.75072577919991, 32.47499583620482], [-99.75054611614308, 32.47499583620482], [-99.75054611614308, 32.474816173148], [-99.75036645308626, 32.474816173148], [-99.75036645308626, 32.47463651009117], [-99.75018679002943, 32.47463651009117], [-99.75018679002943, 32.474816173148], [-99.7500071269726, 32.474816173148], [-99.7500071269726, 32.47535516231847], [-99.74982746391578, 32.47535516231847], [-99.74982746391578, 32.47553482537529], [-99.75018679002943, 32.47553482537529], [-99.75018679002943, 32.47571448843212], [-99.75036645308626, 32.47571448843212], [-99.75036645308626, 32.47589415148894], [-99.75072577919991, 32.47589415148894]]]}, "properties": {"name": "cand17", "ptype": "hall", "confidence": "low", "rank": 17, "area_ha": 1.0, "rise_db": 8.7, "digitised_from": "Sentinel-1 VV rise 2021->2026, orbit 5"}}, {"type": "Feature", "geometry": {"geodesic": false, "type": "Polygon", "coordinates": [[[-99.73006452766515, 32.48775191323932], [-99.73006452766515, 32.487572250182495], [-99.73060351683563, 32.487572250182495], [-99.73060351683563, 32.48775191323932], [-99.73078317989246, 32.48775191323932], [-99.73078317989246, 32.487572250182495], [-99.73096284294928, 32.487572250182495], [-99.73096284294928, 32.48739258712567], [-99.73078317989246, 32.48739258712567], [-99.73078317989246, 32.48721292406885], [-99.73060351683563, 32.48721292406885], [-99.73060351683563, 32.4868535979552], [-99.72988486460834, 32.4868535979552], [-99.72988486460834, 32.48703326101202], [-99.72970520155151, 32.48703326101202], [-99.72970520155151, 32.48721292406885], [-99.72952553849468, 32.48721292406885], [-99.72952553849468, 32.48739258712567], [-99.72970520155151, 32.48739258712567], [-99.72970520155151, 32.487572250182495], [-99.72988486460834, 32.487572250182495], [-99.72988486460834, 32.48775191323932], [-99.73006452766515, 32.48775191323932]]]}, "properties": {"name": "cand18", "ptype": "hall", "confidence": "low", "rank": 18, "area_ha": 1.0, "rise_db": 7.0, "digitised_from": "Sentinel-1 VV rise 2021->2026, orbit 5"}}]}