{"type": "FeatureCollection", "features": [{"type": "Feature", "geometry": {"geodesic": false, "type": "Polygon", "coordinates": [[[-87.8965572899587, 42.67572521349564], [-87.8965572899587, 42.67554555043881], [-87.89673695301552, 42.67554555043881], [-87.89673695301552, 42.67338959375692], [-87.8965572899587, 42.67338959375692], [-87.8965572899587, 42.67303026764328], [-87.89673695301552, 42.67303026764328], [-87.89673695301552, 42.67123363707504], [-87.89691661607235, 42.67123363707504], [-87.89691661607235, 42.67159296318869], [-87.89709627912917, 42.67159296318869], [-87.89709627912917, 42.67231161541598], [-87.89691661607235, 42.67231161541598], [-87.89691661607235, 42.67410824598422], [-87.89709627912917, 42.67410824598422], [-87.89709627912917, 42.67428790904104], [-87.89691661607235, 42.67428790904104], [-87.89691661607235, 42.67500656126834], [-87.89709627912917, 42.67500656126834], [-87.89709627912917, 42.67554555043881], [-87.897275942186, 42.67554555043881], [-87.897275942186, 42.67572521349564], [-87.89763526829964, 42.67572521349564], [-87.89763526829964, 42.674647235154694], [-87.89799459441329, 42.674647235154694], [-87.89799459441329, 42.67482689821151], [-87.89835392052694, 42.67482689821151], [-87.89835392052694, 42.67500656126834], [-87.89853358358376, 42.67500656126834], [-87.89853358358376, 42.67518622432517], [-87.89871324664058, 42.67518622432517], [-87.89871324664058, 42.675365887381986], [-87.89889290969741, 42.675365887381986], [-87.89889290969741, 42.67518622432517], [-87.89907257275424, 42.67518622432517], [-87.89907257275424, 42.67500656126834], [-87.89925223581106, 42.67500656126834], [-87.89925223581106, 42.675365887381986], [-87.89943189886789, 42.675365887381986], [-87.89943189886789, 42.67554555043881], [-87.90086920332247, 42.67554555043881], [-87.90086920332247, 42.675365887381986], [-87.90140819249295, 42.675365887381986], [-87.90140819249295, 42.67518622432517], [-87.90158785554976, 42.67518622432517], [-87.90158785554976, 42.67500656126834], [-87.90176751860659, 42.67500656126834], [-87.90176751860659, 42.67482689821151], [-87.90158785554976, 42.67482689821151], [-87.90158785554976, 42.674647235154694], [-87.90140819249295, 42.674647235154694], [-87.90140819249295, 42.67446757209787], [-87.90122852943612, 42.67446757209787], [-87.90122852943612, 42.67428790904104], [-87.90158785554976, 42.67428790904104], [-87.90158785554976, 42.673928582927395], [-87.90176751860659, 42.673928582927395], [-87.90176751860659, 42.673748919870576], [-87.90194718166342, 42.673748919870576], [-87.90194718166342, 42.673209930700104], [-87.90212684472024, 42.673209930700104], [-87.90212684472024, 42.67285060458645], [-87.90194718166342, 42.67285060458645], [-87.90194718166342, 42.67267094152963], [-87.90176751860659, 42.67267094152963], [-87.90176751860659, 42.67231161541598], [-87.90194718166342, 42.67231161541598], [-87.90194718166342, 42.671772626245506], [-87.90212684472024, 42.671772626245506], [-87.90212684472024, 42.67195228930233], [-87.90302516000436, 42.67195228930233], [-87.90302516000436, 42.67213195235916], [-87.90320482306119, 42.67213195235916], [-87.90320482306119, 42.671772626245506], [-87.90266583389071, 42.671772626245506], [-87.90266583389071, 42.67159296318869], [-87.90176751860659, 42.67159296318869], [-87.90176751860659, 42.67141330013186], [-87.90122852943612, 42.67141330013186], [-87.90122852943612, 42.67123363707504], [-87.89943189886789, 42.67123363707504], [-87.89943189886789, 42.67141330013186], [-87.89889290969741, 42.67141330013186], [-87.89889290969741, 42.67159296318869], [-87.89871324664058, 42.67159296318869], [-87.89871324664058, 42.671772626245506], [-87.89889290969741, 42.671772626245506], [-87.89889290969741, 42.67195228930233], [-87.89871324664058, 42.67195228930233], [-87.89871324664058, 42.67213195235916], [-87.89853358358376, 42.67213195235916], [-87.89853358358376, 42.67231161541598], [-87.89835392052694, 42.67231161541598], [-87.89835392052694, 42.67213195235916], [-87.89799459441329, 42.67213195235916], [-87.89799459441329, 42.67231161541598], [-87.89781493135646, 42.67231161541598], [-87.89781493135646, 42.67267094152963], [-87.89763526829964, 42.67267094152963], [-87.89763526829964, 42.67123363707504], [-87.89745560524283, 42.67123363707504], [-87.89745560524283, 42.671053974018214], [-87.89637762690188, 42.671053974018214], [-87.89637762690188, 42.67123363707504], [-87.89619796384505, 42.67123363707504], [-87.89619796384505, 42.67338959375692], [-87.89601830078823, 42.67338959375692], [-87.89601830078823, 42.673928582927395], [-87.89619796384505, 42.673928582927395], [-87.89619796384505, 42.67482689821151], [-87.89601830078823, 42.67482689821151], [-87.89601830078823, 42.67518622432517], [-87.89619796384505, 42.67518622432517], [-87.89619796384505, 42.67572521349564], [-87.8965572899587, 42.67572521349564]], [[-87.89799459441329, 42.673928582927395], [-87.89835392052694, 42.673928582927395], [-87.89835392052694, 42.673748919870576], [-87.89853358358376, 42.673748919870576], [-87.89853358358376, 42.67356925681375], [-87.89799459441329, 42.67356925681375], [-87.89799459441329, 42.673928582927395]], [[-87.900330214152, 42.67446757209787], [-87.90068954026565, 42.67446757209787], [-87.90068954026565, 42.67428790904104], [-87.90086920332247, 42.67428790904104], [-87.90086920332247, 42.67356925681375], [-87.9010488663793, 42.67356925681375], [-87.9010488663793, 42.67338959375692], [-87.90122852943612, 42.67338959375692], [-87.90122852943612, 42.67303026764328], [-87.9010488663793, 42.67303026764328], [-87.9010488663793, 42.67285060458645], [-87.90068954026565, 42.67285060458645], [-87.90068954026565, 42.67356925681375], [-87.90050987720882, 42.67356925681375], [-87.90050987720882, 42.673748919870576], [-87.900330214152, 42.673748919870576], [-87.900330214152, 42.673928582927395], [-87.89979122498153, 42.673928582927395], [-87.89979122498153, 42.67410824598422], [-87.8996115619247, 42.67410824598422], [-87.8996115619247, 42.67428790904104], [-87.900330214152, 42.67428790904104], [-87.900330214152, 42.67446757209787]], [[-87.89853358358376, 42.67446757209787], [-87.89871324664058, 42.67446757209787], [-87.89871324664058, 42.67428790904104], [-87.89853358358376, 42.67428790904104], [-87.89853358358376, 42.67446757209787]], [[-87.89799459441329, 42.67446757209787], [-87.89817425747012, 42.67446757209787], [-87.89817425747012, 42.67428790904104], [-87.89799459441329, 42.67428790904104], [-87.89799459441329, 42.67446757209787]], [[-87.89745560524283, 42.67446757209787], [-87.89781493135646, 42.67446757209787], [-87.89781493135646, 42.67428790904104], [-87.89745560524283, 42.67428790904104], [-87.89745560524283, 42.67446757209787]], [[-87.89835392052694, 42.67482689821151], [-87.89853358358376, 42.67482689821151], [-87.89853358358376, 42.67446757209787], [-87.89835392052694, 42.67446757209787], [-87.89835392052694, 42.67482689821151]]]}, "properties": {"name": "cand01", "ptype": "hall", "confidence": "low", "rank": 1, "area_ha": 24.7, "rise_db": 9.2, "digitised_from": "Sentinel-1 VV rise 2021->2026, orbit 121"}}, {"type": "Feature", "geometry": {"geodesic": false, "type": "Polygon", "coordinates": [[[-87.90913370393638, 42.67410824598422], [-87.90913370393638, 42.673928582927395], [-87.90967269310684, 42.673928582927395], [-87.90967269310684, 42.67410824598422], [-87.9100320192205, 42.67410824598422], [-87.9100320192205, 42.673928582927395], [-87.91021168227732, 42.673928582927395], [-87.91021168227732, 42.67410824598422], [-87.91039134533413, 42.67410824598422], [-87.91039134533413, 42.673928582927395], [-87.91075067144779, 42.673928582927395], [-87.91075067144779, 42.673748919870576], [-87.91128966061827, 42.673748919870576], [-87.91128966061827, 42.67338959375692], [-87.91110999756144, 42.67338959375692], [-87.91110999756144, 42.673209930700104], [-87.91075067144779, 42.673209930700104], [-87.91075067144779, 42.67303026764328], [-87.91057100839096, 42.67303026764328], [-87.91057100839096, 42.673209930700104], [-87.91039134533413, 42.673209930700104], [-87.91039134533413, 42.67338959375692], [-87.91021168227732, 42.67338959375692], [-87.91021168227732, 42.673209930700104], [-87.90985235616367, 42.673209930700104], [-87.90985235616367, 42.67338959375692], [-87.9093133669932, 42.67338959375692], [-87.9093133669932, 42.67303026764328], [-87.90949303005002, 42.67303026764328], [-87.90949303005002, 42.67285060458645], [-87.90985235616367, 42.67285060458645], [-87.90985235616367, 42.67267094152963], [-87.91021168227732, 42.67267094152963], [-87.91021168227732, 42.672491278472805], [-87.91039134533413, 42.672491278472805], [-87.91039134533413, 42.67159296318869], [-87.91182864978873, 42.67159296318869], [-87.91182864978873, 42.671772626245506], [-87.91200831284556, 42.671772626245506], [-87.91200831284556, 42.67195228930233], [-87.91218797590238, 42.67195228930233], [-87.91218797590238, 42.67231161541598], [-87.91200831284556, 42.67231161541598], [-87.91200831284556, 42.672491278472805], [-87.91182864978873, 42.672491278472805], [-87.91182864978873, 42.67267094152963], [-87.91200831284556, 42.67267094152963], [-87.91200831284556, 42.67285060458645], [-87.9123676389592, 42.67285060458645], [-87.9123676389592, 42.67267094152963], [-87.91254730201602, 42.67267094152963], [-87.91254730201602, 42.672491278472805], [-87.91272696507285, 42.672491278472805], [-87.91272696507285, 42.67231161541598], [-87.91290662812968, 42.67231161541598], [-87.91290662812968, 42.67195228930233], [-87.91272696507285, 42.67195228930233], [-87.91272696507285, 42.67159296318869], [-87.91254730201602, 42.67159296318869], [-87.91254730201602, 42.67141330013186], [-87.91326595424333, 42.67141330013186], [-87.91326595424333, 42.67285060458645], [-87.91344561730014, 42.67285060458645], [-87.91344561730014, 42.67303026764328], [-87.91362528035697, 42.67303026764328], [-87.91362528035697, 42.673209930700104], [-87.9138049434138, 42.673209930700104], [-87.9138049434138, 42.67303026764328], [-87.91416426952745, 42.67303026764328], [-87.91416426952745, 42.67285060458645], [-87.91434393258426, 42.67285060458645], [-87.91434393258426, 42.673209930700104], [-87.91416426952745, 42.673209930700104], [-87.91416426952745, 42.67356925681375], [-87.91452359564109, 42.67356925681375], [-87.91452359564109, 42.673209930700104], [-87.91470325869791, 42.673209930700104], [-87.91470325869791, 42.671772626245506], [-87.91488292175474, 42.671772626245506], [-87.91488292175474, 42.67069464790457], [-87.91470325869791, 42.67069464790457], [-87.91470325869791, 42.67051498484774], [-87.91452359564109, 42.67051498484774], [-87.91452359564109, 42.67069464790457], [-87.91434393258426, 42.67069464790457], [-87.91434393258426, 42.67087431096139], [-87.91452359564109, 42.67087431096139], [-87.91452359564109, 42.67123363707504], [-87.91398460647062, 42.67123363707504], [-87.91398460647062, 42.671053974018214], [-87.91344561730014, 42.671053974018214], [-87.91344561730014, 42.67087431096139], [-87.91326595424333, 42.67087431096139], [-87.91326595424333, 42.67051498484774], [-87.9130862911865, 42.67051498484774], [-87.9130862911865, 42.670335321790915], [-87.91182864978873, 42.670335321790915], [-87.91182864978873, 42.67069464790457], [-87.91218797590238, 42.67069464790457], [-87.91218797590238, 42.67087431096139], [-87.91254730201602, 42.67087431096139], [-87.91254730201602, 42.671053974018214], [-87.9123676389592, 42.671053974018214], [-87.9123676389592, 42.67123363707504], [-87.91057100839096, 42.67123363707504], [-87.91057100839096, 42.671053974018214], [-87.91039134533413, 42.671053974018214], [-87.91039134533413, 42.67123363707504], [-87.9100320192205, 42.67123363707504], [-87.9100320192205, 42.671053974018214], [-87.90913370393638, 42.671053974018214], [-87.90913370393638, 42.67069464790457], [-87.90949303005002, 42.67069464790457], [-87.90949303005002, 42.67051498484774], [-87.90967269310684, 42.67051498484774], [-87.90967269310684, 42.670335321790915], [-87.90949303005002, 42.670335321790915], [-87.90949303005002, 42.670155658734096], [-87.90877437782272, 42.670155658734096], [-87.90877437782272, 42.670335321790915], [-87.90841505170907, 42.670335321790915], [-87.90841505170907, 42.67051498484774], [-87.90823538865226, 42.67051498484774], [-87.90823538865226, 42.670335321790915], [-87.90805572559543, 42.670335321790915], [-87.90805572559543, 42.67051498484774], [-87.9062590950272, 42.67051498484774], [-87.9062590950272, 42.67141330013186], [-87.90643875808401, 42.67141330013186], [-87.90643875808401, 42.67159296318869], [-87.90661842114083, 42.67159296318869], [-87.90661842114083, 42.671772626245506], [-87.90679808419766, 42.671772626245506], [-87.90679808419766, 42.67213195235916], [-87.90697774725449, 42.67213195235916], [-87.90697774725449, 42.672491278472805], [-87.90643875808401, 42.672491278472805], [-87.90643875808401, 42.67303026764328], [-87.90697774725449, 42.67303026764328], [-87.90697774725449, 42.673209930700104], [-87.90715741031131, 42.673209930700104], [-87.90715741031131, 42.67338959375692], [-87.90751673642495, 42.67338959375692], [-87.90751673642495, 42.67356925681375], [-87.90769639948178, 42.67356925681375], [-87.90769639948178, 42.67338959375692], [-87.9078760625386, 42.67338959375692], [-87.9078760625386, 42.67356925681375], [-87.90805572559543, 42.67356925681375], [-87.90805572559543, 42.67338959375692], [-87.90841505170907, 42.67338959375692], [-87.90841505170907, 42.67303026764328], [-87.9085947147659, 42.67303026764328], [-87.9085947147659, 42.673928582927395], [-87.90895404087955, 42.673928582927395], [-87.90895404087955, 42.67410824598422], [-87.90913370393638, 42.67410824598422]], [[-87.90679808419766, 42.67123363707504], [-87.90733707336814, 42.67123363707504], [-87.90733707336814, 42.671053974018214], [-87.90715741031131, 42.671053974018214], [-87.90715741031131, 42.67087431096139], [-87.90697774725449, 42.67087431096139], [-87.90697774725449, 42.67069464790457], [-87.90679808419766, 42.67069464790457], [-87.90679808419766, 42.67087431096139], [-87.90661842114083, 42.67087431096139], [-87.90661842114083, 42.671053974018214], [-87.90679808419766, 42.671053974018214], [-87.90679808419766, 42.67123363707504]], [[-87.91416426952745, 42.67213195235916], [-87.91452359564109, 42.67213195235916], [-87.91452359564109, 42.67141330013186], [-87.91434393258426, 42.67141330013186], [-87.91434393258426, 42.671772626245506], [-87.91416426952745, 42.671772626245506], [-87.91416426952745, 42.67213195235916]], [[-87.90805572559543, 42.67303026764328], [-87.90841505170907, 42.67303026764328], [-87.90841505170907, 42.67267094152963], [-87.9085947147659, 42.67267094152963], [-87.9085947147659, 42.672491278472805], [-87.90895404087955, 42.672491278472805], [-87.90895404087955, 42.67267094152963], [-87.90949303005002, 42.67267094152963], [-87.90949303005002, 42.67195228930233], [-87.9093133669932, 42.67195228930233], [-87.9093133669932, 42.67159296318869], [-87.90823538865226, 42.67159296318869], [-87.90823538865226, 42.67141330013186], [-87.90805572559543, 42.67141330013186], [-87.90805572559543, 42.67159296318869], [-87.9078760625386, 42.67159296318869], [-87.9078760625386, 42.671772626245506], [-87.90769639948178, 42.671772626245506], [-87.90769639948178, 42.67231161541598], [-87.9078760625386, 42.67231161541598], [-87.9078760625386, 42.672491278472805], [-87.90805572559543, 42.672491278472805], [-87.90805572559543, 42.67303026764328]]]}, "properties": {"name": "cand02", "ptype": "hall", "confidence": "low", "rank": 2, "area_ha": 19.2, "rise_db": 6.5, "digitised_from": "Sentinel-1 VV rise 2021->2026, orbit 121"}}, {"type": "Feature", "geometry": {"geodesic": false, "type": "Polygon", "coordinates": [[[-87.93123225992571, 42.69710511725768], [-87.93123225992571, 42.69692545420086], [-87.93177124909619, 42.69692545420086], [-87.93177124909619, 42.696566128087206], [-87.93195091215301, 42.696566128087206], [-87.93195091215301, 42.69602713891673], [-87.93213057520983, 42.69602713891673], [-87.93213057520983, 42.696386465030386], [-87.93231023826665, 42.696386465030386], [-87.93231023826665, 42.69620680197356], [-87.93248990132348, 42.69620680197356], [-87.93248990132348, 42.69602713891673], [-87.9326695643803, 42.69602713891673], [-87.9326695643803, 42.69566781280309], [-87.93284922743713, 42.69566781280309], [-87.93284922743713, 42.695128823632615], [-87.9326695643803, 42.695128823632615], [-87.9326695643803, 42.69530848668944], [-87.93195091215301, 42.69530848668944], [-87.93195091215301, 42.695128823632615], [-87.93141192298253, 42.695128823632615], [-87.93141192298253, 42.69530848668944], [-87.9310525968689, 42.69530848668944], [-87.9310525968689, 42.695128823632615], [-87.93087293381207, 42.695128823632615], [-87.93087293381207, 42.694949160575796], [-87.9310525968689, 42.694949160575796], [-87.9310525968689, 42.69476949751897], [-87.93123225992571, 42.69476949751897], [-87.93123225992571, 42.694949160575796], [-87.93141192298253, 42.694949160575796], [-87.93141192298253, 42.69476949751897], [-87.93177124909619, 42.69476949751897], [-87.93177124909619, 42.69441017140532], [-87.93141192298253, 42.69441017140532], [-87.93141192298253, 42.6942305083485], [-87.93177124909619, 42.6942305083485], [-87.93177124909619, 42.69405084529167], [-87.93213057520983, 42.69405084529167], [-87.93213057520983, 42.693691519178024], [-87.93248990132348, 42.693691519178024], [-87.93248990132348, 42.69387118223485], [-87.93231023826665, 42.69387118223485], [-87.93231023826665, 42.69405084529167], [-87.93284922743713, 42.69405084529167], [-87.93284922743713, 42.69387118223485], [-87.93302889049396, 42.69387118223485], [-87.93302889049396, 42.693691519178024], [-87.93284922743713, 42.693691519178024], [-87.93284922743713, 42.693511856121205], [-87.93195091215301, 42.693511856121205], [-87.93195091215301, 42.693691519178024], [-87.9310525968689, 42.693691519178024], [-87.9310525968689, 42.693511856121205], [-87.93069327075524, 42.693511856121205], [-87.93069327075524, 42.69333219306438], [-87.93051360769842, 42.69333219306438], [-87.93051360769842, 42.693511856121205], [-87.93033394464159, 42.693511856121205], [-87.93033394464159, 42.69405084529167], [-87.93051360769842, 42.69405084529167], [-87.93051360769842, 42.69458983446214], [-87.93033394464159, 42.69458983446214], [-87.93033394464159, 42.694949160575796], [-87.93015428158476, 42.694949160575796], [-87.93015428158476, 42.69530848668944], [-87.93051360769842, 42.69530848668944], [-87.93051360769842, 42.69548814974627], [-87.9310525968689, 42.69548814974627], [-87.9310525968689, 42.69566781280309], [-87.93069327075524, 42.69566781280309], [-87.93069327075524, 42.695847475859914], [-87.93033394464159, 42.695847475859914], [-87.93033394464159, 42.69602713891673], [-87.92979495547112, 42.69602713891673], [-87.92979495547112, 42.69692545420086], [-87.93033394464159, 42.69692545420086], [-87.93033394464159, 42.69674579114403], [-87.93051360769842, 42.69674579114403], [-87.93051360769842, 42.69692545420086], [-87.93069327075524, 42.69692545420086], [-87.93069327075524, 42.69710511725768], [-87.93123225992571, 42.69710511725768]], [[-87.93087293381207, 42.69405084529167], [-87.9310525968689, 42.69405084529167], [-87.9310525968689, 42.69387118223485], [-87.93087293381207, 42.69387118223485], [-87.93087293381207, 42.69405084529167]], [[-87.9310525968689, 42.69441017140532], [-87.93123225992571, 42.69441017140532], [-87.93123225992571, 42.6942305083485], [-87.9310525968689, 42.6942305083485], [-87.9310525968689, 42.69441017140532]], [[-87.93248990132348, 42.69566781280309], [-87.9326695643803, 42.69566781280309], [-87.9326695643803, 42.69548814974627], [-87.93248990132348, 42.69548814974627], [-87.93248990132348, 42.69566781280309]], [[-87.93087293381207, 42.69620680197356], [-87.9310525968689, 42.69620680197356], [-87.9310525968689, 42.69602713891673], [-87.93087293381207, 42.69602713891673], [-87.93087293381207, 42.69620680197356]], [[-87.93015428158476, 42.696566128087206], [-87.93033394464159, 42.696566128087206], [-87.93033394464159, 42.69620680197356], [-87.93015428158476, 42.69620680197356], [-87.93015428158476, 42.696566128087206]], [[-87.9310525968689, 42.69674579114403], [-87.93123225992571, 42.69674579114403], [-87.93123225992571, 42.696566128087206], [-87.9310525968689, 42.696566128087206], [-87.9310525968689, 42.69674579114403]]]}, "properties": {"name": "cand03", "ptype": "hall", "confidence": "low", "rank": 3, "area_ha": 7.4, "rise_db": 6.5, "digitised_from": "Sentinel-1 VV rise 2021->2026, orbit 121"}}, {"type": "Feature", "geometry": {"geodesic": false, "type": "Polygon", "coordinates": [[[-87.95009688089222, 42.707525574553465], [-87.95009688089222, 42.707345911496645], [-87.95207317451728, 42.707345911496645], [-87.95207317451728, 42.707525574553465], [-87.95261216368776, 42.707525574553465], [-87.95261216368776, 42.707345911496645], [-87.95279182674459, 42.707345911496645], [-87.95279182674459, 42.70716624843982], [-87.9529714898014, 42.70716624843982], [-87.9529714898014, 42.70698658538299], [-87.95279182674459, 42.70698658538299], [-87.95279182674459, 42.706088270098874], [-87.95261216368776, 42.706088270098874], [-87.95261216368776, 42.705908607042055], [-87.95279182674459, 42.705908607042055], [-87.95279182674459, 42.70572894398523], [-87.95135452228999, 42.70572894398523], [-87.95135452228999, 42.705908607042055], [-87.95045620700587, 42.705908607042055], [-87.95045620700587, 42.706088270098874], [-87.95009688089222, 42.706088270098874], [-87.95009688089222, 42.7062679331557], [-87.94955789172175, 42.7062679331557], [-87.94955789172175, 42.70662725926935], [-87.94937822866493, 42.70662725926935], [-87.94937822866493, 42.70680692232617], [-87.94955789172175, 42.70680692232617], [-87.94955789172175, 42.707525574553465], [-87.95009688089222, 42.707525574553465]]]}, "properties": {"name": "cand04", "ptype": "hall", "confidence": "low", "rank": 4, "area_ha": 6.0, "rise_db": 9.1, "digitised_from": "Sentinel-1 VV rise 2021->2026, orbit 121"}}, {"type": "Feature", "geometry": {"geodesic": false, "type": "Polygon", "coordinates": [[[-87.92692034656194, 42.70123736756463], [-87.92692034656194, 42.701057704507804], [-87.92781866184606, 42.701057704507804], [-87.92781866184606, 42.70123736756463], [-87.92871697713018, 42.70123736756463], [-87.92871697713018, 42.701057704507804], [-87.928896640187, 42.701057704507804], [-87.928896640187, 42.70051871533733], [-87.92871697713018, 42.70051871533733], [-87.92871697713018, 42.69997972616686], [-87.92530337905052, 42.69997972616686], [-87.92530337905052, 42.700159389223685], [-87.9251237159937, 42.700159389223685], [-87.9251237159937, 42.701057704507804], [-87.92566270516417, 42.701057704507804], [-87.92566270516417, 42.70123736756463], [-87.92692034656194, 42.70123736756463]]]}, "properties": {"name": "cand05", "ptype": "hall", "confidence": "low", "rank": 5, "area_ha": 5.4, "rise_db": 6.7, "digitised_from": "Sentinel-1 VV rise 2021->2026, orbit 121"}}, {"type": "Feature", "geometry": {"geodesic": false, "type": "Polygon", "coordinates": [[[-87.92727967267558, 42.70321366118969], [-87.92727967267558, 42.70303399813287], [-87.92853731407335, 42.70303399813287], [-87.92853731407335, 42.70321366118969], [-87.92871697713018, 42.70321366118969], [-87.92871697713018, 42.70213568284875], [-87.92853731407335, 42.70213568284875], [-87.92853731407335, 42.70195601979192], [-87.92530337905052, 42.70195601979192], [-87.92530337905052, 42.70213568284875], [-87.9251237159937, 42.70213568284875], [-87.9251237159937, 42.702495008962394], [-87.92530337905052, 42.702495008962394], [-87.92530337905052, 42.70303399813287], [-87.92548304210734, 42.70303399813287], [-87.92548304210734, 42.70321366118969], [-87.92727967267558, 42.70321366118969]]]}, "properties": {"name": "cand06", "ptype": "hall", "confidence": "low", "rank": 6, "area_ha": 5.0, "rise_db": 6.7, "digitised_from": "Sentinel-1 VV rise 2021->2026, orbit 121"}}, {"type": "Feature", "geometry": {"geodesic": false, "type": "Polygon", "coordinates": [[[-87.88703514794703, 42.699440736996394], [-87.88703514794703, 42.69926107393957], [-87.88775380017432, 42.69926107393957], [-87.88775380017432, 42.699440736996394], [-87.88847245240163, 42.699440736996394], [-87.88847245240163, 42.69926107393957], [-87.8890114415721, 42.69926107393957], [-87.8890114415721, 42.699440736996394], [-87.88937076768575, 42.699440736996394], [-87.88937076768575, 42.698722084769095], [-87.88919110462892, 42.698722084769095], [-87.88919110462892, 42.69836275865545], [-87.8890114415721, 42.69836275865545], [-87.8890114415721, 42.69818309559862], [-87.8882927893448, 42.69818309559862], [-87.8882927893448, 42.698003432541796], [-87.88775380017432, 42.698003432541796], [-87.88775380017432, 42.69818309559862], [-87.88739447406068, 42.69818309559862], [-87.88739447406068, 42.69854242171227], [-87.8875741371175, 42.69854242171227], [-87.8875741371175, 42.698722084769095], [-87.88739447406068, 42.698722084769095], [-87.88739447406068, 42.69890174782592], [-87.88631649571974, 42.69890174782592], [-87.88631649571974, 42.698722084769095], [-87.8868554848902, 42.698722084769095], [-87.8868554848902, 42.69836275865545], [-87.88577750654926, 42.69836275865545], [-87.88577750654926, 42.698722084769095], [-87.88595716960609, 42.698722084769095], [-87.88595716960609, 42.69890174782592], [-87.88577750654926, 42.69890174782592], [-87.88577750654926, 42.69908141088274], [-87.88595716960609, 42.69908141088274], [-87.88595716960609, 42.69926107393957], [-87.88613683266291, 42.69926107393957], [-87.88613683266291, 42.699440736996394], [-87.88703514794703, 42.699440736996394]], [[-87.88775380017432, 42.69890174782592], [-87.88793346323115, 42.69890174782592], [-87.88793346323115, 42.698722084769095], [-87.88775380017432, 42.698722084769095], [-87.88775380017432, 42.69890174782592]]]}, "properties": {"name": "cand07", "ptype": "hall", "confidence": "low", "rank": 7, "area_ha": 4.2, "rise_db": 11.5, "digitised_from": "Sentinel-1 VV rise 2021->2026, orbit 121"}}, {"type": "Feature", "geometry": {"geodesic": false, "type": "Polygon", "coordinates": [[[-87.90338448611801, 42.67518622432517], [-87.90338448611801, 42.67500656126834], [-87.90356414917483, 42.67500656126834], [-87.90356414917483, 42.67518622432517], [-87.90392347528848, 42.67518622432517], [-87.90392347528848, 42.67500656126834], [-87.9041031383453, 42.67500656126834], [-87.9041031383453, 42.673748919870576], [-87.90428280140213, 42.673748919870576], [-87.90428280140213, 42.673209930700104], [-87.90356414917483, 42.673209930700104], [-87.90356414917483, 42.67303026764328], [-87.90320482306119, 42.67303026764328], [-87.90320482306119, 42.673209930700104], [-87.90302516000436, 42.673209930700104], [-87.90302516000436, 42.67338959375692], [-87.90284549694753, 42.67338959375692], [-87.90284549694753, 42.673209930700104], [-87.90266583389071, 42.673209930700104], [-87.90266583389071, 42.67338959375692], [-87.90248617083388, 42.67338959375692], [-87.90248617083388, 42.673748919870576], [-87.90266583389071, 42.673748919870576], [-87.90266583389071, 42.673928582927395], [-87.90302516000436, 42.673928582927395], [-87.90302516000436, 42.67428790904104], [-87.90284549694753, 42.67428790904104], [-87.90284549694753, 42.67446757209787], [-87.90266583389071, 42.67446757209787], [-87.90266583389071, 42.674647235154694], [-87.90248617083388, 42.674647235154694], [-87.90248617083388, 42.67518622432517], [-87.90338448611801, 42.67518622432517]]]}, "properties": {"name": "cand08", "ptype": "hall", "confidence": "low", "rank": 8, "area_ha": 3.6, "rise_db": 6.3, "digitised_from": "Sentinel-1 VV rise 2021->2026, orbit 121"}}, {"type": "Feature", "geometry": {"geodesic": false, "type": "Polygon", "coordinates": [[[-87.9529714898014, 42.705189954814756], [-87.9529714898014, 42.70501029175793], [-87.95315115285823, 42.70501029175793], [-87.95315115285823, 42.70447130258746], [-87.9529714898014, 42.70447130258746], [-87.9529714898014, 42.70429163953064], [-87.95153418534682, 42.70429163953064], [-87.95153418534682, 42.703932313416985], [-87.95135452228999, 42.703932313416985], [-87.95135452228999, 42.703752650360165], [-87.95117485923316, 42.703752650360165], [-87.95117485923316, 42.703932313416985], [-87.95099519617634, 42.703932313416985], [-87.95099519617634, 42.70411197647381], [-87.95081553311952, 42.70411197647381], [-87.95081553311952, 42.70429163953064], [-87.95027654394904, 42.70429163953064], [-87.95027654394904, 42.70447130258746], [-87.95009688089222, 42.70447130258746], [-87.95009688089222, 42.704650965644284], [-87.95027654394904, 42.704650965644284], [-87.95027654394904, 42.705189954814756], [-87.9529714898014, 42.705189954814756]]]}, "properties": {"name": "cand09", "ptype": "hall", "confidence": "low", "rank": 9, "area_ha": 3.5, "rise_db": 8.8, "digitised_from": "Sentinel-1 VV rise 2021->2026, orbit 121"}}, {"type": "Feature", "geometry": {"geodesic": false, "type": "Polygon", "coordinates": [[[-87.93231023826665, 42.7145324337696], [-87.93231023826665, 42.71435277071277], [-87.9326695643803, 42.71435277071277], [-87.9326695643803, 42.71417310765595], [-87.93284922743713, 42.71417310765595], [-87.93284922743713, 42.71381378154231], [-87.9326695643803, 42.71381378154231], [-87.9326695643803, 42.71363411848548], [-87.92979495547112, 42.71363411848548], [-87.92979495547112, 42.71381378154231], [-87.9296152924143, 42.71381378154231], [-87.9296152924143, 42.713993444599126], [-87.92943562935747, 42.713993444599126], [-87.92943562935747, 42.71435277071277], [-87.9296152924143, 42.71435277071277], [-87.9296152924143, 42.7145324337696], [-87.93231023826665, 42.7145324337696]]]}, "properties": {"name": "cand10", "ptype": "hall", "confidence": "low", "rank": 10, "area_ha": 3.4, "rise_db": 9.1, "digitised_from": "Sentinel-1 VV rise 2021->2026, orbit 121"}}, {"type": "Feature", "geometry": {"geodesic": false, "type": "Polygon", "coordinates": [[[-87.94380867390339, 42.72549188023586], [-87.94380867390339, 42.72531221717903], [-87.9439883369602, 42.72531221717903], [-87.9439883369602, 42.72441390189491], [-87.94380867390339, 42.72441390189491], [-87.94380867390339, 42.72405457578127], [-87.9439883369602, 42.72405457578127], [-87.9439883369602, 42.72387491272444], [-87.94380867390339, 42.72387491272444], [-87.94380867390339, 42.72315626049715], [-87.94362901084656, 42.72315626049715], [-87.94362901084656, 42.72297659744032], [-87.94291035861927, 42.72297659744032], [-87.94291035861927, 42.72333592355397], [-87.94273069556245, 42.72333592355397], [-87.94273069556245, 42.72387491272444], [-87.94291035861927, 42.72387491272444], [-87.94291035861927, 42.72531221717903], [-87.94309002167608, 42.72531221717903], [-87.94309002167608, 42.72549188023586], [-87.94380867390339, 42.72549188023586]]]}, "properties": {"name": "cand11", "ptype": "hall", "confidence": "low", "rank": 11, "area_ha": 3.1, "rise_db": 8.6, "digitised_from": "Sentinel-1 VV rise 2021->2026, orbit 121"}}, {"type": "Feature", "geometry": {"geodesic": false, "type": "Polygon", "coordinates": [[[-87.90841505170907, 42.68309139882542], [-87.90841505170907, 42.68291173576859], [-87.90877437782272, 42.68291173576859], [-87.90877437782272, 42.68309139882542], [-87.90913370393638, 42.68309139882542], [-87.90913370393638, 42.68237274659812], [-87.90877437782272, 42.68237274659812], [-87.90877437782272, 42.682552409654946], [-87.9085947147659, 42.682552409654946], [-87.9085947147659, 42.682732072711765], [-87.90841505170907, 42.682732072711765], [-87.90841505170907, 42.682552409654946], [-87.90823538865226, 42.682552409654946], [-87.90823538865226, 42.681474431314], [-87.90841505170907, 42.681474431314], [-87.90841505170907, 42.68093544214353], [-87.9085947147659, 42.68093544214353], [-87.9085947147659, 42.68057611602988], [-87.90841505170907, 42.68057611602988], [-87.90841505170907, 42.680396452973056], [-87.9078760625386, 42.680396452973056], [-87.9078760625386, 42.68057611602988], [-87.90715741031131, 42.68057611602988], [-87.90715741031131, 42.6807557790867], [-87.90697774725449, 42.6807557790867], [-87.90697774725449, 42.681294768257175], [-87.90769639948178, 42.681294768257175], [-87.90769639948178, 42.681474431314], [-87.9078760625386, 42.681474431314], [-87.9078760625386, 42.68165409437083], [-87.90769639948178, 42.68165409437083], [-87.90769639948178, 42.682552409654946], [-87.9078760625386, 42.682552409654946], [-87.9078760625386, 42.68291173576859], [-87.90805572559543, 42.68291173576859], [-87.90805572559543, 42.68309139882542], [-87.90841505170907, 42.68309139882542]]]}, "properties": {"name": "cand12", "ptype": "hall", "confidence": "low", "rank": 12, "area_ha": 3.0, "rise_db": 6.9, "digitised_from": "Sentinel-1 VV rise 2021->2026, orbit 121"}}, {"type": "Feature", "geometry": {"geodesic": false, "type": "Polygon", "coordinates": [[[-87.88236390846961, 42.72171895604256], [-87.88236390846961, 42.72153929298573], [-87.88362154986737, 42.72153929298573], [-87.88362154986737, 42.721359629928905], [-87.8838012129242, 42.721359629928905], [-87.8838012129242, 42.72082064075843], [-87.88326222375373, 42.72082064075843], [-87.88326222375373, 42.72100030381526], [-87.88290289764008, 42.72100030381526], [-87.88290289764008, 42.72064097770161], [-87.88326222375373, 42.72064097770161], [-87.88326222375373, 42.72028165158796], [-87.88290289764008, 42.72028165158796], [-87.88290289764008, 42.72010198853114], [-87.88200458235596, 42.72010198853114], [-87.88200458235596, 42.72028165158796], [-87.88182491929913, 42.72028165158796], [-87.88182491929913, 42.721179966872086], [-87.88128593012867, 42.721179966872086], [-87.88128593012867, 42.72153929298573], [-87.88218424541279, 42.72153929298573], [-87.88218424541279, 42.72171895604256], [-87.88236390846961, 42.72171895604256]]]}, "properties": {"name": "cand13", "ptype": "hall", "confidence": "low", "rank": 13, "area_ha": 3.0, "rise_db": 9.7, "digitised_from": "Sentinel-1 VV rise 2021->2026, orbit 121"}}, {"type": "Feature", "geometry": {"geodesic": false, "type": "Polygon", "coordinates": [[[-87.9093133669932, 42.710400183462646], [-87.9093133669932, 42.70986119429218], [-87.90913370393638, 42.70986119429218], [-87.90913370393638, 42.70914254206488], [-87.90895404087955, 42.70914254206488], [-87.90895404087955, 42.708962879008055], [-87.90877437782272, 42.708962879008055], [-87.90877437782272, 42.708783215951236], [-87.90715741031131, 42.708783215951236], [-87.90715741031131, 42.70842388983758], [-87.90679808419766, 42.70842388983758], [-87.90679808419766, 42.70950186817853], [-87.90661842114083, 42.70950186817853], [-87.90661842114083, 42.709681531235354], [-87.90679808419766, 42.709681531235354], [-87.90679808419766, 42.70986119429218], [-87.90697774725449, 42.70986119429218], [-87.90697774725449, 42.709681531235354], [-87.90733707336814, 42.709681531235354], [-87.90733707336814, 42.70950186817853], [-87.90751673642495, 42.70950186817853], [-87.90751673642495, 42.70932220512171], [-87.90805572559543, 42.70932220512171], [-87.90805572559543, 42.70950186817853], [-87.9078760625386, 42.70950186817853], [-87.9078760625386, 42.709681531235354], [-87.90877437782272, 42.709681531235354], [-87.90877437782272, 42.70986119429218], [-87.90895404087955, 42.70986119429218], [-87.90895404087955, 42.71022052040583], [-87.90913370393638, 42.71022052040583], [-87.90913370393638, 42.710400183462646], [-87.9093133669932, 42.710400183462646]]]}, "properties": {"name": "cand14", "ptype": "hall", "confidence": "low", "rank": 14, "area_ha": 2.8, "rise_db": 7.1, "digitised_from": "Sentinel-1 VV rise 2021->2026, orbit 121"}}, {"type": "Feature", "geometry": {"geodesic": false, "type": "Polygon", "coordinates": [[[-87.9612359904153, 42.63871462378991], [-87.9612359904153, 42.63853496073309], [-87.96105632735848, 42.63853496073309], [-87.96105632735848, 42.63835529767626], [-87.96069700124484, 42.63835529767626], [-87.96069700124484, 42.63817563461944], [-87.95925969679024, 42.63817563461944], [-87.95925969679024, 42.63799597156262], [-87.95710374010835, 42.63799597156262], [-87.95710374010835, 42.63853496073309], [-87.95979868596072, 42.63853496073309], [-87.95979868596072, 42.63871462378991], [-87.9612359904153, 42.63871462378991]]]}, "properties": {"name": "cand15", "ptype": "hall", "confidence": "low", "rank": 15, "area_ha": 2.5, "rise_db": 10.6, "digitised_from": "Sentinel-1 VV rise 2021->2026, orbit 121"}}, {"type": "Feature", "geometry": {"geodesic": false, "type": "Polygon", "coordinates": [[[-87.86331962444628, 42.682732072711765], [-87.86331962444628, 42.682552409654946], [-87.8634992875031, 42.682552409654946], [-87.8634992875031, 42.68219308354129], [-87.86403827667357, 42.68219308354129], [-87.86403827667357, 42.68165409437083], [-87.86457726584405, 42.68165409437083], [-87.86457726584405, 42.681474431314], [-87.86475692890087, 42.681474431314], [-87.86475692890087, 42.681294768257175], [-87.8642179397304, 42.681294768257175], [-87.8642179397304, 42.681115105200355], [-87.86403827667357, 42.681115105200355], [-87.86403827667357, 42.68093544214353], [-87.8642179397304, 42.68093544214353], [-87.8642179397304, 42.680396452973056], [-87.86403827667357, 42.680396452973056], [-87.86403827667357, 42.68021678991623], [-87.8642179397304, 42.68021678991623], [-87.8642179397304, 42.68003712685941], [-87.86457726584405, 42.68003712685941], [-87.86457726584405, 42.679857463802584], [-87.86475692890087, 42.679857463802584], [-87.86475692890087, 42.679677800745765], [-87.86457726584405, 42.679677800745765], [-87.86457726584405, 42.67949813768894], [-87.86385861361674, 42.67949813768894], [-87.86385861361674, 42.679677800745765], [-87.86367895055993, 42.679677800745765], [-87.86367895055993, 42.68021678991623], [-87.8634992875031, 42.68021678991623], [-87.8634992875031, 42.68057611602988], [-87.86367895055993, 42.68057611602988], [-87.86367895055993, 42.681474431314], [-87.86385861361674, 42.681474431314], [-87.86385861361674, 42.68183375742765], [-87.86367895055993, 42.68183375742765], [-87.86367895055993, 42.68201342048447], [-87.8634992875031, 42.68201342048447], [-87.8634992875031, 42.68219308354129], [-87.86313996138945, 42.68219308354129], [-87.86313996138945, 42.68237274659812], [-87.86296029833262, 42.68237274659812], [-87.86296029833262, 42.682552409654946], [-87.86313996138945, 42.682552409654946], [-87.86313996138945, 42.682732072711765], [-87.86331962444628, 42.682732072711765]]]}, "properties": {"name": "cand16", "ptype": "hall", "confidence": "low", "rank": 16, "area_ha": 2.3, "rise_db": 6.9, "digitised_from": "Sentinel-1 VV rise 2021->2026, orbit 121"}}, {"type": "Feature", "geometry": {"geodesic": false, "type": "Polygon", "coordinates": [[[-87.91416426952745, 42.67572521349564], [-87.91416426952745, 42.67518622432517], [-87.91398460647062, 42.67518622432517], [-87.91398460647062, 42.67500656126834], [-87.91416426952745, 42.67500656126834], [-87.91416426952745, 42.67446757209787], [-87.91434393258426, 42.67446757209787], [-87.91434393258426, 42.67410824598422], [-87.91452359564109, 42.67410824598422], [-87.91452359564109, 42.673928582927395], [-87.91434393258426, 42.673928582927395], [-87.91434393258426, 42.673748919870576], [-87.91398460647062, 42.673748919870576], [-87.91398460647062, 42.673928582927395], [-87.9138049434138, 42.673928582927395], [-87.9138049434138, 42.67446757209787], [-87.91362528035697, 42.67446757209787], [-87.91362528035697, 42.674647235154694], [-87.91344561730014, 42.674647235154694], [-87.91344561730014, 42.67518622432517], [-87.91362528035697, 42.67518622432517], [-87.91362528035697, 42.675365887381986], [-87.9138049434138, 42.675365887381986], [-87.9138049434138, 42.67572521349564], [-87.91416426952745, 42.67572521349564]]]}, "properties": {"name": "cand17", "ptype": "hall", "confidence": "low", "rank": 17, "area_ha": 1.3, "rise_db": 5.8, "digitised_from": "Sentinel-1 VV rise 2021->2026, orbit 121"}}, {"type": "Feature", "geometry": {"geodesic": false, "type": "Polygon", "coordinates": [[[-87.87122479894653, 42.70806456372394], [-87.87122479894653, 42.70788490066712], [-87.87194345117382, 42.70788490066712], [-87.87194345117382, 42.707525574553465], [-87.871763788117, 42.707525574553465], [-87.871763788117, 42.70716624843982], [-87.87212311423065, 42.70716624843982], [-87.87212311423065, 42.70680692232617], [-87.87122479894653, 42.70680692232617], [-87.87122479894653, 42.70698658538299], [-87.8710451358897, 42.70698658538299], [-87.8710451358897, 42.707345911496645], [-87.87086547283288, 42.707345911496645], [-87.87086547283288, 42.70788490066712], [-87.8710451358897, 42.70788490066712], [-87.8710451358897, 42.70806456372394], [-87.87122479894653, 42.70806456372394]]]}, "properties": {"name": "cand18", "ptype": "hall", "confidence": "low", "rank": 18, "area_ha": 1.3, "rise_db": 5.7, "digitised_from": "Sentinel-1 VV rise 2021->2026, orbit 121"}}, {"type": "Feature", "geometry": {"geodesic": false, "type": "Polygon", "coordinates": [[[-87.91021168227732, 42.70932220512171], [-87.91021168227732, 42.70914254206488], [-87.91057100839096, 42.70914254206488], [-87.91057100839096, 42.70932220512171], [-87.91093033450461, 42.70932220512171], [-87.91093033450461, 42.70914254206488], [-87.91110999756144, 42.70914254206488], [-87.91110999756144, 42.708783215951236], [-87.91128966061827, 42.708783215951236], [-87.91128966061827, 42.70914254206488], [-87.91182864978873, 42.70914254206488], [-87.91182864978873, 42.708783215951236], [-87.9116489867319, 42.708783215951236], [-87.9116489867319, 42.70842388983758], [-87.91128966061827, 42.70842388983758], [-87.91128966061827, 42.70860355289441], [-87.91110999756144, 42.70860355289441], [-87.91110999756144, 42.708783215951236], [-87.91075067144779, 42.708783215951236], [-87.91075067144779, 42.70860355289441], [-87.91057100839096, 42.70860355289441], [-87.91057100839096, 42.708783215951236], [-87.91021168227732, 42.708783215951236], [-87.91021168227732, 42.70860355289441], [-87.90985235616367, 42.70860355289441], [-87.90985235616367, 42.708783215951236], [-87.90967269310684, 42.708783215951236], [-87.90967269310684, 42.708962879008055], [-87.90985235616367, 42.708962879008055], [-87.90985235616367, 42.70932220512171], [-87.91021168227732, 42.70932220512171]]]}, "properties": {"name": "cand19", "ptype": "hall", "confidence": "low", "rank": 19, "area_ha": 1.3, "rise_db": 6.8, "digitised_from": "Sentinel-1 VV rise 2021->2026, orbit 121"}}, {"type": "Feature", "geometry": {"geodesic": false, "type": "Polygon", "coordinates": [[[-87.88919110462892, 42.69297286695073], [-87.88919110462892, 42.692793203893906], [-87.88937076768575, 42.692793203893906], [-87.88937076768575, 42.69243387778026], [-87.88955043074256, 42.69243387778026], [-87.88955043074256, 42.692254214723434], [-87.88973009379939, 42.692254214723434], [-87.88973009379939, 42.69261354083708], [-87.89026908296987, 42.69261354083708], [-87.89026908296987, 42.69207455166661], [-87.89008941991304, 42.69207455166661], [-87.89008941991304, 42.69189488860979], [-87.88919110462892, 42.69189488860979], [-87.88919110462892, 42.69207455166661], [-87.88883177851527, 42.69207455166661], [-87.88883177851527, 42.69297286695073], [-87.88919110462892, 42.69297286695073]]]}, "properties": {"name": "cand20", "ptype": "hall", "confidence": "low", "rank": 20, "area_ha": 1.2, "rise_db": 8.5, "digitised_from": "Sentinel-1 VV rise 2021->2026, orbit 121"}}, {"type": "Feature", "geometry": {"geodesic": false, "type": "Polygon", "coordinates": [[[-87.92386607459594, 42.680396452973056], [-87.92386607459594, 42.68021678991623], [-87.92458472682323, 42.68021678991623], [-87.92458472682323, 42.68003712685941], [-87.92476438988005, 42.68003712685941], [-87.92476438988005, 42.679677800745765], [-87.92314742236864, 42.679677800745765], [-87.92314742236864, 42.679857463802584], [-87.92296775931182, 42.679857463802584], [-87.92296775931182, 42.68021678991623], [-87.92350674848228, 42.68021678991623], [-87.92350674848228, 42.680396452973056], [-87.92386607459594, 42.680396452973056]]]}, "properties": {"name": "cand21", "ptype": "hall", "confidence": "low", "rank": 21, "area_ha": 1.2, "rise_db": 17.0, "digitised_from": "Sentinel-1 VV rise 2021->2026, orbit 121"}}, {"type": "Feature", "geometry": {"geodesic": false, "type": "Polygon", "coordinates": [[[-87.96321228404037, 42.711118835689945], [-87.96321228404037, 42.71093917263312], [-87.9633919470972, 42.71093917263312], [-87.9633919470972, 42.7107595095763], [-87.96357161015402, 42.7107595095763], [-87.96357161015402, 42.71057984651947], [-87.9633919470972, 42.71057984651947], [-87.9633919470972, 42.710400183462646], [-87.96285295792671, 42.710400183462646], [-87.96285295792671, 42.71022052040583], [-87.96249363181308, 42.71022052040583], [-87.96249363181308, 42.71057984651947], [-87.96303262098354, 42.71057984651947], [-87.96303262098354, 42.7107595095763], [-87.96159531652896, 42.7107595095763], [-87.96159531652896, 42.711118835689945], [-87.96321228404037, 42.711118835689945]]]}, "properties": {"name": "cand22", "ptype": "hall", "confidence": "low", "rank": 22, "area_ha": 1.2, "rise_db": 8.3, "digitised_from": "Sentinel-1 VV rise 2021->2026, orbit 121"}}, {"type": "Feature", "geometry": {"geodesic": false, "type": "Polygon", "coordinates": [[[-87.90949303005002, 42.676084539609285], [-87.90949303005002, 42.67590487655246], [-87.90985235616367, 42.67590487655246], [-87.90985235616367, 42.67572521349564], [-87.91039134533413, 42.67572521349564], [-87.91039134533413, 42.67554555043881], [-87.91021168227732, 42.67554555043881], [-87.91021168227732, 42.675365887381986], [-87.90895404087955, 42.675365887381986], [-87.90895404087955, 42.67554555043881], [-87.90877437782272, 42.67554555043881], [-87.90877437782272, 42.67572521349564], [-87.9085947147659, 42.67572521349564], [-87.9085947147659, 42.676084539609285], [-87.90949303005002, 42.676084539609285]]]}, "properties": {"name": "cand23", "ptype": "hall", "confidence": "low", "rank": 23, "area_ha": 1.1, "rise_db": 6.1, "digitised_from": "Sentinel-1 VV rise 2021->2026, orbit 121"}}, {"type": "Feature", "geometry": {"geodesic": false, "type": "Polygon", "coordinates": [[[-87.89979122498153, 42.681115105200355], [-87.89979122498153, 42.68093544214353], [-87.89997088803835, 42.68093544214353], [-87.89997088803835, 42.680396452973056], [-87.89979122498153, 42.680396452973056], [-87.89979122498153, 42.68021678991623], [-87.89925223581106, 42.68021678991623], [-87.89925223581106, 42.679677800745765], [-87.89889290969741, 42.679677800745765], [-87.89889290969741, 42.679857463802584], [-87.89871324664058, 42.679857463802584], [-87.89871324664058, 42.68021678991623], [-87.89889290969741, 42.68021678991623], [-87.89889290969741, 42.68057611602988], [-87.89907257275424, 42.68057611602988], [-87.89907257275424, 42.6807557790867], [-87.89943189886789, 42.6807557790867], [-87.89943189886789, 42.68093544214353], [-87.8996115619247, 42.68093544214353], [-87.8996115619247, 42.681115105200355], [-87.89979122498153, 42.681115105200355]]]}, "properties": {"name": "cand24", "ptype": "hall", "confidence": "low", "rank": 24, "area_ha": 1.1, "rise_db": 5.3, "digitised_from": "Sentinel-1 VV rise 2021->2026, orbit 121"}}, {"type": "Feature", "geometry": {"geodesic": false, "type": "Polygon", "coordinates": [[[-87.91039134533413, 42.69710511725768], [-87.91039134533413, 42.69692545420086], [-87.91057100839096, 42.69692545420086], [-87.91057100839096, 42.69674579114403], [-87.91075067144779, 42.69674579114403], [-87.91075067144779, 42.696566128087206], [-87.91093033450461, 42.696566128087206], [-87.91093033450461, 42.69602713891673], [-87.90967269310684, 42.69602713891673], [-87.90967269310684, 42.69620680197356], [-87.90985235616367, 42.69620680197356], [-87.90985235616367, 42.696386465030386], [-87.9100320192205, 42.696386465030386], [-87.9100320192205, 42.69710511725768], [-87.91039134533413, 42.69710511725768]]]}, "properties": {"name": "cand25", "ptype": "hall", "confidence": "low", "rank": 25, "area_ha": 1.1, "rise_db": 8.4, "digitised_from": "Sentinel-1 VV rise 2021->2026, orbit 121"}}, {"type": "Feature", "geometry": {"geodesic": false, "type": "Polygon", "coordinates": [[[-87.9130862911865, 42.67824049629117], [-87.9130862911865, 42.67788117017752], [-87.91344561730014, 42.67788117017752], [-87.91344561730014, 42.6777015071207], [-87.9138049434138, 42.6777015071207], [-87.9138049434138, 42.6769828548934], [-87.91362528035697, 42.6769828548934], [-87.91362528035697, 42.676803191836576], [-87.91344561730014, 42.676803191836576], [-87.91344561730014, 42.6769828548934], [-87.9130862911865, 42.6769828548934], [-87.9130862911865, 42.676803191836576], [-87.91290662812968, 42.676803191836576], [-87.91290662812968, 42.67716251795023], [-87.9130862911865, 42.67716251795023], [-87.9130862911865, 42.6777015071207], [-87.91290662812968, 42.6777015071207], [-87.91290662812968, 42.67788117017752], [-87.91272696507285, 42.67788117017752], [-87.91272696507285, 42.67824049629117], [-87.9130862911865, 42.67824049629117]]]}, "properties": {"name": "cand26", "ptype": "hall", "confidence": "low", "rank": 26, "area_ha": 1.0, "rise_db": 7.0, "digitised_from": "Sentinel-1 VV rise 2021->2026, orbit 121"}}, {"type": "Feature", "geometry": {"geodesic": false, "type": "Polygon", "coordinates": [[[-87.8838012129242, 42.628833155664594], [-87.8838012129242, 42.628653492607775], [-87.88398087598102, 42.628653492607775], [-87.88398087598102, 42.62847382955095], [-87.8838012129242, 42.62847382955095], [-87.8838012129242, 42.62829416649412], [-87.88362154986737, 42.62829416649412], [-87.88362154986737, 42.6281145034373], [-87.88326222375373, 42.6281145034373], [-87.88326222375373, 42.627934840380476], [-87.88290289764008, 42.627934840380476], [-87.88290289764008, 42.6281145034373], [-87.88272323458325, 42.6281145034373], [-87.88272323458325, 42.628653492607775], [-87.88290289764008, 42.628653492607775], [-87.88290289764008, 42.628833155664594], [-87.8838012129242, 42.628833155664594]]]}, "properties": {"name": "cand27", "ptype": "hall", "confidence": "low", "rank": 27, "area_ha": 1.0, "rise_db": 7.2, "digitised_from": "Sentinel-1 VV rise 2021->2026, orbit 121"}}, {"type": "Feature", "geometry": {"geodesic": false, "type": "Polygon", "coordinates": [[[-87.84517365570706, 42.69890174782592], [-87.84517365570706, 42.698722084769095], [-87.84589230793436, 42.698722084769095], [-87.84589230793436, 42.69890174782592], [-87.84679062321848, 42.69890174782592], [-87.84679062321848, 42.69836275865545], [-87.84661096016166, 42.69836275865545], [-87.84661096016166, 42.69854242171227], [-87.84643129710483, 42.69854242171227], [-87.84643129710483, 42.69836275865545], [-87.84607197099118, 42.69836275865545], [-87.84607197099118, 42.698003432541796], [-87.84589230793436, 42.698003432541796], [-87.84589230793436, 42.69818309559862], [-87.84571264487754, 42.69818309559862], [-87.84571264487754, 42.69836275865545], [-87.84535331876388, 42.69836275865545], [-87.84535331876388, 42.69854242171227], [-87.84499399265025, 42.69854242171227], [-87.84499399265025, 42.69890174782592], [-87.84517365570706, 42.69890174782592]], [[-87.84571264487754, 42.69854242171227], [-87.84589230793436, 42.69854242171227], [-87.84589230793436, 42.69836275865545], [-87.84571264487754, 42.69836275865545], [-87.84571264487754, 42.69854242171227]]]}, "properties": {"name": "cand28", "ptype": "hall", "confidence": "low", "rank": 28, "area_ha": 1.0, "rise_db": 7.4, "digitised_from": "Sentinel-1 VV rise 2021->2026, orbit 121"}}]}