{"type": "FeatureCollection", "features": [{"type": "Feature", "geometry": {"geodesic": false, "type": "Polygon", "coordinates": [[[-91.63588449163461, 32.52170823097904], [-91.63588449163461, 32.52134890486539], [-91.63606415469144, 32.52134890486539], [-91.63606415469144, 32.521169241808565], [-91.63588449163461, 32.521169241808565], [-91.63588449163461, 32.519731937353974], [-91.6357048285778, 32.519731937353974], [-91.6357048285778, 32.51955227429715], [-91.63534550246415, 32.51955227429715], [-91.63534550246415, 32.51937261124033], [-91.63516583940732, 32.51937261124033], [-91.63516583940732, 32.519013285126675], [-91.63534550246415, 32.519013285126675], [-91.63534550246415, 32.5184742959562], [-91.63516583940732, 32.5184742959562], [-91.63516583940732, 32.518294632899384], [-91.63480651329368, 32.518294632899384], [-91.63480651329368, 32.5184742959562], [-91.63408786106638, 32.5184742959562], [-91.63408786106638, 32.518294632899384], [-91.63390819800955, 32.518294632899384], [-91.63390819800955, 32.51775564372891], [-91.63300988272543, 32.51775564372891], [-91.63300988272543, 32.51793530678574], [-91.63283021966862, 32.51793530678574], [-91.63283021966862, 32.51865395901303], [-91.63300988272543, 32.51865395901303], [-91.63300988272543, 32.518833622069856], [-91.63336920883908, 32.518833622069856], [-91.63336920883908, 32.5191929481835], [-91.63318954578226, 32.5191929481835], [-91.63318954578226, 32.51937261124033], [-91.63300988272543, 32.51937261124033], [-91.63300988272543, 32.51955227429715], [-91.63283021966862, 32.51955227429715], [-91.63283021966862, 32.519731937353974], [-91.63247089355497, 32.519731937353974], [-91.63247089355497, 32.519013285126675], [-91.63229123049814, 32.519013285126675], [-91.63229123049814, 32.51865395901303], [-91.63247089355497, 32.51865395901303], [-91.63247089355497, 32.51811496984256], [-91.63211156744131, 32.51811496984256], [-91.63211156744131, 32.51793530678574], [-91.63193190438449, 32.51793530678574], [-91.63193190438449, 32.51775564372891], [-91.63157257827085, 32.51775564372891], [-91.63157257827085, 32.51793530678574], [-91.63103358910037, 32.51793530678574], [-91.63103358910037, 32.51811496984256], [-91.63085392604356, 32.51811496984256], [-91.63085392604356, 32.518294632899384], [-91.63067426298673, 32.518294632899384], [-91.63067426298673, 32.518833622069856], [-91.63139291521402, 32.518833622069856], [-91.63139291521402, 32.519013285126675], [-91.63157257827085, 32.519013285126675], [-91.63157257827085, 32.519731937353974], [-91.63139291521402, 32.519731937353974], [-91.63139291521402, 32.51955227429715], [-91.6312132521572, 32.51955227429715], [-91.6312132521572, 32.51937261124033], [-91.63085392604356, 32.51937261124033], [-91.63085392604356, 32.5199116004108], [-91.63067426298673, 32.5199116004108], [-91.63067426298673, 32.52009126346762], [-91.6304945999299, 32.52009126346762], [-91.6304945999299, 32.52063025263809], [-91.63067426298673, 32.52063025263809], [-91.63067426298673, 32.52080991569492], [-91.63103358910037, 32.52080991569492], [-91.63103358910037, 32.52063025263809], [-91.63157257827085, 32.52063025263809], [-91.63157257827085, 32.520450589581266], [-91.63175224132767, 32.520450589581266], [-91.63175224132767, 32.52027092652445], [-91.63211156744131, 32.52027092652445], [-91.63211156744131, 32.52063025263809], [-91.63229123049814, 32.52063025263809], [-91.63229123049814, 32.52080991569492], [-91.63283021966862, 32.52080991569492], [-91.63283021966862, 32.52098957875174], [-91.63354887189591, 32.52098957875174], [-91.63354887189591, 32.52080991569492], [-91.63372853495274, 32.52080991569492], [-91.63372853495274, 32.520450589581266], [-91.6342675241232, 32.520450589581266], [-91.6342675241232, 32.52063025263809], [-91.63462685023686, 32.52063025263809], [-91.63462685023686, 32.520450589581266], [-91.6349861763505, 32.520450589581266], [-91.6349861763505, 32.52134890486539], [-91.63534550246415, 32.52134890486539], [-91.63534550246415, 32.52152856792221], [-91.63480651329368, 32.52152856792221], [-91.63480651329368, 32.52170823097904], [-91.63588449163461, 32.52170823097904]]]}, "properties": {"name": "cand01", "ptype": "hall", "confidence": "low", "rank": 1, "area_ha": 14.8, "rise_db": 7.7, "digitised_from": "Sentinel-1 VV rise 2021->2026, orbit 165"}}, {"type": "Feature", "geometry": {"geodesic": false, "type": "Polygon", "coordinates": [[[-91.6394777527711, 32.526379470456455], [-91.6394777527711, 32.526199807399635], [-91.63983707888474, 32.526199807399635], [-91.63983707888474, 32.52602014434281], [-91.64019640499839, 32.52602014434281], [-91.64019640499839, 32.52584048128599], [-91.64055573111204, 32.52584048128599], [-91.64055573111204, 32.52566081822916], [-91.64073539416887, 32.52566081822916], [-91.64073539416887, 32.525481155172336], [-91.64091505722568, 32.525481155172336], [-91.64091505722568, 32.52566081822916], [-91.64109472028251, 32.52566081822916], [-91.64109472028251, 32.52584048128599], [-91.64127438333934, 32.52584048128599], [-91.64127438333934, 32.52566081822916], [-91.64145404639616, 32.52566081822916], [-91.64145404639616, 32.525481155172336], [-91.64163370945299, 32.525481155172336], [-91.64163370945299, 32.523325198490454], [-91.64145404639616, 32.523325198490454], [-91.64145404639616, 32.5229658723768], [-91.64073539416887, 32.5229658723768], [-91.64073539416887, 32.52314553543363], [-91.64019640499839, 32.52314553543363], [-91.64019640499839, 32.5229658723768], [-91.63983707888474, 32.5229658723768], [-91.63983707888474, 32.52314553543363], [-91.6394777527711, 32.52314553543363], [-91.6394777527711, 32.5229658723768], [-91.63893876360062, 32.5229658723768], [-91.63893876360062, 32.52314553543363], [-91.63875910054381, 32.52314553543363], [-91.63875910054381, 32.52530149211552], [-91.63893876360062, 32.52530149211552], [-91.63893876360062, 32.525481155172336], [-91.63911842665745, 32.525481155172336], [-91.63911842665745, 32.52566081822916], [-91.63893876360062, 32.52566081822916], [-91.63893876360062, 32.52584048128599], [-91.63875910054381, 32.52584048128599], [-91.63875910054381, 32.526199807399635], [-91.63893876360062, 32.526199807399635], [-91.63893876360062, 32.526379470456455], [-91.6394777527711, 32.526379470456455]]]}, "properties": {"name": "cand02", "ptype": "hall", "confidence": "low", "rank": 2, "area_ha": 10.2, "rise_db": 10.5, "digitised_from": "Sentinel-1 VV rise 2021->2026, orbit 165"}}, {"type": "Feature", "geometry": {"geodesic": false, "type": "Polygon", "coordinates": [[[-91.6326505566118, 32.510209795342305], [-91.6326505566118, 32.508772490887715], [-91.63283021966862, 32.508772490887715], [-91.63283021966862, 32.50859282783089], [-91.63300988272543, 32.50859282783089], [-91.63300988272543, 32.508053838660416], [-91.63318954578226, 32.508053838660416], [-91.63318954578226, 32.50769451254677], [-91.63390819800955, 32.50769451254677], [-91.63390819800955, 32.507335186433124], [-91.63408786106638, 32.507335186433124], [-91.63408786106638, 32.506436871149006], [-91.63354887189591, 32.506436871149006], [-91.63354887189591, 32.505897881978534], [-91.63390819800955, 32.505897881978534], [-91.63390819800955, 32.50571821892171], [-91.63372853495274, 32.50571821892171], [-91.63372853495274, 32.50481990363759], [-91.63354887189591, 32.50481990363759], [-91.63354887189591, 32.504999566694416], [-91.63318954578226, 32.504999566694416], [-91.63318954578226, 32.505179229751235], [-91.63300988272543, 32.505179229751235], [-91.63300988272543, 32.504999566694416], [-91.63283021966862, 32.504999566694416], [-91.63283021966862, 32.50481990363759], [-91.63229123049814, 32.50481990363759], [-91.63229123049814, 32.505179229751235], [-91.63211156744131, 32.505179229751235], [-91.63211156744131, 32.50553855586489], [-91.63193190438449, 32.50553855586489], [-91.63193190438449, 32.506436871149006], [-91.63175224132767, 32.506436871149006], [-91.63175224132767, 32.50697586031948], [-91.63157257827085, 32.50697586031948], [-91.63157257827085, 32.507335186433124], [-91.63175224132767, 32.507335186433124], [-91.63175224132767, 32.50751484948995], [-91.63157257827085, 32.50751484948995], [-91.63157257827085, 32.50769451254677], [-91.63139291521402, 32.50769451254677], [-91.63139291521402, 32.50859282783089], [-91.63175224132767, 32.50859282783089], [-91.63175224132767, 32.508772490887715], [-91.63193190438449, 32.508772490887715], [-91.63193190438449, 32.50859282783089], [-91.63211156744131, 32.50859282783089], [-91.63211156744131, 32.5078741756036], [-91.63247089355497, 32.5078741756036], [-91.63247089355497, 32.50841316477407], [-91.63229123049814, 32.50841316477407], [-91.63229123049814, 32.50913181700136], [-91.63211156744131, 32.50913181700136], [-91.63211156744131, 32.50931148005819], [-91.63229123049814, 32.50931148005819], [-91.63229123049814, 32.509491143115014], [-91.63211156744131, 32.509491143115014], [-91.63211156744131, 32.50985046922866], [-91.63193190438449, 32.50985046922866], [-91.63193190438449, 32.51003013228548], [-91.63211156744131, 32.51003013228548], [-91.63211156744131, 32.510209795342305], [-91.6326505566118, 32.510209795342305]], [[-91.63318954578226, 32.50751484948995], [-91.63354887189591, 32.50751484948995], [-91.63354887189591, 32.507335186433124], [-91.63372853495274, 32.507335186433124], [-91.63372853495274, 32.506616534205826], [-91.63336920883908, 32.506616534205826], [-91.63336920883908, 32.50697586031948], [-91.63318954578226, 32.50697586031948], [-91.63318954578226, 32.5071555233763], [-91.63336920883908, 32.5071555233763], [-91.63336920883908, 32.507335186433124], [-91.63318954578226, 32.507335186433124], [-91.63318954578226, 32.50751484948995]]]}, "properties": {"name": "cand03", "ptype": "hall", "confidence": "low", "rank": 3, "area_ha": 9.0, "rise_db": 6.0, "digitised_from": "Sentinel-1 VV rise 2021->2026, orbit 165"}}, {"type": "Feature", "geometry": {"geodesic": false, "type": "Polygon", "coordinates": [[[-91.63211156744131, 32.49619607691004], [-91.63211156744131, 32.49601641385322], [-91.63354887189591, 32.49601641385322], [-91.63354887189591, 32.49583675079639], [-91.63372853495274, 32.49583675079639], [-91.63372853495274, 32.49529776162592], [-91.63354887189591, 32.49529776162592], [-91.63354887189591, 32.4951180985691], [-91.63193190438449, 32.4951180985691], [-91.63193190438449, 32.49529776162592], [-91.63139291521402, 32.49529776162592], [-91.63139291521402, 32.4951180985691], [-91.6312132521572, 32.4951180985691], [-91.6312132521572, 32.49475877245545], [-91.63103358910037, 32.49475877245545], [-91.63103358910037, 32.494219783284976], [-91.6312132521572, 32.494219783284976], [-91.6312132521572, 32.49386045717133], [-91.63103358910037, 32.49386045717133], [-91.63103358910037, 32.49368079411451], [-91.63067426298673, 32.49368079411451], [-91.63067426298673, 32.493501131057684], [-91.63085392604356, 32.493501131057684], [-91.63085392604356, 32.49332146800086], [-91.6312132521572, 32.49332146800086], [-91.6312132521572, 32.492782478830385], [-91.63103358910037, 32.492782478830385], [-91.63103358910037, 32.49242315271674], [-91.63085392604356, 32.49242315271674], [-91.63085392604356, 32.49188416354627], [-91.63067426298673, 32.49188416354627], [-91.63067426298673, 32.491165511318975], [-91.6304945999299, 32.491165511318975], [-91.6304945999299, 32.491345174375795], [-91.63031493687308, 32.491345174375795], [-91.63031493687308, 32.49170450048945], [-91.6304945999299, 32.49170450048945], [-91.6304945999299, 32.49206382660309], [-91.63031493687308, 32.49206382660309], [-91.63031493687308, 32.49386045717133], [-91.63013527381625, 32.49386045717133], [-91.63013527381625, 32.494040120228156], [-91.63031493687308, 32.494040120228156], [-91.63031493687308, 32.494219783284976], [-91.63013527381625, 32.494219783284976], [-91.63013527381625, 32.4943994463418], [-91.63031493687308, 32.4943994463418], [-91.63031493687308, 32.49529776162592], [-91.63013527381625, 32.49529776162592], [-91.63013527381625, 32.49583675079639], [-91.63031493687308, 32.49583675079639], [-91.63031493687308, 32.49601641385322], [-91.63157257827085, 32.49601641385322], [-91.63157257827085, 32.49619607691004], [-91.63211156744131, 32.49619607691004]]]}, "properties": {"name": "cand04", "ptype": "hall", "confidence": "low", "rank": 4, "area_ha": 7.0, "rise_db": 6.3, "digitised_from": "Sentinel-1 VV rise 2021->2026, orbit 165"}}, {"type": "Feature", "geometry": {"geodesic": false, "type": "Polygon", "coordinates": [[[-91.6418133725098, 32.50625720809218], [-91.6418133725098, 32.50553855586489], [-91.64163370945299, 32.50553855586489], [-91.64163370945299, 32.50535889280806], [-91.6418133725098, 32.50535889280806], [-91.6418133725098, 32.505179229751235], [-91.64199303556663, 32.505179229751235], [-91.64199303556663, 32.504999566694416], [-91.64217269862345, 32.504999566694416], [-91.64217269862345, 32.50481990363759], [-91.64199303556663, 32.50481990363759], [-91.64199303556663, 32.50464024058076], [-91.6418133725098, 32.50464024058076], [-91.6418133725098, 32.50481990363759], [-91.64109472028251, 32.50481990363759], [-91.64109472028251, 32.50464024058076], [-91.64019640499839, 32.50464024058076], [-91.64019640499839, 32.50446057752394], [-91.63965741582793, 32.50446057752394], [-91.63965741582793, 32.50428091446712], [-91.63893876360062, 32.50428091446712], [-91.63893876360062, 32.50410125141029], [-91.63822011137333, 32.50410125141029], [-91.63822011137333, 32.50392158835347], [-91.6380404483165, 32.50392158835347], [-91.6380404483165, 32.50410125141029], [-91.63786078525968, 32.50410125141029], [-91.63786078525968, 32.50428091446712], [-91.6380404483165, 32.50428091446712], [-91.6380404483165, 32.50446057752394], [-91.63839977443016, 32.50446057752394], [-91.63839977443016, 32.50464024058076], [-91.63857943748698, 32.50464024058076], [-91.63857943748698, 32.505179229751235], [-91.63839977443016, 32.505179229751235], [-91.63839977443016, 32.50535889280806], [-91.63822011137333, 32.50535889280806], [-91.63822011137333, 32.50571821892171], [-91.63983707888474, 32.50571821892171], [-91.63983707888474, 32.505897881978534], [-91.64127438333934, 32.505897881978534], [-91.64127438333934, 32.50607754503535], [-91.64145404639616, 32.50607754503535], [-91.64145404639616, 32.50625720809218], [-91.6418133725098, 32.50625720809218]]]}, "properties": {"name": "cand05", "ptype": "hall", "confidence": "low", "rank": 5, "area_ha": 6.2, "rise_db": 7.1, "digitised_from": "Sentinel-1 VV rise 2021->2026, orbit 165"}}, {"type": "Feature", "geometry": {"geodesic": false, "type": "Polygon", "coordinates": [[[-91.64127438333934, 32.52206755709268], [-91.64127438333934, 32.521887894035864], [-91.64145404639616, 32.521887894035864], [-91.64145404639616, 32.521169241808565], [-91.6418133725098, 32.521169241808565], [-91.6418133725098, 32.52080991569492], [-91.64145404639616, 32.52080991569492], [-91.64145404639616, 32.52009126346762], [-91.64091505722568, 32.52009126346762], [-91.64091505722568, 32.5199116004108], [-91.64073539416887, 32.5199116004108], [-91.64073539416887, 32.519731937353974], [-91.64055573111204, 32.519731937353974], [-91.64055573111204, 32.51955227429715], [-91.64037606805522, 32.51955227429715], [-91.64037606805522, 32.51937261124033], [-91.64019640499839, 32.51937261124033], [-91.64019640499839, 32.5191929481835], [-91.64037606805522, 32.5191929481835], [-91.64037606805522, 32.519013285126675], [-91.64001674194157, 32.519013285126675], [-91.64001674194157, 32.51955227429715], [-91.64019640499839, 32.51955227429715], [-91.64019640499839, 32.5199116004108], [-91.63983707888474, 32.5199116004108], [-91.63983707888474, 32.519731937353974], [-91.63965741582793, 32.519731937353974], [-91.63965741582793, 32.51955227429715], [-91.6394777527711, 32.51955227429715], [-91.6394777527711, 32.51937261124033], [-91.63893876360062, 32.51937261124033], [-91.63893876360062, 32.519013285126675], [-91.63911842665745, 32.519013285126675], [-91.63911842665745, 32.51865395901303], [-91.63929808971427, 32.51865395901303], [-91.63929808971427, 32.518294632899384], [-91.63893876360062, 32.518294632899384], [-91.63893876360062, 32.5184742959562], [-91.63839977443016, 32.5184742959562], [-91.63839977443016, 32.51865395901303], [-91.63822011137333, 32.51865395901303], [-91.63822011137333, 32.519013285126675], [-91.63839977443016, 32.519013285126675], [-91.63839977443016, 32.519731937353974], [-91.63822011137333, 32.519731937353974], [-91.63822011137333, 32.52027092652445], [-91.6380404483165, 32.52027092652445], [-91.6380404483165, 32.52098957875174], [-91.63822011137333, 32.52098957875174], [-91.63822011137333, 32.521169241808565], [-91.63857943748698, 32.521169241808565], [-91.63857943748698, 32.52080991569492], [-91.63875910054381, 32.52080991569492], [-91.63875910054381, 32.52027092652445], [-91.63893876360062, 32.52027092652445], [-91.63893876360062, 32.520450589581266], [-91.6394777527711, 32.520450589581266], [-91.6394777527711, 32.52027092652445], [-91.63983707888474, 32.52027092652445], [-91.63983707888474, 32.52009126346762], [-91.64019640499839, 32.52009126346762], [-91.64019640499839, 32.52027092652445], [-91.64055573111204, 32.52027092652445], [-91.64055573111204, 32.520450589581266], [-91.64073539416887, 32.520450589581266], [-91.64073539416887, 32.52063025263809], [-91.64055573111204, 32.52063025263809], [-91.64055573111204, 32.52080991569492], [-91.64037606805522, 32.52080991569492], [-91.64037606805522, 32.52152856792221], [-91.64055573111204, 32.52152856792221], [-91.64055573111204, 32.52170823097904], [-91.64073539416887, 32.52170823097904], [-91.64073539416887, 32.521887894035864], [-91.64091505722568, 32.521887894035864], [-91.64091505722568, 32.52206755709268], [-91.64127438333934, 32.52206755709268]], [[-91.63857943748698, 32.519731937353974], [-91.63875910054381, 32.519731937353974], [-91.63875910054381, 32.51955227429715], [-91.63857943748698, 32.51955227429715], [-91.63857943748698, 32.519731937353974]], [[-91.63875910054381, 32.5199116004108], [-91.63965741582793, 32.5199116004108], [-91.63965741582793, 32.519731937353974], [-91.63875910054381, 32.519731937353974], [-91.63875910054381, 32.5199116004108]]]}, "properties": {"name": "cand06", "ptype": "hall", "confidence": "low", "rank": 6, "area_ha": 6.1, "rise_db": 7.5, "digitised_from": "Sentinel-1 VV rise 2021->2026, orbit 165"}}, {"type": "Feature", "geometry": {"geodesic": false, "type": "Polygon", "coordinates": [[[-91.63732179608921, 32.50428091446712], [-91.63732179608921, 32.50392158835347], [-91.63714213303238, 32.50392158835347], [-91.63714213303238, 32.503741925296644], [-91.63534550246415, 32.503741925296644], [-91.63534550246415, 32.503562262239825], [-91.6349861763505, 32.503562262239825], [-91.6349861763505, 32.503382599183], [-91.63444718718003, 32.503382599183], [-91.63444718718003, 32.503562262239825], [-91.63408786106638, 32.503562262239825], [-91.63408786106638, 32.503382599183], [-91.63390819800955, 32.503382599183], [-91.63390819800955, 32.50320293612617], [-91.63300988272543, 32.50320293612617], [-91.63300988272543, 32.50302327306935], [-91.6326505566118, 32.50302327306935], [-91.6326505566118, 32.50320293612617], [-91.63229123049814, 32.50320293612617], [-91.63229123049814, 32.50302327306935], [-91.63211156744131, 32.50302327306935], [-91.63211156744131, 32.502843610012526], [-91.63157257827085, 32.502843610012526], [-91.63157257827085, 32.5026639469557], [-91.63229123049814, 32.5026639469557], [-91.63229123049814, 32.50248428389888], [-91.63247089355497, 32.50248428389888], [-91.63247089355497, 32.502304620842054], [-91.6326505566118, 32.502304620842054], [-91.6326505566118, 32.50176563167158], [-91.63247089355497, 32.50176563167158], [-91.63247089355497, 32.50158596861476], [-91.63229123049814, 32.50158596861476], [-91.63229123049814, 32.501406305557936], [-91.63193190438449, 32.501406305557936], [-91.63193190438449, 32.50086731638746], [-91.63211156744131, 32.50086731638746], [-91.63211156744131, 32.50068765333064], [-91.63175224132767, 32.50068765333064], [-91.63175224132767, 32.50104697944429], [-91.63157257827085, 32.50104697944429], [-91.63157257827085, 32.50122664250111], [-91.63139291521402, 32.50122664250111], [-91.63139291521402, 32.501406305557936], [-91.63157257827085, 32.501406305557936], [-91.63157257827085, 32.50176563167158], [-91.63175224132767, 32.50176563167158], [-91.63175224132767, 32.50212495778523], [-91.63157257827085, 32.50212495778523], [-91.63157257827085, 32.502304620842054], [-91.6312132521572, 32.502304620842054], [-91.6312132521572, 32.50320293612617], [-91.63139291521402, 32.50320293612617], [-91.63139291521402, 32.503382599183], [-91.63175224132767, 32.503382599183], [-91.63175224132767, 32.503562262239825], [-91.63211156744131, 32.503562262239825], [-91.63211156744131, 32.503741925296644], [-91.63300988272543, 32.503741925296644], [-91.63300988272543, 32.503562262239825], [-91.63354887189591, 32.503562262239825], [-91.63354887189591, 32.503741925296644], [-91.63372853495274, 32.503741925296644], [-91.63372853495274, 32.50410125141029], [-91.6342675241232, 32.50410125141029], [-91.6342675241232, 32.50392158835347], [-91.63516583940732, 32.50392158835347], [-91.63516583940732, 32.50410125141029], [-91.63660314386192, 32.50410125141029], [-91.63660314386192, 32.50428091446712], [-91.63732179608921, 32.50428091446712]]]}, "properties": {"name": "cand07", "ptype": "hall", "confidence": "low", "rank": 7, "area_ha": 5.8, "rise_db": 6.4, "digitised_from": "Sentinel-1 VV rise 2021->2026, orbit 165"}}, {"type": "Feature", "geometry": {"geodesic": false, "type": "Polygon", "coordinates": [[[-91.63462685023686, 32.510209795342305], [-91.63462685023686, 32.51003013228548], [-91.63516583940732, 32.51003013228548], [-91.63516583940732, 32.50985046922866], [-91.63552516552097, 32.50985046922866], [-91.63552516552097, 32.50931148005819], [-91.6357048285778, 32.50931148005819], [-91.6357048285778, 32.50913181700136], [-91.63588449163461, 32.50913181700136], [-91.63588449163461, 32.50895215394454], [-91.63606415469144, 32.50895215394454], [-91.63606415469144, 32.50823350171724], [-91.63624381774827, 32.50823350171724], [-91.63624381774827, 32.5078741756036], [-91.63606415469144, 32.5078741756036], [-91.63606415469144, 32.50751484948995], [-91.63624381774827, 32.50751484948995], [-91.63624381774827, 32.507335186433124], [-91.63642348080509, 32.507335186433124], [-91.63642348080509, 32.50697586031948], [-91.63660314386192, 32.50697586031948], [-91.63660314386192, 32.50625720809218], [-91.63642348080509, 32.50625720809218], [-91.63642348080509, 32.50607754503535], [-91.63606415469144, 32.50607754503535], [-91.63606415469144, 32.505897881978534], [-91.63588449163461, 32.505897881978534], [-91.63588449163461, 32.50553855586489], [-91.6357048285778, 32.50553855586489], [-91.6357048285778, 32.50535889280806], [-91.63552516552097, 32.50535889280806], [-91.63552516552097, 32.50679619726265], [-91.63588449163461, 32.50679619726265], [-91.63588449163461, 32.5071555233763], [-91.6357048285778, 32.5071555233763], [-91.6357048285778, 32.507335186433124], [-91.63588449163461, 32.507335186433124], [-91.63588449163461, 32.50751484948995], [-91.6357048285778, 32.50751484948995], [-91.6357048285778, 32.5078741756036], [-91.63534550246415, 32.5078741756036], [-91.63534550246415, 32.508053838660416], [-91.63552516552097, 32.508053838660416], [-91.63552516552097, 32.50913181700136], [-91.63534550246415, 32.50913181700136], [-91.63534550246415, 32.50931148005819], [-91.63462685023686, 32.50931148005819], [-91.63462685023686, 32.509491143115014], [-91.63408786106638, 32.509491143115014], [-91.63408786106638, 32.50931148005819], [-91.63354887189591, 32.50931148005819], [-91.63354887189591, 32.50913181700136], [-91.63336920883908, 32.50913181700136], [-91.63336920883908, 32.50931148005819], [-91.63354887189591, 32.50931148005819], [-91.63354887189591, 32.509491143115014], [-91.63336920883908, 32.509491143115014], [-91.63336920883908, 32.50967080617183], [-91.63354887189591, 32.50967080617183], [-91.63354887189591, 32.50985046922866], [-91.63372853495274, 32.50985046922866], [-91.63372853495274, 32.51003013228548], [-91.63390819800955, 32.51003013228548], [-91.63390819800955, 32.50985046922866], [-91.6342675241232, 32.50985046922866], [-91.6342675241232, 32.51003013228548], [-91.63444718718003, 32.51003013228548], [-91.63444718718003, 32.510209795342305], [-91.63462685023686, 32.510209795342305]]]}, "properties": {"name": "cand08", "ptype": "hall", "confidence": "low", "rank": 8, "area_ha": 4.5, "rise_db": 6.0, "digitised_from": "Sentinel-1 VV rise 2021->2026, orbit 165"}}, {"type": "Feature", "geometry": {"geodesic": false, "type": "Polygon", "coordinates": [[[-91.64361000307805, 32.51721665455844], [-91.64361000307805, 32.51667766538797], [-91.64414899224852, 32.51667766538797], [-91.64414899224852, 32.516138676217494], [-91.64378966613486, 32.516138676217494], [-91.64378966613486, 32.515959013160675], [-91.64396932919169, 32.515959013160675], [-91.64396932919169, 32.51577935010385], [-91.64414899224852, 32.51577935010385], [-91.64414899224852, 32.5154200239902], [-91.64396932919169, 32.5154200239902], [-91.64396932919169, 32.51506069787655], [-91.64414899224852, 32.51506069787655], [-91.64414899224852, 32.51452170870608], [-91.64396932919169, 32.51452170870608], [-91.64396932919169, 32.51434204564926], [-91.64378966613486, 32.51434204564926], [-91.64378966613486, 32.51416238259243], [-91.64343034002123, 32.51416238259243], [-91.64343034002123, 32.513982719535605], [-91.64271168779393, 32.513982719535605], [-91.64271168779393, 32.51416238259243], [-91.64235236168028, 32.51416238259243], [-91.64235236168028, 32.51434204564926], [-91.64217269862345, 32.51434204564926], [-91.64217269862345, 32.514701371762904], [-91.64235236168028, 32.514701371762904], [-91.64235236168028, 32.51488103481973], [-91.64253202473711, 32.51488103481973], [-91.64253202473711, 32.51506069787655], [-91.64343034002123, 32.51506069787655], [-91.64343034002123, 32.5154200239902], [-91.6432506769644, 32.5154200239902], [-91.6432506769644, 32.51703699150161], [-91.64343034002123, 32.51703699150161], [-91.64343034002123, 32.51721665455844], [-91.64361000307805, 32.51721665455844]]]}, "properties": {"name": "cand09", "ptype": "hall", "confidence": "low", "rank": 9, "area_ha": 3.8, "rise_db": 5.9, "digitised_from": "Sentinel-1 VV rise 2021->2026, orbit 165"}}, {"type": "Feature", "geometry": {"geodesic": false, "type": "Polygon", "coordinates": [[[-91.65744405845349, 32.45954481331797], [-91.65744405845349, 32.459005824147496], [-91.65780338456713, 32.459005824147496], [-91.65780338456713, 32.45882616109067], [-91.65798304762396, 32.45882616109067], [-91.65798304762396, 32.458466834977024], [-91.65780338456713, 32.458466834977024], [-91.65780338456713, 32.4582871719202], [-91.65798304762396, 32.4582871719202], [-91.65798304762396, 32.45810750886337], [-91.65816271068078, 32.45810750886337], [-91.65816271068078, 32.45792784580655], [-91.65888136290808, 32.45792784580655], [-91.65888136290808, 32.457748182749725], [-91.65870169985125, 32.457748182749725], [-91.65870169985125, 32.457568519692906], [-91.65798304762396, 32.457568519692906], [-91.65798304762396, 32.45738885663608], [-91.65780338456713, 32.45738885663608], [-91.65780338456713, 32.45720919357925], [-91.65726439539667, 32.45720919357925], [-91.65726439539667, 32.45738885663608], [-91.65654574316937, 32.45738885663608], [-91.65654574316937, 32.457568519692906], [-91.6560067539989, 32.457568519692906], [-91.6560067539989, 32.45792784580655], [-91.65582709094207, 32.45792784580655], [-91.65582709094207, 32.45810750886337], [-91.6560067539989, 32.45810750886337], [-91.6560067539989, 32.45792784580655], [-91.65618641705572, 32.45792784580655], [-91.65618641705572, 32.4582871719202], [-91.65672540622619, 32.4582871719202], [-91.65672540622619, 32.458466834977024], [-91.65690506928301, 32.458466834977024], [-91.65690506928301, 32.45864649803384], [-91.65726439539667, 32.45864649803384], [-91.65726439539667, 32.45792784580655], [-91.65744405845349, 32.45792784580655], [-91.65744405845349, 32.459005824147496], [-91.65726439539667, 32.459005824147496], [-91.65726439539667, 32.45882616109067], [-91.65708473233984, 32.45882616109067], [-91.65708473233984, 32.459005824147496], [-91.65690506928301, 32.459005824147496], [-91.65690506928301, 32.459185487204316], [-91.65726439539667, 32.459185487204316], [-91.65726439539667, 32.45936515026114], [-91.65708473233984, 32.45936515026114], [-91.65708473233984, 32.45954481331797], [-91.65744405845349, 32.45954481331797]], [[-91.65744405845349, 32.45792784580655], [-91.6576237215103, 32.45792784580655], [-91.6576237215103, 32.457748182749725], [-91.65744405845349, 32.457748182749725], [-91.65744405845349, 32.45792784580655]], [[-91.65636608011255, 32.45792784580655], [-91.65654574316937, 32.45792784580655], [-91.65654574316937, 32.457748182749725], [-91.65636608011255, 32.457748182749725], [-91.65636608011255, 32.45792784580655]], [[-91.65780338456713, 32.45810750886337], [-91.65798304762396, 32.45810750886337], [-91.65798304762396, 32.45792784580655], [-91.65780338456713, 32.45792784580655], [-91.65780338456713, 32.45810750886337]], [[-91.65654574316937, 32.45810750886337], [-91.65672540622619, 32.45810750886337], [-91.65672540622619, 32.45792784580655], [-91.65654574316937, 32.45792784580655], [-91.65654574316937, 32.45810750886337]]]}, "properties": {"name": "cand10", "ptype": "hall", "confidence": "low", "rank": 10, "area_ha": 3.2, "rise_db": 4.5, "digitised_from": "Sentinel-1 VV rise 2021->2026, orbit 165"}}, {"type": "Feature", "geometry": {"geodesic": false, "type": "Polygon", "coordinates": [[[-91.63786078525968, 32.50032832721699], [-91.63786078525968, 32.500148664160164], [-91.63822011137333, 32.500148664160164], [-91.63822011137333, 32.499969001103345], [-91.63839977443016, 32.499969001103345], [-91.63839977443016, 32.49978933804652], [-91.63875910054381, 32.49978933804652], [-91.63875910054381, 32.499969001103345], [-91.63929808971427, 32.499969001103345], [-91.63929808971427, 32.500148664160164], [-91.6394777527711, 32.500148664160164], [-91.6394777527711, 32.49978933804652], [-91.63893876360062, 32.49978933804652], [-91.63893876360062, 32.4996096749897], [-91.63857943748698, 32.4996096749897], [-91.63857943748698, 32.499250348876046], [-91.63875910054381, 32.499250348876046], [-91.63875910054381, 32.49943001193287], [-91.63893876360062, 32.49943001193287], [-91.63893876360062, 32.49907068581923], [-91.63839977443016, 32.49907068581923], [-91.63839977443016, 32.4988910227624], [-91.63822011137333, 32.4988910227624], [-91.63822011137333, 32.49907068581923], [-91.6380404483165, 32.49907068581923], [-91.6380404483165, 32.499250348876046], [-91.63786078525968, 32.499250348876046], [-91.63786078525968, 32.49907068581923], [-91.63768112220286, 32.49907068581923], [-91.63768112220286, 32.499250348876046], [-91.63732179608921, 32.499250348876046], [-91.63732179608921, 32.49907068581923], [-91.63750145914604, 32.49907068581923], [-91.63750145914604, 32.4988910227624], [-91.63714213303238, 32.4988910227624], [-91.63714213303238, 32.498711359705574], [-91.63678280691875, 32.498711359705574], [-91.63678280691875, 32.4988910227624], [-91.63660314386192, 32.4988910227624], [-91.63660314386192, 32.498711359705574], [-91.63624381774827, 32.498711359705574], [-91.63624381774827, 32.4988910227624], [-91.63606415469144, 32.4988910227624], [-91.63606415469144, 32.49943001193287], [-91.63642348080509, 32.49943001193287], [-91.63642348080509, 32.499250348876046], [-91.63678280691875, 32.499250348876046], [-91.63678280691875, 32.49943001193287], [-91.63696246997556, 32.49943001193287], [-91.63696246997556, 32.49978933804652], [-91.63750145914604, 32.49978933804652], [-91.63750145914604, 32.499969001103345], [-91.63696246997556, 32.499969001103345], [-91.63696246997556, 32.500148664160164], [-91.63732179608921, 32.500148664160164], [-91.63732179608921, 32.50032832721699], [-91.63786078525968, 32.50032832721699]], [[-91.63768112220286, 32.49943001193287], [-91.63786078525968, 32.49943001193287], [-91.63786078525968, 32.499250348876046], [-91.63768112220286, 32.499250348876046], [-91.63768112220286, 32.49943001193287]], [[-91.63714213303238, 32.4996096749897], [-91.63732179608921, 32.4996096749897], [-91.63732179608921, 32.499250348876046], [-91.63696246997556, 32.499250348876046], [-91.63696246997556, 32.49943001193287], [-91.63714213303238, 32.49943001193287], [-91.63714213303238, 32.4996096749897]], [[-91.63786078525968, 32.499969001103345], [-91.6380404483165, 32.499969001103345], [-91.6380404483165, 32.49978933804652], [-91.63786078525968, 32.49978933804652], [-91.63786078525968, 32.499969001103345]]]}, "properties": {"name": "cand11", "ptype": "hall", "confidence": "low", "rank": 11, "area_ha": 3.0, "rise_db": 5.6, "digitised_from": "Sentinel-1 VV rise 2021->2026, orbit 165"}}, {"type": "Feature", "geometry": {"geodesic": false, "type": "Polygon", "coordinates": [[[-91.64504730753264, 32.52673879657011], [-91.64504730753264, 32.52655913351328], [-91.64522697058946, 32.52655913351328], [-91.64522697058946, 32.526379470456455], [-91.64540663364629, 32.526379470456455], [-91.64540663364629, 32.52655913351328], [-91.64558629670312, 32.52655913351328], [-91.64558629670312, 32.526379470456455], [-91.64594562281675, 32.526379470456455], [-91.64594562281675, 32.526199807399635], [-91.64558629670312, 32.526199807399635], [-91.64558629670312, 32.52602014434281], [-91.64576595975993, 32.52602014434281], [-91.64576595975993, 32.52584048128599], [-91.64594562281675, 32.52584048128599], [-91.64594562281675, 32.52602014434281], [-91.6463049489304, 32.52602014434281], [-91.6463049489304, 32.526199807399635], [-91.64612528587358, 32.526199807399635], [-91.64612528587358, 32.526379470456455], [-91.64666427504406, 32.526379470456455], [-91.64666427504406, 32.526199807399635], [-91.64684393810087, 32.526199807399635], [-91.64684393810087, 32.52584048128599], [-91.64666427504406, 32.52584048128599], [-91.64666427504406, 32.52530149211552], [-91.64684393810087, 32.52530149211552], [-91.64684393810087, 32.52512182905869], [-91.64666427504406, 32.52512182905869], [-91.64666427504406, 32.524942166001864], [-91.64558629670312, 32.524942166001864], [-91.64558629670312, 32.52512182905869], [-91.64540663364629, 32.52512182905869], [-91.64540663364629, 32.52530149211552], [-91.64522697058946, 32.52530149211552], [-91.64522697058946, 32.525481155172336], [-91.64486764447581, 32.525481155172336], [-91.64486764447581, 32.52584048128599], [-91.64522697058946, 32.52584048128599], [-91.64522697058946, 32.526199807399635], [-91.64504730753264, 32.526199807399635], [-91.64504730753264, 32.526379470456455], [-91.64486764447581, 32.526379470456455], [-91.64486764447581, 32.52673879657011], [-91.64504730753264, 32.52673879657011]]]}, "properties": {"name": "cand12", "ptype": "hall", "confidence": "low", "rank": 12, "area_ha": 2.7, "rise_db": 5.7, "digitised_from": "Sentinel-1 VV rise 2021->2026, orbit 165"}}, {"type": "Feature", "geometry": {"geodesic": false, "type": "Polygon", "coordinates": [[[-91.64001674194157, 32.476073814545764], [-91.64001674194157, 32.47589415148894], [-91.64019640499839, 32.47589415148894], [-91.64019640499839, 32.47571448843212], [-91.64037606805522, 32.47571448843212], [-91.64037606805522, 32.47553482537529], [-91.64055573111204, 32.47553482537529], [-91.64055573111204, 32.47535516231847], [-91.64073539416887, 32.47535516231847], [-91.64073539416887, 32.474816173148], [-91.64091505722568, 32.474816173148], [-91.64091505722568, 32.47463651009117], [-91.64109472028251, 32.47463651009117], [-91.64109472028251, 32.4740975209207], [-91.64091505722568, 32.4740975209207], [-91.64091505722568, 32.473917857863874], [-91.64055573111204, 32.473917857863874], [-91.64055573111204, 32.4740975209207], [-91.64037606805522, 32.4740975209207], [-91.64037606805522, 32.47427718397753], [-91.64019640499839, 32.47427718397753], [-91.64019640499839, 32.47445684703435], [-91.64001674194157, 32.47445684703435], [-91.64001674194157, 32.47463651009117], [-91.63983707888474, 32.47463651009117], [-91.63983707888474, 32.47499583620482], [-91.63965741582793, 32.47499583620482], [-91.63965741582793, 32.475175499261645], [-91.6394777527711, 32.475175499261645], [-91.6394777527711, 32.47571448843212], [-91.63965741582793, 32.47571448843212], [-91.63965741582793, 32.47589415148894], [-91.63983707888474, 32.47589415148894], [-91.63983707888474, 32.476073814545764], [-91.64001674194157, 32.476073814545764]]]}, "properties": {"name": "cand13", "ptype": "hall", "confidence": "low", "rank": 13, "area_ha": 2.2, "rise_db": 7.7, "digitised_from": "Sentinel-1 VV rise 2021->2026, orbit 165"}}, {"type": "Feature", "geometry": {"geodesic": false, "type": "Polygon", "coordinates": [[[-91.6342675241232, 32.4951180985691], [-91.6342675241232, 32.49368079411451], [-91.63408786106638, 32.49368079411451], [-91.63408786106638, 32.49314180494404], [-91.63390819800955, 32.49314180494404], [-91.63390819800955, 32.49296214188721], [-91.63336920883908, 32.49296214188721], [-91.63336920883908, 32.49314180494404], [-91.63300988272543, 32.49314180494404], [-91.63300988272543, 32.49296214188721], [-91.63283021966862, 32.49296214188721], [-91.63283021966862, 32.492782478830385], [-91.6326505566118, 32.492782478830385], [-91.6326505566118, 32.49296214188721], [-91.63211156744131, 32.49296214188721], [-91.63211156744131, 32.49314180494404], [-91.63193190438449, 32.49314180494404], [-91.63193190438449, 32.49332146800086], [-91.63211156744131, 32.49332146800086], [-91.63211156744131, 32.493501131057684], [-91.63247089355497, 32.493501131057684], [-91.63247089355497, 32.49314180494404], [-91.6326505566118, 32.49314180494404], [-91.6326505566118, 32.493501131057684], [-91.63300988272543, 32.493501131057684], [-91.63300988272543, 32.49368079411451], [-91.63318954578226, 32.49368079411451], [-91.63318954578226, 32.49386045717133], [-91.63390819800955, 32.49386045717133], [-91.63390819800955, 32.494938435512275], [-91.63408786106638, 32.494938435512275], [-91.63408786106638, 32.4951180985691], [-91.6342675241232, 32.4951180985691]]]}, "properties": {"name": "cand14", "ptype": "hall", "confidence": "low", "rank": 14, "area_ha": 2.2, "rise_db": 4.8, "digitised_from": "Sentinel-1 VV rise 2021->2026, orbit 165"}}, {"type": "Feature", "geometry": {"geodesic": false, "type": "Polygon", "coordinates": [[[-91.5861178248944, 32.45145997576089], [-91.5861178248944, 32.45092098659042], [-91.58647715100804, 32.45092098659042], [-91.58647715100804, 32.45074132353359], [-91.5868364771217, 32.45074132353359], [-91.5868364771217, 32.45056166047677], [-91.58701614017852, 32.45056166047677], [-91.58701614017852, 32.450381997419946], [-91.58719580323535, 32.450381997419946], [-91.58719580323535, 32.45020233436312], [-91.58737546629216, 32.45020233436312], [-91.58737546629216, 32.450381997419946], [-91.58773479240581, 32.450381997419946], [-91.58773479240581, 32.4500226713063], [-91.58755512934898, 32.4500226713063], [-91.58755512934898, 32.44984300824947], [-91.58647715100804, 32.44984300824947], [-91.58647715100804, 32.4500226713063], [-91.58629748795123, 32.4500226713063], [-91.58629748795123, 32.45020233436312], [-91.58647715100804, 32.45020233436312], [-91.58647715100804, 32.450381997419946], [-91.5861178248944, 32.450381997419946], [-91.5861178248944, 32.44984300824947], [-91.58593816183757, 32.44984300824947], [-91.58593816183757, 32.449663345192654], [-91.5861178248944, 32.449663345192654], [-91.5861178248944, 32.44948368213583], [-91.58593816183757, 32.44948368213583], [-91.58593816183757, 32.449663345192654], [-91.58575849878075, 32.449663345192654], [-91.58575849878075, 32.450381997419946], [-91.58557883572392, 32.450381997419946], [-91.58557883572392, 32.45092098659042], [-91.58593816183757, 32.45092098659042], [-91.58593816183757, 32.451100649647245], [-91.58575849878075, 32.451100649647245], [-91.58575849878075, 32.45145997576089], [-91.5861178248944, 32.45145997576089]]]}, "properties": {"name": "cand15", "ptype": "hall", "confidence": "low", "rank": 15, "area_ha": 2.1, "rise_db": 7.4, "digitised_from": "Sentinel-1 VV rise 2021->2026, orbit 165"}}, {"type": "Feature", "geometry": {"geodesic": false, "type": "Polygon", "coordinates": [[[-91.63247089355497, 32.51506069787655], [-91.63247089355497, 32.51488103481973], [-91.6326505566118, 32.51488103481973], [-91.6326505566118, 32.514701371762904], [-91.63247089355497, 32.514701371762904], [-91.63247089355497, 32.51452170870608], [-91.63229123049814, 32.51452170870608], [-91.63229123049814, 32.51434204564926], [-91.63211156744131, 32.51434204564926], [-91.63211156744131, 32.51416238259243], [-91.63193190438449, 32.51416238259243], [-91.63193190438449, 32.513982719535605], [-91.63175224132767, 32.513982719535605], [-91.63175224132767, 32.513803056478785], [-91.63157257827085, 32.513803056478785], [-91.63157257827085, 32.51362339342196], [-91.6312132521572, 32.51362339342196], [-91.6312132521572, 32.51344373036514], [-91.63085392604356, 32.51344373036514], [-91.63085392604356, 32.51362339342196], [-91.63067426298673, 32.51362339342196], [-91.63067426298673, 32.51434204564926], [-91.63085392604356, 32.51434204564926], [-91.63085392604356, 32.51452170870608], [-91.63103358910037, 32.51452170870608], [-91.63103358910037, 32.514701371762904], [-91.63157257827085, 32.514701371762904], [-91.63157257827085, 32.51452170870608], [-91.63175224132767, 32.51452170870608], [-91.63175224132767, 32.514701371762904], [-91.63193190438449, 32.514701371762904], [-91.63193190438449, 32.51488103481973], [-91.63211156744131, 32.51488103481973], [-91.63211156744131, 32.51506069787655], [-91.63247089355497, 32.51506069787655]]]}, "properties": {"name": "cand16", "ptype": "hall", "confidence": "low", "rank": 16, "area_ha": 2.0, "rise_db": 6.3, "digitised_from": "Sentinel-1 VV rise 2021->2026, orbit 165"}}, {"type": "Feature", "geometry": {"geodesic": false, "type": "Polygon", "coordinates": [[[-91.6432506769644, 32.49673506608051], [-91.6432506769644, 32.496375739966865], [-91.64361000307805, 32.496375739966865], [-91.64361000307805, 32.49547742468275], [-91.64343034002123, 32.49547742468275], [-91.64343034002123, 32.4951180985691], [-91.6432506769644, 32.4951180985691], [-91.6432506769644, 32.4943994463418], [-91.64307101390757, 32.4943994463418], [-91.64307101390757, 32.49457910939863], [-91.64271168779393, 32.49457910939863], [-91.64271168779393, 32.494938435512275], [-91.64289135085075, 32.494938435512275], [-91.64289135085075, 32.4951180985691], [-91.64271168779393, 32.4951180985691], [-91.64271168779393, 32.49547742468275], [-91.64253202473711, 32.49547742468275], [-91.64253202473711, 32.49565708773957], [-91.64271168779393, 32.49565708773957], [-91.64271168779393, 32.49583675079639], [-91.64289135085075, 32.49583675079639], [-91.64289135085075, 32.49601641385322], [-91.64271168779393, 32.49601641385322], [-91.64271168779393, 32.49655540302369], [-91.64289135085075, 32.49655540302369], [-91.64289135085075, 32.49673506608051], [-91.6432506769644, 32.49673506608051]]]}, "properties": {"name": "cand17", "ptype": "hall", "confidence": "low", "rank": 17, "area_ha": 1.9, "rise_db": 8.5, "digitised_from": "Sentinel-1 VV rise 2021->2026, orbit 165"}}, {"type": "Feature", "geometry": {"geodesic": false, "type": "Polygon", "coordinates": [[[-91.63211156744131, 32.49907068581923], [-91.63211156744131, 32.49691472913734], [-91.63175224132767, 32.49691472913734], [-91.63175224132767, 32.497094392194164], [-91.63157257827085, 32.497094392194164], [-91.63157257827085, 32.49745371830781], [-91.63139291521402, 32.49745371830781], [-91.63139291521402, 32.497813044421456], [-91.6312132521572, 32.497813044421456], [-91.6312132521572, 32.49799270747828], [-91.63139291521402, 32.49799270747828], [-91.63139291521402, 32.4981723705351], [-91.6312132521572, 32.4981723705351], [-91.6312132521572, 32.49835203359193], [-91.63139291521402, 32.49835203359193], [-91.63139291521402, 32.498531696648755], [-91.63157257827085, 32.498531696648755], [-91.63157257827085, 32.498711359705574], [-91.63175224132767, 32.498711359705574], [-91.63175224132767, 32.49907068581923], [-91.63211156744131, 32.49907068581923]]]}, "properties": {"name": "cand18", "ptype": "hall", "confidence": "low", "rank": 18, "area_ha": 1.6, "rise_db": 6.3, "digitised_from": "Sentinel-1 VV rise 2021->2026, orbit 165"}}, {"type": "Feature", "geometry": {"geodesic": false, "type": "Polygon", "coordinates": [[[-91.62959628464579, 32.50410125141029], [-91.62959628464579, 32.503382599183], [-91.62977594770261, 32.503382599183], [-91.62977594770261, 32.50302327306935], [-91.62995561075942, 32.50302327306935], [-91.62995561075942, 32.502843610012526], [-91.63013527381625, 32.502843610012526], [-91.63013527381625, 32.502304620842054], [-91.63031493687308, 32.502304620842054], [-91.63031493687308, 32.50194529472841], [-91.6304945999299, 32.50194529472841], [-91.6304945999299, 32.50176563167158], [-91.63031493687308, 32.50176563167158], [-91.63031493687308, 32.50158596861476], [-91.63013527381625, 32.50158596861476], [-91.63013527381625, 32.50176563167158], [-91.62995561075942, 32.50176563167158], [-91.62995561075942, 32.50212495778523], [-91.62977594770261, 32.50212495778523], [-91.62977594770261, 32.502304620842054], [-91.62959628464579, 32.502304620842054], [-91.62959628464579, 32.502843610012526], [-91.62941662158896, 32.502843610012526], [-91.62941662158896, 32.50320293612617], [-91.62923695853213, 32.50320293612617], [-91.62923695853213, 32.503562262239825], [-91.6290572954753, 32.503562262239825], [-91.6290572954753, 32.50410125141029], [-91.62959628464579, 32.50410125141029]]]}, "properties": {"name": "cand19", "ptype": "hall", "confidence": "low", "rank": 19, "area_ha": 1.5, "rise_db": 5.5, "digitised_from": "Sentinel-1 VV rise 2021->2026, orbit 165"}}, {"type": "Feature", "geometry": {"geodesic": false, "type": "Polygon", "coordinates": [[[-91.5688701714393, 32.50823350171724], [-91.5688701714393, 32.508053838660416], [-91.56904983449613, 32.508053838660416], [-91.56904983449613, 32.5078741756036], [-91.5688701714393, 32.5078741756036], [-91.5688701714393, 32.50769451254677], [-91.56940916060978, 32.50769451254677], [-91.56940916060978, 32.50751484948995], [-91.56994814978025, 32.50751484948995], [-91.56994814978025, 32.5071555233763], [-91.56976848672342, 32.5071555233763], [-91.56976848672342, 32.50697586031948], [-91.56958882366659, 32.50697586031948], [-91.56958882366659, 32.50679619726265], [-91.56922949755295, 32.50679619726265], [-91.56922949755295, 32.5071555233763], [-91.56904983449613, 32.5071555233763], [-91.56904983449613, 32.50751484948995], [-91.56833118226884, 32.50751484948995], [-91.56833118226884, 32.508053838660416], [-91.56851084532566, 32.508053838660416], [-91.56851084532566, 32.50823350171724], [-91.5688701714393, 32.50823350171724]]]}, "properties": {"name": "cand20", "ptype": "hall", "confidence": "low", "rank": 20, "area_ha": 1.2, "rise_db": 7.5, "digitised_from": "Sentinel-1 VV rise 2021->2026, orbit 165"}}, {"type": "Feature", "geometry": {"geodesic": false, "type": "Polygon", "coordinates": [[[-91.6470236011577, 32.441758170692395], [-91.6470236011577, 32.441578507635576], [-91.64720326421453, 32.441578507635576], [-91.64720326421453, 32.44121918152193], [-91.6470236011577, 32.44121918152193], [-91.6470236011577, 32.44085985540828], [-91.64720326421453, 32.44085985540828], [-91.64720326421453, 32.44050052929463], [-91.6470236011577, 32.44050052929463], [-91.6470236011577, 32.440320866237805], [-91.64666427504406, 32.440320866237805], [-91.64666427504406, 32.44050052929463], [-91.6463049489304, 32.44050052929463], [-91.6463049489304, 32.44085985540828], [-91.64648461198723, 32.44085985540828], [-91.64648461198723, 32.441578507635576], [-91.64666427504406, 32.441578507635576], [-91.64666427504406, 32.441758170692395], [-91.6470236011577, 32.441758170692395]]]}, "properties": {"name": "cand21", "ptype": "hall", "confidence": "low", "rank": 21, "area_ha": 1.1, "rise_db": 5.6, "digitised_from": "Sentinel-1 VV rise 2021->2026, orbit 165"}}, {"type": "Feature", "geometry": {"geodesic": false, "type": "Polygon", "coordinates": [[[-91.63247089355497, 32.51703699150161], [-91.63247089355497, 32.51649800233114], [-91.63229123049814, 32.51649800233114], [-91.63229123049814, 32.516138676217494], [-91.63211156744131, 32.516138676217494], [-91.63211156744131, 32.515959013160675], [-91.63157257827085, 32.515959013160675], [-91.63157257827085, 32.516138676217494], [-91.63139291521402, 32.516138676217494], [-91.63139291521402, 32.51667766538797], [-91.63157257827085, 32.51667766538797], [-91.63157257827085, 32.51685732844479], [-91.63193190438449, 32.51685732844479], [-91.63193190438449, 32.51703699150161], [-91.63247089355497, 32.51703699150161]]]}, "properties": {"name": "cand22", "ptype": "hall", "confidence": "low", "rank": 22, "area_ha": 1.1, "rise_db": 5.2, "digitised_from": "Sentinel-1 VV rise 2021->2026, orbit 165"}}, {"type": "Feature", "geometry": {"geodesic": false, "type": "Polygon", "coordinates": [[[-91.64217269862345, 32.49188416354627], [-91.64217269862345, 32.49170450048945], [-91.64307101390757, 32.49170450048945], [-91.64307101390757, 32.491345174375795], [-91.6432506769644, 32.491345174375795], [-91.6432506769644, 32.49098584826215], [-91.64307101390757, 32.49098584826215], [-91.64307101390757, 32.491345174375795], [-91.64127438333934, 32.491345174375795], [-91.64127438333934, 32.49170450048945], [-91.64145404639616, 32.49170450048945], [-91.64145404639616, 32.49188416354627], [-91.64217269862345, 32.49188416354627]]]}, "properties": {"name": "cand23", "ptype": "hall", "confidence": "low", "rank": 23, "area_ha": 1.0, "rise_db": 6.3, "digitised_from": "Sentinel-1 VV rise 2021->2026, orbit 165"}}, {"type": "Feature", "geometry": {"geodesic": false, "type": "Polygon", "coordinates": [[[-91.63911842665745, 32.50823350171724], [-91.63911842665745, 32.5078741756036], [-91.63929808971427, 32.5078741756036], [-91.63929808971427, 32.506616534205826], [-91.6394777527711, 32.506616534205826], [-91.6394777527711, 32.506436871149006], [-91.63929808971427, 32.506436871149006], [-91.63929808971427, 32.50625720809218], [-91.63893876360062, 32.50625720809218], [-91.63893876360062, 32.507335186433124], [-91.63875910054381, 32.507335186433124], [-91.63875910054381, 32.50823350171724], [-91.63911842665745, 32.50823350171724]]]}, "properties": {"name": "cand24", "ptype": "hall", "confidence": "low", "rank": 24, "area_ha": 1.0, "rise_db": 4.6, "digitised_from": "Sentinel-1 VV rise 2021->2026, orbit 165"}}]}