{"type": "FeatureCollection", "features": [{"type": "Feature", "geometry": {"geodesic": false, "type": "Polygon", "coordinates": [[[-86.47075127100419, 41.67122906279319], [-86.47075127100419, 41.67104939973636], [-86.47093093406102, 41.67104939973636], [-86.47093093406102, 41.670690073622715], [-86.47272756462925, 41.670690073622715], [-86.47272756462925, 41.67086973667954], [-86.47254790157244, 41.67086973667954], [-86.47254790157244, 41.67104939973636], [-86.47200891240196, 41.67104939973636], [-86.47200891240196, 41.67086973667954], [-86.47129026017467, 41.67086973667954], [-86.47129026017467, 41.67122906279319], [-86.4738055429702, 41.67122906279319], [-86.4738055429702, 41.67104939973636], [-86.47398520602702, 41.67104939973636], [-86.47398520602702, 41.67086973667954], [-86.47326655379973, 41.67086973667954], [-86.47326655379973, 41.67051041056589], [-86.47344621685656, 41.67051041056589], [-86.47344621685656, 41.67033074750907], [-86.47362587991337, 41.67033074750907], [-86.47362587991337, 41.6697917583386], [-86.47344621685656, 41.6697917583386], [-86.47344621685656, 41.66961209528177], [-86.47326655379973, 41.66961209528177], [-86.47326655379973, 41.669432432224944], [-86.47290722768608, 41.669432432224944], [-86.47290722768608, 41.66961209528177], [-86.47254790157244, 41.66961209528177], [-86.47254790157244, 41.669432432224944], [-86.47272756462925, 41.669432432224944], [-86.47272756462925, 41.669252769168125], [-86.47290722768608, 41.669252769168125], [-86.47290722768608, 41.6690731061113], [-86.47344621685656, 41.6690731061113], [-86.47344621685656, 41.669252769168125], [-86.47488352131114, 41.669252769168125], [-86.47488352131114, 41.669432432224944], [-86.47506318436797, 41.669432432224944], [-86.47506318436797, 41.669252769168125], [-86.4775784671635, 41.669252769168125], [-86.4775784671635, 41.669432432224944], [-86.47739880410668, 41.669432432224944], [-86.47739880410668, 41.67015108445224], [-86.4775784671635, 41.67015108445224], [-86.4775784671635, 41.67033074750907], [-86.47883610856127, 41.67033074750907], [-86.47883610856127, 41.670690073622715], [-86.4790157716181, 41.670690073622715], [-86.4790157716181, 41.67086973667954], [-86.47973442384539, 41.67086973667954], [-86.47973442384539, 41.67033074750907], [-86.48135139135681, 41.67033074750907], [-86.48135139135681, 41.6697917583386], [-86.48117172829998, 41.6697917583386], [-86.48117172829998, 41.669432432224944], [-86.48099206524316, 41.669432432224944], [-86.48099206524316, 41.669252769168125], [-86.48135139135681, 41.669252769168125], [-86.48135139135681, 41.66835445388401], [-86.48117172829998, 41.66835445388401], [-86.48117172829998, 41.667815464713534], [-86.48135139135681, 41.667815464713534], [-86.48135139135681, 41.667096812486236], [-86.48117172829998, 41.667096812486236], [-86.48117172829998, 41.66673748637259], [-86.48135139135681, 41.66673748637259], [-86.48135139135681, 41.666378160258944], [-86.48153105441362, 41.666378160258944], [-86.48153105441362, 41.66619849720212], [-86.48135139135681, 41.66619849720212], [-86.48135139135681, 41.66583917108847], [-86.48117172829998, 41.66583917108847], [-86.48117172829998, 41.665659508031645], [-86.48027341301587, 41.665659508031645], [-86.48027341301587, 41.66583917108847], [-86.47991408690221, 41.66583917108847], [-86.47991408690221, 41.665659508031645], [-86.47847678244763, 41.665659508031645], [-86.47847678244763, 41.66547984497482], [-86.47865644550444, 41.66547984497482], [-86.47865644550444, 41.665300181918], [-86.47883610856127, 41.665300181918], [-86.47883610856127, 41.66494085580435], [-86.47865644550444, 41.66494085580435], [-86.47865644550444, 41.66476119274753], [-86.47793779327715, 41.66476119274753], [-86.47793779327715, 41.66494085580435], [-86.47775813022032, 41.66494085580435], [-86.47775813022032, 41.665300181918], [-86.47811745633398, 41.665300181918], [-86.47811745633398, 41.66547984497482], [-86.4782971193908, 41.66547984497482], [-86.4782971193908, 41.665659508031645], [-86.47811745633398, 41.665659508031645], [-86.47811745633398, 41.66583917108847], [-86.47739880410668, 41.66583917108847], [-86.47739880410668, 41.66601883414529], [-86.47721914104986, 41.66601883414529], [-86.47721914104986, 41.66583917108847], [-86.47703947799303, 41.66583917108847], [-86.47703947799303, 41.665659508031645], [-86.4745241951975, 41.665659508031645], [-86.4745241951975, 41.66583917108847], [-86.47362587991337, 41.66583917108847], [-86.47362587991337, 41.66601883414529], [-86.47344621685656, 41.66601883414529], [-86.47344621685656, 41.666378160258944], [-86.47326655379973, 41.666378160258944], [-86.47326655379973, 41.66619849720212], [-86.4730868907429, 41.66619849720212], [-86.4730868907429, 41.666378160258944], [-86.47326655379973, 41.666378160258944], [-86.47326655379973, 41.66673748637259], [-86.47344621685656, 41.66673748637259], [-86.47344621685656, 41.667096812486236], [-86.47326655379973, 41.667096812486236], [-86.47326655379973, 41.66745613859988], [-86.47344621685656, 41.66745613859988], [-86.47344621685656, 41.66763580165671], [-86.47362587991337, 41.66763580165671], [-86.47362587991337, 41.667815464713534], [-86.47470385825432, 41.667815464713534], [-86.47470385825432, 41.667995127770354], [-86.47488352131114, 41.667995127770354], [-86.47488352131114, 41.66817479082718], [-86.47362587991337, 41.66817479082718], [-86.47362587991337, 41.66835445388401], [-86.47344621685656, 41.66835445388401], [-86.47344621685656, 41.66871377999765], [-86.47290722768608, 41.66871377999765], [-86.47290722768608, 41.667995127770354], [-86.47272756462925, 41.667995127770354], [-86.47272756462925, 41.667815464713534], [-86.47254790157244, 41.667815464713534], [-86.47254790157244, 41.66817479082718], [-86.47236823851561, 41.66817479082718], [-86.47236823851561, 41.66835445388401], [-86.46913430349278, 41.66835445388401], [-86.46913430349278, 41.668534116940826], [-86.46895464043595, 41.668534116940826], [-86.46895464043595, 41.66871377999765], [-86.46877497737913, 41.66871377999765], [-86.46877497737913, 41.668534116940826], [-86.46859531432231, 41.668534116940826], [-86.46859531432231, 41.66835445388401], [-86.46823598820866, 41.66835445388401], [-86.46823598820866, 41.6697917583386], [-86.46841565126549, 41.6697917583386], [-86.46841565126549, 41.66997142139542], [-86.46859531432231, 41.66997142139542], [-86.46859531432231, 41.67015108445224], [-86.46877497737913, 41.67015108445224], [-86.46877497737913, 41.67051041056589], [-86.46895464043595, 41.67051041056589], [-86.46895464043595, 41.670690073622715], [-86.46949362960643, 41.670690073622715], [-86.46949362960643, 41.67051041056589], [-86.46985295572007, 41.67051041056589], [-86.46985295572007, 41.670690073622715], [-86.47021228183372, 41.670690073622715], [-86.47021228183372, 41.67086973667954], [-86.4700326187769, 41.67086973667954], [-86.4700326187769, 41.67104939973636], [-86.47057160794738, 41.67104939973636], [-86.47057160794738, 41.67122906279319], [-86.47075127100419, 41.67122906279319]], [[-86.47721914104986, 41.667096812486236], [-86.47739880410668, 41.667096812486236], [-86.47739880410668, 41.66673748637259], [-86.47721914104986, 41.66673748637259], [-86.47721914104986, 41.667096812486236]], [[-86.47721914104986, 41.66745613859988], [-86.47739880410668, 41.66745613859988], [-86.47739880410668, 41.66727647554306], [-86.47721914104986, 41.66727647554306], [-86.47721914104986, 41.66745613859988]], [[-86.4782971193908, 41.66817479082718], [-86.47883610856127, 41.66817479082718], [-86.47883610856127, 41.667995127770354], [-86.4782971193908, 41.667995127770354], [-86.4782971193908, 41.66817479082718]], [[-86.47578183659526, 41.66817479082718], [-86.47614116270891, 41.66817479082718], [-86.47614116270891, 41.667995127770354], [-86.47578183659526, 41.667995127770354], [-86.47578183659526, 41.66817479082718]], [[-86.47721914104986, 41.66835445388401], [-86.47739880410668, 41.66835445388401], [-86.47739880410668, 41.667815464713534], [-86.47721914104986, 41.667815464713534], [-86.47721914104986, 41.667995127770354], [-86.47703947799303, 41.667995127770354], [-86.47703947799303, 41.66817479082718], [-86.47721914104986, 41.66817479082718], [-86.47721914104986, 41.66835445388401]], [[-86.46859531432231, 41.6690731061113], [-86.46877497737913, 41.6690731061113], [-86.46877497737913, 41.66889344305448], [-86.46859531432231, 41.66889344305448], [-86.46859531432231, 41.6690731061113]]]}, "properties": {"name": "cand01", "ptype": "hall", "confidence": "low", "rank": 1, "area_ha": 55.4, "rise_db": 9.6, "digitised_from": "Sentinel-1 VV rise 2021->2026, orbit 121"}}, {"type": "Feature", "geometry": {"geodesic": false, "type": "Polygon", "coordinates": [[[-86.46446306401536, 41.693866607953], [-86.46446306401536, 41.69368694489617], [-86.4655410423563, 41.69368694489617], [-86.4655410423563, 41.693866607953], [-86.4662596945836, 41.693866607953], [-86.4662596945836, 41.69368694489617], [-86.46643935764043, 41.69368694489617], [-86.46643935764043, 41.693866607953], [-86.46715800986772, 41.693866607953], [-86.46715800986772, 41.69368694489617], [-86.46733767292454, 41.69368694489617], [-86.46733767292454, 41.69278862961205], [-86.46751733598137, 41.69278862961205], [-86.46751733598137, 41.692608966555234], [-86.46769699903818, 41.692608966555234], [-86.46769699903818, 41.69278862961205], [-86.46805632515184, 41.69278862961205], [-86.46805632515184, 41.69296829266888], [-86.46877497737913, 41.69296829266888], [-86.46877497737913, 41.69278862961205], [-86.46949362960643, 41.69278862961205], [-86.46949362960643, 41.69242930349841], [-86.4693139665496, 41.69242930349841], [-86.4693139665496, 41.69224964044158], [-86.46913430349278, 41.69224964044158], [-86.46913430349278, 41.69242930349841], [-86.46859531432231, 41.69242930349841], [-86.46859531432231, 41.69224964044158], [-86.46841565126549, 41.69224964044158], [-86.46841565126549, 41.69206997738476], [-86.46769699903818, 41.69206997738476], [-86.46769699903818, 41.691890314327935], [-86.46751733598137, 41.691890314327935], [-86.46751733598137, 41.69153098821429], [-86.46769699903818, 41.69153098821429], [-86.46769699903818, 41.69171065127111], [-86.46895464043595, 41.69171065127111], [-86.46895464043595, 41.69153098821429], [-86.46913430349278, 41.69153098821429], [-86.46913430349278, 41.691171662100636], [-86.46895464043595, 41.691171662100636], [-86.46895464043595, 41.69099199904382], [-86.46823598820866, 41.69099199904382], [-86.46823598820866, 41.691171662100636], [-86.46769699903818, 41.691171662100636], [-86.46769699903818, 41.69135132515746], [-86.46751733598137, 41.69135132515746], [-86.46751733598137, 41.691171662100636], [-86.46733767292454, 41.691171662100636], [-86.46733767292454, 41.69063267293017], [-86.46715800986772, 41.69063267293017], [-86.46715800986772, 41.690453009873345], [-86.46608003152677, 41.690453009873345], [-86.46608003152677, 41.69063267293017], [-86.46572070541312, 41.69063267293017], [-86.46572070541312, 41.690453009873345], [-86.46500205318583, 41.690453009873345], [-86.46500205318583, 41.69063267293017], [-86.46464272707219, 41.69063267293017], [-86.46464272707219, 41.691890314327935], [-86.46428340095854, 41.691890314327935], [-86.46428340095854, 41.69153098821429], [-86.46410373790171, 41.69153098821429], [-86.46410373790171, 41.69099199904382], [-86.46428340095854, 41.69099199904382], [-86.46428340095854, 41.69081233598699], [-86.46410373790171, 41.69081233598699], [-86.46410373790171, 41.69063267293017], [-86.46392407484488, 41.69063267293017], [-86.46392407484488, 41.690453009873345], [-86.46374441178806, 41.690453009873345], [-86.46374441178806, 41.689734357646046], [-86.46428340095854, 41.689734357646046], [-86.46428340095854, 41.689554694589226], [-86.46464272707219, 41.689554694589226], [-86.46464272707219, 41.6900936837597], [-86.464822390129, 41.6900936837597], [-86.464822390129, 41.69027334681652], [-86.46518171624265, 41.69027334681652], [-86.46518171624265, 41.6900936837597], [-86.46536137929948, 41.6900936837597], [-86.46536137929948, 41.689734357646046], [-86.4655410423563, 41.689734357646046], [-86.4655410423563, 41.689554694589226], [-86.46608003152677, 41.689554694589226], [-86.46608003152677, 41.689734357646046], [-86.46590036846995, 41.689734357646046], [-86.46590036846995, 41.6900936837597], [-86.4662596945836, 41.6900936837597], [-86.4662596945836, 41.69027334681652], [-86.46679868375406, 41.69027334681652], [-86.46679868375406, 41.68991402070287], [-86.46697834681089, 41.68991402070287], [-86.46697834681089, 41.6893750315324], [-86.46679868375406, 41.6893750315324], [-86.46679868375406, 41.68919536847557], [-86.46661902069725, 41.68919536847557], [-86.46661902069725, 41.68865637930511], [-86.46697834681089, 41.68865637930511], [-86.46697834681089, 41.68847671624828], [-86.46661902069725, 41.68847671624828], [-86.46661902069725, 41.688297053191455], [-86.4662596945836, 41.688297053191455], [-86.4662596945836, 41.688117390134636], [-86.46608003152677, 41.688117390134636], [-86.46608003152677, 41.68775806402098], [-86.46590036846995, 41.68775806402098], [-86.46590036846995, 41.68757840096416], [-86.46572070541312, 41.68757840096416], [-86.46572070541312, 41.68775806402098], [-86.4655410423563, 41.68775806402098], [-86.4655410423563, 41.68793772707781], [-86.46536137929948, 41.68793772707781], [-86.46536137929948, 41.688117390134636], [-86.46518171624265, 41.688117390134636], [-86.46518171624265, 41.68775806402098], [-86.46500205318583, 41.68775806402098], [-86.46500205318583, 41.68757840096416], [-86.464822390129, 41.68757840096416], [-86.464822390129, 41.68775806402098], [-86.46392407484488, 41.68775806402098], [-86.46392407484488, 41.68757840096416], [-86.46374441178806, 41.68757840096416], [-86.46374441178806, 41.68775806402098], [-86.46392407484488, 41.68775806402098], [-86.46392407484488, 41.68793772707781], [-86.46374441178806, 41.68793772707781], [-86.46374441178806, 41.68847671624828], [-86.46356474873124, 41.68847671624828], [-86.46356474873124, 41.689734357646046], [-86.46320542261759, 41.689734357646046], [-86.46320542261759, 41.68991402070287], [-86.46302575956076, 41.68991402070287], [-86.46302575956076, 41.6900936837597], [-86.46266643344713, 41.6900936837597], [-86.46266643344713, 41.689554694589226], [-86.46284609650394, 41.689554694589226], [-86.46284609650394, 41.689015705418754], [-86.46266643344713, 41.689015705418754], [-86.46266643344713, 41.68793772707781], [-86.4624867703903, 41.68793772707781], [-86.4624867703903, 41.68739873790734], [-86.46266643344713, 41.68739873790734], [-86.46266643344713, 41.68721907485051], [-86.46230710733347, 41.68721907485051], [-86.46230710733347, 41.68703941179369], [-86.46194778121982, 41.68703941179369], [-86.46194778121982, 41.68721907485051], [-86.46158845510618, 41.68721907485051], [-86.46158845510618, 41.68739873790734], [-86.46140879204935, 41.68739873790734], [-86.46140879204935, 41.688117390134636], [-86.46158845510618, 41.688117390134636], [-86.46158845510618, 41.688297053191455], [-86.461768118163, 41.688297053191455], [-86.461768118163, 41.689734357646046], [-86.46158845510618, 41.689734357646046], [-86.46158845510618, 41.68991402070287], [-86.46140879204935, 41.68991402070287], [-86.46140879204935, 41.6900936837597], [-86.46122912899253, 41.6900936837597], [-86.46122912899253, 41.69027334681652], [-86.46140879204935, 41.69027334681652], [-86.46140879204935, 41.690453009873345], [-86.46158845510618, 41.690453009873345], [-86.46158845510618, 41.69081233598699], [-86.461768118163, 41.69081233598699], [-86.461768118163, 41.691890314327935], [-86.46194778121982, 41.691890314327935], [-86.46194778121982, 41.69206997738476], [-86.46212744427665, 41.69206997738476], [-86.46212744427665, 41.69224964044158], [-86.4624867703903, 41.69224964044158], [-86.4624867703903, 41.69242930349841], [-86.46230710733347, 41.69242930349841], [-86.46230710733347, 41.692608966555234], [-86.46212744427665, 41.692608966555234], [-86.46212744427665, 41.693147955725706], [-86.46266643344713, 41.693147955725706], [-86.46266643344713, 41.69350728183935], [-86.46284609650394, 41.69350728183935], [-86.46284609650394, 41.69368694489617], [-86.46374441178806, 41.69368694489617], [-86.46374441178806, 41.693866607953], [-86.46446306401536, 41.693866607953]], [[-86.46500205318583, 41.688297053191455], [-86.46518171624265, 41.688297053191455], [-86.46518171624265, 41.688117390134636], [-86.46500205318583, 41.688117390134636], [-86.46500205318583, 41.688297053191455]], [[-86.46518171624265, 41.689015705418754], [-86.46536137929948, 41.689015705418754], [-86.46536137929948, 41.68883604236193], [-86.4655410423563, 41.68883604236193], [-86.4655410423563, 41.68865637930511], [-86.46518171624265, 41.68865637930511], [-86.46518171624265, 41.689015705418754]], [[-86.4662596945836, 41.68991402070287], [-86.46643935764043, 41.68991402070287], [-86.46643935764043, 41.689734357646046], [-86.4662596945836, 41.689734357646046], [-86.4662596945836, 41.68991402070287]], [[-86.46338508567442, 41.69206997738476], [-86.46356474873124, 41.69206997738476], [-86.46356474873124, 41.691890314327935], [-86.46338508567442, 41.691890314327935], [-86.46338508567442, 41.69206997738476]], [[-86.46661902069725, 41.693147955725706], [-86.46679868375406, 41.693147955725706], [-86.46679868375406, 41.69296829266888], [-86.46661902069725, 41.69296829266888], [-86.46661902069725, 41.693147955725706]], [[-86.46428340095854, 41.69350728183935], [-86.46464272707219, 41.69350728183935], [-86.46464272707219, 41.69206997738476], [-86.46428340095854, 41.69206997738476], [-86.46428340095854, 41.69242930349841], [-86.46410373790171, 41.69242930349841], [-86.46410373790171, 41.693327618782526], [-86.46428340095854, 41.693327618782526], [-86.46428340095854, 41.69350728183935]]]}, "properties": {"name": "cand02", "ptype": "hall", "confidence": "low", "rank": 2, "area_ha": 35.6, "rise_db": 8.8, "digitised_from": "Sentinel-1 VV rise 2021->2026, orbit 121"}}, {"type": "Feature", "geometry": {"geodesic": false, "type": "Polygon", "coordinates": [[[-86.47075127100419, 41.690453009873345], [-86.47075127100419, 41.69027334681652], [-86.47111059711784, 41.69027334681652], [-86.47111059711784, 41.690453009873345], [-86.4714699232315, 41.690453009873345], [-86.4714699232315, 41.69027334681652], [-86.47164958628831, 41.69027334681652], [-86.47164958628831, 41.6900936837597], [-86.47182924934513, 41.6900936837597], [-86.47182924934513, 41.69027334681652], [-86.47200891240196, 41.69027334681652], [-86.47200891240196, 41.690453009873345], [-86.47236823851561, 41.690453009873345], [-86.47236823851561, 41.69027334681652], [-86.47254790157244, 41.69027334681652], [-86.47254790157244, 41.6900936837597], [-86.47236823851561, 41.6900936837597], [-86.47236823851561, 41.68883604236193], [-86.47254790157244, 41.68883604236193], [-86.47254790157244, 41.689015705418754], [-86.47272756462925, 41.689015705418754], [-86.47272756462925, 41.689554694589226], [-86.47254790157244, 41.689554694589226], [-86.47254790157244, 41.689734357646046], [-86.47272756462925, 41.689734357646046], [-86.47272756462925, 41.6900936837597], [-86.47290722768608, 41.6900936837597], [-86.47290722768608, 41.68991402070287], [-86.4730868907429, 41.68991402070287], [-86.4730868907429, 41.6900936837597], [-86.47326655379973, 41.6900936837597], [-86.47326655379973, 41.69027334681652], [-86.4738055429702, 41.69027334681652], [-86.4738055429702, 41.68991402070287], [-86.47416486908385, 41.68991402070287], [-86.47416486908385, 41.6900936837597], [-86.47398520602702, 41.6900936837597], [-86.47398520602702, 41.69027334681652], [-86.47416486908385, 41.69027334681652], [-86.47416486908385, 41.690453009873345], [-86.47434453214068, 41.690453009873345], [-86.47434453214068, 41.69027334681652], [-86.47470385825432, 41.69027334681652], [-86.47470385825432, 41.6900936837597], [-86.47488352131114, 41.6900936837597], [-86.47488352131114, 41.68991402070287], [-86.4752428474248, 41.68991402070287], [-86.4752428474248, 41.6900936837597], [-86.47542251048162, 41.6900936837597], [-86.47542251048162, 41.689734357646046], [-86.47560217353843, 41.689734357646046], [-86.47560217353843, 41.68721907485051], [-86.47542251048162, 41.68721907485051], [-86.47542251048162, 41.68703941179369], [-86.4738055429702, 41.68703941179369], [-86.4738055429702, 41.686859748736865], [-86.47344621685656, 41.686859748736865], [-86.47344621685656, 41.68703941179369], [-86.47272756462925, 41.68703941179369], [-86.47272756462925, 41.688117390134636], [-86.47254790157244, 41.688117390134636], [-86.47254790157244, 41.688297053191455], [-86.47236823851561, 41.688297053191455], [-86.47236823851561, 41.68721907485051], [-86.47218857545879, 41.68721907485051], [-86.47218857545879, 41.68703941179369], [-86.47093093406102, 41.68703941179369], [-86.47093093406102, 41.68721907485051], [-86.47075127100419, 41.68721907485051], [-86.47075127100419, 41.68703941179369], [-86.46949362960643, 41.68703941179369], [-86.46949362960643, 41.68721907485051], [-86.4693139665496, 41.68721907485051], [-86.4693139665496, 41.68739873790734], [-86.46949362960643, 41.68739873790734], [-86.46949362960643, 41.689734357646046], [-86.46967329266324, 41.689734357646046], [-86.46967329266324, 41.68991402070287], [-86.4700326187769, 41.68991402070287], [-86.4700326187769, 41.6900936837597], [-86.46949362960643, 41.6900936837597], [-86.46949362960643, 41.690453009873345], [-86.47075127100419, 41.690453009873345]]]}, "properties": {"name": "cand03", "ptype": "hall", "confidence": "low", "rank": 3, "area_ha": 23.1, "rise_db": 10.0, "digitised_from": "Sentinel-1 VV rise 2021->2026, orbit 121"}}, {"type": "Feature", "geometry": {"geodesic": false, "type": "Polygon", "coordinates": [[[-86.45889350925381, 41.68865637930511], [-86.45889350925381, 41.68847671624828], [-86.45925283536747, 41.68847671624828], [-86.45925283536747, 41.68865637930511], [-86.45961216148112, 41.68865637930511], [-86.45961216148112, 41.68847671624828], [-86.45979182453793, 41.68847671624828], [-86.45979182453793, 41.688297053191455], [-86.46033081370841, 41.688297053191455], [-86.46033081370841, 41.68793772707781], [-86.45997148759476, 41.68793772707781], [-86.45997148759476, 41.68614109650957], [-86.45979182453793, 41.68614109650957], [-86.45979182453793, 41.685961433452746], [-86.45925283536747, 41.685961433452746], [-86.45925283536747, 41.68614109650957], [-86.458713846197, 41.68614109650957], [-86.458713846197, 41.68632075956639], [-86.45853418314017, 41.68632075956639], [-86.45853418314017, 41.686859748736865], [-86.458713846197, 41.686859748736865], [-86.458713846197, 41.686680085680045], [-86.45925283536747, 41.686680085680045], [-86.45925283536747, 41.68650042262322], [-86.45961216148112, 41.68650042262322], [-86.45961216148112, 41.68739873790734], [-86.45853418314017, 41.68739873790734], [-86.45853418314017, 41.68757840096416], [-86.45835452008335, 41.68757840096416], [-86.45835452008335, 41.68775806402098], [-86.45817485702652, 41.68775806402098], [-86.45817485702652, 41.688117390134636], [-86.45835452008335, 41.688117390134636], [-86.45835452008335, 41.68847671624828], [-86.45853418314017, 41.68847671624828], [-86.45853418314017, 41.68865637930511], [-86.45889350925381, 41.68865637930511]]]}, "properties": {"name": "cand04", "ptype": "hall", "confidence": "low", "rank": 4, "area_ha": 3.8, "rise_db": 6.6, "digitised_from": "Sentinel-1 VV rise 2021->2026, orbit 121"}}, {"type": "Feature", "geometry": {"geodesic": false, "type": "Polygon", "coordinates": [[[-86.4714699232315, 41.667815464713534], [-86.4714699232315, 41.66763580165671], [-86.47236823851561, 41.66763580165671], [-86.47236823851561, 41.66601883414529], [-86.47218857545879, 41.66601883414529], [-86.47218857545879, 41.66583917108847], [-86.47182924934513, 41.66583917108847], [-86.47182924934513, 41.66601883414529], [-86.47164958628831, 41.66601883414529], [-86.47164958628831, 41.66619849720212], [-86.4714699232315, 41.66619849720212], [-86.4714699232315, 41.66583917108847], [-86.47111059711784, 41.66583917108847], [-86.47111059711784, 41.66601883414529], [-86.47093093406102, 41.66601883414529], [-86.47093093406102, 41.66619849720212], [-86.47075127100419, 41.66619849720212], [-86.47075127100419, 41.66601883414529], [-86.47021228183372, 41.66601883414529], [-86.47021228183372, 41.666378160258944], [-86.47039194489055, 41.666378160258944], [-86.47039194489055, 41.66655782331576], [-86.47057160794738, 41.66655782331576], [-86.47057160794738, 41.66673748637259], [-86.47093093406102, 41.66673748637259], [-86.47093093406102, 41.666917149429416], [-86.47111059711784, 41.666917149429416], [-86.47111059711784, 41.66763580165671], [-86.47129026017467, 41.66763580165671], [-86.47129026017467, 41.667815464713534], [-86.4714699232315, 41.667815464713534]], [[-86.47093093406102, 41.666378160258944], [-86.47111059711784, 41.666378160258944], [-86.47111059711784, 41.66619849720212], [-86.47093093406102, 41.66619849720212], [-86.47093093406102, 41.666378160258944]]]}, "properties": {"name": "cand05", "ptype": "hall", "confidence": "low", "rank": 5, "area_ha": 3.3, "rise_db": 5.9, "digitised_from": "Sentinel-1 VV rise 2021->2026, orbit 121"}}, {"type": "Feature", "geometry": {"geodesic": false, "type": "Polygon", "coordinates": [[[-86.47650048882257, 41.67643929144108], [-86.47650048882257, 41.675900302270605], [-86.47668015187938, 41.675900302270605], [-86.47668015187938, 41.675720639213786], [-86.4768598149362, 41.675720639213786], [-86.4768598149362, 41.67554097615696], [-86.47775813022032, 41.67554097615696], [-86.47775813022032, 41.67536131310013], [-86.47793779327715, 41.67536131310013], [-86.47793779327715, 41.675181650043314], [-86.47811745633398, 41.675181650043314], [-86.47811745633398, 41.67500198698649], [-86.47793779327715, 41.67500198698649], [-86.47793779327715, 41.67482232392967], [-86.47668015187938, 41.67482232392967], [-86.47668015187938, 41.67464266087284], [-86.47614116270891, 41.67464266087284], [-86.47614116270891, 41.67482232392967], [-86.47596149965209, 41.67482232392967], [-86.47596149965209, 41.67536131310013], [-86.47614116270891, 41.67536131310013], [-86.47614116270891, 41.67643929144108], [-86.47650048882257, 41.67643929144108]]]}, "properties": {"name": "cand06", "ptype": "hall", "confidence": "low", "rank": 6, "area_ha": 2.4, "rise_db": 9.5, "digitised_from": "Sentinel-1 VV rise 2021->2026, orbit 121"}}, {"type": "Feature", "geometry": {"geodesic": false, "type": "Polygon", "coordinates": [[[-86.46787666209501, 41.66296456217929], [-86.46787666209501, 41.662784899122464], [-86.46805632515184, 41.662784899122464], [-86.46805632515184, 41.66260523606564], [-86.46895464043595, 41.66260523606564], [-86.46895464043595, 41.66152725772469], [-86.46841565126549, 41.66152725772469], [-86.46841565126549, 41.66170692078152], [-86.46769699903818, 41.66170692078152], [-86.46769699903818, 41.661886583838346], [-86.46751733598137, 41.661886583838346], [-86.46751733598137, 41.662066246895165], [-86.46733767292454, 41.662066246895165], [-86.46733767292454, 41.662784899122464], [-86.46751733598137, 41.662784899122464], [-86.46751733598137, 41.66296456217929], [-86.46787666209501, 41.66296456217929]]]}, "properties": {"name": "cand07", "ptype": "hall", "confidence": "low", "rank": 7, "area_ha": 2.0, "rise_db": 7.9, "digitised_from": "Sentinel-1 VV rise 2021->2026, orbit 121"}}, {"type": "Feature", "geometry": {"geodesic": false, "type": "Polygon", "coordinates": [[[-86.46913430349278, 41.68919536847557], [-86.46913430349278, 41.689015705418754], [-86.4693139665496, 41.689015705418754], [-86.4693139665496, 41.68793772707781], [-86.46913430349278, 41.68793772707781], [-86.46913430349278, 41.68775806402098], [-86.46841565126549, 41.68775806402098], [-86.46841565126549, 41.688117390134636], [-86.46823598820866, 41.688117390134636], [-86.46823598820866, 41.68865637930511], [-86.46805632515184, 41.68865637930511], [-86.46805632515184, 41.689015705418754], [-86.46859531432231, 41.689015705418754], [-86.46859531432231, 41.68919536847557], [-86.46913430349278, 41.68919536847557]]]}, "properties": {"name": "cand08", "ptype": "hall", "confidence": "low", "rank": 8, "area_ha": 1.8, "rise_db": 8.1, "digitised_from": "Sentinel-1 VV rise 2021->2026, orbit 121"}}, {"type": "Feature", "geometry": {"geodesic": false, "type": "Polygon", "coordinates": [[[-86.46374441178806, 41.68344615065721], [-86.46374441178806, 41.683266487600385], [-86.46410373790171, 41.683266487600385], [-86.46410373790171, 41.68218850925945], [-86.46374441178806, 41.68218850925945], [-86.46374441178806, 41.68200884620262], [-86.46356474873124, 41.68200884620262], [-86.46356474873124, 41.681829183145794], [-86.46374441178806, 41.681829183145794], [-86.46374441178806, 41.68146985703215], [-86.46320542261759, 41.68146985703215], [-86.46320542261759, 41.68254783537309], [-86.46302575956076, 41.68254783537309], [-86.46302575956076, 41.68272749842992], [-86.46320542261759, 41.68272749842992], [-86.46320542261759, 41.683266487600385], [-86.46338508567442, 41.683266487600385], [-86.46338508567442, 41.68344615065721], [-86.46374441178806, 41.68344615065721]], [[-86.46356474873124, 41.68254783537309], [-86.46374441178806, 41.68254783537309], [-86.46374441178806, 41.68236817231627], [-86.46356474873124, 41.68236817231627], [-86.46356474873124, 41.68254783537309]]]}, "properties": {"name": "cand09", "ptype": "hall", "confidence": "low", "rank": 9, "area_ha": 1.7, "rise_db": 6.0, "digitised_from": "Sentinel-1 VV rise 2021->2026, orbit 121"}}, {"type": "Feature", "geometry": {"geodesic": false, "type": "Polygon", "coordinates": [[[-86.54028087399504, 41.68129019397532], [-86.54028087399504, 41.6811105309185], [-86.5406402001087, 41.6811105309185], [-86.5406402001087, 41.680930867861676], [-86.54099952622234, 41.680930867861676], [-86.54099952622234, 41.68075120480486], [-86.54117918927916, 41.68075120480486], [-86.54117918927916, 41.68003255257756], [-86.54099952622234, 41.68003255257756], [-86.54099952622234, 41.67967322646391], [-86.54117918927916, 41.67967322646391], [-86.54117918927916, 41.679493563407085], [-86.54099952622234, 41.679493563407085], [-86.54099952622234, 41.67931390035026], [-86.54081986316552, 41.67931390035026], [-86.54081986316552, 41.679493563407085], [-86.5406402001087, 41.679493563407085], [-86.5406402001087, 41.6803918786912], [-86.54046053705187, 41.6803918786912], [-86.54046053705187, 41.68057154174803], [-86.54010121093822, 41.68057154174803], [-86.54010121093822, 41.68075120480486], [-86.53992154788139, 41.68075120480486], [-86.53992154788139, 41.68057154174803], [-86.53974188482458, 41.68057154174803], [-86.53974188482458, 41.680930867861676], [-86.53992154788139, 41.680930867861676], [-86.53992154788139, 41.68129019397532], [-86.54028087399504, 41.68129019397532]]]}, "properties": {"name": "cand10", "ptype": "hall", "confidence": "low", "rank": 10, "area_ha": 1.5, "rise_db": 5.0, "digitised_from": "Sentinel-1 VV rise 2021->2026, orbit 121"}}, {"type": "Feature", "geometry": {"geodesic": false, "type": "Polygon", "coordinates": [[[-86.48153105441362, 41.665300181918], [-86.48153105441362, 41.66494085580435], [-86.48135139135681, 41.66494085580435], [-86.48135139135681, 41.66476119274753], [-86.47937509773175, 41.66476119274753], [-86.47937509773175, 41.66494085580435], [-86.47919543467492, 41.66494085580435], [-86.47919543467492, 41.66512051886117], [-86.47937509773175, 41.66512051886117], [-86.47937509773175, 41.665300181918], [-86.48153105441362, 41.665300181918]]]}, "properties": {"name": "cand11", "ptype": "hall", "confidence": "low", "rank": 11, "area_ha": 1.4, "rise_db": 7.8, "digitised_from": "Sentinel-1 VV rise 2021->2026, orbit 121"}}, {"type": "Feature", "geometry": {"geodesic": false, "type": "Polygon", "coordinates": [[[-86.46464272707219, 41.66763580165671], [-86.46464272707219, 41.66745613859988], [-86.464822390129, 41.66745613859988], [-86.464822390129, 41.667096812486236], [-86.46464272707219, 41.667096812486236], [-86.46464272707219, 41.666917149429416], [-86.46446306401536, 41.666917149429416], [-86.46446306401536, 41.66583917108847], [-86.46428340095854, 41.66583917108847], [-86.46428340095854, 41.66547984497482], [-86.46392407484488, 41.66547984497482], [-86.46392407484488, 41.665659508031645], [-86.46374441178806, 41.665659508031645], [-86.46374441178806, 41.66655782331576], [-86.46392407484488, 41.66655782331576], [-86.46392407484488, 41.66673748637259], [-86.46428340095854, 41.66673748637259], [-86.46428340095854, 41.66727647554306], [-86.46410373790171, 41.66727647554306], [-86.46410373790171, 41.66745613859988], [-86.46428340095854, 41.66745613859988], [-86.46428340095854, 41.66763580165671], [-86.46464272707219, 41.66763580165671]]]}, "properties": {"name": "cand12", "ptype": "hall", "confidence": "low", "rank": 12, "area_ha": 1.4, "rise_db": 6.8, "digitised_from": "Sentinel-1 VV rise 2021->2026, orbit 121"}}, {"type": "Feature", "geometry": {"geodesic": false, "type": "Polygon", "coordinates": [[[-86.48332768498187, 41.67625962838426], [-86.48332768498187, 41.67607996532743], [-86.48350734803869, 41.67607996532743], [-86.48350734803869, 41.67536131310013], [-86.48368701109551, 41.67536131310013], [-86.48368701109551, 41.67500198698649], [-86.48350734803869, 41.67500198698649], [-86.48350734803869, 41.674462997816015], [-86.48314802192505, 41.674462997816015], [-86.48314802192505, 41.67464266087284], [-86.48296835886822, 41.67464266087284], [-86.48296835886822, 41.67607996532743], [-86.48314802192505, 41.67607996532743], [-86.48314802192505, 41.67625962838426], [-86.48332768498187, 41.67625962838426]]]}, "properties": {"name": "cand13", "ptype": "hall", "confidence": "low", "rank": 13, "area_ha": 1.2, "rise_db": 6.6, "digitised_from": "Sentinel-1 VV rise 2021->2026, orbit 121"}}, {"type": "Feature", "geometry": {"geodesic": false, "type": "Polygon", "coordinates": [[[-86.53093839504021, 41.71219223974904], [-86.53093839504021, 41.71201257669221], [-86.53075873198338, 41.71201257669221], [-86.53075873198338, 41.71183291363539], [-86.53111805809702, 41.71183291363539], [-86.53111805809702, 41.71129392446492], [-86.53093839504021, 41.71129392446492], [-86.53093839504021, 41.711653250578564], [-86.53039940586973, 41.711653250578564], [-86.53039940586973, 41.71147358752174], [-86.5302197428129, 41.71147358752174], [-86.5302197428129, 41.71093459835127], [-86.53039940586973, 41.71093459835127], [-86.53039940586973, 41.710754935294446], [-86.5302197428129, 41.710754935294446], [-86.5302197428129, 41.71093459835127], [-86.53004007975608, 41.71093459835127], [-86.53004007975608, 41.710754935294446], [-86.52986041669926, 41.710754935294446], [-86.52986041669926, 41.71093459835127], [-86.52968075364244, 41.71093459835127], [-86.52968075364244, 41.71111426140809], [-86.52932142752879, 41.71111426140809], [-86.52932142752879, 41.71129392446492], [-86.52950109058561, 41.71129392446492], [-86.52950109058561, 41.71147358752174], [-86.52986041669926, 41.71147358752174], [-86.52986041669926, 41.711653250578564], [-86.53004007975608, 41.711653250578564], [-86.53004007975608, 41.71183291363539], [-86.53057906892656, 41.71183291363539], [-86.53057906892656, 41.71201257669221], [-86.53039940586973, 41.71201257669221], [-86.53039940586973, 41.71219223974904], [-86.53093839504021, 41.71219223974904]]]}, "properties": {"name": "cand14", "ptype": "hall", "confidence": "low", "rank": 14, "area_ha": 1.2, "rise_db": 5.7, "digitised_from": "Sentinel-1 VV rise 2021->2026, orbit 121"}}]}