{"type": "FeatureCollection", "features": [{"type": "Feature", "geometry": {"geodesic": false, "type": "Polygon", "coordinates": [[[107.69830076086214, 35.73857526341104], [107.69830076086214, 35.73839560035422], [107.69812109780531, 35.73839560035422], [107.69812109780531, 35.737676948126925], [107.69776177169166, 35.737676948126925], [107.69776177169166, 35.7374972850701], [107.69758210863483, 35.7374972850701], [107.69758210863483, 35.73731762201327], [107.6972227825212, 35.73731762201327], [107.6972227825212, 35.736239643672334], [107.69740244557802, 35.736239643672334], [107.69740244557802, 35.73605998061551], [107.69758210863483, 35.73605998061551], [107.69758210863483, 35.73659896978598], [107.69794143474849, 35.73659896978598], [107.69794143474849, 35.73570065450186], [107.69812109780531, 35.73570065450186], [107.69812109780531, 35.73534132838821], [107.69830076086214, 35.73534132838821], [107.69830076086214, 35.73516166533139], [107.69848042391897, 35.73516166533139], [107.69848042391897, 35.73498200227456], [107.6988397500326, 35.73498200227456], [107.6988397500326, 35.73516166533139], [107.69901941308943, 35.73516166533139], [107.69901941308943, 35.735520991445036], [107.69919907614626, 35.735520991445036], [107.69919907614626, 35.73588031755868], [107.69937873920308, 35.73588031755868], [107.69937873920308, 35.73605998061551], [107.69919907614626, 35.73605998061551], [107.69919907614626, 35.736239643672334], [107.69901941308943, 35.736239643672334], [107.69901941308943, 35.736419306729154], [107.6988397500326, 35.736419306729154], [107.6988397500326, 35.73677863284281], [107.69901941308943, 35.73677863284281], [107.69901941308943, 35.736958295899626], [107.6988397500326, 35.736958295899626], [107.6988397500326, 35.73713795895645], [107.69866008697578, 35.73713795895645], [107.69866008697578, 35.7374972850701], [107.6988397500326, 35.7374972850701], [107.6988397500326, 35.737676948126925], [107.69901941308943, 35.737676948126925], [107.69901941308943, 35.737856611183744], [107.69919907614626, 35.737856611183744], [107.69919907614626, 35.7382159372974], [107.69901941308943, 35.7382159372974], [107.69901941308943, 35.73839560035422], [107.6988397500326, 35.73839560035422], [107.6988397500326, 35.73857526341104], [107.69830076086214, 35.73857526341104]]]}, "properties": {"name": "cn_qingyang_r12", "ptype": "hall"}}, {"type": "Feature", "geometry": {"geodesic": false, "type": "Polygon", "coordinates": [[[107.61062518913207, 35.70246298898944], [107.61062518913207, 35.70228332593261], [107.61044552607524, 35.70228332593261], [107.61044552607524, 35.701923999818966], [107.61080485218889, 35.701923999818966], [107.61080485218889, 35.70156467370532], [107.61098451524572, 35.70156467370532], [107.61098451524572, 35.70102568453485], [107.61116417830254, 35.70102568453485], [107.61116417830254, 35.700486695364376], [107.61134384135937, 35.700486695364376], [107.61134384135937, 35.69976804313708], [107.61080485218889, 35.69976804313708], [107.61080485218889, 35.69958838008026], [107.61062518913207, 35.69958838008026], [107.61062518913207, 35.69940871702343], [107.61044552607524, 35.69940871702343], [107.61044552607524, 35.699229053966604], [107.61062518913207, 35.699229053966604], [107.61062518913207, 35.699049390909785], [107.61044552607524, 35.699049390909785], [107.61044552607524, 35.69869006479614], [107.61062518913207, 35.69869006479614], [107.61062518913207, 35.698330738682486], [107.61098451524572, 35.698330738682486], [107.61098451524572, 35.69815107562567], [107.61116417830254, 35.69815107562567], [107.61116417830254, 35.69797141256884], [107.61152350441618, 35.69797141256884], [107.61152350441618, 35.69869006479614], [107.61206249358666, 35.69869006479614], [107.61206249358666, 35.69851040173931], [107.61224215664349, 35.69851040173931], [107.61224215664349, 35.69797141256884], [107.61206249358666, 35.69797141256884], [107.61206249358666, 35.697612086455194], [107.61224215664349, 35.697612086455194], [107.61224215664349, 35.697791749512014], [107.6124218197003, 35.697791749512014], [107.6124218197003, 35.69797141256884], [107.61260148275713, 35.69797141256884], [107.61260148275713, 35.69815107562567], [107.61278114581395, 35.69815107562567], [107.61278114581395, 35.698330738682486], [107.61314047192761, 35.698330738682486], [107.61314047192761, 35.69851040173931], [107.61332013498443, 35.69851040173931], [107.61332013498443, 35.69869006479614], [107.61349979804125, 35.69869006479614], [107.61349979804125, 35.69886972785296], [107.61367946109807, 35.69886972785296], [107.61367946109807, 35.699049390909785], [107.6138591241549, 35.699049390909785], [107.6138591241549, 35.69958838008026], [107.61367946109807, 35.69958838008026], [107.61367946109807, 35.69976804313708], [107.61349979804125, 35.69976804313708], [107.61349979804125, 35.70012736925073], [107.61332013498443, 35.70012736925073], [107.61332013498443, 35.700486695364376], [107.61439811332536, 35.700486695364376], [107.61439811332536, 35.70084602147802], [107.61421845026855, 35.70084602147802], [107.61421845026855, 35.70102568453485], [107.61403878721173, 35.70102568453485], [107.61403878721173, 35.70156467370532], [107.6138591241549, 35.70156467370532], [107.6138591241549, 35.70174433676214], [107.61367946109807, 35.70174433676214], [107.61367946109807, 35.70156467370532], [107.61278114581395, 35.70156467370532], [107.61278114581395, 35.701385010648494], [107.6124218197003, 35.701385010648494], [107.6124218197003, 35.70084602147802], [107.61206249358666, 35.70084602147802], [107.61206249358666, 35.70102568453485], [107.61188283052984, 35.70102568453485], [107.61188283052984, 35.70120534759167], [107.61170316747301, 35.70120534759167], [107.61170316747301, 35.70156467370532], [107.61188283052984, 35.70156467370532], [107.61188283052984, 35.701923999818966], [107.61170316747301, 35.701923999818966], [107.61170316747301, 35.70210366287579], [107.61116417830254, 35.70210366287579], [107.61116417830254, 35.70228332593261], [107.61098451524572, 35.70228332593261], [107.61098451524572, 35.70246298898944], [107.61062518913207, 35.70246298898944]], [[107.6124218197003, 35.7006663584212], [107.61224215664349, 35.7006663584212], [107.61224215664349, 35.700486695364376], [107.6124218197003, 35.700486695364376], [107.6124218197003, 35.7006663584212]], [[107.61332013498443, 35.70102568453485], [107.61314047192761, 35.70102568453485], [107.61314047192761, 35.70084602147802], [107.61332013498443, 35.70084602147802], [107.61332013498443, 35.70102568453485]]]}, "properties": {"name": "cn_qingyang_r03", "ptype": "hall"}}, {"type": "Feature", "geometry": {"geodesic": false, "type": "Polygon", "coordinates": [[[107.69901941308943, 35.72725649083114], [107.69901941308943, 35.72707682777431], [107.69830076086214, 35.72707682777431], [107.69830076086214, 35.726717501660666], [107.69812109780531, 35.726717501660666], [107.69812109780531, 35.72635817554702], [107.69794143474849, 35.72635817554702], [107.69794143474849, 35.72617851249019], [107.69776177169166, 35.72617851249019], [107.69776177169166, 35.72599884943337], [107.69758210863483, 35.72599884943337], [107.69758210863483, 35.72617851249019], [107.69740244557802, 35.72617851249019], [107.69740244557802, 35.72653783860384], [107.69704311946437, 35.72653783860384], [107.69704311946437, 35.726717501660666], [107.69686345640754, 35.726717501660666], [107.69686345640754, 35.72653783860384], [107.69668379335072, 35.72653783860384], [107.69668379335072, 35.72635817554702], [107.69686345640754, 35.72635817554702], [107.69686345640754, 35.72617851249019], [107.69704311946437, 35.72617851249019], [107.69704311946437, 35.72581918637655], [107.6972227825212, 35.72581918637655], [107.6972227825212, 35.72366322969466], [107.69740244557802, 35.72366322969466], [107.69740244557802, 35.72330390358101], [107.69758210863483, 35.72330390358101], [107.69758210863483, 35.723124240524186], [107.69794143474849, 35.723124240524186], [107.69794143474849, 35.72330390358101], [107.69812109780531, 35.72330390358101], [107.69812109780531, 35.72348356663783], [107.69830076086214, 35.72348356663783], [107.69830076086214, 35.72330390358101], [107.69866008697578, 35.72330390358101], [107.69866008697578, 35.72348356663783], [107.69848042391897, 35.72348356663783], [107.69848042391897, 35.72366322969466], [107.69830076086214, 35.72366322969466], [107.69830076086214, 35.72420221886513], [107.69812109780531, 35.72420221886513], [107.69812109780531, 35.72438188192196], [107.69794143474849, 35.72438188192196], [107.69794143474849, 35.72510053414925], [107.69812109780531, 35.72510053414925], [107.69812109780531, 35.725280197206075], [107.6988397500326, 35.725280197206075], [107.6988397500326, 35.725459860262895], [107.69901941308943, 35.725459860262895], [107.69901941308943, 35.725280197206075], [107.6995584022599, 35.725280197206075], [107.6995584022599, 35.725459860262895], [107.69973806531672, 35.725459860262895], [107.69973806531672, 35.72581918637655], [107.69991772837355, 35.72581918637655], [107.69991772837355, 35.72617851249019], [107.7002770544872, 35.72617851249019], [107.7002770544872, 35.725459860262895], [107.70063638060084, 35.725459860262895], [107.70063638060084, 35.72563952331972], [107.70081604365767, 35.72563952331972], [107.70081604365767, 35.725459860262895], [107.7009957067145, 35.725459860262895], [107.7009957067145, 35.72581918637655], [107.70081604365767, 35.72581918637655], [107.70081604365767, 35.72653783860384], [107.70063638060084, 35.72653783860384], [107.70063638060084, 35.726717501660666], [107.70009739143038, 35.726717501660666], [107.70009739143038, 35.72689716471749], [107.6995584022599, 35.72689716471749], [107.6995584022599, 35.72707682777431], [107.69937873920308, 35.72707682777431], [107.69937873920308, 35.72725649083114], [107.69901941308943, 35.72725649083114]]]}, "properties": {"name": "cn_qingyang_r07", "ptype": "hall"}}, {"type": "Feature", "geometry": {"geodesic": false, "type": "Polygon", "coordinates": [[[107.7002770544872, 35.73444301310409], [107.7002770544872, 35.73426335004727], [107.70009739143038, 35.73426335004727], [107.70009739143038, 35.734083686990445], [107.69991772837355, 35.734083686990445], [107.69991772837355, 35.7337243608768], [107.70063638060084, 35.7337243608768], [107.70063638060084, 35.73354469781997], [107.70081604365767, 35.73354469781997], [107.70081604365767, 35.7330057086495], [107.70063638060084, 35.7330057086495], [107.70063638060084, 35.73282604559268], [107.70081604365767, 35.73282604559268], [107.70081604365767, 35.732646382535854], [107.7009957067145, 35.732646382535854], [107.7009957067145, 35.73246671947903], [107.70135503282815, 35.73246671947903], [107.70135503282815, 35.73210739336538], [107.70153469588496, 35.73210739336538], [107.70153469588496, 35.731927730308556], [107.70171435894179, 35.731927730308556], [107.70171435894179, 35.731748067251736], [107.70153469588496, 35.731748067251736], [107.70153469588496, 35.73156840419491], [107.7009957067145, 35.73156840419491], [107.7009957067145, 35.731209078081264], [107.70189402199861, 35.731209078081264], [107.70189402199861, 35.73138874113808], [107.70207368505544, 35.73138874113808], [107.70207368505544, 35.73156840419491], [107.70279233728273, 35.73156840419491], [107.70279233728273, 35.731927730308556], [107.70297200033956, 35.731927730308556], [107.70297200033956, 35.73228705642221], [107.70279233728273, 35.73228705642221], [107.70279233728273, 35.732646382535854], [107.7026126742259, 35.732646382535854], [107.7026126742259, 35.733365034763146], [107.70243301116909, 35.733365034763146], [107.70243301116909, 35.7337243608768], [107.70225334811227, 35.7337243608768], [107.70225334811227, 35.73390402393362], [107.70207368505544, 35.73390402393362], [107.70207368505544, 35.734083686990445], [107.70171435894179, 35.734083686990445], [107.70171435894179, 35.73390402393362], [107.70153469588496, 35.73390402393362], [107.70153469588496, 35.734083686990445], [107.70117536977132, 35.734083686990445], [107.70117536977132, 35.73426335004727], [107.70045671754403, 35.73426335004727], [107.70045671754403, 35.73444301310409], [107.7002770544872, 35.73444301310409]], [[107.70117536977132, 35.73282604559268], [107.7009957067145, 35.73282604559268], [107.7009957067145, 35.732646382535854], [107.70117536977132, 35.732646382535854], [107.70117536977132, 35.73282604559268]]]}, "properties": {"name": "cn_qingyang_r11", "ptype": "hall"}}]}