{"type": "FeatureCollection", "features": [{"type": "Feature", "geometry": {"geodesic": false, "type": "Polygon", "coordinates": [[[113.64658524618795, 24.748945403606463], [113.64658524618795, 24.74876574054964], [113.64640558313114, 24.74876574054964], [113.64640558313114, 24.748047088322345], [113.64622592007431, 24.748047088322345], [113.64622592007431, 24.747508099151872], [113.64604625701749, 24.747508099151872], [113.64604625701749, 24.74732843609505], [113.64622592007431, 24.74732843609505], [113.64622592007431, 24.747148773038226], [113.64640558313114, 24.747148773038226], [113.64640558313114, 24.7469691099814], [113.64676490924478, 24.7469691099814], [113.64676490924478, 24.74643012081093], [113.64658524618795, 24.74643012081093], [113.64658524618795, 24.74607079469728], [113.64874120286984, 24.74607079469728], [113.64874120286984, 24.7469691099814], [113.64892086592667, 24.7469691099814], [113.64892086592667, 24.74732843609505], [113.64856153981302, 24.74732843609505], [113.64856153981302, 24.747148773038226], [113.6483818767562, 24.747148773038226], [113.6483818767562, 24.7469691099814], [113.64820221369938, 24.7469691099814], [113.64820221369938, 24.747148773038226], [113.64802255064255, 24.747148773038226], [113.64802255064255, 24.74732843609505], [113.64820221369938, 24.74732843609505], [113.64820221369938, 24.7476877622087], [113.6483818767562, 24.7476877622087], [113.6483818767562, 24.74786742526552], [113.64856153981302, 24.74786742526552], [113.64856153981302, 24.748047088322345], [113.6483818767562, 24.748047088322345], [113.6483818767562, 24.748226751379168], [113.64784288758572, 24.748226751379168], [113.64784288758572, 24.748406414435994], [113.64748356147207, 24.748406414435994], [113.64748356147207, 24.748226751379168], [113.64712423535843, 24.748226751379168], [113.64712423535843, 24.748586077492817], [113.6469445723016, 24.748586077492817], [113.6469445723016, 24.748945403606463], [113.64658524618795, 24.748945403606463]], [[113.64820221369938, 24.746609783867754], [113.64802255064255, 24.746609783867754], [113.64802255064255, 24.74643012081093], [113.64784288758572, 24.74643012081093], [113.64784288758572, 24.746250457754105], [113.64820221369938, 24.746250457754105], [113.64820221369938, 24.746609783867754]], [[113.64784288758572, 24.747508099151872], [113.64748356147207, 24.747508099151872], [113.64748356147207, 24.747148773038226], [113.64784288758572, 24.747148773038226], [113.64784288758572, 24.747508099151872]], [[113.64730389841526, 24.748047088322345], [113.6469445723016, 24.748047088322345], [113.6469445723016, 24.74786742526552], [113.64676490924478, 24.74786742526552], [113.64676490924478, 24.7476877622087], [113.64658524618795, 24.7476877622087], [113.64658524618795, 24.74732843609505], [113.64712423535843, 24.74732843609505], [113.64712423535843, 24.74786742526552], [113.64730389841526, 24.74786742526552], [113.64730389841526, 24.748047088322345]]]}, "properties": {"name": "cand01", "ptype": "hall", "confidence": "low", "rank": 1, "area_ha": 5.6, "rise_db": 7.4, "digitised_from": "Sentinel-1 VV rise 2021->2026, orbit 113"}}, {"type": "Feature", "geometry": {"geodesic": false, "type": "Polygon", "coordinates": [[[113.6295172557897, 24.80715623401741], [113.6295172557897, 24.806976570960586], [113.6296969188465, 24.806976570960586], [113.6296969188465, 24.806437581790114], [113.6295172557897, 24.806437581790114], [113.6295172557897, 24.80625791873329], [113.62933759273287, 24.80625791873329], [113.62933759273287, 24.80535960344917], [113.6295172557897, 24.80535960344917], [113.6295172557897, 24.805179940392346], [113.63059523413064, 24.805179940392346], [113.63059523413064, 24.80535960344917], [113.63077489718745, 24.80535960344917], [113.63077489718745, 24.805179940392346], [113.6311342233011, 24.805179940392346], [113.6311342233011, 24.805000277335523], [113.63149354941476, 24.805000277335523], [113.63149354941476, 24.8048206142787], [113.63167321247157, 24.8048206142787], [113.63167321247157, 24.804640951221874], [113.6318528755284, 24.804640951221874], [113.6318528755284, 24.8048206142787], [113.63203253858522, 24.8048206142787], [113.63203253858522, 24.80446128816505], [113.63239186469887, 24.80446128816505], [113.63239186469887, 24.804281625108228], [113.6325715277557, 24.804281625108228], [113.6325715277557, 24.80446128816505], [113.63275119081251, 24.80446128816505], [113.63275119081251, 24.805000277335523], [113.63239186469887, 24.805000277335523], [113.63239186469887, 24.8048206142787], [113.63203253858522, 24.8048206142787], [113.63203253858522, 24.805000277335523], [113.63221220164205, 24.805000277335523], [113.63221220164205, 24.805179940392346], [113.63239186469887, 24.805179940392346], [113.63239186469887, 24.805539266505995], [113.6325715277557, 24.805539266505995], [113.6325715277557, 24.80589859261964], [113.63239186469887, 24.80589859261964], [113.63239186469887, 24.806078255676468], [113.63221220164205, 24.806078255676468], [113.63221220164205, 24.80625791873329], [113.63203253858522, 24.80625791873329], [113.63203253858522, 24.80535960344917], [113.6318528755284, 24.80535960344917], [113.6318528755284, 24.805000277335523], [113.63167321247157, 24.805000277335523], [113.63167321247157, 24.805179940392346], [113.63149354941476, 24.805179940392346], [113.63149354941476, 24.805539266505995], [113.63131388635793, 24.805539266505995], [113.63131388635793, 24.806078255676468], [113.6311342233011, 24.806078255676468], [113.6311342233011, 24.80625791873329], [113.63095456024428, 24.80625791873329], [113.63095456024428, 24.806437581790114], [113.63077489718745, 24.806437581790114], [113.63077489718745, 24.806796907903763], [113.63041557107381, 24.806796907903763], [113.63041557107381, 24.806976570960586], [113.62987658190333, 24.806976570960586], [113.62987658190333, 24.80715623401741], [113.6295172557897, 24.80715623401741]]]}, "properties": {"name": "cand02", "ptype": "hall", "confidence": "low", "rank": 2, "area_ha": 5.0, "rise_db": 6.7, "digitised_from": "Sentinel-1 VV rise 2021->2026, orbit 113"}}, {"type": "Feature", "geometry": {"geodesic": false, "type": "Polygon", "coordinates": [[[113.636344451949, 24.797813755062567], [113.636344451949, 24.797634092005744], [113.63616478889217, 24.797634092005744], [113.63616478889217, 24.797274765892094], [113.636344451949, 24.797274765892094], [113.636344451949, 24.79709510283527], [113.63652411500583, 24.79709510283527], [113.63652411500583, 24.796735776721622], [113.636344451949, 24.796735776721622], [113.636344451949, 24.795837461437504], [113.63652411500583, 24.795837461437504], [113.63652411500583, 24.795478135323854], [113.636344451949, 24.795478135323854], [113.636344451949, 24.79529847226703], [113.63670377806264, 24.79529847226703], [113.63670377806264, 24.79511880921021], [113.63724276723312, 24.79511880921021], [113.63724276723312, 24.79529847226703], [113.63742243028994, 24.79529847226703], [113.63742243028994, 24.79511880921021], [113.63760209334676, 24.79511880921021], [113.63760209334676, 24.794939146153386], [113.63742243028994, 24.794939146153386], [113.63742243028994, 24.79475948309656], [113.63778175640358, 24.79475948309656], [113.63778175640358, 24.794939146153386], [113.63796141946041, 24.794939146153386], [113.63796141946041, 24.79511880921021], [113.63814108251724, 24.79511880921021], [113.63814108251724, 24.79529847226703], [113.63796141946041, 24.79529847226703], [113.63796141946041, 24.795478135323854], [113.63814108251724, 24.795478135323854], [113.63814108251724, 24.796376450607976], [113.63796141946041, 24.796376450607976], [113.63796141946041, 24.7965561136648], [113.63778175640358, 24.7965561136648], [113.63778175640358, 24.796735776721622], [113.63760209334676, 24.796735776721622], [113.63760209334676, 24.797274765892094], [113.63742243028994, 24.797274765892094], [113.63742243028994, 24.797454428948917], [113.63724276723312, 24.797454428948917], [113.63724276723312, 24.797634092005744], [113.63670377806264, 24.797634092005744], [113.63670377806264, 24.797813755062567], [113.636344451949, 24.797813755062567]], [[113.63688344111947, 24.797274765892094], [113.63670377806264, 24.797274765892094], [113.63670377806264, 24.79709510283527], [113.63688344111947, 24.79709510283527], [113.63688344111947, 24.797274765892094]]]}, "properties": {"name": "cand03", "ptype": "hall", "confidence": "low", "rank": 3, "area_ha": 4.7, "rise_db": 9.5, "digitised_from": "Sentinel-1 VV rise 2021->2026, orbit 113"}}, {"type": "Feature", "geometry": {"geodesic": false, "type": "Polygon", "coordinates": [[[113.65161581177902, 24.75846754561813], [113.65161581177902, 24.757569230334013], [113.6514361487222, 24.757569230334013], [113.6514361487222, 24.757209904220364], [113.65161581177902, 24.757209904220364], [113.65161581177902, 24.756850578106718], [113.6514361487222, 24.756850578106718], [113.6514361487222, 24.756311588936246], [113.65161581177902, 24.756311588936246], [113.65161581177902, 24.75613192587942], [113.65197513789268, 24.75613192587942], [113.65197513789268, 24.755952262822596], [113.6521548009495, 24.755952262822596], [113.6521548009495, 24.755772599765773], [113.65161581177902, 24.755772599765773], [113.65161581177902, 24.75559293670895], [113.6514361487222, 24.75559293670895], [113.6514361487222, 24.754155632254356], [113.65197513789268, 24.754155632254356], [113.65197513789268, 24.754335295311183], [113.6521548009495, 24.754335295311183], [113.6521548009495, 24.7552336105953], [113.65197513789268, 24.7552336105953], [113.65197513789268, 24.755413273652124], [113.65233446400633, 24.755413273652124], [113.65233446400633, 24.7552336105953], [113.65269379011997, 24.7552336105953], [113.65269379011997, 24.755413273652124], [113.6528734531768, 24.755413273652124], [113.6528734531768, 24.75559293670895], [113.65305311623362, 24.75559293670895], [113.65305311623362, 24.75613192587942], [113.6528734531768, 24.75613192587942], [113.6528734531768, 24.756311588936246], [113.65269379011997, 24.756311588936246], [113.65269379011997, 24.75649125199307], [113.65251412706314, 24.75649125199307], [113.65251412706314, 24.756850578106718], [113.65269379011997, 24.756850578106718], [113.65269379011997, 24.757209904220364], [113.65251412706314, 24.757209904220364], [113.65251412706314, 24.757389567277187], [113.65197513789268, 24.757389567277187], [113.65197513789268, 24.75846754561813], [113.65161581177902, 24.75846754561813]]]}, "properties": {"name": "cand04", "ptype": "hall", "confidence": "low", "rank": 4, "area_ha": 4.5, "rise_db": 6.8, "digitised_from": "Sentinel-1 VV rise 2021->2026, orbit 113"}}, {"type": "Feature", "geometry": {"geodesic": false, "type": "Polygon", "coordinates": [[[113.65269379011997, 24.755053947538478], [113.65269379011997, 24.75469462142483], [113.65305311623362, 24.75469462142483], [113.65305311623362, 24.754335295311183], [113.65323277929045, 24.754335295311183], [113.65323277929045, 24.754155632254356], [113.65341244234726, 24.754155632254356], [113.65341244234726, 24.753077653913415], [113.65359210540409, 24.753077653913415], [113.65359210540409, 24.752897990856592], [113.65377176846091, 24.752897990856592], [113.65377176846091, 24.752718327799766], [113.65413109457457, 24.752718327799766], [113.65413109457457, 24.75235900168612], [113.6543107576314, 24.75235900168612], [113.6543107576314, 24.752179338629293], [113.6544904206882, 24.752179338629293], [113.6544904206882, 24.75199967557247], [113.65467008374503, 24.75199967557247], [113.65467008374503, 24.752179338629293], [113.65484974680186, 24.752179338629293], [113.65484974680186, 24.75235900168612], [113.65467008374503, 24.75235900168612], [113.65467008374503, 24.752538664742943], [113.6544904206882, 24.752538664742943], [113.6544904206882, 24.752718327799766], [113.65413109457457, 24.752718327799766], [113.65413109457457, 24.753077653913415], [113.6544904206882, 24.753077653913415], [113.6544904206882, 24.753257316970238], [113.65502940985868, 24.753257316970238], [113.65502940985868, 24.75343698002706], [113.65520907291551, 24.75343698002706], [113.65520907291551, 24.754155632254356], [113.65502940985868, 24.754155632254356], [113.65502940985868, 24.754514958368006], [113.65484974680186, 24.754514958368006], [113.65484974680186, 24.75469462142483], [113.65467008374503, 24.75469462142483], [113.65467008374503, 24.754874284481655], [113.65413109457457, 24.754874284481655], [113.65413109457457, 24.75469462142483], [113.65341244234726, 24.75469462142483], [113.65341244234726, 24.754874284481655], [113.65305311623362, 24.754874284481655], [113.65305311623362, 24.755053947538478], [113.65269379011997, 24.755053947538478]]]}, "properties": {"name": "cand05", "ptype": "hall", "confidence": "low", "rank": 5, "area_ha": 4.4, "rise_db": 7.7, "digitised_from": "Sentinel-1 VV rise 2021->2026, orbit 113"}}, {"type": "Feature", "geometry": {"geodesic": false, "type": "Polygon", "coordinates": [[[113.64712423535843, 24.751101360288352], [113.64712423535843, 24.75092169723153], [113.64676490924478, 24.75092169723153], [113.64676490924478, 24.751101360288352], [113.64622592007431, 24.751101360288352], [113.64622592007431, 24.75092169723153], [113.64604625701749, 24.75092169723153], [113.64604625701749, 24.750742034174703], [113.64586659396066, 24.750742034174703], [113.64586659396066, 24.75056237111788], [113.64568693090384, 24.75056237111788], [113.64568693090384, 24.750023381947408], [113.64586659396066, 24.750023381947408], [113.64586659396066, 24.749484392776935], [113.64604625701749, 24.749484392776935], [113.64604625701749, 24.749304729720112], [113.64730389841526, 24.749304729720112], [113.64730389841526, 24.74966405583376], [113.6476632245289, 24.74966405583376], [113.6476632245289, 24.749843718890585], [113.64784288758572, 24.749843718890585], [113.64784288758572, 24.750023381947408], [113.6476632245289, 24.750023381947408], [113.6476632245289, 24.750382708061057], [113.64784288758572, 24.750382708061057], [113.64784288758572, 24.75056237111788], [113.64802255064255, 24.75056237111788], [113.64802255064255, 24.75092169723153], [113.64748356147207, 24.75092169723153], [113.64748356147207, 24.751101360288352], [113.64712423535843, 24.751101360288352]], [[113.64640558313114, 24.750382708061057], [113.64622592007431, 24.750382708061057], [113.64622592007431, 24.750023381947408], [113.64640558313114, 24.750023381947408], [113.64640558313114, 24.74966405583376], [113.64676490924478, 24.74966405583376], [113.64676490924478, 24.749843718890585], [113.6469445723016, 24.749843718890585], [113.6469445723016, 24.750023381947408], [113.64658524618795, 24.750023381947408], [113.64658524618795, 24.75020304500423], [113.64640558313114, 24.75020304500423], [113.64640558313114, 24.750382708061057]], [[113.64748356147207, 24.750382708061057], [113.64730389841526, 24.750382708061057], [113.64730389841526, 24.75020304500423], [113.64748356147207, 24.75020304500423], [113.64748356147207, 24.750382708061057]]]}, "properties": {"name": "cand06", "ptype": "hall", "confidence": "low", "rank": 6, "area_ha": 3.6, "rise_db": 7.4, "digitised_from": "Sentinel-1 VV rise 2021->2026, orbit 113"}}, {"type": "Feature", "geometry": {"geodesic": false, "type": "Polygon", "coordinates": [[[113.60005251447056, 24.830871757518164], [113.60005251447056, 24.83069209446134], [113.59915419918644, 24.83069209446134], [113.59915419918644, 24.830512431404518], [113.59897453612962, 24.830512431404518], [113.59897453612962, 24.83015310529087], [113.5987948730728, 24.83015310529087], [113.5987948730728, 24.829973442234046], [113.59843554695915, 24.829973442234046], [113.59843554695915, 24.83015310529087], [113.59825588390233, 24.83015310529087], [113.59825588390233, 24.83033276834769], [113.5980762208455, 24.83033276834769], [113.5980762208455, 24.830512431404518], [113.59753723167503, 24.830512431404518], [113.59753723167503, 24.83033276834769], [113.59735756861821, 24.83033276834769], [113.59735756861821, 24.829973442234046], [113.59753723167503, 24.829973442234046], [113.59753723167503, 24.829793779177223], [113.5980762208455, 24.829793779177223], [113.5980762208455, 24.829614116120396], [113.59825588390233, 24.829614116120396], [113.59825588390233, 24.829434453063573], [113.59861521001598, 24.829434453063573], [113.59861521001598, 24.829614116120396], [113.59933386224327, 24.829614116120396], [113.59933386224327, 24.829793779177223], [113.5995135253001, 24.829793779177223], [113.5995135253001, 24.829973442234046], [113.59969318835692, 24.829973442234046], [113.59969318835692, 24.83015310529087], [113.60005251447056, 24.83015310529087], [113.60005251447056, 24.829973442234046], [113.60131015586833, 24.829973442234046], [113.60131015586833, 24.83015310529087], [113.60148981892516, 24.83015310529087], [113.60148981892516, 24.83033276834769], [113.60166948198199, 24.83033276834769], [113.60166948198199, 24.830512431404518], [113.60148981892516, 24.830512431404518], [113.60148981892516, 24.83033276834769], [113.60131015586833, 24.83033276834769], [113.60131015586833, 24.830512431404518], [113.60077116669787, 24.830512431404518], [113.60077116669787, 24.83069209446134], [113.60059150364104, 24.83069209446134], [113.60059150364104, 24.830871757518164], [113.60005251447056, 24.830871757518164]]]}, "properties": {"name": "cand07", "ptype": "hall", "confidence": "low", "rank": 7, "area_ha": 3.4, "rise_db": 6.8, "digitised_from": "Sentinel-1 VV rise 2021->2026, orbit 113"}}, {"type": "Feature", "geometry": {"geodesic": false, "type": "Polygon", "coordinates": [[[113.65610738819963, 24.752538664742943], [113.65610738819963, 24.752179338629293], [113.6559277251428, 24.752179338629293], [113.6559277251428, 24.75199967557247], [113.65574806208598, 24.75199967557247], [113.65574806208598, 24.751820012515648], [113.65556839902915, 24.751820012515648], [113.65556839902915, 24.751281023345175], [113.65574806208598, 24.751281023345175], [113.65574806208598, 24.750382708061057], [113.6559277251428, 24.750382708061057], [113.6559277251428, 24.750023381947408], [113.65646671431327, 24.750023381947408], [113.65646671431327, 24.75020304500423], [113.65682604042692, 24.75020304500423], [113.65682604042692, 24.750382708061057], [113.65736502959739, 24.750382708061057], [113.65736502959739, 24.751281023345175], [113.65682604042692, 24.751281023345175], [113.65682604042692, 24.751460686401998], [113.6566463773701, 24.751460686401998], [113.6566463773701, 24.752179338629293], [113.65646671431327, 24.752179338629293], [113.65646671431327, 24.752538664742943], [113.65610738819963, 24.752538664742943]]]}, "properties": {"name": "cand08", "ptype": "hall", "confidence": "low", "rank": 8, "area_ha": 3.4, "rise_db": 8.3, "digitised_from": "Sentinel-1 VV rise 2021->2026, orbit 113"}}, {"type": "Feature", "geometry": {"geodesic": false, "type": "Polygon", "coordinates": [[[113.58460149158371, 24.799610385630807], [113.58460149158371, 24.79943072257398], [113.58442182852689, 24.79943072257398], [113.58442182852689, 24.799251059517157], [113.58514048075418, 24.799251059517157], [113.58514048075418, 24.799071396460334], [113.585320143811, 24.799071396460334], [113.585320143811, 24.79889173340351], [113.58514048075418, 24.79889173340351], [113.58514048075418, 24.798712070346685], [113.58496081769736, 24.798712070346685], [113.58496081769736, 24.798532407289862], [113.58406250241325, 24.798532407289862], [113.58406250241325, 24.79835274423304], [113.58388283935642, 24.79835274423304], [113.58388283935642, 24.798173081176216], [113.58406250241325, 24.798173081176216], [113.58406250241325, 24.79799341811939], [113.58442182852689, 24.79799341811939], [113.58442182852689, 24.798173081176216], [113.58496081769736, 24.798173081176216], [113.58496081769736, 24.79799341811939], [113.585320143811, 24.79799341811939], [113.585320143811, 24.797813755062567], [113.58567946992466, 24.797813755062567], [113.58567946992466, 24.79799341811939], [113.58585913298148, 24.79799341811939], [113.58585913298148, 24.798173081176216], [113.58567946992466, 24.798173081176216], [113.58567946992466, 24.79835274423304], [113.58603879603831, 24.79835274423304], [113.58603879603831, 24.79799341811939], [113.58657778520877, 24.79799341811939], [113.58657778520877, 24.798532407289862], [113.5867574482656, 24.798532407289862], [113.5867574482656, 24.79889173340351], [113.58657778520877, 24.79889173340351], [113.58657778520877, 24.799071396460334], [113.58603879603831, 24.799071396460334], [113.58603879603831, 24.79889173340351], [113.58585913298148, 24.79889173340351], [113.58585913298148, 24.799251059517157], [113.58603879603831, 24.799251059517157], [113.58603879603831, 24.79943072257398], [113.58585913298148, 24.79943072257398], [113.58585913298148, 24.799610385630807], [113.58460149158371, 24.799610385630807]]]}, "properties": {"name": "cand09", "ptype": "hall", "confidence": "low", "rank": 9, "area_ha": 3.4, "rise_db": 7.7, "digitised_from": "Sentinel-1 VV rise 2021->2026, orbit 113"}}, {"type": "Feature", "geometry": {"geodesic": false, "type": "Polygon", "coordinates": [[[113.63796141946041, 24.79332217864197], [113.63796141946041, 24.792962852528323], [113.63760209334676, 24.792962852528323], [113.63760209334676, 24.793142515585146], [113.63724276723312, 24.793142515585146], [113.63724276723312, 24.792962852528323], [113.63706310417629, 24.792962852528323], [113.63706310417629, 24.79242386335785], [113.63688344111947, 24.79242386335785], [113.63688344111947, 24.791884874187378], [113.63706310417629, 24.791884874187378], [113.63706310417629, 24.791705211130555], [113.63724276723312, 24.791705211130555], [113.63724276723312, 24.79152554807373], [113.63760209334676, 24.79152554807373], [113.63760209334676, 24.791345885016906], [113.63832074557406, 24.791345885016906], [113.63832074557406, 24.79152554807373], [113.63850040863089, 24.79152554807373], [113.63850040863089, 24.791705211130555], [113.63832074557406, 24.791705211130555], [113.63832074557406, 24.791884874187378], [113.63850040863089, 24.791884874187378], [113.63850040863089, 24.7920645372442], [113.63832074557406, 24.7920645372442], [113.63832074557406, 24.792244200301024], [113.63850040863089, 24.792244200301024], [113.63850040863089, 24.79242386335785], [113.6386800716877, 24.79242386335785], [113.6386800716877, 24.792962852528323], [113.63885973474453, 24.792962852528323], [113.63885973474453, 24.793142515585146], [113.6386800716877, 24.793142515585146], [113.6386800716877, 24.79332217864197], [113.63796141946041, 24.79332217864197]]]}, "properties": {"name": "cand10", "ptype": "hall", "confidence": "low", "rank": 10, "area_ha": 3.3, "rise_db": 9.4, "digitised_from": "Sentinel-1 VV rise 2021->2026, orbit 113"}}, {"type": "Feature", "geometry": {"geodesic": false, "type": "Polygon", "coordinates": [[[113.63221220164205, 24.836800638393353], [113.63221220164205, 24.83662097533653], [113.63203253858522, 24.83662097533653], [113.63203253858522, 24.836441312279707], [113.63167321247157, 24.836441312279707], [113.63167321247157, 24.836261649222884], [113.63131388635793, 24.836261649222884], [113.63131388635793, 24.836441312279707], [113.63041557107381, 24.836441312279707], [113.63041557107381, 24.836261649222884], [113.63023590801699, 24.836261649222884], [113.63023590801699, 24.836081986166057], [113.6295172557897, 24.836081986166057], [113.6295172557897, 24.835902323109234], [113.62933759273287, 24.835902323109234], [113.62933759273287, 24.835363333938762], [113.63041557107381, 24.835363333938762], [113.63041557107381, 24.83518367088194], [113.63077489718745, 24.83518367088194], [113.63077489718745, 24.835363333938762], [113.6311342233011, 24.835363333938762], [113.6311342233011, 24.835542996995585], [113.63149354941476, 24.835542996995585], [113.63149354941476, 24.835902323109234], [113.6318528755284, 24.835902323109234], [113.6318528755284, 24.836081986166057], [113.63221220164205, 24.836081986166057], [113.63221220164205, 24.836261649222884], [113.6325715277557, 24.836261649222884], [113.6325715277557, 24.836441312279707], [113.63275119081251, 24.836441312279707], [113.63275119081251, 24.83662097533653], [113.6325715277557, 24.83662097533653], [113.6325715277557, 24.836800638393353], [113.63221220164205, 24.836800638393353]]]}, "properties": {"name": "cand11", "ptype": "hall", "confidence": "low", "rank": 11, "area_ha": 3.0, "rise_db": 6.5, "digitised_from": "Sentinel-1 VV rise 2021->2026, orbit 113"}}, {"type": "Feature", "geometry": {"geodesic": false, "type": "Polygon", "coordinates": [[[113.64874120286984, 24.751101360288352], [113.64874120286984, 24.75092169723153], [113.64856153981302, 24.75092169723153], [113.64856153981302, 24.750742034174703], [113.6483818767562, 24.750742034174703], [113.6483818767562, 24.750023381947408], [113.64820221369938, 24.750023381947408], [113.64820221369938, 24.749304729720112], [113.6483818767562, 24.749304729720112], [113.6483818767562, 24.749484392776935], [113.64856153981302, 24.749484392776935], [113.64856153981302, 24.74966405583376], [113.64874120286984, 24.74966405583376], [113.64874120286984, 24.749843718890585], [113.6491005289835, 24.749843718890585], [113.6491005289835, 24.74966405583376], [113.64928019204032, 24.74966405583376], [113.64928019204032, 24.749843718890585], [113.64999884426761, 24.749843718890585], [113.64999884426761, 24.750382708061057], [113.64981918121079, 24.750382708061057], [113.64981918121079, 24.750742034174703], [113.64945985509713, 24.750742034174703], [113.64945985509713, 24.75056237111788], [113.6491005289835, 24.75056237111788], [113.6491005289835, 24.75092169723153], [113.64892086592667, 24.75092169723153], [113.64892086592667, 24.751101360288352], [113.64874120286984, 24.751101360288352]]]}, "properties": {"name": "cand12", "ptype": "hall", "confidence": "low", "rank": 12, "area_ha": 2.1, "rise_db": 6.2, "digitised_from": "Sentinel-1 VV rise 2021->2026, orbit 113"}}, {"type": "Feature", "geometry": {"geodesic": false, "type": "Polygon", "coordinates": [[[113.61945612460755, 24.789549254448666], [113.61945612460755, 24.789369591391843], [113.61963578766438, 24.789369591391843], [113.61963578766438, 24.788471276107725], [113.61945612460755, 24.788471276107725], [113.61945612460755, 24.788111949994075], [113.61927646155073, 24.788111949994075], [113.61927646155073, 24.787572960823603], [113.61963578766438, 24.787572960823603], [113.61963578766438, 24.78739329776678], [113.61999511377802, 24.78739329776678], [113.61999511377802, 24.787572960823603], [113.62017477683484, 24.787572960823603], [113.62017477683484, 24.787932286937252], [113.62035443989167, 24.787932286937252], [113.62035443989167, 24.788111949994075], [113.6205341029485, 24.788111949994075], [113.6205341029485, 24.788650939164548], [113.62035443989167, 24.788650939164548], [113.62035443989167, 24.78883060222137], [113.62017477683484, 24.78883060222137], [113.62017477683484, 24.78918992833502], [113.61999511377802, 24.78918992833502], [113.61999511377802, 24.789549254448666], [113.61945612460755, 24.789549254448666]]]}, "properties": {"name": "cand13", "ptype": "hall", "confidence": "low", "rank": 13, "area_ha": 2.0, "rise_db": 7.0, "digitised_from": "Sentinel-1 VV rise 2021->2026, orbit 113"}}, {"type": "Feature", "geometry": {"geodesic": false, "type": "Polygon", "coordinates": [[[113.61783915709613, 24.789369591391843], [113.61783915709613, 24.78918992833502], [113.61730016792566, 24.78918992833502], [113.61730016792566, 24.788291613050898], [113.61747983098249, 24.788291613050898], [113.61747983098249, 24.787932286937252], [113.61765949403932, 24.787932286937252], [113.61765949403932, 24.78775262388043], [113.61801882015295, 24.78775262388043], [113.61801882015295, 24.787932286937252], [113.61819848320978, 24.787932286937252], [113.61819848320978, 24.788111949994075], [113.61837814626661, 24.788111949994075], [113.61837814626661, 24.788471276107725], [113.61855780932343, 24.788471276107725], [113.61855780932343, 24.78918992833502], [113.61837814626661, 24.78918992833502], [113.61837814626661, 24.789369591391843], [113.61783915709613, 24.789369591391843]]]}, "properties": {"name": "cand14", "ptype": "hall", "confidence": "low", "rank": 14, "area_ha": 1.9, "rise_db": 6.0, "digitised_from": "Sentinel-1 VV rise 2021->2026, orbit 113"}}, {"type": "Feature", "geometry": {"geodesic": false, "type": "Polygon", "coordinates": [[[113.6190967984939, 24.79332217864197], [113.6190967984939, 24.793142515585146], [113.61891713543707, 24.793142515585146], [113.61891713543707, 24.792603526414673], [113.61873747238025, 24.792603526414673], [113.61873747238025, 24.79242386335785], [113.61855780932343, 24.79242386335785], [113.61855780932343, 24.7920645372442], [113.61837814626661, 24.7920645372442], [113.61837814626661, 24.79152554807373], [113.61819848320978, 24.79152554807373], [113.61819848320978, 24.791166221960083], [113.61837814626661, 24.791166221960083], [113.61837814626661, 24.79098655890326], [113.61855780932343, 24.79098655890326], [113.61855780932343, 24.791166221960083], [113.61873747238025, 24.791166221960083], [113.61873747238025, 24.791884874187378], [113.61945612460755, 24.791884874187378], [113.61945612460755, 24.792244200301024], [113.61927646155073, 24.792244200301024], [113.61927646155073, 24.79242386335785], [113.61945612460755, 24.79242386335785], [113.61945612460755, 24.792603526414673], [113.61963578766438, 24.792603526414673], [113.61963578766438, 24.792962852528323], [113.61945612460755, 24.792962852528323], [113.61945612460755, 24.793142515585146], [113.61927646155073, 24.793142515585146], [113.61927646155073, 24.79332217864197], [113.6190967984939, 24.79332217864197]]]}, "properties": {"name": "cand15", "ptype": "hall", "confidence": "low", "rank": 15, "area_ha": 1.7, "rise_db": 5.0, "digitised_from": "Sentinel-1 VV rise 2021->2026, orbit 113"}}, {"type": "Feature", "geometry": {"geodesic": false, "type": "Polygon", "coordinates": [[[113.62107309211896, 24.79062723278961], [113.62107309211896, 24.790447569732788], [113.62089342906214, 24.790447569732788], [113.62089342906214, 24.79062723278961], [113.62017477683484, 24.79062723278961], [113.62017477683484, 24.790447569732788], [113.61999511377802, 24.790447569732788], [113.61999511377802, 24.790088243619138], [113.62035443989167, 24.790088243619138], [113.62035443989167, 24.789908580562315], [113.6205341029485, 24.789908580562315], [113.6205341029485, 24.789728917505492], [113.62071376600531, 24.789728917505492], [113.62071376600531, 24.789549254448666], [113.6205341029485, 24.789549254448666], [113.6205341029485, 24.789010265278197], [113.62107309211896, 24.789010265278197], [113.62107309211896, 24.78918992833502], [113.62071376600531, 24.78918992833502], [113.62071376600531, 24.789369591391843], [113.62089342906214, 24.789369591391843], [113.62089342906214, 24.789549254448666], [113.62125275517579, 24.789549254448666], [113.62125275517579, 24.79062723278961], [113.62107309211896, 24.79062723278961]]]}, "properties": {"name": "cand16", "ptype": "hall", "confidence": "low", "rank": 16, "area_ha": 1.5, "rise_db": 5.3, "digitised_from": "Sentinel-1 VV rise 2021->2026, orbit 113"}}, {"type": "Feature", "geometry": {"geodesic": false, "type": "Polygon", "coordinates": [[[113.64802255064255, 24.7552336105953], [113.64802255064255, 24.754874284481655], [113.64820221369938, 24.754874284481655], [113.64820221369938, 24.75469462142483], [113.6483818767562, 24.75469462142483], [113.6483818767562, 24.754155632254356], [113.64856153981302, 24.754155632254356], [113.64856153981302, 24.75379630614071], [113.64874120286984, 24.75379630614071], [113.64874120286984, 24.75343698002706], [113.64928019204032, 24.75343698002706], [113.64928019204032, 24.753975969197533], [113.6491005289835, 24.753975969197533], [113.6491005289835, 24.75469462142483], [113.64892086592667, 24.75469462142483], [113.64892086592667, 24.754874284481655], [113.64874120286984, 24.754874284481655], [113.64874120286984, 24.755053947538478], [113.64856153981302, 24.755053947538478], [113.64856153981302, 24.7552336105953], [113.64802255064255, 24.7552336105953]]]}, "properties": {"name": "cand17", "ptype": "hall", "confidence": "low", "rank": 17, "area_ha": 1.4, "rise_db": 9.4, "digitised_from": "Sentinel-1 VV rise 2021->2026, orbit 113"}}, {"type": "Feature", "geometry": {"geodesic": false, "type": "Polygon", "coordinates": [[[113.57579800179934, 24.840573562586655], [113.57579800179934, 24.840393899529833], [113.57597766485617, 24.840393899529833], [113.57597766485617, 24.84021423647301], [113.57579800179934, 24.84021423647301], [113.57579800179934, 24.840034573416183], [113.57561833874252, 24.840034573416183], [113.57561833874252, 24.838956595075242], [113.576157327913, 24.838956595075242], [113.576157327913, 24.839136258132065], [113.57669631708346, 24.839136258132065], [113.57669631708346, 24.839675247302537], [113.576157327913, 24.839675247302537], [113.576157327913, 24.83985491035936], [113.5763369909698, 24.83985491035936], [113.5763369909698, 24.84021423647301], [113.57651665402663, 24.84021423647301], [113.57651665402663, 24.840393899529833], [113.57597766485617, 24.840393899529833], [113.57597766485617, 24.840573562586655], [113.57579800179934, 24.840573562586655]]]}, "properties": {"name": "cand18", "ptype": "hall", "confidence": "low", "rank": 18, "area_ha": 1.4, "rise_db": 7.5, "digitised_from": "Sentinel-1 VV rise 2021->2026, orbit 113"}}, {"type": "Feature", "geometry": {"geodesic": false, "type": "Polygon", "coordinates": [[[113.62520534242591, 24.799969711744453], [113.62520534242591, 24.79979004868763], [113.62448669019862, 24.79979004868763], [113.62448669019862, 24.799610385630807], [113.6243070271418, 24.799610385630807], [113.6243070271418, 24.799251059517157], [113.62394770102814, 24.799251059517157], [113.62394770102814, 24.799071396460334], [113.62376803797132, 24.799071396460334], [113.62376803797132, 24.798712070346685], [113.6243070271418, 24.798712070346685], [113.6243070271418, 24.79889173340351], [113.62448669019862, 24.79889173340351], [113.62448669019862, 24.798712070346685], [113.62502567936909, 24.798712070346685], [113.62502567936909, 24.79943072257398], [113.62520534242591, 24.79943072257398], [113.62520534242591, 24.79979004868763], [113.62538500548274, 24.79979004868763], [113.62538500548274, 24.799969711744453], [113.62520534242591, 24.799969711744453]]]}, "properties": {"name": "cand19", "ptype": "hall", "confidence": "low", "rank": 19, "area_ha": 1.3, "rise_db": 6.9, "digitised_from": "Sentinel-1 VV rise 2021->2026, orbit 113"}}, {"type": "Feature", "geometry": {"geodesic": false, "type": "Polygon", "coordinates": [[[113.59987285141375, 24.750023381947408], [113.59987285141375, 24.749843718890585], [113.59969318835692, 24.749843718890585], [113.59969318835692, 24.749304729720112], [113.5995135253001, 24.749304729720112], [113.5995135253001, 24.748945403606463], [113.59933386224327, 24.748945403606463], [113.59933386224327, 24.74876574054964], [113.60041184058421, 24.74876574054964], [113.60041184058421, 24.748586077492817], [113.60077116669787, 24.748586077492817], [113.60077116669787, 24.748945403606463], [113.60059150364104, 24.748945403606463], [113.60059150364104, 24.74912506666329], [113.60041184058421, 24.74912506666329], [113.60041184058421, 24.749304729720112], [113.60023217752739, 24.749304729720112], [113.60023217752739, 24.749843718890585], [113.60005251447056, 24.749843718890585], [113.60005251447056, 24.750023381947408], [113.59987285141375, 24.750023381947408]]]}, "properties": {"name": "cand20", "ptype": "hall", "confidence": "low", "rank": 20, "area_ha": 1.2, "rise_db": 5.9, "digitised_from": "Sentinel-1 VV rise 2021->2026, orbit 113"}}, {"type": "Feature", "geometry": {"geodesic": false, "type": "Polygon", "coordinates": [[[113.6266426468805, 24.815959723801782], [113.6266426468805, 24.815600397688133], [113.62682230993732, 24.815600397688133], [113.62682230993732, 24.81542073463131], [113.62700197299415, 24.81542073463131], [113.62700197299415, 24.81452241934719], [113.62718163605098, 24.81452241934719], [113.62718163605098, 24.814163093233542], [113.62754096216463, 24.814163093233542], [113.62754096216463, 24.814342756290365], [113.62772062522144, 24.814342756290365], [113.62772062522144, 24.81506140851766], [113.62754096216463, 24.81506140851766], [113.62754096216463, 24.815241071574487], [113.6273612991078, 24.815241071574487], [113.6273612991078, 24.815780060744956], [113.62700197299415, 24.815780060744956], [113.62700197299415, 24.815959723801782], [113.6266426468805, 24.815959723801782]]]}, "properties": {"name": "cand21", "ptype": "hall", "confidence": "low", "rank": 21, "area_ha": 1.2, "rise_db": 8.7, "digitised_from": "Sentinel-1 VV rise 2021->2026, orbit 113"}}, {"type": "Feature", "geometry": {"geodesic": false, "type": "Polygon", "coordinates": [[[113.58478115464054, 24.814702082404015], [113.58478115464054, 24.81452241934719], [113.58460149158371, 24.81452241934719], [113.58460149158371, 24.814342756290365], [113.58442182852689, 24.814342756290365], [113.58442182852689, 24.81398343017672], [113.58460149158371, 24.81398343017672], [113.58460149158371, 24.813803767119893], [113.58478115464054, 24.813803767119893], [113.58478115464054, 24.81362410406307], [113.58496081769736, 24.81362410406307], [113.58496081769736, 24.813444441006247], [113.58514048075418, 24.813444441006247], [113.58514048075418, 24.81326477794942], [113.58549980686783, 24.81326477794942], [113.58549980686783, 24.813803767119893], [113.585320143811, 24.813803767119893], [113.585320143811, 24.81398343017672], [113.58549980686783, 24.81398343017672], [113.58549980686783, 24.814163093233542], [113.585320143811, 24.814163093233542], [113.585320143811, 24.81452241934719], [113.58496081769736, 24.81452241934719], [113.58496081769736, 24.814702082404015], [113.58478115464054, 24.814702082404015]]]}, "properties": {"name": "cand22", "ptype": "hall", "confidence": "low", "rank": 22, "area_ha": 1.2, "rise_db": 6.9, "digitised_from": "Sentinel-1 VV rise 2021->2026, orbit 113"}}, {"type": "Feature", "geometry": {"geodesic": false, "type": "Polygon", "coordinates": [[[113.60023217752739, 24.760623502300017], [113.60023217752739, 24.760443839243194], [113.60005251447056, 24.760443839243194], [113.60005251447056, 24.759904850072722], [113.60023217752739, 24.759904850072722], [113.60023217752739, 24.759545523959076], [113.60041184058421, 24.759545523959076], [113.60041184058421, 24.759186197845427], [113.60059150364104, 24.759186197845427], [113.60059150364104, 24.759006534788604], [113.60077116669787, 24.759006534788604], [113.60077116669787, 24.759186197845427], [113.60095082975468, 24.759186197845427], [113.60095082975468, 24.7597251870159], [113.60077116669787, 24.7597251870159], [113.60077116669787, 24.76026417618637], [113.60059150364104, 24.76026417618637], [113.60059150364104, 24.760623502300017], [113.60023217752739, 24.760623502300017]]]}, "properties": {"name": "cand23", "ptype": "hall", "confidence": "low", "rank": 23, "area_ha": 1.1, "rise_db": 5.2, "digitised_from": "Sentinel-1 VV rise 2021->2026, orbit 113"}}, {"type": "Feature", "geometry": {"geodesic": false, "type": "Polygon", "coordinates": [[[113.57723530625393, 24.821169952449676], [113.57723530625393, 24.82099028939285], [113.5763369909698, 24.82099028939285], [113.5763369909698, 24.820630963279203], [113.57687598014029, 24.820630963279203], [113.57687598014029, 24.820451300222377], [113.57741496931075, 24.820451300222377], [113.57741496931075, 24.820271637165554], [113.5777742954244, 24.820271637165554], [113.5777742954244, 24.820451300222377], [113.57795395848123, 24.820451300222377], [113.57795395848123, 24.820810626336026], [113.5777742954244, 24.820810626336026], [113.5777742954244, 24.82099028939285], [113.57759463236758, 24.82099028939285], [113.57759463236758, 24.821169952449676], [113.57723530625393, 24.821169952449676]]]}, "properties": {"name": "cand24", "ptype": "hall", "confidence": "low", "rank": 24, "area_ha": 1.1, "rise_db": 6.4, "digitised_from": "Sentinel-1 VV rise 2021->2026, orbit 113"}}]}