{"type": "FeatureCollection", "features": [{"type": "Feature", "geometry": {"geodesic": false, "type": "Polygon", "coordinates": [[[113.10094854261376, 41.06360860461474], [113.10094854261376, 41.063428941557916], [113.10076887955694, 41.063428941557916], [113.10076887955694, 41.062889952387444], [113.10112820567059, 41.062889952387444], [113.10112820567059, 41.06306961544427], [113.1013078687274, 41.06306961544427], [113.1013078687274, 41.0632492785011], [113.10148753178423, 41.0632492785011], [113.10148753178423, 41.06306961544427], [113.10166719484106, 41.06306961544427], [113.10166719484106, 41.062889952387444], [113.1013078687274, 41.062889952387444], [113.1013078687274, 41.062710289330624], [113.10094854261376, 41.062710289330624], [113.10094854261376, 41.0625306262738], [113.10112820567059, 41.0625306262738], [113.10112820567059, 41.06217130016015], [113.10040955344328, 41.06217130016015], [113.10040955344328, 41.06235096321697], [113.10076887955694, 41.06235096321697], [113.10076887955694, 41.0625306262738], [113.10040955344328, 41.0625306262738], [113.10040955344328, 41.06235096321697], [113.10022989038646, 41.06235096321697], [113.10022989038646, 41.0625306262738], [113.10005022732965, 41.0625306262738], [113.10005022732965, 41.06217130016015], [113.099690901216, 41.06217130016015], [113.099690901216, 41.061991637103326], [113.10058921650011, 41.061991637103326], [113.10058921650011, 41.061811974046506], [113.10094854261376, 41.061811974046506], [113.10094854261376, 41.06163231098968], [113.10076887955694, 41.06163231098968], [113.10076887955694, 41.06145264793285], [113.1013078687274, 41.06145264793285], [113.1013078687274, 41.061811974046506], [113.10112820567059, 41.061811974046506], [113.10112820567059, 41.06217130016015], [113.1013078687274, 41.06217130016015], [113.1013078687274, 41.061991637103326], [113.10148753178423, 41.061991637103326], [113.10148753178423, 41.06163231098968], [113.10184685789788, 41.06163231098968], [113.10184685789788, 41.06145264793285], [113.10166719484106, 41.06145264793285], [113.10166719484106, 41.061272984876034], [113.10184685789788, 41.061272984876034], [113.10184685789788, 41.06091365876238], [113.10166719484106, 41.06091365876238], [113.10166719484106, 41.06109332181921], [113.10148753178423, 41.06109332181921], [113.10148753178423, 41.06091365876238], [113.1013078687274, 41.06091365876238], [113.1013078687274, 41.061272984876034], [113.10094854261376, 41.061272984876034], [113.10094854261376, 41.06091365876238], [113.10076887955694, 41.06091365876238], [113.10076887955694, 41.06109332181921], [113.10058921650011, 41.06109332181921], [113.10058921650011, 41.06145264793285], [113.10040955344328, 41.06145264793285], [113.10040955344328, 41.061811974046506], [113.10022989038646, 41.061811974046506], [113.10022989038646, 41.06163231098968], [113.10005022732965, 41.06163231098968], [113.10005022732965, 41.06109332181921], [113.10040955344328, 41.06109332181921], [113.10040955344328, 41.06091365876238], [113.10022989038646, 41.06091365876238], [113.10022989038646, 41.06073399570556], [113.10058921650011, 41.06073399570556], [113.10058921650011, 41.060554332648735], [113.10076887955694, 41.060554332648735], [113.10076887955694, 41.06037466959191], [113.10094854261376, 41.06037466959191], [113.10094854261376, 41.06019500653509], [113.10040955344328, 41.06019500653509], [113.10040955344328, 41.05983568042144], [113.10094854261376, 41.05983568042144], [113.10094854261376, 41.06001534347826], [113.1013078687274, 41.06001534347826], [113.1013078687274, 41.05965601736462], [113.10148753178423, 41.05965601736462], [113.10148753178423, 41.05983568042144], [113.10166719484106, 41.05983568042144], [113.10166719484106, 41.06001534347826], [113.10184685789788, 41.06001534347826], [113.10184685789788, 41.05983568042144], [113.10202652095471, 41.05983568042144], [113.10202652095471, 41.06019500653509], [113.10166719484106, 41.06019500653509], [113.10166719484106, 41.060554332648735], [113.10220618401152, 41.060554332648735], [113.10220618401152, 41.06037466959191], [113.10238584706835, 41.06037466959191], [113.10238584706835, 41.06019500653509], [113.10256551012517, 41.06019500653509], [113.10256551012517, 41.06001534347826], [113.10310449929565, 41.06001534347826], [113.10310449929565, 41.06037466959191], [113.10292483623883, 41.06037466959191], [113.10292483623883, 41.06073399570556], [113.10328416235247, 41.06073399570556], [113.10328416235247, 41.06091365876238], [113.10346382540929, 41.06091365876238], [113.10346382540929, 41.061272984876034], [113.10328416235247, 41.061272984876034], [113.10328416235247, 41.06145264793285], [113.10310449929565, 41.06145264793285], [113.10310449929565, 41.06163231098968], [113.10292483623883, 41.06163231098968], [113.10292483623883, 41.06145264793285], [113.102745173182, 41.06145264793285], [113.102745173182, 41.061272984876034], [113.10238584706835, 41.061272984876034], [113.10238584706835, 41.06145264793285], [113.10220618401152, 41.06145264793285], [113.10220618401152, 41.061811974046506], [113.102745173182, 41.061811974046506], [113.102745173182, 41.061991637103326], [113.10256551012517, 41.061991637103326], [113.10256551012517, 41.06217130016015], [113.10220618401152, 41.06217130016015], [113.10220618401152, 41.06235096321697], [113.10184685789788, 41.06235096321697], [113.10184685789788, 41.06217130016015], [113.10166719484106, 41.06217130016015], [113.10166719484106, 41.062889952387444], [113.10184685789788, 41.062889952387444], [113.10184685789788, 41.06306961544427], [113.10202652095471, 41.06306961544427], [113.10202652095471, 41.0632492785011], [113.10220618401152, 41.0632492785011], [113.10220618401152, 41.06360860461474], [113.10094854261376, 41.06360860461474]], [[113.10148753178423, 41.06019500653509], [113.1013078687274, 41.06019500653509], [113.1013078687274, 41.06001534347826], [113.10148753178423, 41.06001534347826], [113.10148753178423, 41.06019500653509]], [[113.10256551012517, 41.060554332648735], [113.10238584706835, 41.060554332648735], [113.10238584706835, 41.06037466959191], [113.10256551012517, 41.06037466959191], [113.10256551012517, 41.060554332648735]], [[113.10094854261376, 41.06073399570556], [113.10076887955694, 41.06073399570556], [113.10076887955694, 41.060554332648735], [113.10094854261376, 41.060554332648735], [113.10094854261376, 41.06073399570556]], [[113.10148753178423, 41.06073399570556], [113.10112820567059, 41.06073399570556], [113.10112820567059, 41.06037466959191], [113.10148753178423, 41.06037466959191], [113.10148753178423, 41.06073399570556]], [[113.10202652095471, 41.06091365876238], [113.10184685789788, 41.06091365876238], [113.10184685789788, 41.06073399570556], [113.10202652095471, 41.06073399570556], [113.10202652095471, 41.06091365876238]], [[113.10184685789788, 41.061991637103326], [113.10166719484106, 41.061991637103326], [113.10166719484106, 41.061811974046506], [113.10184685789788, 41.061811974046506], [113.10184685789788, 41.061991637103326]], [[113.10148753178423, 41.062710289330624], [113.1013078687274, 41.062710289330624], [113.1013078687274, 41.0625306262738], [113.10148753178423, 41.0625306262738], [113.10148753178423, 41.062710289330624]], [[113.10184685789788, 41.063428941557916], [113.10148753178423, 41.063428941557916], [113.10148753178423, 41.0632492785011], [113.10166719484106, 41.0632492785011], [113.10166719484106, 41.06306961544427], [113.10184685789788, 41.06306961544427], [113.10184685789788, 41.063428941557916]]]}, "properties": {"name": "cn_ulanqab_r05", "ptype": "hall"}}, {"type": "Feature", "geometry": {"geodesic": false, "type": "Polygon", "coordinates": [[[113.14586430681973, 41.07402906191053], [113.14586430681973, 41.0738493988537], [113.14532531764927, 41.0738493988537], [113.14532531764927, 41.073669735796884], [113.14496599153561, 41.073669735796884], [113.14496599153561, 41.07349007274006], [113.14424733930832, 41.07349007274006], [113.14424733930832, 41.07313074662641], [113.1440676762515, 41.07313074662641], [113.1440676762515, 41.07331040968323], [113.14370835013786, 41.07331040968323], [113.14370835013786, 41.072951083569585], [113.1433490240242, 41.072951083569585], [113.1433490240242, 41.07223243134229], [113.14316936096738, 41.07223243134229], [113.14316936096738, 41.07205276828547], [113.14298969791055, 41.07205276828547], [113.14298969791055, 41.07223243134229], [113.14281003485372, 41.07223243134229], [113.14281003485372, 41.07241209439911], [113.14263037179691, 41.07241209439911], [113.14263037179691, 41.07223243134229], [113.14209138262643, 41.07223243134229], [113.14209138262643, 41.07205276828547], [113.1417320565128, 41.07205276828547], [113.1417320565128, 41.07187310522864], [113.14155239345597, 41.07187310522864], [113.14155239345597, 41.071513779114994], [113.1417320565128, 41.071513779114994], [113.1417320565128, 41.07133411605817], [113.14209138262643, 41.07133411605817], [113.14209138262643, 41.071513779114994], [113.14227104568326, 41.071513779114994], [113.14227104568326, 41.07169344217182], [113.14245070874009, 41.07169344217182], [113.14245070874009, 41.07187310522864], [113.14298969791055, 41.07187310522864], [113.14298969791055, 41.07169344217182], [113.14316936096738, 41.07169344217182], [113.14316936096738, 41.07133411605817], [113.1433490240242, 41.07133411605817], [113.1433490240242, 41.07115445300135], [113.14352868708103, 41.07115445300135], [113.14352868708103, 41.07097478994452], [113.1440676762515, 41.07097478994452], [113.1440676762515, 41.071513779114994], [113.14424733930832, 41.071513779114994], [113.14424733930832, 41.07169344217182], [113.14442700236515, 41.07169344217182], [113.14442700236515, 41.07187310522864], [113.14460666542197, 41.07187310522864], [113.14460666542197, 41.07205276828547], [113.14478632847879, 41.07205276828547], [113.14478632847879, 41.07187310522864], [113.14514565459244, 41.07187310522864], [113.14514565459244, 41.07241209439911], [113.14460666542197, 41.07241209439911], [113.14460666542197, 41.07259175745594], [113.14442700236515, 41.07259175745594], [113.14442700236515, 41.072951083569585], [113.14460666542197, 41.072951083569585], [113.14460666542197, 41.07313074662641], [113.14478632847879, 41.07313074662641], [113.14478632847879, 41.07331040968323], [113.14532531764927, 41.07331040968323], [113.14532531764927, 41.07349007274006], [113.1455049807061, 41.07349007274006], [113.1455049807061, 41.073669735796884], [113.14586430681973, 41.073669735796884], [113.14586430681973, 41.07349007274006], [113.14604396987656, 41.07349007274006], [113.14604396987656, 41.07331040968323], [113.14586430681973, 41.07331040968323], [113.14586430681973, 41.07313074662641], [113.14568464376292, 41.07313074662641], [113.14568464376292, 41.07277142051276], [113.1455049807061, 41.07277142051276], [113.1455049807061, 41.07259175745594], [113.14604396987656, 41.07259175745594], [113.14604396987656, 41.07277142051276], [113.14640329599021, 41.07277142051276], [113.14640329599021, 41.07187310522864], [113.14694228516068, 41.07187310522864], [113.14694228516068, 41.07205276828547], [113.1471219482175, 41.07205276828547], [113.1471219482175, 41.07223243134229], [113.14730161127433, 41.07223243134229], [113.14730161127433, 41.07241209439911], [113.1471219482175, 41.07241209439911], [113.1471219482175, 41.07259175745594], [113.14730161127433, 41.07259175745594], [113.14730161127433, 41.07277142051276], [113.14748127433116, 41.07277142051276], [113.14748127433116, 41.072951083569585], [113.14730161127433, 41.072951083569585], [113.14730161127433, 41.07331040968323], [113.1471219482175, 41.07331040968323], [113.1471219482175, 41.07349007274006], [113.14694228516068, 41.07349007274006], [113.14694228516068, 41.073669735796884], [113.14676262210385, 41.073669735796884], [113.14676262210385, 41.0738493988537], [113.14658295904704, 41.0738493988537], [113.14658295904704, 41.073669735796884], [113.14640329599021, 41.073669735796884], [113.14640329599021, 41.0738493988537], [113.14622363293338, 41.0738493988537], [113.14622363293338, 41.07402906191053], [113.14586430681973, 41.07402906191053]], [[113.14694228516068, 41.07277142051276], [113.14676262210385, 41.07277142051276], [113.14676262210385, 41.07259175745594], [113.14694228516068, 41.07259175745594], [113.14694228516068, 41.07277142051276]]]}, "properties": {"name": "cn_ulanqab_r04", "ptype": "hall"}}, {"type": "Feature", "geometry": {"geodesic": false, "type": "Polygon", "coordinates": [[[113.19113939713937, 41.02246576460207], [113.19113939713937, 41.02210643848842], [113.19095973408254, 41.02210643848842], [113.19095973408254, 41.021926775431595], [113.19131906019618, 41.021926775431595], [113.19131906019618, 41.02156744931795], [113.19095973408254, 41.02156744931795], [113.19095973408254, 41.02138778626112], [113.19024108185525, 41.02138778626112], [113.19024108185525, 41.0212081232043], [113.18970209268477, 41.0212081232043], [113.18970209268477, 41.02102846014748], [113.1898817557416, 41.02102846014748], [113.1898817557416, 41.020489470977004], [113.18952242962794, 41.020489470977004], [113.18952242962794, 41.02066913403383], [113.1891631035143, 41.02066913403383], [113.1891631035143, 41.020489470977004], [113.18898344045748, 41.020489470977004], [113.18898344045748, 41.02013014486336], [113.188444451287, 41.02013014486336], [113.188444451287, 41.01995048180653], [113.18826478823019, 41.01995048180653], [113.18826478823019, 41.019591155692886], [113.188444451287, 41.019591155692886], [113.188444451287, 41.01923182957924], [113.18862411434382, 41.01923182957924], [113.18862411434382, 41.01887250346559], [113.18880377740065, 41.01887250346559], [113.18880377740065, 41.01869284040877], [113.18898344045748, 41.01869284040877], [113.18898344045748, 41.01851317735194], [113.1891631035143, 41.01851317735194], [113.1891631035143, 41.01797418818147], [113.18934276657112, 41.01797418818147], [113.18934276657112, 41.018153851238296], [113.18970209268477, 41.018153851238296], [113.18970209268477, 41.018333514295115], [113.19042074491206, 41.018333514295115], [113.19042074491206, 41.018153851238296], [113.19060040796889, 41.018153851238296], [113.19060040796889, 41.01851317735194], [113.19078007102571, 41.01851317735194], [113.19078007102571, 41.01887250346559], [113.19060040796889, 41.01887250346559], [113.19060040796889, 41.01923182957924], [113.19042074491206, 41.01923182957924], [113.19042074491206, 41.019591155692886], [113.19095973408254, 41.019591155692886], [113.19095973408254, 41.01995048180653], [113.19078007102571, 41.01995048180653], [113.19078007102571, 41.02013014486336], [113.19095973408254, 41.02013014486336], [113.19095973408254, 41.02030980792018], [113.19167838630983, 41.02030980792018], [113.19167838630983, 41.020489470977004], [113.191498723253, 41.020489470977004], [113.191498723253, 41.02066913403383], [113.19113939713937, 41.02066913403383], [113.19113939713937, 41.020489470977004], [113.19095973408254, 41.020489470977004], [113.19095973408254, 41.02066913403383], [113.19078007102571, 41.02066913403383], [113.19078007102571, 41.02084879709065], [113.19042074491206, 41.02084879709065], [113.19042074491206, 41.02102846014748], [113.19095973408254, 41.02102846014748], [113.19095973408254, 41.0212081232043], [113.191498723253, 41.0212081232043], [113.191498723253, 41.02102846014748], [113.19167838630983, 41.02102846014748], [113.19167838630983, 41.02084879709065], [113.19203771242348, 41.02084879709065], [113.19203771242348, 41.02102846014748], [113.19185804936666, 41.02102846014748], [113.19185804936666, 41.02138778626112], [113.19167838630983, 41.02138778626112], [113.19167838630983, 41.021747112374776], [113.191498723253, 41.021747112374776], [113.191498723253, 41.021926775431595], [113.19203771242348, 41.021926775431595], [113.19203771242348, 41.02210643848842], [113.191498723253, 41.02210643848842], [113.191498723253, 41.02228610154524], [113.19131906019618, 41.02228610154524], [113.19131906019618, 41.02246576460207], [113.19113939713937, 41.02246576460207]]]}, "properties": {"name": "cn_ulanqab_r03", "ptype": "hall"}}, {"type": "Feature", "geometry": {"geodesic": false, "type": "Polygon", "coordinates": [[[113.17155612394555, 41.04851690784153], [113.17155612394555, 41.047977918671066], [113.17101713477508, 41.047977918671066], [113.17101713477508, 41.048157581727885], [113.17065780866143, 41.048157581727885], [113.17065780866143, 41.04779825561424], [113.17029848254779, 41.04779825561424], [113.17029848254779, 41.04761859255741], [113.17011881949097, 41.04761859255741], [113.17011881949097, 41.04707960338694], [113.17029848254779, 41.04707960338694], [113.17029848254779, 41.04654061421647], [113.1704781456046, 41.04654061421647], [113.1704781456046, 41.04636095115965], [113.17065780866143, 41.04636095115965], [113.17065780866143, 41.04618128810282], [113.17119679783191, 41.04618128810282], [113.17119679783191, 41.046001625046], [113.17137646088874, 41.046001625046], [113.17137646088874, 41.045821961989176], [113.1719154500592, 41.045821961989176], [113.1719154500592, 41.046001625046], [113.17245443922968, 41.046001625046], [113.17245443922968, 41.04564229893235], [113.17317309145697, 41.04564229893235], [113.17317309145697, 41.045821961989176], [113.1733527545138, 41.045821961989176], [113.1733527545138, 41.046001625046], [113.17317309145697, 41.046001625046], [113.17317309145697, 41.04636095115965], [113.17209511311603, 41.04636095115965], [113.17209511311603, 41.04654061421647], [113.1719154500592, 41.04654061421647], [113.1719154500592, 41.04725926644377], [113.17227477617286, 41.04725926644377], [113.17227477617286, 41.04743892950059], [113.17245443922968, 41.04743892950059], [113.17245443922968, 41.04761859255741], [113.17227477617286, 41.04761859255741], [113.17227477617286, 41.04779825561424], [113.17209511311603, 41.04779825561424], [113.17209511311603, 41.047977918671066], [113.17227477617286, 41.047977918671066], [113.17227477617286, 41.048157581727885], [113.17209511311603, 41.048157581727885], [113.17209511311603, 41.04833724478471], [113.1719154500592, 41.04833724478471], [113.1719154500592, 41.04851690784153], [113.17155612394555, 41.04851690784153]]]}, "properties": {"name": "cn_ulanqab_r07", "ptype": "hall"}}, {"type": "Feature", "geometry": {"geodesic": false, "type": "Polygon", "coordinates": [[[113.14963723101305, 41.06666287658075], [113.14963723101305, 41.066483213523924], [113.14909824184257, 41.066483213523924], [113.14909824184257, 41.0663035504671], [113.14873891572891, 41.0663035504671], [113.14873891572891, 41.06612388741028], [113.14819992655845, 41.06612388741028], [113.14819992655845, 41.065584898239806], [113.14802026350162, 41.065584898239806], [113.14802026350162, 41.06540523518298], [113.14766093738798, 41.06540523518298], [113.14766093738798, 41.065584898239806], [113.14730161127433, 41.065584898239806], [113.14730161127433, 41.06522557212616], [113.14694228516068, 41.06522557212616], [113.14694228516068, 41.06504590906933], [113.14676262210385, 41.06504590906933], [113.14676262210385, 41.06486624601251], [113.14640329599021, 41.06486624601251], [113.14640329599021, 41.06468658295569], [113.14622363293338, 41.06468658295569], [113.14622363293338, 41.064327256842034], [113.14658295904704, 41.064327256842034], [113.14658295904704, 41.06450691989886], [113.14694228516068, 41.06450691989886], [113.14694228516068, 41.064327256842034], [113.14676262210385, 41.064327256842034], [113.14676262210385, 41.064147593785215], [113.14658295904704, 41.064147593785215], [113.14658295904704, 41.06396793072839], [113.1471219482175, 41.06396793072839], [113.1471219482175, 41.06378826767157], [113.14694228516068, 41.06378826767157], [113.14694228516068, 41.063428941557916], [113.14730161127433, 41.063428941557916], [113.14730161127433, 41.06360860461474], [113.14766093738798, 41.06360860461474], [113.14766093738798, 41.06378826767157], [113.14802026350162, 41.06378826767157], [113.14802026350162, 41.06396793072839], [113.14837958961527, 41.06396793072839], [113.14837958961527, 41.064147593785215], [113.1485592526721, 41.064147593785215], [113.1485592526721, 41.064327256842034], [113.14891857878574, 41.064327256842034], [113.14891857878574, 41.06450691989886], [113.14873891572891, 41.06450691989886], [113.14873891572891, 41.06468658295569], [113.14837958961527, 41.06468658295569], [113.14837958961527, 41.06504590906933], [113.1485592526721, 41.06504590906933], [113.1485592526721, 41.06486624601251], [113.14891857878574, 41.06486624601251], [113.14891857878574, 41.06468658295569], [113.14945756795622, 41.06468658295569], [113.14945756795622, 41.06450691989886], [113.14963723101305, 41.06450691989886], [113.14963723101305, 41.06468658295569], [113.14981689406986, 41.06468658295569], [113.14981689406986, 41.06504590906933], [113.15035588324034, 41.06504590906933], [113.15035588324034, 41.06522557212616], [113.15053554629716, 41.06522557212616], [113.15053554629716, 41.06540523518298], [113.15071520935398, 41.06540523518298], [113.15071520935398, 41.06576456129663], [113.15035588324034, 41.06576456129663], [113.15035588324034, 41.06594422435345], [113.15053554629716, 41.06594422435345], [113.15053554629716, 41.06612388741028], [113.14981689406986, 41.06612388741028], [113.14981689406986, 41.0663035504671], [113.14999655712668, 41.0663035504671], [113.14999655712668, 41.06666287658075], [113.14963723101305, 41.06666287658075]], [[113.14748127433116, 41.064147593785215], [113.1471219482175, 41.064147593785215], [113.1471219482175, 41.06396793072839], [113.14748127433116, 41.06396793072839], [113.14748127433116, 41.064147593785215]], [[113.14802026350162, 41.06450691989886], [113.14766093738798, 41.06450691989886], [113.14766093738798, 41.064327256842034], [113.14748127433116, 41.064327256842034], [113.14748127433116, 41.064147593785215], [113.1478406004448, 41.064147593785215], [113.1478406004448, 41.064327256842034], [113.14802026350162, 41.064327256842034], [113.14802026350162, 41.06450691989886]], [[113.14730161127433, 41.06468658295569], [113.14694228516068, 41.06468658295569], [113.14694228516068, 41.06450691989886], [113.14730161127433, 41.06450691989886], [113.14730161127433, 41.06468658295569]], [[113.14837958961527, 41.06468658295569], [113.14802026350162, 41.06468658295569], [113.14802026350162, 41.06450691989886], [113.14837958961527, 41.06450691989886], [113.14837958961527, 41.06468658295569]], [[113.1478406004448, 41.06504590906933], [113.14748127433116, 41.06504590906933], [113.14748127433116, 41.06486624601251], [113.14730161127433, 41.06486624601251], [113.14730161127433, 41.06468658295569], [113.14766093738798, 41.06468658295569], [113.14766093738798, 41.06486624601251], [113.1478406004448, 41.06486624601251], [113.1478406004448, 41.06504590906933]], [[113.14819992655845, 41.06540523518298], [113.14802026350162, 41.06540523518298], [113.14802026350162, 41.06504590906933], [113.14837958961527, 41.06504590906933], [113.14837958961527, 41.06522557212616], [113.14819992655845, 41.06522557212616], [113.14819992655845, 41.06540523518298]], [[113.14963723101305, 41.06540523518298], [113.14945756795622, 41.06540523518298], [113.14945756795622, 41.06522557212616], [113.14963723101305, 41.06522557212616], [113.14963723101305, 41.06540523518298]], [[113.14999655712668, 41.065584898239806], [113.14963723101305, 41.065584898239806], [113.14963723101305, 41.06540523518298], [113.14999655712668, 41.06540523518298], [113.14999655712668, 41.065584898239806]], [[113.14909824184257, 41.06576456129663], [113.14873891572891, 41.06576456129663], [113.14873891572891, 41.065584898239806], [113.1485592526721, 41.065584898239806], [113.1485592526721, 41.06540523518298], [113.14891857878574, 41.06540523518298], [113.14891857878574, 41.065584898239806], [113.14909824184257, 41.065584898239806], [113.14909824184257, 41.06576456129663]], [[113.15035588324034, 41.06576456129663], [113.15017622018351, 41.06576456129663], [113.15017622018351, 41.065584898239806], [113.15035588324034, 41.065584898239806], [113.15035588324034, 41.06576456129663]], [[113.14981689406986, 41.06612388741028], [113.14945756795622, 41.06612388741028], [113.14945756795622, 41.06594422435345], [113.14927790489939, 41.06594422435345], [113.14927790489939, 41.06576456129663], [113.14963723101305, 41.06576456129663], [113.14963723101305, 41.06594422435345], [113.14981689406986, 41.06594422435345], [113.14981689406986, 41.06612388741028]]]}, "properties": {"name": "cn_ulanqab_r06", "ptype": "hall"}}]}