{"type": "FeatureCollection", "features": [{"type": "Feature", "geometry": {"geodesic": false, "type": "Polygon", "coordinates": [[[114.75187237176861, 41.181647232948045], [114.75187237176861, 41.181467569891225], [114.75151304565497, 41.181467569891225], [114.75151304565497, 41.1812879068344], [114.74935708897308, 41.1812879068344], [114.74935708897308, 41.18110824377757], [114.74845877368897, 41.18110824377757], [114.74845877368897, 41.1812879068344], [114.74827911063214, 41.1812879068344], [114.74827911063214, 41.18110824377757], [114.74791978451849, 41.18110824377757], [114.74791978451849, 41.1812879068344], [114.74756045840485, 41.1812879068344], [114.74756045840485, 41.18110824377757], [114.74666214312073, 41.18110824377757], [114.74666214312073, 41.1812879068344], [114.74684180617754, 41.1812879068344], [114.74684180617754, 41.181647232948045], [114.74666214312073, 41.181647232948045], [114.74666214312073, 41.181467569891225], [114.74630281700708, 41.181467569891225], [114.74630281700708, 41.1812879068344], [114.74612315395025, 41.1812879068344], [114.74612315395025, 41.18110824377757], [114.74558416477979, 41.18110824377757], [114.74558416477979, 41.18092858072075], [114.74522483866613, 41.18092858072075], [114.74522483866613, 41.1812879068344], [114.7450451756093, 41.1812879068344], [114.7450451756093, 41.18110824377757], [114.74468584949567, 41.18110824377757], [114.74468584949567, 41.1812879068344], [114.74288921892742, 41.1812879068344], [114.74288921892742, 41.18110824377757], [114.7427095558706, 41.18110824377757], [114.7427095558706, 41.180209928493454], [114.74306888198424, 41.180209928493454], [114.74306888198424, 41.18056925460711], [114.74324854504107, 41.18056925460711], [114.74324854504107, 41.18092858072075], [114.74396719726836, 41.18092858072075], [114.74396719726836, 41.18110824377757], [114.74414686032519, 41.18110824377757], [114.74414686032519, 41.180209928493454], [114.74432652338201, 41.180209928493454], [114.74432652338201, 41.180030265436635], [114.74576382783661, 41.180030265436635], [114.74576382783661, 41.180209928493454], [114.74774012146167, 41.180209928493454], [114.74774012146167, 41.18038959155028], [114.7488180998026, 41.18038959155028], [114.7488180998026, 41.18056925460711], [114.74953675202991, 41.18056925460711], [114.74953675202991, 41.18038959155028], [114.74989607814355, 41.18038959155028], [114.74989607814355, 41.18056925460711], [114.75007574120038, 41.18056925460711], [114.75007574120038, 41.180209928493454], [114.7502554042572, 41.180209928493454], [114.7502554042572, 41.18038959155028], [114.75043506731403, 41.18038959155028], [114.75043506731403, 41.18056925460711], [114.75241136093909, 41.18056925460711], [114.75241136093909, 41.18074891766393], [114.75277068705273, 41.18074891766393], [114.75277068705273, 41.18092858072075], [114.75295035010956, 41.18092858072075], [114.75295035010956, 41.18110824377757], [114.75277068705273, 41.18110824377757], [114.75277068705273, 41.1812879068344], [114.75259102399592, 41.1812879068344], [114.75259102399592, 41.181467569891225], [114.75205203482544, 41.181467569891225], [114.75205203482544, 41.181647232948045], [114.75187237176861, 41.181647232948045]]]}, "properties": {"name": "cn_zhangbei_r03", "ptype": "hall"}}, {"type": "Feature", "geometry": {"geodesic": false, "type": "Polygon", "coordinates": [[[114.73354673997258, 41.2211731054493], [114.73354673997258, 41.22099344239248], [114.73318741385893, 41.22099344239248], [114.73318741385893, 41.22081377933566], [114.73264842468846, 41.22081377933566], [114.73264842468846, 41.22063411627884], [114.73210943551798, 41.22063411627884], [114.73210943551798, 41.22045445322201], [114.73175010940435, 41.22045445322201], [114.73175010940435, 41.220274790165185], [114.7306721310634, 41.220274790165185], [114.7306721310634, 41.220095127108365], [114.73031280494975, 41.220095127108365], [114.73031280494975, 41.21991546405154], [114.73013314189292, 41.21991546405154], [114.73013314189292, 41.220274790165185], [114.7299534788361, 41.220274790165185], [114.7299534788361, 41.21991546405154], [114.73013314189292, 41.21991546405154], [114.73013314189292, 41.21955613793789], [114.73031280494975, 41.21955613793789], [114.73031280494975, 41.21937647488107], [114.73049246800657, 41.21937647488107], [114.73049246800657, 41.21919681182424], [114.7306721310634, 41.21919681182424], [114.7306721310634, 41.218837485710594], [114.73085179412023, 41.218837485710594], [114.73085179412023, 41.218657822653775], [114.73103145717704, 41.218657822653775], [114.73103145717704, 41.21847815959695], [114.73192977246116, 41.21847815959695], [114.73192977246116, 41.218657822653775], [114.73228909857481, 41.218657822653775], [114.73228909857481, 41.21901714876742], [114.73264842468846, 41.21901714876742], [114.73264842468846, 41.21919681182424], [114.73282808774529, 41.21919681182424], [114.73282808774529, 41.21937647488107], [114.73336707691575, 41.21937647488107], [114.73336707691575, 41.21955613793789], [114.73372640302941, 41.21955613793789], [114.73372640302941, 41.21973580099471], [114.73390606608622, 41.21973580099471], [114.73390606608622, 41.21955613793789], [114.73408572914305, 41.21955613793789], [114.73408572914305, 41.21937647488107], [114.73426539219987, 41.21937647488107], [114.73426539219987, 41.21973580099471], [114.73462471831353, 41.21973580099471], [114.73462471831353, 41.220095127108365], [114.7344450552567, 41.220095127108365], [114.7344450552567, 41.22045445322201], [114.73426539219987, 41.22045445322201], [114.73426539219987, 41.22081377933566], [114.73408572914305, 41.22081377933566], [114.73408572914305, 41.22099344239248], [114.73390606608622, 41.22099344239248], [114.73390606608622, 41.2211731054493], [114.73354673997258, 41.2211731054493]]]}, "properties": {"name": "cn_zhangbei_r05", "ptype": "hall"}}, {"type": "Feature", "geometry": {"geodesic": false, "type": "Polygon", "coordinates": [[[114.69887177000557, 41.18452184185723], [114.69887177000557, 41.18434217880041], [114.69869210694874, 41.18434217880041], [114.69869210694874, 41.18416251574358], [114.69851244389191, 41.18416251574358], [114.69851244389191, 41.18398285268676], [114.69797345472145, 41.18398285268676], [114.69797345472145, 41.183803189629934], [114.69779379166462, 41.183803189629934], [114.69779379166462, 41.18326420045946], [114.69797345472145, 41.18326420045946], [114.69797345472145, 41.182904874345816], [114.69815311777828, 41.182904874345816], [114.69815311777828, 41.18254554823217], [114.69833278083509, 41.18254554823217], [114.69833278083509, 41.18218622211852], [114.69815311777828, 41.18218622211852], [114.69815311777828, 41.181647232948045], [114.69833278083509, 41.181647232948045], [114.69833278083509, 41.18092858072075], [114.69851244389191, 41.18092858072075], [114.69851244389191, 41.18074891766393], [114.69869210694874, 41.18074891766393], [114.69869210694874, 41.18056925460711], [114.6990514330624, 41.18056925460711], [114.6990514330624, 41.180209928493454], [114.7006684005738, 41.180209928493454], [114.7006684005738, 41.18038959155028], [114.70084806363063, 41.18038959155028], [114.70084806363063, 41.18056925460711], [114.70102772668746, 41.18056925460711], [114.70102772668746, 41.18074891766393], [114.70120738974428, 41.18074891766393], [114.70120738974428, 41.18056925460711], [114.70174637891475, 41.18056925460711], [114.70174637891475, 41.18074891766393], [114.70228536808521, 41.18074891766393], [114.70228536808521, 41.18056925460711], [114.70246503114204, 41.18056925460711], [114.70246503114204, 41.18074891766393], [114.70264469419887, 41.18074891766393], [114.70264469419887, 41.18092858072075], [114.7028243572557, 41.18092858072075], [114.7028243572557, 41.1812879068344], [114.70264469419887, 41.1812879068344], [114.70264469419887, 41.181467569891225], [114.7028243572557, 41.181467569891225], [114.7028243572557, 41.18218622211852], [114.70264469419887, 41.18218622211852], [114.70264469419887, 41.182365885175344], [114.7028243572557, 41.182365885175344], [114.7028243572557, 41.18254554823217], [114.70300402031252, 41.18254554823217], [114.70300402031252, 41.182904874345816], [114.70246503114204, 41.182904874345816], [114.70246503114204, 41.183084537402635], [114.70228536808521, 41.183084537402635], [114.70228536808521, 41.18326420045946], [114.70120738974428, 41.18326420045946], [114.70120738974428, 41.183084537402635], [114.70102772668746, 41.183084537402635], [114.70102772668746, 41.18272521128899], [114.70084806363063, 41.18272521128899], [114.70084806363063, 41.18254554823217], [114.7006684005738, 41.18254554823217], [114.7006684005738, 41.182365885175344], [114.70048873751698, 41.182365885175344], [114.70048873751698, 41.18218622211852], [114.70030907446015, 41.18218622211852], [114.70030907446015, 41.18182689600487], [114.70012941140334, 41.18182689600487], [114.70012941140334, 41.18254554823217], [114.69994974834651, 41.18254554823217], [114.69994974834651, 41.182904874345816], [114.70012941140334, 41.182904874345816], [114.70012941140334, 41.18326420045946], [114.70030907446015, 41.18326420045946], [114.70030907446015, 41.18362352657311], [114.70048873751698, 41.18362352657311], [114.70048873751698, 41.18398285268676], [114.70030907446015, 41.18398285268676], [114.70030907446015, 41.18434217880041], [114.70012941140334, 41.18434217880041], [114.70012941140334, 41.18452184185723], [114.69887177000557, 41.18452184185723]], [[114.69923109611922, 41.181467569891225], [114.69887177000557, 41.181467569891225], [114.69887177000557, 41.1812879068344], [114.6990514330624, 41.1812879068344], [114.6990514330624, 41.18092858072075], [114.69923109611922, 41.18092858072075], [114.69923109611922, 41.181467569891225]], [[114.69994974834651, 41.1820065590617], [114.69977008528969, 41.1820065590617], [114.69977008528969, 41.18182689600487], [114.69994974834651, 41.18182689600487], [114.69994974834651, 41.1820065590617]], [[114.7021057050284, 41.182365885175344], [114.70192604197157, 41.182365885175344], [114.70192604197157, 41.18218622211852], [114.7021057050284, 41.18218622211852], [114.7021057050284, 41.182365885175344]]]}, "properties": {"name": "cn_zhangbei_r01", "ptype": "hall"}}, {"type": "Feature", "geometry": {"geodesic": false, "type": "Polygon", "coordinates": [[[114.71809571708572, 41.163321601152006], [114.71809571708572, 41.16314193809519], [114.71755672791525, 41.16314193809519], [114.71755672791525, 41.16296227503836], [114.71683807568796, 41.16296227503836], [114.71683807568796, 41.16314193809519], [114.7164787495743, 41.16314193809519], [114.7164787495743, 41.16296227503836], [114.71593976040384, 41.16296227503836], [114.71593976040384, 41.162782611981534], [114.71576009734702, 41.162782611981534], [114.71576009734702, 41.16206395975424], [114.71593976040384, 41.16206395975424], [114.71593976040384, 41.161884296697416], [114.7164787495743, 41.161884296697416], [114.7164787495743, 41.16152497058377], [114.71611942346065, 41.16152497058377], [114.71611942346065, 41.161704633640596], [114.71593976040384, 41.161704633640596], [114.71593976040384, 41.16152497058377], [114.71576009734702, 41.16152497058377], [114.71576009734702, 41.160446992242825], [114.71593976040384, 41.160446992242825], [114.71593976040384, 41.160267329186006], [114.71576009734702, 41.160267329186006], [114.71576009734702, 41.16008766612918], [114.71611942346065, 41.16008766612918], [114.71611942346065, 41.16080631835647], [114.71629908651748, 41.16080631835647], [114.71629908651748, 41.1609859814133], [114.7164787495743, 41.1609859814133], [114.7164787495743, 41.161165644470124], [114.71665841263113, 41.161165644470124], [114.71665841263113, 41.16134530752694], [114.7171974018016, 41.16134530752694], [114.7171974018016, 41.161704633640596], [114.71683807568796, 41.161704633640596], [114.71683807568796, 41.16206395975424], [114.71773639097208, 41.16206395975424], [114.71773639097208, 41.16242328586789], [114.71665841263113, 41.16242328586789], [114.71665841263113, 41.16224362281107], [114.71629908651748, 41.16224362281107], [114.71629908651748, 41.162602948924714], [114.7164787495743, 41.162602948924714], [114.7164787495743, 41.162782611981534], [114.71701773874479, 41.162782611981534], [114.71701773874479, 41.162602948924714], [114.71737706485843, 41.162602948924714], [114.71737706485843, 41.162782611981534], [114.71809571708572, 41.162782611981534], [114.71809571708572, 41.16242328586789], [114.71845504319937, 41.16242328586789], [114.71845504319937, 41.16224362281107], [114.7186347062562, 41.16224362281107], [114.7186347062562, 41.161884296697416], [114.71845504319937, 41.161884296697416], [114.71845504319937, 41.161704633640596], [114.71827538014254, 41.161704633640596], [114.71827538014254, 41.16134530752694], [114.7186347062562, 41.16134530752694], [114.7186347062562, 41.161165644470124], [114.71917369542666, 41.161165644470124], [114.71917369542666, 41.16134530752694], [114.71899403236985, 41.16134530752694], [114.71899403236985, 41.16152497058377], [114.71971268459714, 41.16152497058377], [114.71971268459714, 41.161704633640596], [114.71989234765397, 41.161704633640596], [114.71989234765397, 41.162602948924714], [114.71953302154031, 41.162602948924714], [114.71953302154031, 41.162782611981534], [114.72007201071078, 41.162782611981534], [114.72007201071078, 41.16314193809519], [114.71971268459714, 41.16314193809519], [114.71971268459714, 41.16296227503836], [114.71953302154031, 41.16296227503836], [114.71953302154031, 41.162782611981534], [114.71899403236985, 41.162782611981534], [114.71899403236985, 41.16296227503836], [114.71881436931302, 41.16296227503836], [114.71881436931302, 41.16314193809519], [114.7186347062562, 41.16314193809519], [114.7186347062562, 41.163321601152006], [114.71809571708572, 41.163321601152006]]]}, "properties": {"name": "cn_zhangbei_r06", "ptype": "hall"}}, {"type": "Feature", "geometry": {"geodesic": false, "type": "Polygon", "coordinates": [[[114.72869583743834, 41.16457924254978], [114.72869583743834, 41.16421991643613], [114.72833651132468, 41.16421991643613], [114.72833651132468, 41.16386059032248], [114.72815684826786, 41.16386059032248], [114.72815684826786, 41.16421991643613], [114.72779752215422, 41.16421991643613], [114.72779752215422, 41.164040253379305], [114.72653988075645, 41.164040253379305], [114.72653988075645, 41.16386059032248], [114.7261805546428, 41.16386059032248], [114.7261805546428, 41.16368092726566], [114.72600089158597, 41.16368092726566], [114.72600089158597, 41.16296227503836], [114.7261805546428, 41.16296227503836], [114.7261805546428, 41.162602948924714], [114.72600089158597, 41.162602948924714], [114.72600089158597, 41.16242328586789], [114.7261805546428, 41.16242328586789], [114.7261805546428, 41.16206395975424], [114.72636021769962, 41.16206395975424], [114.72636021769962, 41.161704633640596], [114.72707886992691, 41.161704633640596], [114.72707886992691, 41.161884296697416], [114.72779752215422, 41.161884296697416], [114.72779752215422, 41.16206395975424], [114.72725853298374, 41.16206395975424], [114.72725853298374, 41.16224362281107], [114.72707886992691, 41.16224362281107], [114.72707886992691, 41.162602948924714], [114.7268992068701, 41.162602948924714], [114.7268992068701, 41.16296227503836], [114.72743819604057, 41.16296227503836], [114.72743819604057, 41.162782611981534], [114.72797718521103, 41.162782611981534], [114.72797718521103, 41.16296227503836], [114.72833651132468, 41.16296227503836], [114.72833651132468, 41.163321601152006], [114.72815684826786, 41.163321601152006], [114.72815684826786, 41.16350126420883], [114.72869583743834, 41.16350126420883], [114.72869583743834, 41.16368092726566], [114.72887550049516, 41.16368092726566], [114.72887550049516, 41.16386059032248], [114.72869583743834, 41.16386059032248], [114.72869583743834, 41.164040253379305], [114.72887550049516, 41.164040253379305], [114.72887550049516, 41.16421991643613], [114.72905516355198, 41.16421991643613], [114.72905516355198, 41.16457924254978], [114.72869583743834, 41.16457924254978]], [[114.72743819604057, 41.163321601152006], [114.72725853298374, 41.163321601152006], [114.72725853298374, 41.16314193809519], [114.72743819604057, 41.16314193809519], [114.72743819604057, 41.163321601152006]], [[114.72779752215422, 41.16350126420883], [114.72743819604057, 41.16350126420883], [114.72743819604057, 41.163321601152006], [114.72779752215422, 41.163321601152006], [114.72779752215422, 41.16350126420883]]]}, "properties": {"name": "cn_zhangbei_r07", "ptype": "hall"}}, {"type": "Feature", "geometry": {"geodesic": false, "type": "Polygon", "coordinates": [[[114.6952785088691, 41.19134903801654], [114.6952785088691, 41.19116937495971], [114.69509884581227, 41.19116937495971], [114.69509884581227, 41.19134903801654], [114.69455985664179, 41.19134903801654], [114.69455985664179, 41.19116937495971], [114.69420053052815, 41.19116937495971], [114.69420053052815, 41.19098971190289], [114.69402086747132, 41.19098971190289], [114.69402086747132, 41.19081004884607], [114.69366154135767, 41.19081004884607], [114.69366154135767, 41.19063038578924], [114.69348187830084, 41.19063038578924], [114.69348187830084, 41.19045072273242], [114.69330221524403, 41.19045072273242], [114.69330221524403, 41.190271059675595], [114.69294288913038, 41.190271059675595], [114.69294288913038, 41.19045072273242], [114.69276322607355, 41.19045072273242], [114.69276322607355, 41.18991173356195], [114.69258356301673, 41.18991173356195], [114.69258356301673, 41.189552407448296], [114.6924038999599, 41.189552407448296], [114.6924038999599, 41.18937274439148], [114.69258356301673, 41.18937274439148], [114.69258356301673, 41.189013418277824], [114.69276322607355, 41.189013418277824], [114.69276322607355, 41.188833755221005], [114.69294288913038, 41.188833755221005], [114.69294288913038, 41.18865409216418], [114.6931225521872, 41.18865409216418], [114.6931225521872, 41.18847442910736], [114.69366154135767, 41.18847442910736], [114.69366154135767, 41.18829476605053], [114.69348187830084, 41.18829476605053], [114.69348187830084, 41.188115102993706], [114.69438019358496, 41.188115102993706], [114.69438019358496, 41.187935439936886], [114.69455985664179, 41.187935439936886], [114.69455985664179, 41.18775577688006], [114.69438019358496, 41.18775577688006], [114.69438019358496, 41.18757611382323], [114.69420053052815, 41.18757611382323], [114.69420053052815, 41.18721678770959], [114.69402086747132, 41.18721678770959], [114.69402086747132, 41.187396450766414], [114.6938412044145, 41.187396450766414], [114.6938412044145, 41.18721678770959], [114.69402086747132, 41.18721678770959], [114.69402086747132, 41.18703712465276], [114.6938412044145, 41.18703712465276], [114.6938412044145, 41.186677798539115], [114.69402086747132, 41.186677798539115], [114.69402086747132, 41.18631847242547], [114.69420053052815, 41.18631847242547], [114.69420053052815, 41.18613880936864], [114.69473951969862, 41.18613880936864], [114.69473951969862, 41.18595914631182], [114.69491918275544, 41.18595914631182], [114.69491918275544, 41.18613880936864], [114.69473951969862, 41.18613880936864], [114.69473951969862, 41.18631847242547], [114.69491918275544, 41.18631847242547], [114.69491918275544, 41.186677798539115], [114.69509884581227, 41.186677798539115], [114.69509884581227, 41.18685746159594], [114.6952785088691, 41.18685746159594], [114.6952785088691, 41.186677798539115], [114.69581749803956, 41.186677798539115], [114.69581749803956, 41.18685746159594], [114.69599716109639, 41.18685746159594], [114.69599716109639, 41.18721678770959], [114.69563783498273, 41.18721678770959], [114.69563783498273, 41.18703712465276], [114.69509884581227, 41.18703712465276], [114.69509884581227, 41.18721678770959], [114.69455985664179, 41.18721678770959], [114.69455985664179, 41.187396450766414], [114.69491918275544, 41.187396450766414], [114.69491918275544, 41.187935439936886], [114.6954581719259, 41.187935439936886], [114.6954581719259, 41.18775577688006], [114.69581749803956, 41.18775577688006], [114.69581749803956, 41.187935439936886], [114.69599716109639, 41.187935439936886], [114.69599716109639, 41.188115102993706], [114.69581749803956, 41.188115102993706], [114.69581749803956, 41.18829476605053], [114.69563783498273, 41.18829476605053], [114.69563783498273, 41.18847442910736], [114.69599716109639, 41.18847442910736], [114.69599716109639, 41.188833755221005], [114.69635648721002, 41.188833755221005], [114.69635648721002, 41.189552407448296], [114.69653615026685, 41.189552407448296], [114.69653615026685, 41.18973207050512], [114.69707513943733, 41.18973207050512], [114.69707513943733, 41.189552407448296], [114.69743446555097, 41.189552407448296], [114.69743446555097, 41.18937274439148], [114.6976141286078, 41.18937274439148], [114.6976141286078, 41.18973207050512], [114.69743446555097, 41.18973207050512], [114.69743446555097, 41.19009139661877], [114.6976141286078, 41.19009139661877], [114.6976141286078, 41.18991173356195], [114.69815311777828, 41.18991173356195], [114.69815311777828, 41.19009139661877], [114.69833278083509, 41.19009139661877], [114.69833278083509, 41.19045072273242], [114.69815311777828, 41.19045072273242], [114.69815311777828, 41.19063038578924], [114.69797345472145, 41.19063038578924], [114.69797345472145, 41.19098971190289], [114.69779379166462, 41.19098971190289], [114.69779379166462, 41.19116937495971], [114.69725480249416, 41.19116937495971], [114.69725480249416, 41.19098971190289], [114.69707513943733, 41.19098971190289], [114.69707513943733, 41.19116937495971], [114.69671581332368, 41.19116937495971], [114.69671581332368, 41.19081004884607], [114.69635648721002, 41.19081004884607], [114.69635648721002, 41.19116937495971], [114.69617682415321, 41.19116937495971], [114.69617682415321, 41.19134903801654], [114.6952785088691, 41.19134903801654]], [[114.6954581719259, 41.18919308133465], [114.69509884581227, 41.18919308133465], [114.69509884581227, 41.189013418277824], [114.69491918275544, 41.189013418277824], [114.69491918275544, 41.188833755221005], [114.69473951969862, 41.188833755221005], [114.69473951969862, 41.18865409216418], [114.69509884581227, 41.18865409216418], [114.69509884581227, 41.188833755221005], [114.6952785088691, 41.188833755221005], [114.6952785088691, 41.189013418277824], [114.6954581719259, 41.189013418277824], [114.6954581719259, 41.18919308133465]], [[114.69671581332368, 41.190271059675595], [114.69653615026685, 41.190271059675595], [114.69653615026685, 41.19009139661877], [114.69671581332368, 41.19009139661877], [114.69671581332368, 41.190271059675595]], [[114.69779379166462, 41.190271059675595], [114.6976141286078, 41.190271059675595], [114.6976141286078, 41.19009139661877], [114.69779379166462, 41.19009139661877], [114.69779379166462, 41.190271059675595]], [[114.6952785088691, 41.19081004884607], [114.69491918275544, 41.19081004884607], [114.69491918275544, 41.19063038578924], [114.69509884581227, 41.19063038578924], [114.69509884581227, 41.19045072273242], [114.6952785088691, 41.19045072273242], [114.6952785088691, 41.190271059675595], [114.69563783498273, 41.190271059675595], [114.69563783498273, 41.19009139661877], [114.69581749803956, 41.19009139661877], [114.69581749803956, 41.18991173356195], [114.69563783498273, 41.18991173356195], [114.69563783498273, 41.18973207050512], [114.6954581719259, 41.18973207050512], [114.6954581719259, 41.189552407448296], [114.69581749803956, 41.189552407448296], [114.69581749803956, 41.18973207050512], [114.69599716109639, 41.18973207050512], [114.69599716109639, 41.18991173356195], [114.69617682415321, 41.18991173356195], [114.69617682415321, 41.19045072273242], [114.6954581719259, 41.19045072273242], [114.6954581719259, 41.19063038578924], [114.6952785088691, 41.19063038578924], [114.6952785088691, 41.19081004884607]]]}, "properties": {"name": "cn_zhangbei_r02", "ptype": "hall"}}]}