{"type": "FeatureCollection", "features": [{"type": "Feature", "geometry": {"geodesic": false, "type": "Polygon", "coordinates": [[[115.53879656065732, 40.389153489297804], [115.53879656065732, 40.388973826240985], [115.53843723454366, 40.388973826240985], [115.53843723454366, 40.38861450012733], [115.53897622371414, 40.38861450012733], [115.53897622371414, 40.38843483707051], [115.53879656065732, 40.38843483707051], [115.53879656065732, 40.388255174013686], [115.53861689760049, 40.388255174013686], [115.53861689760049, 40.38807551095686], [115.53843723454366, 40.38807551095686], [115.53843723454366, 40.38789584790004], [115.53825757148685, 40.38789584790004], [115.53825757148685, 40.387716184843214], [115.5378982453732, 40.387716184843214], [115.5378982453732, 40.38843483707051], [115.53807790843003, 40.38843483707051], [115.53807790843003, 40.38861450012733], [115.53753891925955, 40.38861450012733], [115.53753891925955, 40.38843483707051], [115.53735925620273, 40.38843483707051], [115.53735925620273, 40.388255174013686], [115.53717959314591, 40.388255174013686], [115.53717959314591, 40.38753652178639], [115.53699993008908, 40.38753652178639], [115.53699993008908, 40.38717719567274], [115.53717959314591, 40.38717719567274], [115.53717959314591, 40.38735685872957], [115.53735925620273, 40.38735685872957], [115.53735925620273, 40.38699753261592], [115.53717959314591, 40.38699753261592], [115.53717959314591, 40.386817869559096], [115.53753891925955, 40.386817869559096], [115.53753891925955, 40.38663820650227], [115.53735925620273, 40.38663820650227], [115.53735925620273, 40.38627888038862], [115.53717959314591, 40.38627888038862], [115.53717959314591, 40.3860992173318], [115.53753891925955, 40.3860992173318], [115.53753891925955, 40.38663820650227], [115.53771858231637, 40.38663820650227], [115.53771858231637, 40.386817869559096], [115.53753891925955, 40.386817869559096], [115.53753891925955, 40.38699753261592], [115.53825757148685, 40.38699753261592], [115.53825757148685, 40.38663820650227], [115.5378982453732, 40.38663820650227], [115.5378982453732, 40.38645854344545], [115.53771858231637, 40.38645854344545], [115.53771858231637, 40.38627888038862], [115.5378982453732, 40.38627888038862], [115.5378982453732, 40.3860992173318], [115.53771858231637, 40.3860992173318], [115.53771858231637, 40.38591955427498], [115.5378982453732, 40.38591955427498], [115.5378982453732, 40.38573989121815], [115.53825757148685, 40.38573989121815], [115.53825757148685, 40.385560228161324], [115.53879656065732, 40.385560228161324], [115.53879656065732, 40.385380565104505], [115.53897622371414, 40.385380565104505], [115.53897622371414, 40.38520090204768], [115.53915588677097, 40.38520090204768], [115.53915588677097, 40.38484157593403], [115.5393355498278, 40.38484157593403], [115.5393355498278, 40.384661912877206], [115.53951521288461, 40.384661912877206], [115.53951521288461, 40.38484157593403], [115.53969487594144, 40.38484157593403], [115.53969487594144, 40.38502123899085], [115.53987453899826, 40.38502123899085], [115.53987453899826, 40.38484157593403], [115.54005420205509, 40.38484157593403], [115.54005420205509, 40.384661912877206], [115.54041352816873, 40.384661912877206], [115.54041352816873, 40.38484157593403], [115.54059319122555, 40.38484157593403], [115.54059319122555, 40.38502123899085], [115.54077285428238, 40.38502123899085], [115.54077285428238, 40.38520090204768], [115.54059319122555, 40.38520090204768], [115.54059319122555, 40.385380565104505], [115.54077285428238, 40.385380565104505], [115.54077285428238, 40.38573989121815], [115.5409525173392, 40.38573989121815], [115.5409525173392, 40.38591955427498], [115.54113218039603, 40.38591955427498], [115.54113218039603, 40.3860992173318], [115.54131184345286, 40.3860992173318], [115.54131184345286, 40.38699753261592], [115.54149150650967, 40.38699753261592], [115.54149150650967, 40.38735685872957], [115.5416711695665, 40.38735685872957], [115.5416711695665, 40.387716184843214], [115.54149150650967, 40.387716184843214], [115.54149150650967, 40.38789584790004], [115.54131184345286, 40.38789584790004], [115.54131184345286, 40.38807551095686], [115.54113218039603, 40.38807551095686], [115.54113218039603, 40.388255174013686], [115.54077285428238, 40.388255174013686], [115.54077285428238, 40.38843483707051], [115.54059319122555, 40.38843483707051], [115.54059319122555, 40.388255174013686], [115.54041352816873, 40.388255174013686], [115.54041352816873, 40.387716184843214], [115.54023386511192, 40.387716184843214], [115.54023386511192, 40.38753652178639], [115.53987453899826, 40.38753652178639], [115.53987453899826, 40.387716184843214], [115.53969487594144, 40.387716184843214], [115.53969487594144, 40.38789584790004], [115.53951521288461, 40.38789584790004], [115.53951521288461, 40.388973826240985], [115.5393355498278, 40.388973826240985], [115.5393355498278, 40.389153489297804], [115.53879656065732, 40.389153489297804]], [[115.53861689760049, 40.38753652178639], [115.53843723454366, 40.38753652178639], [115.53843723454366, 40.38735685872957], [115.53861689760049, 40.38735685872957], [115.53861689760049, 40.38753652178639]], [[115.53843723454366, 40.387716184843214], [115.53825757148685, 40.387716184843214], [115.53825757148685, 40.38753652178639], [115.53843723454366, 40.38753652178639], [115.53843723454366, 40.387716184843214]], [[115.5393355498278, 40.38843483707051], [115.53897622371414, 40.38843483707051], [115.53897622371414, 40.388255174013686], [115.5393355498278, 40.388255174013686], [115.5393355498278, 40.38843483707051]], [[115.53897622371414, 40.388973826240985], [115.53879656065732, 40.388973826240985], [115.53879656065732, 40.38879416318416], [115.53897622371414, 40.38879416318416], [115.53897622371414, 40.388973826240985]]]}, "properties": {"name": "cand01", "ptype": "hall", "confidence": "low", "rank": 1, "area_ha": 14.2, "rise_db": 10.6, "digitised_from": "Sentinel-1 VV rise 2021->2026, orbit 142"}}, {"type": "Feature", "geometry": {"geodesic": false, "type": "Polygon", "coordinates": [[[115.54292881096427, 40.33112232194368], [115.54292881096427, 40.330762995830035], [115.5431084740211, 40.330762995830035], [115.5431084740211, 40.33040366971639], [115.54274914790744, 40.33040366971639], [115.54274914790744, 40.330583332773216], [115.54256948485062, 40.330583332773216], [115.54256948485062, 40.33040366971639], [115.54221015873698, 40.33040366971639], [115.54221015873698, 40.33022400665956], [115.54203049568015, 40.33022400665956], [115.54203049568015, 40.330044343602744], [115.54185083262333, 40.330044343602744], [115.54185083262333, 40.32986468054592], [115.5416711695665, 40.32986468054592], [115.5416711695665, 40.330044343602744], [115.54149150650967, 40.330044343602744], [115.54149150650967, 40.32986468054592], [115.54131184345286, 40.32986468054592], [115.54131184345286, 40.32968501748909], [115.54113218039603, 40.32968501748909], [115.54113218039603, 40.32986468054592], [115.54041352816873, 40.32986468054592], [115.54041352816873, 40.330044343602744], [115.54005420205509, 40.330044343602744], [115.54005420205509, 40.32950535443227], [115.54023386511192, 40.32950535443227], [115.54023386511192, 40.32914602831862], [115.5409525173392, 40.32914602831862], [115.5409525173392, 40.329325691375445], [115.54149150650967, 40.329325691375445], [115.54149150650967, 40.32914602831862], [115.54256948485062, 40.32914602831862], [115.54256948485062, 40.3289663652618], [115.54292881096427, 40.3289663652618], [115.54292881096427, 40.32914602831862], [115.5431084740211, 40.32914602831862], [115.5431084740211, 40.32950535443227], [115.54346780013474, 40.32950535443227], [115.54346780013474, 40.32968501748909], [115.54364746319156, 40.32968501748909], [115.54364746319156, 40.32986468054592], [115.54382712624839, 40.32986468054592], [115.54382712624839, 40.33022400665956], [115.54400678930521, 40.33022400665956], [115.54400678930521, 40.33040366971639], [115.54418645236204, 40.33040366971639], [115.54418645236204, 40.33022400665956], [115.5447254415325, 40.33022400665956], [115.5447254415325, 40.33040366971639], [115.54490510458933, 40.33040366971639], [115.54490510458933, 40.330762995830035], [115.5447254415325, 40.330762995830035], [115.5447254415325, 40.33094265888686], [115.54436611541885, 40.33094265888686], [115.54436611541885, 40.330762995830035], [115.54382712624839, 40.330762995830035], [115.54382712624839, 40.33094265888686], [115.54364746319156, 40.33094265888686], [115.54364746319156, 40.33112232194368], [115.54292881096427, 40.33112232194368]]]}, "properties": {"name": "cand02", "ptype": "hall", "confidence": "low", "rank": 2, "area_ha": 5.5, "rise_db": 5.0, "digitised_from": "Sentinel-1 VV rise 2021->2026, orbit 142"}}, {"type": "Feature", "geometry": {"geodesic": false, "type": "Polygon", "coordinates": [[[115.56736298669232, 40.33255962639828], [115.56736298669232, 40.33237996334145], [115.56718332363549, 40.33237996334145], [115.56718332363549, 40.33184097417098], [115.56700366057868, 40.33184097417098], [115.56700366057868, 40.331481648057334], [115.56682399752185, 40.331481648057334], [115.56682399752185, 40.33130198500051], [115.56664433446502, 40.33130198500051], [115.56664433446502, 40.33094265888686], [115.56700366057868, 40.33094265888686], [115.56700366057868, 40.330762995830035], [115.56718332363549, 40.330762995830035], [115.56718332363549, 40.330583332773216], [115.56736298669232, 40.330583332773216], [115.56736298669232, 40.33040366971639], [115.56808163891961, 40.33040366971639], [115.56808163891961, 40.33022400665956], [115.56862062809009, 40.33022400665956], [115.56862062809009, 40.330044343602744], [115.56880029114691, 40.330044343602744], [115.56880029114691, 40.33022400665956], [115.56897995420374, 40.33022400665956], [115.56897995420374, 40.330583332773216], [115.56915961726055, 40.330583332773216], [115.56915961726055, 40.33094265888686], [115.5695189433742, 40.33094265888686], [115.5695189433742, 40.330762995830035], [115.56969860643103, 40.330762995830035], [115.56969860643103, 40.330583332773216], [115.56987826948786, 40.330583332773216], [115.56987826948786, 40.33040366971639], [115.5702375956015, 40.33040366971639], [115.5702375956015, 40.330762995830035], [115.56987826948786, 40.330762995830035], [115.56987826948786, 40.33112232194368], [115.56969860643103, 40.33112232194368], [115.56969860643103, 40.331481648057334], [115.56987826948786, 40.331481648057334], [115.56987826948786, 40.33130198500051], [115.57041725865832, 40.33130198500051], [115.57041725865832, 40.331481648057334], [115.57059692171515, 40.331481648057334], [115.57059692171515, 40.33166131111415], [115.57005793254467, 40.33166131111415], [115.57005793254467, 40.33184097417098], [115.56987826948786, 40.33184097417098], [115.56987826948786, 40.33202063722781], [115.5695189433742, 40.33202063722781], [115.5695189433742, 40.33166131111415], [115.56915961726055, 40.33166131111415], [115.56915961726055, 40.331481648057334], [115.56880029114691, 40.331481648057334], [115.56880029114691, 40.33166131111415], [115.56862062809009, 40.33166131111415], [115.56862062809009, 40.331481648057334], [115.5679019758628, 40.331481648057334], [115.5679019758628, 40.33166131111415], [115.56754264974914, 40.33166131111415], [115.56754264974914, 40.33202063722781], [115.5679019758628, 40.33202063722781], [115.5679019758628, 40.332200300284626], [115.56772231280597, 40.332200300284626], [115.56772231280597, 40.33255962639828], [115.56736298669232, 40.33255962639828]]]}, "properties": {"name": "cand03", "ptype": "hall", "confidence": "low", "rank": 3, "area_ha": 5.3, "rise_db": 12.4, "digitised_from": "Sentinel-1 VV rise 2021->2026, orbit 142"}}, {"type": "Feature", "geometry": {"geodesic": false, "type": "Polygon", "coordinates": [[[115.53699993008908, 40.393465402661576], [115.53699993008908, 40.39310607654793], [115.53717959314591, 40.39310607654793], [115.53717959314591, 40.39292641349111], [115.53699993008908, 40.39292641349111], [115.53699993008908, 40.39256708737746], [115.53682026703225, 40.39256708737746], [115.53682026703225, 40.39220776126381], [115.53753891925955, 40.39220776126381], [115.53753891925955, 40.392028098206985], [115.5378982453732, 40.392028098206985], [115.5378982453732, 40.391848435150166], [115.53843723454366, 40.391848435150166], [115.53843723454366, 40.39166877209334], [115.53879656065732, 40.39166877209334], [115.53879656065732, 40.392028098206985], [115.53861689760049, 40.392028098206985], [115.53861689760049, 40.39220776126381], [115.53807790843003, 40.39220776126381], [115.53807790843003, 40.39238742432064], [115.53879656065732, 40.39238742432064], [115.53879656065732, 40.39220776126381], [115.53951521288461, 40.39220776126381], [115.53951521288461, 40.392028098206985], [115.53969487594144, 40.392028098206985], [115.53969487594144, 40.391848435150166], [115.54005420205509, 40.391848435150166], [115.54005420205509, 40.39166877209334], [115.53951521288461, 40.39166877209334], [115.53951521288461, 40.391848435150166], [115.53915588677097, 40.391848435150166], [115.53915588677097, 40.39148910903651], [115.5393355498278, 40.39148910903651], [115.5393355498278, 40.391309445979694], [115.54023386511192, 40.391309445979694], [115.54023386511192, 40.39166877209334], [115.54041352816873, 40.39166877209334], [115.54041352816873, 40.391848435150166], [115.54059319122555, 40.391848435150166], [115.54059319122555, 40.392028098206985], [115.54041352816873, 40.392028098206985], [115.54041352816873, 40.39220776126381], [115.53969487594144, 40.39220776126381], [115.53969487594144, 40.39238742432064], [115.5393355498278, 40.39238742432064], [115.5393355498278, 40.39256708737746], [115.54005420205509, 40.39256708737746], [115.54005420205509, 40.39238742432064], [115.54059319122555, 40.39238742432064], [115.54059319122555, 40.39220776126381], [115.5409525173392, 40.39220776126381], [115.5409525173392, 40.39238742432064], [115.54113218039603, 40.39238742432064], [115.54113218039603, 40.39256708737746], [115.5409525173392, 40.39256708737746], [115.5409525173392, 40.392746750434284], [115.53987453899826, 40.392746750434284], [115.53987453899826, 40.39310607654793], [115.53861689760049, 40.39310607654793], [115.53861689760049, 40.39328573960476], [115.53807790843003, 40.39328573960476], [115.53807790843003, 40.393465402661576], [115.53699993008908, 40.393465402661576]], [[115.53915588677097, 40.392746750434284], [115.53861689760049, 40.392746750434284], [115.53861689760049, 40.39256708737746], [115.53915588677097, 40.39256708737746], [115.53915588677097, 40.392746750434284]], [[115.5378982453732, 40.39310607654793], [115.53771858231637, 40.39310607654793], [115.53771858231637, 40.392746750434284], [115.53843723454366, 40.392746750434284], [115.53843723454366, 40.39292641349111], [115.5378982453732, 40.39292641349111], [115.5378982453732, 40.39310607654793]]]}, "properties": {"name": "cand04", "ptype": "hall", "confidence": "low", "rank": 4, "area_ha": 5.3, "rise_db": 6.9, "digitised_from": "Sentinel-1 VV rise 2021->2026, orbit 142"}}, {"type": "Feature", "geometry": {"geodesic": false, "type": "Polygon", "coordinates": [[[115.50843350405408, 40.39616034851394], [115.50843350405408, 40.395621359343465], [115.50879283016772, 40.395621359343465], [115.50879283016772, 40.39544169628664], [115.5093318193382, 40.39544169628664], [115.5093318193382, 40.39526203322982], [115.50969114545184, 40.39526203322982], [115.50969114545184, 40.39508237017299], [115.51023013462232, 40.39508237017299], [115.51023013462232, 40.394902707116174], [115.51076912379278, 40.394902707116174], [115.51076912379278, 40.39472304405935], [115.51112844990644, 40.39472304405935], [115.51112844990644, 40.39454338100252], [115.5116674390769, 40.39454338100252], [115.5116674390769, 40.3943637179457], [115.51202676519056, 40.3943637179457], [115.51202676519056, 40.394184054888875], [115.51256575436103, 40.394184054888875], [115.51256575436103, 40.39400439183205], [115.5131047435315, 40.39400439183205], [115.5131047435315, 40.39382472877523], [115.51346406964515, 40.39382472877523], [115.51346406964515, 40.3936450657184], [115.51382339575879, 40.3936450657184], [115.51382339575879, 40.393465402661576], [115.51418272187244, 40.393465402661576], [115.51418272187244, 40.39328573960476], [115.51472171104291, 40.39328573960476], [115.51472171104291, 40.39310607654793], [115.51544036327022, 40.39310607654793], [115.51544036327022, 40.39292641349111], [115.51579968938385, 40.39292641349111], [115.51579968938385, 40.392746750434284], [115.51615901549751, 40.392746750434284], [115.51615901549751, 40.39292641349111], [115.51597935244068, 40.39292641349111], [115.51597935244068, 40.39310607654793], [115.51579968938385, 40.39310607654793], [115.51579968938385, 40.39328573960476], [115.51544036327022, 40.39328573960476], [115.51544036327022, 40.393465402661576], [115.51490137409974, 40.393465402661576], [115.51490137409974, 40.3936450657184], [115.51436238492927, 40.3936450657184], [115.51436238492927, 40.39382472877523], [115.51382339575879, 40.39382472877523], [115.51382339575879, 40.39400439183205], [115.51346406964515, 40.39400439183205], [115.51346406964515, 40.394184054888875], [115.5131047435315, 40.394184054888875], [115.5131047435315, 40.3943637179457], [115.51274541741785, 40.3943637179457], [115.51274541741785, 40.39454338100252], [115.51238609130421, 40.39454338100252], [115.51238609130421, 40.39472304405935], [115.51184710213373, 40.39472304405935], [115.51184710213373, 40.394902707116174], [115.51130811296326, 40.394902707116174], [115.51130811296326, 40.39508237017299], [115.51094878684961, 40.39508237017299], [115.51094878684961, 40.39526203322982], [115.51040979767915, 40.39526203322982], [115.51040979767915, 40.39544169628664], [115.51005047156549, 40.39544169628664], [115.51005047156549, 40.395621359343465], [115.50951148239503, 40.395621359343465], [115.50951148239503, 40.39580102240029], [115.50915215628137, 40.39580102240029], [115.50915215628137, 40.39598068545711], [115.50879283016772, 40.39598068545711], [115.50879283016772, 40.39616034851394], [115.50843350405408, 40.39616034851394]]]}, "properties": {"name": "cand05", "ptype": "hall", "confidence": "low", "rank": 5, "area_ha": 4.0, "rise_db": 6.4, "digitised_from": "Sentinel-1 VV rise 2021->2026, orbit 142"}}, {"type": "Feature", "geometry": {"geodesic": false, "type": "Polygon", "coordinates": [[[115.49998934038335, 40.391848435150166], [115.49998934038335, 40.39166877209334], [115.49980967732652, 40.39166877209334], [115.49980967732652, 40.391309445979694], [115.49998934038335, 40.391309445979694], [115.49998934038335, 40.390590793752395], [115.49980967732652, 40.390590793752395], [115.49980967732652, 40.390411130695576], [115.49945035121289, 40.390411130695576], [115.49945035121289, 40.390590793752395], [115.49909102509923, 40.390590793752395], [115.49909102509923, 40.390411130695576], [115.49855203592877, 40.390411130695576], [115.49855203592877, 40.39023146763875], [115.49837237287194, 40.39023146763875], [115.49837237287194, 40.3898721415251], [115.49855203592877, 40.3898721415251], [115.49855203592877, 40.38951281541145], [115.4987316989856, 40.38951281541145], [115.4987316989856, 40.38933315235463], [115.49909102509923, 40.38933315235463], [115.49909102509923, 40.38969247846828], [115.49927068815606, 40.38969247846828], [115.49927068815606, 40.3898721415251], [115.50016900344018, 40.3898721415251], [115.50016900344018, 40.38951281541145], [115.50052832955383, 40.38951281541145], [115.50052832955383, 40.3898721415251], [115.500348666497, 40.3898721415251], [115.500348666497, 40.390590793752395], [115.50070799261066, 40.390590793752395], [115.50070799261066, 40.39077045680922], [115.50124698178112, 40.39077045680922], [115.50124698178112, 40.391309445979694], [115.5010673187243, 40.391309445979694], [115.5010673187243, 40.39148910903651], [115.50070799261066, 40.39148910903651], [115.50070799261066, 40.39166877209334], [115.500348666497, 40.39166877209334], [115.500348666497, 40.391848435150166], [115.49998934038335, 40.391848435150166]]]}, "properties": {"name": "cand06", "ptype": "hall", "confidence": "low", "rank": 6, "area_ha": 3.6, "rise_db": 8.1, "digitised_from": "Sentinel-1 VV rise 2021->2026, orbit 142"}}, {"type": "Feature", "geometry": {"geodesic": false, "type": "Polygon", "coordinates": [[[115.57059692171515, 40.359149758808215], [115.57059692171515, 40.35861076963774], [115.57077658477198, 40.35861076963774], [115.57077658477198, 40.358431106580916], [115.5702375956015, 40.358431106580916], [115.5702375956015, 40.3582514435241], [115.56987826948786, 40.3582514435241], [115.56987826948786, 40.35807178046727], [115.56969860643103, 40.35807178046727], [115.56969860643103, 40.3582514435241], [115.5695189433742, 40.3582514435241], [115.5695189433742, 40.35807178046727], [115.56933928031738, 40.35807178046727], [115.56933928031738, 40.358431106580916], [115.5695189433742, 40.358431106580916], [115.5695189433742, 40.35879043269457], [115.56987826948786, 40.35879043269457], [115.56987826948786, 40.35897009575139], [115.5695189433742, 40.35897009575139], [115.5695189433742, 40.35879043269457], [115.56862062809009, 40.35879043269457], [115.56862062809009, 40.35861076963774], [115.56844096503326, 40.35861076963774], [115.56844096503326, 40.3582514435241], [115.56862062809009, 40.3582514435241], [115.56862062809009, 40.357892117410444], [115.56826130197643, 40.357892117410444], [115.56826130197643, 40.3575327912968], [115.56862062809009, 40.3575327912968], [115.56862062809009, 40.35735312823997], [115.56880029114691, 40.35735312823997], [115.56880029114691, 40.356993802126325], [115.56933928031738, 40.356993802126325], [115.56933928031738, 40.356814139069506], [115.57005793254467, 40.356814139069506], [115.57005793254467, 40.356993802126325], [115.5702375956015, 40.356993802126325], [115.5702375956015, 40.35735312823997], [115.57005793254467, 40.35735312823997], [115.57005793254467, 40.357712454353624], [115.56969860643103, 40.357712454353624], [115.56969860643103, 40.357892117410444], [115.5702375956015, 40.357892117410444], [115.5702375956015, 40.35807178046727], [115.57077658477198, 40.35807178046727], [115.57077658477198, 40.358431106580916], [115.57113591088562, 40.358431106580916], [115.57113591088562, 40.35897009575139], [115.5709562478288, 40.35897009575139], [115.5709562478288, 40.359149758808215], [115.57059692171515, 40.359149758808215]], [[115.56987826948786, 40.35735312823997], [115.5695189433742, 40.35735312823997], [115.5695189433742, 40.35717346518315], [115.56969860643103, 40.35717346518315], [115.56969860643103, 40.356993802126325], [115.56987826948786, 40.356993802126325], [115.56987826948786, 40.35735312823997]], [[115.56933928031738, 40.357892117410444], [115.56862062809009, 40.357892117410444], [115.56862062809009, 40.357712454353624], [115.56880029114691, 40.357712454353624], [115.56880029114691, 40.3575327912968], [115.56915961726055, 40.3575327912968], [115.56915961726055, 40.357712454353624], [115.56933928031738, 40.357712454353624], [115.56933928031738, 40.357892117410444]]]}, "properties": {"name": "cand07", "ptype": "hall", "confidence": "low", "rank": 7, "area_ha": 3.5, "rise_db": 6.1, "digitised_from": "Sentinel-1 VV rise 2021->2026, orbit 142"}}, {"type": "Feature", "geometry": {"geodesic": false, "type": "Polygon", "coordinates": [[[115.5468813982144, 40.359329421865034], [115.5468813982144, 40.359149758808215], [115.54634240904392, 40.359149758808215], [115.54634240904392, 40.35897009575139], [115.5461627459871, 40.35897009575139], [115.5461627459871, 40.35879043269457], [115.54634240904392, 40.35879043269457], [115.54634240904392, 40.358431106580916], [115.54652207210074, 40.358431106580916], [115.54652207210074, 40.35861076963774], [115.54670173515757, 40.35861076963774], [115.54670173515757, 40.3582514435241], [115.54634240904392, 40.3582514435241], [115.54634240904392, 40.356814139069506], [115.54652207210074, 40.356814139069506], [115.54652207210074, 40.35663447601268], [115.54634240904392, 40.35663447601268], [115.54634240904392, 40.35645481295585], [115.54652207210074, 40.35645481295585], [115.54652207210074, 40.35609548684221], [115.54634240904392, 40.35609548684221], [115.54634240904392, 40.35573616072856], [115.54652207210074, 40.35573616072856], [115.54652207210074, 40.355556497671735], [115.5468813982144, 40.355556497671735], [115.5468813982144, 40.35537683461491], [115.54706106127122, 40.35537683461491], [115.54706106127122, 40.355556497671735], [115.54724072432805, 40.355556497671735], [115.54724072432805, 40.35573616072856], [115.54706106127122, 40.35573616072856], [115.54706106127122, 40.35591582378538], [115.5468813982144, 40.35591582378538], [115.5468813982144, 40.35663447601268], [115.54706106127122, 40.35663447601268], [115.54706106127122, 40.356993802126325], [115.54652207210074, 40.356993802126325], [115.54652207210074, 40.35717346518315], [115.54706106127122, 40.35717346518315], [115.54706106127122, 40.35735312823997], [115.54724072432805, 40.35735312823997], [115.54724072432805, 40.35807178046727], [115.54742038738486, 40.35807178046727], [115.54742038738486, 40.359149758808215], [115.54724072432805, 40.359149758808215], [115.54724072432805, 40.359329421865034], [115.5468813982144, 40.359329421865034]]]}, "properties": {"name": "cand08", "ptype": "hall", "confidence": "low", "rank": 8, "area_ha": 3.5, "rise_db": 5.4, "digitised_from": "Sentinel-1 VV rise 2021->2026, orbit 142"}}, {"type": "Feature", "geometry": {"geodesic": false, "type": "Polygon", "coordinates": [[[115.53322700589578, 40.39849596825265], [115.53322700589578, 40.39759765296853], [115.53304734283896, 40.39759765296853], [115.53304734283896, 40.3974179899117], [115.53286767978213, 40.3974179899117], [115.53286767978213, 40.397058663798056], [115.53376599506625, 40.397058663798056], [115.53376599506625, 40.3974179899117], [115.5341253211799, 40.3974179899117], [115.5341253211799, 40.397058663798056], [115.53430498423673, 40.397058663798056], [115.53430498423673, 40.39687900074124], [115.53484397340719, 40.39687900074124], [115.53484397340719, 40.397058663798056], [115.53502363646402, 40.397058663798056], [115.53502363646402, 40.39759765296853], [115.53520329952084, 40.39759765296853], [115.53520329952084, 40.397777316025355], [115.53502363646402, 40.397777316025355], [115.53502363646402, 40.39831630519583], [115.5341253211799, 40.39831630519583], [115.5341253211799, 40.39849596825265], [115.53322700589578, 40.39849596825265]], [[115.53448464729354, 40.397956979082174], [115.53430498423673, 40.397956979082174], [115.53430498423673, 40.397777316025355], [115.53448464729354, 40.397777316025355], [115.53448464729354, 40.397956979082174]]]}, "properties": {"name": "cand09", "ptype": "hall", "confidence": "low", "rank": 9, "area_ha": 3.2, "rise_db": 6.1, "digitised_from": "Sentinel-1 VV rise 2021->2026, orbit 142"}}, {"type": "Feature", "geometry": {"geodesic": false, "type": "Polygon", "coordinates": [[[115.48525696972379, 40.40101125104818], [115.48525696972379, 40.400651924934536], [115.48543663278062, 40.400651924934536], [115.48543663278062, 40.40047226187771], [115.48579595889427, 40.40047226187771], [115.48579595889427, 40.40029259882089], [115.48597562195108, 40.40029259882089], [115.48597562195108, 40.400112935764064], [115.48633494806474, 40.400112935764064], [115.48633494806474, 40.39993327270724], [115.48687393723522, 40.39993327270724], [115.48687393723522, 40.39975360965042], [115.48705360029203, 40.39975360965042], [115.48705360029203, 40.39957394659359], [115.48759258946251, 40.39957394659359], [115.48759258946251, 40.399394283536765], [115.48813157863297, 40.399394283536765], [115.48813157863297, 40.399214620479945], [115.48867056780345, 40.399214620479945], [115.48867056780345, 40.39903495742312], [115.48920955697392, 40.39903495742312], [115.48920955697392, 40.3988552943663], [115.48956888308757, 40.3988552943663], [115.48956888308757, 40.39867563130947], [115.49010787225804, 40.39867563130947], [115.49010787225804, 40.39849596825265], [115.49082652448534, 40.39849596825265], [115.49082652448534, 40.39867563130947], [115.49064686142852, 40.39867563130947], [115.49064686142852, 40.3988552943663], [115.49010787225804, 40.3988552943663], [115.49010787225804, 40.39903495742312], [115.48956888308757, 40.39903495742312], [115.48956888308757, 40.399214620479945], [115.48920955697392, 40.399214620479945], [115.48920955697392, 40.399394283536765], [115.48867056780345, 40.399394283536765], [115.48867056780345, 40.39957394659359], [115.48813157863297, 40.39957394659359], [115.48813157863297, 40.39975360965042], [115.48759258946251, 40.39975360965042], [115.48759258946251, 40.39993327270724], [115.48723326334886, 40.39993327270724], [115.48723326334886, 40.400112935764064], [115.48705360029203, 40.400112935764064], [115.48705360029203, 40.39993327270724], [115.48687393723522, 40.39993327270724], [115.48687393723522, 40.40029259882089], [115.48651461112156, 40.40029259882089], [115.48651461112156, 40.40047226187771], [115.48597562195108, 40.40047226187771], [115.48597562195108, 40.400651924934536], [115.48579595889427, 40.400651924934536], [115.48579595889427, 40.40083158799136], [115.48561629583745, 40.40083158799136], [115.48561629583745, 40.40101125104818], [115.48525696972379, 40.40101125104818]]]}, "properties": {"name": "cand10", "ptype": "hall", "confidence": "low", "rank": 10, "area_ha": 2.5, "rise_db": 5.1, "digitised_from": "Sentinel-1 VV rise 2021->2026, orbit 142"}}, {"type": "Feature", "geometry": {"geodesic": false, "type": "Polygon", "coordinates": [[[115.50501990597442, 40.30183724368139], [115.50501990597442, 40.301657580624564], [115.50466057986078, 40.301657580624564], [115.50466057986078, 40.30147791756774], [115.50448091680396, 40.30147791756774], [115.50448091680396, 40.30129825451092], [115.5041215906903, 40.30129825451092], [115.5041215906903, 40.30111859145409], [115.50394192763348, 40.30111859145409], [115.50394192763348, 40.300938928397265], [115.50466057986078, 40.300938928397265], [115.50466057986078, 40.30057960228362], [115.5048402429176, 40.30057960228362], [115.5048402429176, 40.3003999392268], [115.5055588951449, 40.3003999392268], [115.5055588951449, 40.30057960228362], [115.50573855820171, 40.30057960228362], [115.50573855820171, 40.300759265340446], [115.50609788431537, 40.300759265340446], [115.50609788431537, 40.300938928397265], [115.50627754737219, 40.300938928397265], [115.50627754737219, 40.30111859145409], [115.50609788431537, 40.30111859145409], [115.50609788431537, 40.30129825451092], [115.50591822125854, 40.30129825451092], [115.50591822125854, 40.30147791756774], [115.5055588951449, 40.30147791756774], [115.5055588951449, 40.30129825451092], [115.50537923208807, 40.30129825451092], [115.50537923208807, 40.30183724368139], [115.50501990597442, 40.30183724368139]]]}, "properties": {"name": "cand11", "ptype": "hall", "confidence": "low", "rank": 11, "area_ha": 2.2, "rise_db": 9.7, "digitised_from": "Sentinel-1 VV rise 2021->2026, orbit 142"}}, {"type": "Feature", "geometry": {"geodesic": false, "type": "Polygon", "coordinates": [[[115.54939668100992, 40.35591582378538], [115.54939668100992, 40.35573616072856], [115.54903735489629, 40.35573616072856], [115.54903735489629, 40.35519717155809], [115.54921701795311, 40.35519717155809], [115.54921701795311, 40.35501750850126], [115.54975600712358, 40.35501750850126], [115.54975600712358, 40.35483784544444], [115.55119331157817, 40.35483784544444], [115.55119331157817, 40.35501750850126], [115.55137297463499, 40.35501750850126], [115.55137297463499, 40.35519717155809], [115.55119331157817, 40.35519717155809], [115.55119331157817, 40.35537683461491], [115.55101364852135, 40.35537683461491], [115.55101364852135, 40.355556497671735], [115.55029499629404, 40.355556497671735], [115.55029499629404, 40.35573616072856], [115.54957634406675, 40.35573616072856], [115.54957634406675, 40.35591582378538], [115.54939668100992, 40.35591582378538]]]}, "properties": {"name": "cand12", "ptype": "hall", "confidence": "low", "rank": 12, "area_ha": 2.0, "rise_db": 5.7, "digitised_from": "Sentinel-1 VV rise 2021->2026, orbit 142"}}, {"type": "Feature", "geometry": {"geodesic": false, "type": "Polygon", "coordinates": [[[115.50088765566747, 40.39292641349111], [115.50088765566747, 40.39256708737746], [115.5010673187243, 40.39256708737746], [115.5010673187243, 40.39220776126381], [115.50178597095159, 40.39220776126381], [115.50178597095159, 40.391848435150166], [115.50268428623572, 40.391848435150166], [115.50268428623572, 40.39166877209334], [115.50322327540619, 40.39166877209334], [115.50322327540619, 40.392028098206985], [115.50304361234936, 40.392028098206985], [115.50304361234936, 40.39220776126381], [115.50268428623572, 40.39220776126381], [115.50268428623572, 40.39256708737746], [115.5025046231789, 40.39256708737746], [115.5025046231789, 40.392746750434284], [115.50178597095159, 40.392746750434284], [115.50178597095159, 40.39292641349111], [115.50088765566747, 40.39292641349111]], [[115.50232496012207, 40.39238742432064], [115.50196563400841, 40.39238742432064], [115.50196563400841, 40.39220776126381], [115.50232496012207, 40.39220776126381], [115.50232496012207, 40.39238742432064]]]}, "properties": {"name": "cand13", "ptype": "hall", "confidence": "low", "rank": 13, "area_ha": 1.9, "rise_db": 6.3, "digitised_from": "Sentinel-1 VV rise 2021->2026, orbit 142"}}, {"type": "Feature", "geometry": {"geodesic": false, "type": "Polygon", "coordinates": [[[115.51579968938385, 40.30848477678387], [115.51579968938385, 40.30830511372705], [115.51562002632703, 40.30830511372705], [115.51562002632703, 40.308125450670225], [115.51544036327022, 40.308125450670225], [115.51544036327022, 40.30758646149975], [115.51526070021339, 40.30758646149975], [115.51526070021339, 40.30722713538611], [115.51490137409974, 40.30722713538611], [115.51490137409974, 40.30704747232928], [115.51508103715656, 40.30704747232928], [115.51508103715656, 40.306867809272454], [115.51562002632703, 40.306867809272454], [115.51562002632703, 40.30704747232928], [115.51579968938385, 40.30704747232928], [115.51579968938385, 40.30722713538611], [115.51633867855433, 40.30722713538611], [115.51633867855433, 40.307406798442926], [115.51651834161116, 40.307406798442926], [115.51651834161116, 40.30830511372705], [115.51633867855433, 40.30830511372705], [115.51633867855433, 40.30848477678387], [115.51579968938385, 40.30848477678387]]]}, "properties": {"name": "cand14", "ptype": "hall", "confidence": "low", "rank": 14, "area_ha": 1.9, "rise_db": 7.3, "digitised_from": "Sentinel-1 VV rise 2021->2026, orbit 142"}}, {"type": "Feature", "geometry": {"geodesic": false, "type": "Polygon", "coordinates": [[[115.61820763177349, 40.38017033645661], [115.61820763177349, 40.37981101034296], [115.61838729483031, 40.37981101034296], [115.61838729483031, 40.379631347286136], [115.61856695788713, 40.379631347286136], [115.61856695788713, 40.379451684229316], [115.61874662094395, 40.379451684229316], [115.61874662094395, 40.37927202117249], [115.61892628400078, 40.37927202117249], [115.61892628400078, 40.37909235811566], [115.6191059470576, 40.37909235811566], [115.6191059470576, 40.378912695058844], [115.61946527317126, 40.378912695058844], [115.61946527317126, 40.37909235811566], [115.61964493622807, 40.37909235811566], [115.61964493622807, 40.37927202117249], [115.6198245992849, 40.37927202117249], [115.6198245992849, 40.379451684229316], [115.62000426234172, 40.379451684229316], [115.62000426234172, 40.379631347286136], [115.6198245992849, 40.379631347286136], [115.6198245992849, 40.37981101034296], [115.61946527317126, 40.37981101034296], [115.61946527317126, 40.38017033645661], [115.61820763177349, 40.38017033645661]]]}, "properties": {"name": "cand15", "ptype": "hall", "confidence": "low", "rank": 15, "area_ha": 1.7, "rise_db": 9.9, "digitised_from": "Sentinel-1 VV rise 2021->2026, orbit 142"}}, {"type": "Feature", "geometry": {"geodesic": false, "type": "Polygon", "coordinates": [[[115.5206505919181, 40.3860992173318], [115.5206505919181, 40.38591955427498], [115.52047092886129, 40.38591955427498], [115.52047092886129, 40.38502123899085], [115.5206505919181, 40.38502123899085], [115.5206505919181, 40.38484157593403], [115.52154890720222, 40.38484157593403], [115.52154890720222, 40.38573989121815], [115.52172857025904, 40.38573989121815], [115.52172857025904, 40.38591955427498], [115.52154890720222, 40.38591955427498], [115.52154890720222, 40.3860992173318], [115.5206505919181, 40.3860992173318]]]}, "properties": {"name": "cand16", "ptype": "hall", "confidence": "low", "rank": 16, "area_ha": 1.6, "rise_db": 8.7, "digitised_from": "Sentinel-1 VV rise 2021->2026, orbit 142"}}, {"type": "Feature", "geometry": {"geodesic": false, "type": "Polygon", "coordinates": [[[115.54077285428238, 40.331481648057334], [115.54077285428238, 40.33130198500051], [115.54059319122555, 40.33130198500051], [115.54059319122555, 40.33112232194368], [115.54041352816873, 40.33112232194368], [115.54041352816873, 40.330583332773216], [115.54077285428238, 40.330583332773216], [115.54077285428238, 40.33022400665956], [115.54113218039603, 40.33022400665956], [115.54113218039603, 40.33040366971639], [115.54149150650967, 40.33040366971639], [115.54149150650967, 40.330583332773216], [115.5416711695665, 40.330583332773216], [115.5416711695665, 40.33112232194368], [115.54149150650967, 40.33112232194368], [115.54149150650967, 40.331481648057334], [115.54077285428238, 40.331481648057334]], [[115.54113218039603, 40.33094265888686], [115.5409525173392, 40.33094265888686], [115.5409525173392, 40.330762995830035], [115.54113218039603, 40.330762995830035], [115.54113218039603, 40.33094265888686]]]}, "properties": {"name": "cand17", "ptype": "hall", "confidence": "low", "rank": 17, "area_ha": 1.4, "rise_db": 4.4, "digitised_from": "Sentinel-1 VV rise 2021->2026, orbit 142"}}, {"type": "Feature", "geometry": {"geodesic": false, "type": "Polygon", "coordinates": [[[115.58443097709059, 40.35124458430796], [115.58443097709059, 40.350525932080664], [115.58425131403376, 40.350525932080664], [115.58425131403376, 40.350346269023845], [115.58407165097694, 40.350346269023845], [115.58407165097694, 40.35016660596702], [115.58425131403376, 40.35016660596702], [115.58425131403376, 40.34998694291019], [115.58461064014742, 40.34998694291019], [115.58461064014742, 40.35016660596702], [115.58496996626106, 40.35016660596702], [115.58496996626106, 40.350525932080664], [115.58514962931788, 40.350525932080664], [115.58514962931788, 40.35016660596702], [115.58532929237471, 40.35016660596702], [115.58532929237471, 40.350346269023845], [115.58550895543154, 40.350346269023845], [115.58550895543154, 40.350525932080664], [115.58568861848836, 40.350525932080664], [115.58568861848836, 40.35070559513749], [115.58586828154517, 40.35070559513749], [115.58586828154517, 40.35106492125114], [115.58550895543154, 40.35106492125114], [115.58550895543154, 40.35070559513749], [115.58532929237471, 40.35070559513749], [115.58532929237471, 40.35106492125114], [115.58461064014742, 40.35106492125114], [115.58461064014742, 40.35124458430796], [115.58443097709059, 40.35124458430796]], [[115.58532929237471, 40.35070559513749], [115.58514962931788, 40.35070559513749], [115.58514962931788, 40.350525932080664], [115.58532929237471, 40.350525932080664], [115.58532929237471, 40.35070559513749]]]}, "properties": {"name": "cand18", "ptype": "hall", "confidence": "low", "rank": 18, "area_ha": 1.4, "rise_db": 4.9, "digitised_from": "Sentinel-1 VV rise 2021->2026, orbit 142"}}, {"type": "Feature", "geometry": {"geodesic": false, "type": "Polygon", "coordinates": [[[115.57490883507893, 40.32321714744343], [115.57490883507893, 40.322678158272964], [115.5747291720221, 40.322678158272964], [115.5747291720221, 40.32249849521614], [115.57490883507893, 40.32249849521614], [115.57490883507893, 40.32231883215931], [115.57508849813574, 40.32231883215931], [115.57508849813574, 40.32249849521614], [115.5754478242494, 40.32249849521614], [115.5754478242494, 40.32231883215931], [115.57598681341986, 40.32231883215931], [115.57598681341986, 40.32249849521614], [115.57616647647669, 40.32249849521614], [115.57616647647669, 40.32231883215931], [115.57634613953351, 40.32231883215931], [115.57634613953351, 40.32213916910249], [115.57652580259034, 40.32213916910249], [115.57652580259034, 40.321959506045665], [115.57670546564717, 40.321959506045665], [115.57670546564717, 40.32213916910249], [115.57688512870399, 40.32213916910249], [115.57688512870399, 40.32231883215931], [115.57670546564717, 40.32231883215931], [115.57670546564717, 40.32249849521614], [115.57652580259034, 40.32249849521614], [115.57652580259034, 40.322678158272964], [115.57634613953351, 40.322678158272964], [115.57634613953351, 40.322857821329784], [115.57598681341986, 40.322857821329784], [115.57598681341986, 40.322678158272964], [115.5754478242494, 40.322678158272964], [115.5754478242494, 40.32321714744343], [115.57490883507893, 40.32321714744343]]]}, "properties": {"name": "cand19", "ptype": "hall", "confidence": "low", "rank": 19, "area_ha": 1.3, "rise_db": 7.1, "digitised_from": "Sentinel-1 VV rise 2021->2026, orbit 142"}}, {"type": "Feature", "geometry": {"geodesic": false, "type": "Polygon", "coordinates": [[[115.53502363646402, 40.38753652178639], [115.53502363646402, 40.38717719567274], [115.53538296257767, 40.38717719567274], [115.53538296257767, 40.38699753261592], [115.53556262563448, 40.38699753261592], [115.53556262563448, 40.386817869559096], [115.53592195174814, 40.386817869559096], [115.53592195174814, 40.38663820650227], [115.53610161480496, 40.38663820650227], [115.53610161480496, 40.38645854344545], [115.53628127786179, 40.38645854344545], [115.53628127786179, 40.38663820650227], [115.5364609409186, 40.38663820650227], [115.5364609409186, 40.38645854344545], [115.53682026703225, 40.38645854344545], [115.53682026703225, 40.38627888038862], [115.53699993008908, 40.38627888038862], [115.53699993008908, 40.386817869559096], [115.53682026703225, 40.386817869559096], [115.53682026703225, 40.38699753261592], [115.5364609409186, 40.38699753261592], [115.5364609409186, 40.38717719567274], [115.53628127786179, 40.38717719567274], [115.53628127786179, 40.38699753261592], [115.53610161480496, 40.38699753261592], [115.53610161480496, 40.38735685872957], [115.53556262563448, 40.38735685872957], [115.53556262563448, 40.38753652178639], [115.53502363646402, 40.38753652178639]]]}, "properties": {"name": "cand20", "ptype": "hall", "confidence": "low", "rank": 20, "area_ha": 1.3, "rise_db": 7.4, "digitised_from": "Sentinel-1 VV rise 2021->2026, orbit 142"}}, {"type": "Feature", "geometry": {"geodesic": false, "type": "Polygon", "coordinates": [[[115.53071172310024, 40.38843483707051], [115.53071172310024, 40.38789584790004], [115.53107104921389, 40.38789584790004], [115.53107104921389, 40.387716184843214], [115.53178970144118, 40.387716184843214], [115.53178970144118, 40.38753652178639], [115.53250835366848, 40.38753652178639], [115.53250835366848, 40.38789584790004], [115.53196936449801, 40.38789584790004], [115.53196936449801, 40.38807551095686], [115.53161003838436, 40.38807551095686], [115.53161003838436, 40.388255174013686], [115.53143037532755, 40.388255174013686], [115.53143037532755, 40.38843483707051], [115.53071172310024, 40.38843483707051]]]}, "properties": {"name": "cand21", "ptype": "hall", "confidence": "low", "rank": 21, "area_ha": 1.1, "rise_db": 6.9, "digitised_from": "Sentinel-1 VV rise 2021->2026, orbit 142"}}, {"type": "Feature", "geometry": {"geodesic": false, "type": "Polygon", "coordinates": [[[115.57131557394244, 40.35861076963774], [115.57131557394244, 40.3582514435241], [115.5709562478288, 40.3582514435241], [115.5709562478288, 40.3575327912968], [115.57077658477198, 40.3575327912968], [115.57077658477198, 40.35735312823997], [115.57131557394244, 40.35735312823997], [115.57131557394244, 40.3575327912968], [115.57149523699927, 40.3575327912968], [115.57149523699927, 40.357892117410444], [115.57185456311292, 40.357892117410444], [115.57185456311292, 40.35807178046727], [115.57203422616973, 40.35807178046727], [115.57203422616973, 40.358431106580916], [115.57185456311292, 40.358431106580916], [115.57185456311292, 40.35861076963774], [115.57131557394244, 40.35861076963774]]]}, "properties": {"name": "cand22", "ptype": "hall", "confidence": "low", "rank": 22, "area_ha": 1.1, "rise_db": 8.8, "digitised_from": "Sentinel-1 VV rise 2021->2026, orbit 142"}}, {"type": "Feature", "geometry": {"geodesic": false, "type": "Polygon", "coordinates": [[[115.52190823331587, 40.37244482501318], [115.52190823331587, 40.371546509729065], [115.52226755942952, 40.371546509729065], [115.52226755942952, 40.37136684667224], [115.52262688554316, 40.37136684667224], [115.52262688554316, 40.371546509729065], [115.52280654859999, 40.371546509729065], [115.52280654859999, 40.372265161956356], [115.52262688554316, 40.372265161956356], [115.52262688554316, 40.37244482501318], [115.52190823331587, 40.37244482501318]]]}, "properties": {"name": "cand23", "ptype": "hall", "confidence": "low", "rank": 23, "area_ha": 1.0, "rise_db": 7.8, "digitised_from": "Sentinel-1 VV rise 2021->2026, orbit 142"}}, {"type": "Feature", "geometry": {"geodesic": false, "type": "Polygon", "coordinates": [[[115.5747291720221, 40.38214663008167], [115.5747291720221, 40.38196696702485], [115.57490883507893, 40.38196696702485], [115.57490883507893, 40.38142797785438], [115.57508849813574, 40.38142797785438], [115.57508849813574, 40.38088898868391], [115.57526816119257, 40.38088898868391], [115.57526816119257, 40.38070932562708], [115.57562748730622, 40.38070932562708], [115.57562748730622, 40.38088898868391], [115.57580715036305, 40.38088898868391], [115.57580715036305, 40.38124831479755], [115.57562748730622, 40.38124831479755], [115.57562748730622, 40.381787303968025], [115.5754478242494, 40.381787303968025], [115.5754478242494, 40.38196696702485], [115.57508849813574, 40.38196696702485], [115.57508849813574, 40.38214663008167], [115.5747291720221, 40.38214663008167]]]}, "properties": {"name": "cand24", "ptype": "hall", "confidence": "low", "rank": 24, "area_ha": 1.0, "rise_db": 8.6, "digitised_from": "Sentinel-1 VV rise 2021->2026, orbit 142"}}, {"type": "Feature", "geometry": {"geodesic": false, "type": "Polygon", "coordinates": [[[115.61497369675065, 40.39993327270724], [115.61497369675065, 40.39975360965042], [115.61515335980748, 40.39975360965042], [115.61515335980748, 40.39957394659359], [115.6153330228643, 40.39957394659359], [115.6153330228643, 40.399394283536765], [115.61551268592113, 40.399394283536765], [115.61551268592113, 40.399214620479945], [115.61587201203477, 40.399214620479945], [115.61587201203477, 40.39903495742312], [115.61623133814842, 40.39903495742312], [115.61623133814842, 40.39849596825265], [115.61659066426206, 40.39849596825265], [115.61659066426206, 40.39867563130947], [115.61677032731889, 40.39867563130947], [115.61677032731889, 40.39903495742312], [115.61659066426206, 40.39903495742312], [115.61659066426206, 40.399214620479945], [115.61641100120525, 40.399214620479945], [115.61641100120525, 40.399394283536765], [115.61587201203477, 40.399394283536765], [115.61587201203477, 40.39975360965042], [115.6153330228643, 40.39975360965042], [115.6153330228643, 40.39993327270724], [115.61497369675065, 40.39993327270724]]]}, "properties": {"name": "cand25", "ptype": "hall", "confidence": "low", "rank": 25, "area_ha": 1.0, "rise_db": 5.5, "digitised_from": "Sentinel-1 VV rise 2021->2026, orbit 142"}}]}